{
"type": "FeatureCollection",
"name": "SWVPO2807",
"crs": { "type": "name", "properties": { "name": "urn:ogc:def:crs:OGC:1.3:CRS84" } },
"features": [
{ "type": "Feature", "properties": { "PO SWV": "PO2807", "strokeColor": "#A9A9A9", "strokeWidth": 2, "fillColor": "#ADD8E6" }, "geometry": { "type": "Polygon", "coordinates": [ [ [ 4.215217087059063, 51.936652026658088 ], [ 4.219368459013666, 51.941458278530277 ], [ 4.219887446641041, 51.941604224635043 ], [ 4.224872398724014, 51.94556730504943 ], [ 4.228315597860035, 51.948088686393056 ], [ 4.22934192850202, 51.946608141823518 ], [ 4.230413573530792, 51.944649882431051 ], [ 4.231734121014826, 51.943092536760346 ], [ 4.235122444828365, 51.9439724993629 ], [ 4.237574428852757, 51.94400850551866 ], [ 4.239125162343826, 51.943720107214524 ], [ 4.241337816017772, 51.942275271936452 ], [ 4.252516647837071, 51.933325722585685 ], [ 4.252761555469998, 51.933374871477312 ], [ 4.252694886634959, 51.933182508718268 ], [ 4.256545994044307, 51.930047674876995 ], [ 4.257417356485266, 51.930456498724205 ], [ 4.258324556779072, 51.929741025260256 ], [ 4.260003610748061, 51.928774665171083 ], [ 4.260025145571317, 51.92818210145257 ], [ 4.260445951475009, 51.927870073881259 ], [ 4.259782615189289, 51.927884201868153 ], [ 4.263773804199785, 51.926178681853578 ], [ 4.264263700660909, 51.925644538182688 ], [ 4.26525550632948, 51.925995701995028 ], [ 4.265515437728012, 51.925861051173371 ], [ 4.265377014255348, 51.925690767410529 ], [ 4.27097113566173, 51.92357721487717 ], [ 4.27344700645935, 51.923659656227237 ], [ 4.279945361432767, 51.922950162194667 ], [ 4.280432533039765, 51.923114432613545 ], [ 4.280569344375631, 51.922959796533249 ], [ 4.281711024211493, 51.922792853486726 ], [ 4.292652394293259, 51.921384934437661 ], [ 4.307549188430892, 51.931231135518161 ], [ 4.31363669277099, 51.934972891821964 ], [ 4.314389707730826, 51.936404850070723 ], [ 4.315510308966587, 51.937696119095285 ], [ 4.317878953978177, 51.939064125881764 ], [ 4.322848058524094, 51.942801467122919 ], [ 4.32390254037422, 51.941756424034814 ], [ 4.325699571258799, 51.942323892119532 ], [ 4.325968476871831, 51.942557656885683 ], [ 4.327784226661355, 51.943150820372409 ], [ 4.330091304588948, 51.944179703532242 ], [ 4.335350005914689, 51.946056510701723 ], [ 4.336241865158067, 51.94644775001359 ], [ 4.33548413421916, 51.946898437870288 ], [ 4.335473993821888, 51.947076796474867 ], [ 4.338486584117922, 51.948131673905991 ], [ 4.341638563268954, 51.949090555060124 ], [ 4.342199134919627, 51.949076036202108 ], [ 4.343001919028409, 51.949496766741596 ], [ 4.344956687643131, 51.94990538320215 ], [ 4.352954689782012, 51.952250438111271 ], [ 4.36691778742601, 51.955290373439908 ], [ 4.363452410851871, 51.960952477633548 ], [ 4.379323853472101, 51.963505588141786 ], [ 4.384240641227972, 51.954458465225329 ], [ 4.384492429800789, 51.954444913292875 ], [ 4.389188544132941, 51.945695346903378 ], [ 4.38968725616728, 51.945581838707788 ], [ 4.394330748643548, 51.94720739930149 ], [ 4.395236238375194, 51.947014536311194 ], [ 4.394465387227266, 51.945467776623012 ], [ 4.393559169496909, 51.944328331132823 ], [ 4.39428454777885, 51.944072270728846 ], [ 4.395046242130712, 51.942984334251399 ], [ 4.397914911489416, 51.941338007762162 ], [ 4.400429961719021, 51.939570270759916 ], [ 4.400817462965611, 51.939336604932478 ], [ 4.401803296807294, 51.939248622588174 ], [ 4.402169622684509, 51.939014651988927 ], [ 4.402195756855432, 51.938472070298396 ], [ 4.403934353417878, 51.937362146775463 ], [ 4.408504989121996, 51.938735801007958 ], [ 4.409344295247452, 51.938088560178635 ], [ 4.410777735571313, 51.93836472409118 ], [ 4.413167570216667, 51.939149952429268 ], [ 4.414118942117356, 51.939688348535867 ], [ 4.414491805396567, 51.940189526283135 ], [ 4.415481222888705, 51.940857943051974 ], [ 4.416571823328263, 51.939613756466102 ], [ 4.417789286267257, 51.938541164233342 ], [ 4.417780087684696, 51.938402503729733 ], [ 4.417392740513326, 51.938213151928565 ], [ 4.416323655854634, 51.937975324146812 ], [ 4.413225251009719, 51.9365466994334 ], [ 4.410699926515481, 51.936471023060463 ], [ 4.409560305361258, 51.936095455832358 ], [ 4.408983876306008, 51.935334222726077 ], [ 4.408349894961999, 51.931654185017067 ], [ 4.408720849638485, 51.930728545466579 ], [ 4.410070004851882, 51.929650396485499 ], [ 4.409859889592425, 51.929399729898655 ], [ 4.409931750480255, 51.929232892184153 ], [ 4.410576326378847, 51.92935150210257 ], [ 4.415197140301545, 51.923120591813358 ], [ 4.416918376741473, 51.923147879483899 ], [ 4.416941398965101, 51.922681138861329 ], [ 4.417111708383125, 51.922534368532588 ], [ 4.417161895566784, 51.92052336330751 ], [ 4.417710342642081, 51.920514047664255 ], [ 4.417816940794598, 51.920200767119567 ], [ 4.417210741888823, 51.920110566764542 ], [ 4.417331280182289, 51.919974679797512 ], [ 4.417226954479877, 51.919602078217792 ], [ 4.416814294586936, 51.919156821223979 ], [ 4.416597791932843, 51.918428368262298 ], [ 4.416784169628018, 51.918168468663275 ], [ 4.416639553716409, 51.917646380930677 ], [ 4.416454778832146, 51.917583961291001 ], [ 4.415403099289064, 51.914636385639575 ], [ 4.418788697086441, 51.914428897835954 ], [ 4.418881632119064, 51.914314446682148 ], [ 4.418725786738594, 51.913817835148478 ], [ 4.412708277657798, 51.914029020914079 ], [ 4.412525172945979, 51.913932103519926 ], [ 4.412362125809682, 51.91346095640899 ], [ 4.412509867003602, 51.913377490624917 ], [ 4.412442736726214, 51.91320916918577 ], [ 4.409092916299358, 51.912021759326372 ], [ 4.409545179410275, 51.910509710214335 ], [ 4.409990903243076, 51.909925037351087 ], [ 4.411431425790094, 51.910323348332554 ], [ 4.413528823299426, 51.907734198218016 ], [ 4.41341898787762, 51.907292884992593 ], [ 4.413691998411844, 51.906951451854574 ], [ 4.41577087513801, 51.905059118368108 ], [ 4.412480782129733, 51.902405403147476 ], [ 4.413773664691268, 51.900677248303204 ], [ 4.398141695848549, 51.897152370544873 ], [ 4.393423319750252, 51.896635956398462 ], [ 4.388337475273424, 51.89667933425649 ], [ 4.384807107951567, 51.897080061196952 ], [ 4.372303205251439, 51.899068789453331 ], [ 4.367924241141259, 51.899455509098402 ], [ 4.364185994489791, 51.899526332488875 ], [ 4.359504647255703, 51.89928553492048 ], [ 4.354931417992256, 51.898692953588906 ], [ 4.350793745075054, 51.897827976262285 ], [ 4.345023383385873, 51.896169119077165 ], [ 4.341134913003397, 51.89525246219803 ], [ 4.336698328085191, 51.894504340951514 ], [ 4.332415219435251, 51.894078747835785 ], [ 4.327996096833753, 51.893939917657782 ], [ 4.323713004609266, 51.894072328323446 ], [ 4.305451059063174, 51.895840168479957 ], [ 4.298391923332941, 51.896668340581279 ], [ 4.292075086684855, 51.89762877518455 ], [ 4.287915331765483, 51.898463639846277 ], [ 4.281858749061493, 51.900056036663912 ], [ 4.272577651479717, 51.903228873613742 ], [ 4.266232164875179, 51.905775975147471 ], [ 4.266220016838167, 51.905997102316235 ], [ 4.255344662212924, 51.910309582237041 ], [ 4.247894402976184, 51.91278433782503 ], [ 4.247476915116577, 51.912388127358284 ], [ 4.246962010489556, 51.912433415389465 ], [ 4.244258202471141, 51.9110026179833 ], [ 4.242988062301754, 51.910738682780277 ], [ 4.242412845283948, 51.910855929625761 ], [ 4.242651042924318, 51.911463616107802 ], [ 4.24258083644099, 51.911611642239414 ], [ 4.23953648165464, 51.912283375725146 ], [ 4.237262773148077, 51.913331185867278 ], [ 4.236342455668717, 51.913364716610467 ], [ 4.235499589185616, 51.912913110978458 ], [ 4.23531276605179, 51.912982806787305 ], [ 4.231854086002647, 51.914771269066584 ], [ 4.231934577184698, 51.914936842606764 ], [ 4.231762052042818, 51.915087024267649 ], [ 4.231095040716972, 51.915198155518901 ], [ 4.229983127834883, 51.915824973705412 ], [ 4.227338256118872, 51.917747149427598 ], [ 4.228051587765507, 51.918071251038683 ], [ 4.227565673694326, 51.918559862658618 ], [ 4.23226659273125, 51.920713032657588 ], [ 4.226825997995035, 51.925988600649561 ], [ 4.224098121525198, 51.928101342616998 ], [ 4.220999701223693, 51.930006495304902 ], [ 4.216511087753187, 51.932269113606537 ], [ 4.212689513871001, 51.9338470724839 ], [ 4.215217087059063, 51.936652026658088 ] ] ] } }
]
}
