{
"type": "FeatureCollection",
"name": "SWVPO3008",
"crs": { "type": "name", "properties": { "name": "urn:ogc:def:crs:OGC:1.3:CRS84" } },
"features": [
{ "type": "Feature", "properties": { "PO SWV": "PO3008", "strokeColor": "#A9A9A9", "strokeWidth": 2, "fillColor": "#ADD8E6" }, "geometry": { "type": "Polygon", "coordinates": [ [ [ 5.505476064476737, 51.483656457846074 ], [ 5.505548177901511, 51.483822093368097 ], [ 5.506318730448729, 51.483896382533722 ], [ 5.50660102711826, 51.484180312037005 ], [ 5.505992073987794, 51.484148423349964 ], [ 5.505986646101453, 51.484452352470846 ], [ 5.506669524943108, 51.484511388367345 ], [ 5.50721660344283, 51.485178236612036 ], [ 5.507961578387816, 51.485185059114329 ], [ 5.508122055799883, 51.485937027654813 ], [ 5.507837890658664, 51.486878984963283 ], [ 5.508341653274361, 51.487752717073057 ], [ 5.508870719589301, 51.487862005157119 ], [ 5.50990229583053, 51.487480449977674 ], [ 5.510641578251693, 51.487521881295066 ], [ 5.511281948558246, 51.488325072249069 ], [ 5.511476526519165, 51.488971308206182 ], [ 5.512236065810005, 51.489196679402269 ], [ 5.512461219114605, 51.490084199132646 ], [ 5.512379158556112, 51.491015017183848 ], [ 5.512935488060805, 51.491747255301597 ], [ 5.515513547693299, 51.493454108008635 ], [ 5.514366843281117, 51.494225220043113 ], [ 5.513504591807265, 51.495098261469252 ], [ 5.513240018876036, 51.495570861688755 ], [ 5.513208965849257, 51.49622379820665 ], [ 5.510296500452025, 51.497057910974839 ], [ 5.509723471340614, 51.498338781858763 ], [ 5.509726729196505, 51.498743306675188 ], [ 5.510675385619187, 51.499108888001409 ], [ 5.511359728680979, 51.498982460898901 ], [ 5.511359227761677, 51.499141041165537 ], [ 5.511951553982405, 51.499493175335552 ], [ 5.512402979798209, 51.49944709834363 ], [ 5.512658404275552, 51.499606484708977 ], [ 5.514594996163196, 51.499929870667899 ], [ 5.516950137386923, 51.501455244979219 ], [ 5.518581669278841, 51.502094255100893 ], [ 5.520110808032255, 51.50175665677132 ], [ 5.521080809537775, 51.502151551461687 ], [ 5.522857339707231, 51.502136789153681 ], [ 5.524173699630134, 51.502019054762975 ], [ 5.526056296328282, 51.501565209323935 ], [ 5.525910970032674, 51.502370387235388 ], [ 5.527778131614423, 51.502416866098123 ], [ 5.528241619763325, 51.503144894391355 ], [ 5.528961687816333, 51.5038403693693 ], [ 5.530981677586951, 51.505334941628725 ], [ 5.531619576425667, 51.505660754496994 ], [ 5.532065732011989, 51.505274380837037 ], [ 5.532687134393257, 51.505262385565622 ], [ 5.533870646245131, 51.505995219181791 ], [ 5.53548865250509, 51.506237361422556 ], [ 5.536054390284438, 51.506839243380078 ], [ 5.538817310504137, 51.50775871818653 ], [ 5.540433605481264, 51.508831480290368 ], [ 5.54030939502911, 51.509366536700526 ], [ 5.541010954332634, 51.50992016919902 ], [ 5.547715212183564, 51.510548676370625 ], [ 5.545623867656916, 51.51340566160853 ], [ 5.544120739434143, 51.515769031390683 ], [ 5.543661854358212, 51.515889134695939 ], [ 5.542901814236803, 51.516530250367317 ], [ 5.541202351945424, 51.51871583642555 ], [ 5.540530478310217, 51.520668864239802 ], [ 5.540636409788009, 51.52078805876485 ], [ 5.545468360504997, 51.520063828726578 ], [ 5.545028002730738, 51.520979033159399 ], [ 5.543932279884686, 51.5217372985975 ], [ 5.544643486735807, 51.522635342864952 ], [ 5.544649696840946, 51.523445689461809 ], [ 5.543198369990946, 51.523569520465387 ], [ 5.542932825997621, 51.523921408559438 ], [ 5.540162429356061, 51.525911874273874 ], [ 5.538466975454914, 51.525497076276245 ], [ 5.538396578645602, 51.52590028402593 ], [ 5.53690367019178, 51.525905853580809 ], [ 5.536739874206242, 51.524952179461231 ], [ 5.532881199407407, 51.52475962923117 ], [ 5.53077665753714, 51.525028729034922 ], [ 5.547268256409954, 51.537706783494912 ], [ 5.542934904956867, 51.539954951052295 ], [ 5.544915386474107, 51.541586627856638 ], [ 5.544933397358426, 51.541784763789046 ], [ 5.533002944974211, 51.557743783501408 ], [ 5.533033950888369, 51.557890759041086 ], [ 5.553446858528764, 51.558404462241235 ], [ 5.584340340058764, 51.562831487371014 ], [ 5.608299289212837, 51.559676434013092 ], [ 5.611030224954644, 51.557347850644298 ], [ 5.61342008089994, 51.555795006467022 ], [ 5.61342235403631, 51.555640355638701 ], [ 5.613163606760885, 51.55559427238078 ], [ 5.61416946743036, 51.554777543609823 ], [ 5.618082064846731, 51.555880226579099 ], [ 5.618094926891301, 51.556146871722127 ], [ 5.620306665553618, 51.556619717458794 ], [ 5.620687169386107, 51.555926970637323 ], [ 5.621617754257801, 51.556112041887623 ], [ 5.621645758440613, 51.556300536772483 ], [ 5.623015629424512, 51.556719514032679 ], [ 5.625119828892615, 51.556997224597417 ], [ 5.625093043842968, 51.55728632394473 ], [ 5.626012198683187, 51.557489060749987 ], [ 5.626206254910528, 51.557242807247178 ], [ 5.626554549500866, 51.55729286063783 ], [ 5.627516795518195, 51.557038120424494 ], [ 5.627873396696907, 51.557321186394539 ], [ 5.628726202063559, 51.556911792886297 ], [ 5.629483738930022, 51.557773945927686 ], [ 5.630113009278583, 51.557981716533604 ], [ 5.630250557286701, 51.55841061484572 ], [ 5.630920484888416, 51.558926664122616 ], [ 5.631507271246757, 51.559084585941235 ], [ 5.632060989580417, 51.559631999139548 ], [ 5.632883167485287, 51.559879720215399 ], [ 5.633534131720464, 51.560742720102191 ], [ 5.634571316899063, 51.561025843160472 ], [ 5.634862118461961, 51.561404671246862 ], [ 5.6357632345519, 51.561558899174535 ], [ 5.636567903292142, 51.562320510142847 ], [ 5.637494794349433, 51.562547052030752 ], [ 5.637878871058433, 51.563054021661351 ], [ 5.639225958355699, 51.563619126067948 ], [ 5.640072267172146, 51.564429653936877 ], [ 5.641141718075584, 51.564822178568328 ], [ 5.641648788516147, 51.565210614473557 ], [ 5.643614528054226, 51.565838355798292 ], [ 5.645057215917379, 51.565897904378794 ], [ 5.646804710458689, 51.567445743602406 ], [ 5.651284484519236, 51.569144888413781 ], [ 5.653246276321699, 51.570221466747078 ], [ 5.65480210623434, 51.571736512265431 ], [ 5.656353772074908, 51.574232053277051 ], [ 5.656424530863591, 51.5747552714543 ], [ 5.656108205048632, 51.575104646656214 ], [ 5.654601976124666, 51.575859155167855 ], [ 5.654019606061802, 51.5763153971007 ], [ 5.652520710809943, 51.578368089644641 ], [ 5.651713886748902, 51.579906791538825 ], [ 5.651261096098202, 51.582331607451927 ], [ 5.650270090284824, 51.58472858439535 ], [ 5.650585595050897, 51.587154880548695 ], [ 5.649408524066319, 51.5891807213101 ], [ 5.64955637309392, 51.58947518961569 ], [ 5.649261099176612, 51.589994142818284 ], [ 5.648426517074191, 51.593606216732432 ], [ 5.642844320927864, 51.606152729814234 ], [ 5.633603642278557, 51.615353754940358 ], [ 5.630378313794088, 51.619058954586613 ], [ 5.629929618205797, 51.619133378182333 ], [ 5.628523316365832, 51.621257425996426 ], [ 5.62736094791086, 51.622218370545404 ], [ 5.626484870416173, 51.623346161719645 ], [ 5.626519902382806, 51.623488387028189 ], [ 5.627550561181259, 51.623506544842506 ], [ 5.628043412001268, 51.623282164080884 ], [ 5.629317632265454, 51.623935701087518 ], [ 5.633449856980253, 51.624782998311126 ], [ 5.634386530566585, 51.625278206043717 ], [ 5.635564961341993, 51.625463269044417 ], [ 5.640813160066044, 51.625506379558097 ], [ 5.642941307374396, 51.625736972218732 ], [ 5.650958547840883, 51.625811017078846 ], [ 5.651316726454058, 51.626791904149378 ], [ 5.653500524851376, 51.6269350309503 ], [ 5.658091994151226, 51.62773581505644 ], [ 5.658114298975785, 51.628121900499224 ], [ 5.66469673916562, 51.629085757089015 ], [ 5.664982206299479, 51.628442786751314 ], [ 5.672623654154894, 51.628787438440895 ], [ 5.672830365779767, 51.627460714394203 ], [ 5.674237128567557, 51.62751411536965 ], [ 5.674279158453331, 51.628255206862164 ], [ 5.680063725620527, 51.628477709056128 ], [ 5.681524419341807, 51.629160924393055 ], [ 5.681860793310021, 51.627922426434893 ], [ 5.686665151986819, 51.628222424537249 ], [ 5.740063664429806, 51.622596450910628 ], [ 5.750496631427799, 51.622781670962318 ], [ 5.751609800020461, 51.619134239601848 ], [ 5.751790383978462, 51.618993921004439 ], [ 5.752002878460028, 51.618244807786255 ], [ 5.751915709212724, 51.618087280538646 ], [ 5.752974639268783, 51.614305788141486 ], [ 5.753253478424768, 51.613778594664069 ], [ 5.753192605771638, 51.61352194914268 ], [ 5.753973194971031, 51.610452233357073 ], [ 5.758851003108997, 51.594090165825826 ], [ 5.786710062945343, 51.598303219286009 ], [ 5.788429334045303, 51.594242604968649 ], [ 5.789062884272486, 51.5933025655224 ], [ 5.800651088890819, 51.5787009592582 ], [ 5.820575138756827, 51.568656619554183 ], [ 5.83824990434112, 51.566513962463816 ], [ 5.838141085457112, 51.566391871308639 ], [ 5.852457121474478, 51.504145477070743 ], [ 5.860631468040851, 51.491924472406986 ], [ 5.871604365362286, 51.450070135504532 ], [ 5.915724246862986, 51.40271441259506 ], [ 5.931131767844415, 51.384780548595565 ], [ 5.874509540376113, 51.353408223650149 ], [ 5.824014518015567, 51.344054117235821 ], [ 5.672205295045932, 51.315213992222432 ], [ 5.670669388240121, 51.316561809945945 ], [ 5.67060872028567, 51.316846990597874 ], [ 5.670807391653773, 51.317273032064868 ], [ 5.670415609447291, 51.317638750109403 ], [ 5.67070767552222, 51.317819135228675 ], [ 5.670562487024589, 51.318032213263862 ], [ 5.670740004144954, 51.318320720890796 ], [ 5.670373051285137, 51.31852208608187 ], [ 5.670752896006158, 51.318855937673206 ], [ 5.67068113798723, 51.319283590589059 ], [ 5.670440315828177, 51.319384276452112 ], [ 5.67069610327342, 51.319584661487625 ], [ 5.670597468602658, 51.319774195777512 ], [ 5.6708601365069, 51.319903336557523 ], [ 5.670812446227592, 51.320183626803683 ], [ 5.671030837437828, 51.320580221260087 ], [ 5.671388275345715, 51.320802358222409 ], [ 5.67166315570777, 51.32130338641069 ], [ 5.671622269772733, 51.321516002451204 ], [ 5.671935528058484, 51.321693664709045 ], [ 5.671729816610882, 51.322273601280578 ], [ 5.671690073851797, 51.323081198178919 ], [ 5.672042193486276, 51.323326490771393 ], [ 5.672177365498424, 51.32364200654267 ], [ 5.671662269501979, 51.32401600634774 ], [ 5.671650942529193, 51.324291107898908 ], [ 5.671320323838641, 51.324380160168808 ], [ 5.671239539089637, 51.324723022897899 ], [ 5.670876032038912, 51.324882805532226 ], [ 5.670154575017009, 51.325737760105163 ], [ 5.669608568786174, 51.325802723488557 ], [ 5.669272945927699, 51.326138451773332 ], [ 5.668940626962309, 51.32603985077337 ], [ 5.667673461227546, 51.326363894917854 ], [ 5.666833927925741, 51.326830946971164 ], [ 5.657063218855488, 51.348858436000327 ], [ 5.654162375621226, 51.348289247220066 ], [ 5.654516719229725, 51.349548191542588 ], [ 5.654272609280209, 51.350284363185445 ], [ 5.654624674576491, 51.350498504552021 ], [ 5.654660725315783, 51.351073926708899 ], [ 5.653806341182857, 51.351025489973971 ], [ 5.653444755044289, 51.352277651882098 ], [ 5.654567179628718, 51.352437446258797 ], [ 5.654413214261176, 51.35370043172756 ], [ 5.654804655437111, 51.353899490063135 ], [ 5.651486023808307, 51.361301044924744 ], [ 5.653778628904045, 51.361631859445268 ], [ 5.65375415319309, 51.362186934672046 ], [ 5.654237483340056, 51.361696647139233 ], [ 5.658290353712458, 51.36241418644989 ], [ 5.657349047254892, 51.363594699735323 ], [ 5.657277884547504, 51.363878522484839 ], [ 5.658277955162443, 51.36584211385118 ], [ 5.658541794817174, 51.366693672958995 ], [ 5.658482826938906, 51.367281261595231 ], [ 5.65737347723765, 51.369031886433142 ], [ 5.655460825714168, 51.370465524951001 ], [ 5.653614288866637, 51.371234296267751 ], [ 5.651665166762874, 51.373568413240562 ], [ 5.650725098480105, 51.373895325240433 ], [ 5.650218381299675, 51.377174126788063 ], [ 5.650863214331512, 51.377317008625297 ], [ 5.650951481641578, 51.377512433723147 ], [ 5.650656107976032, 51.378435707519621 ], [ 5.650032913128269, 51.378375744410882 ], [ 5.649163719221712, 51.383590632857171 ], [ 5.647161164048847, 51.38327302147389 ], [ 5.646124230326307, 51.384807044204756 ], [ 5.641593722989001, 51.383953702592962 ], [ 5.640670834841916, 51.386020311365286 ], [ 5.640395655471125, 51.386119887836188 ], [ 5.640174989881043, 51.386612991030745 ], [ 5.640304155890149, 51.38681432003613 ], [ 5.639848242110993, 51.38781116847597 ], [ 5.641812529101438, 51.388279815691419 ], [ 5.641181384342147, 51.389734351017076 ], [ 5.638871190843934, 51.389260605662876 ], [ 5.625704742480418, 51.380266061670213 ], [ 5.621924657542674, 51.379687337172996 ], [ 5.621663718482171, 51.380690615016633 ], [ 5.621512810131954, 51.380777706505683 ], [ 5.614922612591703, 51.379524179474174 ], [ 5.614392236637393, 51.377199474282392 ], [ 5.618007869223317, 51.375004266450794 ], [ 5.598535996205546, 51.3616521101685 ], [ 5.597410715104145, 51.358893465315397 ], [ 5.598016735758112, 51.358076558608282 ], [ 5.596848485823178, 51.356798786567907 ], [ 5.596867639567211, 51.356434872379133 ], [ 5.595983285615771, 51.356145232672318 ], [ 5.596139770289171, 51.355669966201518 ], [ 5.594856243716233, 51.355328171588397 ], [ 5.594260591755742, 51.354893776175601 ], [ 5.593698178123375, 51.354830637597516 ], [ 5.59345193760109, 51.353965746439862 ], [ 5.593668136309694, 51.353149410117695 ], [ 5.592710264749212, 51.3530277645228 ], [ 5.592391118761206, 51.352749634011388 ], [ 5.592398929465477, 51.352448005179696 ], [ 5.592883341676293, 51.352279055787136 ], [ 5.592741828572239, 51.35217824540193 ], [ 5.592845781203514, 51.352005610760081 ], [ 5.592594113705421, 51.351796548020253 ], [ 5.592694783980942, 51.351434639396466 ], [ 5.592994990795908, 51.351380916026038 ], [ 5.593223818677667, 51.351599838658359 ], [ 5.593181597758309, 51.351249061115162 ], [ 5.593487814396502, 51.350990363042222 ], [ 5.588607169189565, 51.350738419228271 ], [ 5.580997283256126, 51.351375525878012 ], [ 5.577416706706688, 51.355701944423387 ], [ 5.576810594405655, 51.358255272246616 ], [ 5.576137900350139, 51.359509632839575 ], [ 5.572824643358947, 51.359287382173662 ], [ 5.570809484793733, 51.35939124984494 ], [ 5.571307042500027, 51.359677012758674 ], [ 5.571225724447103, 51.359873667844248 ], [ 5.571500671464857, 51.36014468132371 ], [ 5.57119605242429, 51.360676274254985 ], [ 5.572468976349409, 51.361469769193995 ], [ 5.572606735158777, 51.361648383534792 ], [ 5.572508469778827, 51.36177453252364 ], [ 5.571389826000163, 51.361863122656871 ], [ 5.568907277471063, 51.361164829733397 ], [ 5.568919943792801, 51.361934251993596 ], [ 5.568219973597145, 51.361992606157855 ], [ 5.567768061861152, 51.361370798534644 ], [ 5.566536971329722, 51.361821245246396 ], [ 5.565494781311522, 51.36122401749946 ], [ 5.563209339140158, 51.361457777725647 ], [ 5.559362383961253, 51.362587043965462 ], [ 5.55882795933229, 51.362612062851326 ], [ 5.558307358968948, 51.361725866187797 ], [ 5.556876398705551, 51.362119961602964 ], [ 5.556615862448484, 51.362053273454897 ], [ 5.55468180674888, 51.363227639999863 ], [ 5.554427681350578, 51.362881854833411 ], [ 5.553731517807183, 51.362851709104852 ], [ 5.550508911152754, 51.364151924065432 ], [ 5.550206411906211, 51.363573884398768 ], [ 5.549163976853308, 51.363276938277487 ], [ 5.548979713177866, 51.362967471794839 ], [ 5.548268538742692, 51.362710198118876 ], [ 5.547101619035563, 51.363280869432046 ], [ 5.5468159589056, 51.363001161726302 ], [ 5.544716020394091, 51.363961291292469 ], [ 5.544151125000617, 51.364332526762887 ], [ 5.543356428599079, 51.365513349811536 ], [ 5.532524934948646, 51.363344782447278 ], [ 5.531833716792714, 51.363702235366809 ], [ 5.53172083933024, 51.363513890144652 ], [ 5.532103484821609, 51.363219301868313 ], [ 5.531191459866988, 51.363048428276123 ], [ 5.529678143243082, 51.36467845689549 ], [ 5.52819293052613, 51.365876437398242 ], [ 5.52778858379039, 51.36648768778069 ], [ 5.524928508801751, 51.369472081236175 ], [ 5.525552232467819, 51.370125660731304 ], [ 5.526173330283104, 51.370506699790006 ], [ 5.528761906260195, 51.371265881937923 ], [ 5.527471381614275, 51.374171595434134 ], [ 5.527135241567601, 51.374314883621899 ], [ 5.524365958923735, 51.373624084450348 ], [ 5.52711457384408, 51.374601300987422 ], [ 5.526366262220746, 51.376009951152845 ], [ 5.527235936444291, 51.376533416792938 ], [ 5.527590247965215, 51.376564510929988 ], [ 5.52762785874843, 51.376705585706098 ], [ 5.526885240234549, 51.377104736973983 ], [ 5.526172527959316, 51.377180601428037 ], [ 5.524750445372319, 51.376816982541129 ], [ 5.524497004580849, 51.377074883566038 ], [ 5.523922177920051, 51.376995264252912 ], [ 5.523178996591667, 51.378731255717994 ], [ 5.522613008146013, 51.379434255268748 ], [ 5.522816365911051, 51.379686375818565 ], [ 5.521873034925725, 51.381154820588705 ], [ 5.520709306020174, 51.381382345877149 ], [ 5.519412119781874, 51.382002708157025 ], [ 5.519169912997692, 51.382800535908601 ], [ 5.516129883783814, 51.384359882133715 ], [ 5.515654642408445, 51.38439421669073 ], [ 5.5139648200237, 51.384036042539286 ], [ 5.51280534124998, 51.38520509157609 ], [ 5.51381049400302, 51.386937569300258 ], [ 5.514773407206325, 51.388218975667591 ], [ 5.513864998269381, 51.3885769445356 ], [ 5.511866064717216, 51.390014655493175 ], [ 5.511676410201006, 51.390984498899833 ], [ 5.510918806963156, 51.392068933798733 ], [ 5.511731567175518, 51.393149417880387 ], [ 5.513535446981647, 51.393895800871427 ], [ 5.513199841405396, 51.3947812265328 ], [ 5.512097653642402, 51.394356718084509 ], [ 5.511078285487166, 51.396337082690962 ], [ 5.511758800571863, 51.397175116283492 ], [ 5.513499941132297, 51.397861924849593 ], [ 5.513532213761464, 51.398643114839423 ], [ 5.513103977278675, 51.399357489177504 ], [ 5.515251843636917, 51.400296748080173 ], [ 5.520737559076641, 51.397891329388962 ], [ 5.521388434913793, 51.398208491597174 ], [ 5.520924209493304, 51.398967400719854 ], [ 5.519633486053811, 51.399732098913297 ], [ 5.519618927015852, 51.399921682854178 ], [ 5.521464472059588, 51.400003059171773 ], [ 5.522288965236547, 51.399777002303544 ], [ 5.524260280128212, 51.399770659173498 ], [ 5.527175109607168, 51.40198339045142 ], [ 5.529101071286464, 51.403095522447018 ], [ 5.529096699671955, 51.403343660813839 ], [ 5.529619078994638, 51.403412907266542 ], [ 5.530227193840291, 51.404219728357162 ], [ 5.530817067218592, 51.404629802422875 ], [ 5.525637927739003, 51.404670499103268 ], [ 5.525128848531009, 51.428058080801868 ], [ 5.530625061716022, 51.42731444885986 ], [ 5.530881244794468, 51.427489509631506 ], [ 5.531138941983412, 51.428125933505342 ], [ 5.530963166199458, 51.428836392176187 ], [ 5.531147284752776, 51.429005668959064 ], [ 5.531476441166587, 51.430384005586092 ], [ 5.531343358848678, 51.430511639444909 ], [ 5.531772998846013, 51.432099424849461 ], [ 5.539167303820943, 51.431385205206603 ], [ 5.54023660960314, 51.431433967889227 ], [ 5.540922229869214, 51.431577076105413 ], [ 5.5409702067535, 51.431723312489581 ], [ 5.542875219085022, 51.432430015282726 ], [ 5.543561824839133, 51.432328631371206 ], [ 5.544091062017181, 51.432630250219297 ], [ 5.544235027817635, 51.432562917836492 ], [ 5.545768431211066, 51.433398769445773 ], [ 5.548673453636614, 51.43454104260816 ], [ 5.546641131052494, 51.433834491440699 ], [ 5.546540238988898, 51.434476495113316 ], [ 5.54578895746901, 51.435112016303606 ], [ 5.546099893032953, 51.435853171360364 ], [ 5.545770476520057, 51.436620823441601 ], [ 5.545205144089937, 51.436629185194604 ], [ 5.544338473452168, 51.437090096725584 ], [ 5.544247391855635, 51.438030483795863 ], [ 5.543481342728756, 51.438645583105533 ], [ 5.543916492566712, 51.439503124734003 ], [ 5.5432780983462, 51.43946167038775 ], [ 5.543175629103687, 51.439805606669331 ], [ 5.542831616746588, 51.439932249892706 ], [ 5.542577133737558, 51.439784463489964 ], [ 5.542910622596034, 51.439417464644201 ], [ 5.542799151857787, 51.439160490930647 ], [ 5.541443200263455, 51.43942205291328 ], [ 5.540576279445735, 51.440451117808941 ], [ 5.540761856666887, 51.440642922125207 ], [ 5.541392989378647, 51.44061398014744 ], [ 5.541322443384174, 51.440980487262408 ], [ 5.540587044715345, 51.441527752272897 ], [ 5.54044852482027, 51.442017777472387 ], [ 5.53957954574985, 51.442327961181185 ], [ 5.539381239439042, 51.44277435699 ], [ 5.538429196979306, 51.443479741798527 ], [ 5.538459785402789, 51.443805831675448 ], [ 5.539224164984365, 51.443918961210642 ], [ 5.539026239113568, 51.444201735877932 ], [ 5.539319457162348, 51.444617152912656 ], [ 5.538521776411469, 51.445326507164602 ], [ 5.53840770193645, 51.445824244673602 ], [ 5.536812912195781, 51.445668593365191 ], [ 5.532518551217184, 51.448525701562858 ], [ 5.532585150527981, 51.448685936968062 ], [ 5.538708371659506, 51.449487637919177 ], [ 5.538588458992312, 51.449627816308144 ], [ 5.537679696673853, 51.449747002810767 ], [ 5.537033731833519, 51.450304822002558 ], [ 5.536053238404858, 51.450269926898365 ], [ 5.536039116081667, 51.450477355726896 ], [ 5.536343327865315, 51.450786400891865 ], [ 5.535676914674758, 51.451000277723807 ], [ 5.535092190182688, 51.45148763155747 ], [ 5.534612228288345, 51.451425675035402 ], [ 5.534315635783977, 51.451576926496941 ], [ 5.53413909556733, 51.452002194209264 ], [ 5.534194184824752, 51.452490017034592 ], [ 5.533213229284243, 51.453092473073987 ], [ 5.532995329028385, 51.453947802260132 ], [ 5.532636825332559, 51.454297503044685 ], [ 5.532666576085777, 51.454601101318367 ], [ 5.531418089605166, 51.454878484428434 ], [ 5.531342580660012, 51.455406568347634 ], [ 5.531981889396884, 51.456177922920652 ], [ 5.531677101610159, 51.456757804549547 ], [ 5.532454059810504, 51.457128356959153 ], [ 5.531033273663674, 51.457105291730194 ], [ 5.530514402009919, 51.458134588275733 ], [ 5.529895791367081, 51.45830737474143 ], [ 5.529740794826665, 51.458605955752844 ], [ 5.524892646092472, 51.459397598358152 ], [ 5.522819407154945, 51.460177299408372 ], [ 5.52190442974293, 51.460980543354118 ], [ 5.520984474036508, 51.460944431751521 ], [ 5.520855129096157, 51.461539742193686 ], [ 5.520224533328189, 51.461716916325805 ], [ 5.519535363782873, 51.462233074309005 ], [ 5.519072128743182, 51.462095248052847 ], [ 5.518120758179513, 51.462618042241154 ], [ 5.517978291242951, 51.46285167176481 ], [ 5.518074472530091, 51.463044202783983 ], [ 5.518868420037807, 51.462917402595885 ], [ 5.518022620332316, 51.46328842393639 ], [ 5.517509905512851, 51.464273913299344 ], [ 5.516825244829909, 51.464171830608912 ], [ 5.516644059996352, 51.464507592493227 ], [ 5.515945675793325, 51.465041311574119 ], [ 5.515290870205536, 51.464797384425836 ], [ 5.514897772548828, 51.46486527299664 ], [ 5.514836054570406, 51.465288181013172 ], [ 5.514168875676451, 51.46561572302069 ], [ 5.514244123230914, 51.466166942007185 ], [ 5.514023863273366, 51.466453548361834 ], [ 5.512664742447771, 51.466558512564532 ], [ 5.511534096863979, 51.467405838947805 ], [ 5.505998843541331, 51.467631442780274 ], [ 5.505767940428812, 51.46907842466495 ], [ 5.503031486452195, 51.471974543571051 ], [ 5.502180302876131, 51.473975568369099 ], [ 5.503320717511682, 51.474783386714286 ], [ 5.503590482971254, 51.474757458766092 ], [ 5.503981663049187, 51.474981446189396 ], [ 5.507661456875172, 51.475741535719202 ], [ 5.508288331345145, 51.475655529728549 ], [ 5.508729294828603, 51.476928362171009 ], [ 5.508098689230542, 51.477395779873483 ], [ 5.507762016941894, 51.477888389135856 ], [ 5.507757820785039, 51.478485819478884 ], [ 5.508064728710143, 51.478733394206081 ], [ 5.509075707041147, 51.478797017409036 ], [ 5.509483938593577, 51.479112218216009 ], [ 5.506196400082604, 51.48188470411219 ], [ 5.505402901828559, 51.48285920626865 ], [ 5.505310200181084, 51.48339096932488 ], [ 5.505476064476737, 51.483656457846074 ] ] ] } }
]
}
