{
"type": "FeatureCollection",
"name": "SWVPO2509",
"crs": { "type": "name", "properties": { "name": "urn:ogc:def:crs:OGC:1.3:CRS84" } },
"features": [
{ "type": "Feature", "properties": { "PO SWV": "PO2509", "strokeColor": "#A9A9A9", "strokeWidth": 2, "fillColor": "#ADD8E6" }, "geometry": { "type": "MultiPolygon", "coordinates": [ [ [ [ 5.297503100689754, 52.380477850509671 ], [ 5.299531007588067, 52.381527230835573 ], [ 5.302046939739163, 52.38251973281865 ], [ 5.313006607513018, 52.386347217913162 ], [ 5.313537564906018, 52.385855232999951 ], [ 5.315273419975307, 52.386484102943975 ], [ 5.314616609906521, 52.387021085318047 ], [ 5.314616916171987, 52.387191872149245 ], [ 5.316028550939489, 52.387712692026057 ], [ 5.316078919236702, 52.387885427539246 ], [ 5.316894792005073, 52.38818128939252 ], [ 5.316969777937825, 52.388388239595052 ], [ 5.32080919549234, 52.389820527295058 ], [ 5.318986001503856, 52.38940588351813 ], [ 5.315950085654498, 52.389381460779219 ], [ 5.313118189523143, 52.388344600165283 ], [ 5.310516800072786, 52.390462404788224 ], [ 5.310820837693131, 52.390868372587782 ], [ 5.309630514513571, 52.392205460974807 ], [ 5.309589944749761, 52.392564100483746 ], [ 5.330346318719644, 52.399507295197694 ], [ 5.333123744853415, 52.397628932866297 ], [ 5.331509032620549, 52.399864439721888 ], [ 5.336764767114378, 52.401740069150968 ], [ 5.337414239809573, 52.401466640657489 ], [ 5.338860604970111, 52.401995485082885 ], [ 5.33859741236499, 52.402258521014687 ], [ 5.338741466977059, 52.402422630162619 ], [ 5.338206654789811, 52.402724624617242 ], [ 5.338230209956658, 52.402927501653544 ], [ 5.340983654541465, 52.40404871424554 ], [ 5.339478355412276, 52.405187309549284 ], [ 5.339502292566027, 52.405332509980539 ], [ 5.339871392076061, 52.405481013346183 ], [ 5.339511802761535, 52.4056228225271 ], [ 5.339225335423409, 52.406449384234058 ], [ 5.341651119818535, 52.407533891597005 ], [ 5.341495944300181, 52.407810472887398 ], [ 5.341930707522042, 52.408115228588855 ], [ 5.341798631785241, 52.408729010849832 ], [ 5.341958623779442, 52.409101512416058 ], [ 5.342775383283755, 52.409291485158633 ], [ 5.343149015000546, 52.408831330963757 ], [ 5.343160281086333, 52.4081841754615 ], [ 5.348867241072028, 52.410641450035605 ], [ 5.348067622632327, 52.411076202016773 ], [ 5.348125839453492, 52.411414664189245 ], [ 5.347879893625642, 52.411631866739341 ], [ 5.34683797843373, 52.412089858028565 ], [ 5.346198230945813, 52.412181399760115 ], [ 5.346032376563636, 52.412314022428973 ], [ 5.346087947818458, 52.412453965796878 ], [ 5.347031672368072, 52.412456796268458 ], [ 5.34712847197571, 52.41279843878862 ], [ 5.348035030297564, 52.412889806544527 ], [ 5.348036582909811, 52.413086321842243 ], [ 5.348234749091636, 52.413219096295251 ], [ 5.350251418041913, 52.413451551396918 ], [ 5.350170267610459, 52.41375535940422 ], [ 5.350498428911196, 52.413954229234946 ], [ 5.351829119626585, 52.413895863094353 ], [ 5.353137724884921, 52.413382990863113 ], [ 5.353707788543726, 52.413998291095503 ], [ 5.353975723987408, 52.414063631312644 ], [ 5.354989416384369, 52.413735315931937 ], [ 5.357354584908356, 52.411659765246156 ], [ 5.362360360439854, 52.413718288562819 ], [ 5.366040223924029, 52.414317060201348 ], [ 5.368986288126033, 52.415532659352081 ], [ 5.369388978745262, 52.415574360195919 ], [ 5.370208041338719, 52.416134963053658 ], [ 5.373206016485645, 52.417459182128844 ], [ 5.379815211340997, 52.42023315369142 ], [ 5.380583954625489, 52.420393357360524 ], [ 5.382237781034891, 52.421120113986554 ], [ 5.382652677793801, 52.421492681446466 ], [ 5.395018262804957, 52.426809666239457 ], [ 5.395774485924783, 52.426898214692528 ], [ 5.396431443112125, 52.427179488689355 ], [ 5.398906817565255, 52.425105360219867 ], [ 5.40145758014866, 52.426220649185744 ], [ 5.401569904851151, 52.426556960014565 ], [ 5.400621108088387, 52.427537787415069 ], [ 5.40267572928671, 52.428430277009447 ], [ 5.404483398015802, 52.427474574723377 ], [ 5.404558735205512, 52.427221513441744 ], [ 5.405031756366158, 52.427330289117336 ], [ 5.409792991735643, 52.42610909528819 ], [ 5.420969216665437, 52.432175140684777 ], [ 5.423740258822549, 52.432659335811351 ], [ 5.427058336269815, 52.434600221356199 ], [ 5.426829463910424, 52.435585379473501 ], [ 5.438709484890188, 52.442756171247453 ], [ 5.446240625139906, 52.437058651620056 ], [ 5.475033778713811, 52.420116684710045 ], [ 5.508548823241824, 52.398049985105864 ], [ 5.533001593475934, 52.384494594241019 ], [ 5.533962848889282, 52.385130232578945 ], [ 5.534824735119564, 52.384788832769438 ], [ 5.536754418109227, 52.38530558730632 ], [ 5.537263094366133, 52.385129521636166 ], [ 5.538246716487268, 52.385816673075063 ], [ 5.538619104473875, 52.385861952101713 ], [ 5.553197956024879, 52.395607906390609 ], [ 5.564194935768344, 52.402088940031241 ], [ 5.564379682659312, 52.402392735441829 ], [ 5.565250369021443, 52.40270447398504 ], [ 5.577965744854049, 52.410055371902757 ], [ 5.580484615907108, 52.410980197785847 ], [ 5.583659087332141, 52.411495829967947 ], [ 5.587380103672539, 52.411415343921099 ], [ 5.588055782304766, 52.410866532175838 ], [ 5.590803410891001, 52.410614511563054 ], [ 5.592670362201199, 52.410221749200502 ], [ 5.599127377769753, 52.409362183714066 ], [ 5.59993468106877, 52.409813732649653 ], [ 5.615901416384843, 52.407858749779678 ], [ 5.615823913624105, 52.408020188818305 ], [ 5.615982644061704, 52.408081457200922 ], [ 5.616554100823208, 52.407862042381595 ], [ 5.623237826766917, 52.40718759112827 ], [ 5.623427613375112, 52.406797853009422 ], [ 5.623318648657039, 52.404791641499159 ], [ 5.623009389563196, 52.40414289724233 ], [ 5.624009152412965, 52.403550321318846 ], [ 5.62402246500018, 52.402861297452631 ], [ 5.623829284529464, 52.402544431659059 ], [ 5.624517177994048, 52.40237820271679 ], [ 5.624509981324252, 52.40183197998816 ], [ 5.625331589453916, 52.401725173603104 ], [ 5.625274115979605, 52.401146106520606 ], [ 5.626025128588966, 52.400591645271582 ], [ 5.628757258507492, 52.40024553056422 ], [ 5.628310858946699, 52.398854021738906 ], [ 5.628592998186545, 52.398300341467881 ], [ 5.629202626736913, 52.398229019546967 ], [ 5.628981538319877, 52.397294945372224 ], [ 5.629589796115955, 52.396348512342556 ], [ 5.629462806924696, 52.395443514090736 ], [ 5.629913975487567, 52.394466899187172 ], [ 5.629285080311066, 52.391323120261532 ], [ 5.628209796846134, 52.39105641579831 ], [ 5.627501186025728, 52.391050714517966 ], [ 5.6273557762909, 52.39039729859018 ], [ 5.62699933950668, 52.390009296094419 ], [ 5.626646760883088, 52.388863915960897 ], [ 5.626100528543873, 52.388498531032958 ], [ 5.626987651591793, 52.387772110508998 ], [ 5.627590037955103, 52.386703750338938 ], [ 5.621585935007356, 52.383554358562861 ], [ 5.620483601235301, 52.382666934880298 ], [ 5.619520068243883, 52.381442736550703 ], [ 5.618972686487046, 52.380107927122431 ], [ 5.618441032519796, 52.375151267807205 ], [ 5.618042991865196, 52.37415193498105 ], [ 5.616575409889034, 52.372286103240135 ], [ 5.614230802317205, 52.370738100318398 ], [ 5.615420322785492, 52.370219310522486 ], [ 5.615600650669615, 52.369995985306801 ], [ 5.615542889853226, 52.369799194070211 ], [ 5.612739254794215, 52.368544079571372 ], [ 5.61024217725296, 52.366485338783725 ], [ 5.611421977573973, 52.366001362713781 ], [ 5.614556553563032, 52.367954274329882 ], [ 5.615012406904334, 52.367957410786694 ], [ 5.615183286491681, 52.367722836815801 ], [ 5.615114674298685, 52.367545611915986 ], [ 5.612694421792306, 52.365984240349974 ], [ 5.613117090673178, 52.365657496900809 ], [ 5.613844525818234, 52.365981659722046 ], [ 5.614035872153083, 52.365915096336003 ], [ 5.61401430230339, 52.365762110360279 ], [ 5.611280537825753, 52.364411016552225 ], [ 5.611871682421577, 52.364091070626912 ], [ 5.612584470695132, 52.364120260253351 ], [ 5.613800021946134, 52.364646450113447 ], [ 5.614247813912978, 52.364588278490196 ], [ 5.614615213367236, 52.364165237132596 ], [ 5.6140856407934, 52.363967705841695 ], [ 5.61427935708416, 52.363696475698291 ], [ 5.615076969984553, 52.363268751760465 ], [ 5.615414181100663, 52.362672691413337 ], [ 5.618457733408137, 52.361319036092574 ], [ 5.618759237608813, 52.361375138655454 ], [ 5.618749521629505, 52.361092143629605 ], [ 5.619323488237995, 52.361074702363638 ], [ 5.623699524561563, 52.35917023413851 ], [ 5.625222438153219, 52.358330993576963 ], [ 5.627017834375338, 52.357079878426397 ], [ 5.62733258124754, 52.357193683859762 ], [ 5.627051007995025, 52.35744478108348 ], [ 5.627132080058098, 52.357665946271339 ], [ 5.6276125583723, 52.357859163720214 ], [ 5.627683799351535, 52.357685195256636 ], [ 5.627383782386102, 52.357518104207585 ], [ 5.627631719621457, 52.357367117204824 ], [ 5.629178345123834, 52.358338349335355 ], [ 5.628865141476616, 52.358536378649994 ], [ 5.628822736281154, 52.358350824347063 ], [ 5.628376729259138, 52.358069633006323 ], [ 5.628084551814651, 52.358257324095632 ], [ 5.628389655949138, 52.358547482513693 ], [ 5.628402078868095, 52.358779769831841 ], [ 5.627893363163171, 52.359159819582878 ], [ 5.627912243821298, 52.359564576300663 ], [ 5.628427558836592, 52.359825249094655 ], [ 5.628334885907211, 52.360442778749523 ], [ 5.627081122626592, 52.360447170889024 ], [ 5.626831595832773, 52.360731350247406 ], [ 5.62710391274712, 52.361147172212064 ], [ 5.627334367774584, 52.36111477851631 ], [ 5.628019216433252, 52.361622195999487 ], [ 5.628244800423793, 52.36459989521569 ], [ 5.629083624476076, 52.364834361839463 ], [ 5.629866507525089, 52.364294977935423 ], [ 5.629467819050741, 52.363951775928996 ], [ 5.62933973360183, 52.361874909166879 ], [ 5.629850565365977, 52.361615137042712 ], [ 5.630768337193012, 52.362188960918679 ], [ 5.630222405303949, 52.362503493266757 ], [ 5.629640545011861, 52.362588762488649 ], [ 5.629695575332066, 52.363693281141316 ], [ 5.630226852581816, 52.364033492665172 ], [ 5.632237456791263, 52.362850334396242 ], [ 5.632031419366116, 52.3625729821864 ], [ 5.633124998406674, 52.361898502736196 ], [ 5.638794662913451, 52.362497167667179 ], [ 5.640340740838258, 52.363359546936138 ], [ 5.639175564076152, 52.363969476467595 ], [ 5.637731935249934, 52.363117274762764 ], [ 5.634028043154637, 52.362699344579966 ], [ 5.630644466728761, 52.364895672677697 ], [ 5.630657148827173, 52.365072064923446 ], [ 5.630440462709121, 52.365226986119275 ], [ 5.630193720974531, 52.365186257954775 ], [ 5.630088215364499, 52.365510445064309 ], [ 5.630684582687774, 52.365958597277462 ], [ 5.632487160167419, 52.365893495018305 ], [ 5.633223789201959, 52.365565945012662 ], [ 5.640607951023959, 52.366393593444535 ], [ 5.641183160119538, 52.366241922361723 ], [ 5.64139222370973, 52.365966653734958 ], [ 5.642604515900378, 52.366619826314896 ], [ 5.642717764487919, 52.366851054754477 ], [ 5.643675722590983, 52.367207534143539 ], [ 5.643651426322013, 52.36752155163547 ], [ 5.643908349688442, 52.367676463062416 ], [ 5.648924633657931, 52.367593434062286 ], [ 5.64919843133566, 52.367168941114876 ], [ 5.651364576631821, 52.366089867042838 ], [ 5.6532549140616, 52.364880470582804 ], [ 5.654724115978449, 52.365709432087094 ], [ 5.654878265729388, 52.366016855153447 ], [ 5.655712541705511, 52.366040655410757 ], [ 5.65552736408255, 52.36618078061651 ], [ 5.655605944813845, 52.366399201781654 ], [ 5.656272913947095, 52.366436856532012 ], [ 5.657354095902203, 52.366929727052614 ], [ 5.658000594511436, 52.366977441988944 ], [ 5.658733806620891, 52.367532110093848 ], [ 5.658926775625271, 52.367863364968755 ], [ 5.659953222514811, 52.368450589266075 ], [ 5.662535770675425, 52.369331604100971 ], [ 5.664492682306713, 52.370259815837478 ], [ 5.66562330762875, 52.371518559417858 ], [ 5.666712293482748, 52.372361168407487 ], [ 5.669714146105676, 52.373430281470839 ], [ 5.670556150771592, 52.373554684560567 ], [ 5.671008129089722, 52.373782029076757 ], [ 5.671206651945768, 52.374178278057293 ], [ 5.672768950096089, 52.374578493134877 ], [ 5.674442622243747, 52.37541676810924 ], [ 5.674654944968951, 52.375692258959788 ], [ 5.675526881855432, 52.376045228663195 ], [ 5.67715102691275, 52.377072585002949 ], [ 5.677297286938807, 52.377563007306925 ], [ 5.677205648440577, 52.37855991520545 ], [ 5.67762997226162, 52.37881694823384 ], [ 5.679192585551922, 52.378965763123688 ], [ 5.680545952882368, 52.378481635189587 ], [ 5.68185388070411, 52.378903446111117 ], [ 5.682722067447989, 52.378385616988155 ], [ 5.683463556815919, 52.378334442862162 ], [ 5.686373076117367, 52.378743822775519 ], [ 5.687093720151985, 52.378991258822623 ], [ 5.687543371571531, 52.379412569287524 ], [ 5.689020169378853, 52.379209758931481 ], [ 5.689293741714017, 52.379053768945063 ], [ 5.689346546014002, 52.378770321740333 ], [ 5.689716369747997, 52.378772954787969 ], [ 5.690103536334894, 52.379067406586934 ], [ 5.691680659177806, 52.379362931124035 ], [ 5.692063456986292, 52.379644613213827 ], [ 5.693273959349888, 52.380031278035041 ], [ 5.693449528292511, 52.380304049098513 ], [ 5.693937678197885, 52.380421467945546 ], [ 5.694522735319423, 52.380805007593864 ], [ 5.694156857393798, 52.381404476971973 ], [ 5.694450383478819, 52.381573027071752 ], [ 5.694791699583464, 52.381588065172927 ], [ 5.695365844785933, 52.380873939503751 ], [ 5.696603888666604, 52.38095284607121 ], [ 5.696535742218345, 52.381191082192316 ], [ 5.696687237585961, 52.381325305597066 ], [ 5.697064862409507, 52.380923214286668 ], [ 5.697898170650702, 52.380942627314923 ], [ 5.699977430810167, 52.381388226616885 ], [ 5.700631457801269, 52.38174895929933 ], [ 5.700774356691918, 52.381996621224324 ], [ 5.700653990474482, 52.382283385969011 ], [ 5.701338376034408, 52.38218045262817 ], [ 5.701664838962197, 52.382377003804322 ], [ 5.701735571879703, 52.382804567301484 ], [ 5.701056343869225, 52.383303370306422 ], [ 5.701076612466035, 52.383460881393425 ], [ 5.701355481521722, 52.383583342016692 ], [ 5.702119640241813, 52.383073489949084 ], [ 5.702833902286098, 52.383201305950138 ], [ 5.70342176250465, 52.384004842191274 ], [ 5.703026155854426, 52.384511610336503 ], [ 5.703272825460516, 52.384729314080019 ], [ 5.704128568244871, 52.384221026281381 ], [ 5.704647620694697, 52.384301180636719 ], [ 5.703806507807791, 52.384917404654338 ], [ 5.704058090278613, 52.385188623918637 ], [ 5.705439627839244, 52.384396817233345 ], [ 5.706108665844215, 52.384441457766336 ], [ 5.706750725408948, 52.38474967477778 ], [ 5.707191699545435, 52.385370321249184 ], [ 5.707030973191992, 52.385732386934436 ], [ 5.706612441491566, 52.385952972204315 ], [ 5.706455108380172, 52.386430039138965 ], [ 5.706656986014026, 52.386510920024008 ], [ 5.707258191945759, 52.38605445406894 ], [ 5.707674091944547, 52.386019645078882 ], [ 5.707806882625179, 52.386375030769905 ], [ 5.707297505661874, 52.38673601105441 ], [ 5.707329099074705, 52.386891407138997 ], [ 5.707668565785188, 52.386976648799632 ], [ 5.708891729496637, 52.386683708300374 ], [ 5.710475266484069, 52.387338950410175 ], [ 5.711003394217308, 52.38728275361661 ], [ 5.711977271193721, 52.387740219618287 ], [ 5.712766235103668, 52.387845589681739 ], [ 5.713937114120486, 52.387800616270688 ], [ 5.714726948200122, 52.387523061039012 ], [ 5.71528606671405, 52.38765853631638 ], [ 5.71534457303866, 52.387899226532262 ], [ 5.715603703520192, 52.388014844087955 ], [ 5.716287093901468, 52.38779659179842 ], [ 5.71728406330237, 52.38848447429671 ], [ 5.717587829138213, 52.388431937086899 ], [ 5.720088180478043, 52.38953509451617 ], [ 5.72016773181724, 52.389803306376244 ], [ 5.721020196832085, 52.390420813949333 ], [ 5.721804101887077, 52.390427358812879 ], [ 5.722521609578064, 52.391097278745775 ], [ 5.723720575127444, 52.391245982745026 ], [ 5.724041343140658, 52.390958780925743 ], [ 5.726122188808061, 52.392013944632282 ], [ 5.72656724534445, 52.39279455798372 ], [ 5.727124107528632, 52.392544695897939 ], [ 5.727771700868052, 52.392830284640681 ], [ 5.728121470882128, 52.393038371634354 ], [ 5.727427643554229, 52.393514497228722 ], [ 5.727529391975559, 52.393719120530086 ], [ 5.727753923922349, 52.393739532753145 ], [ 5.727747627170451, 52.394020364827881 ], [ 5.728538888548439, 52.394443571751708 ], [ 5.729292150537873, 52.394436444118746 ], [ 5.729405193057165, 52.394659014437316 ], [ 5.730063812724231, 52.394807037332555 ], [ 5.730404953731464, 52.395042018286183 ], [ 5.730343838239001, 52.395733520927003 ], [ 5.730726918896982, 52.395736865091379 ], [ 5.730851842081416, 52.395240342569515 ], [ 5.731129078964726, 52.394953705508001 ], [ 5.73201898503204, 52.394830262297369 ], [ 5.732416372162102, 52.3952418497718 ], [ 5.734021249733424, 52.395568199658939 ], [ 5.735216544318673, 52.396119566428645 ], [ 5.734729181678876, 52.396801331371002 ], [ 5.735513552427284, 52.396951987964172 ], [ 5.736407285121063, 52.397615689710172 ], [ 5.736728952433218, 52.397602804138195 ], [ 5.737014954120325, 52.397942067431941 ], [ 5.737492685566414, 52.397769714581642 ], [ 5.737656823200325, 52.398088285767507 ], [ 5.737874831895192, 52.397925807864738 ], [ 5.738406289659923, 52.39799371705984 ], [ 5.738557213557952, 52.397803234044204 ], [ 5.739876141010792, 52.397743807967608 ], [ 5.7403008098299, 52.398215617076779 ], [ 5.741264378165132, 52.398677616219445 ], [ 5.741439727545187, 52.398621834320345 ], [ 5.741711960350834, 52.39908581423289 ], [ 5.742396389469701, 52.399267059332679 ], [ 5.744514876676815, 52.400377192029858 ], [ 5.745728019278191, 52.401196118140362 ], [ 5.745731467627657, 52.401396850541083 ], [ 5.746214270061354, 52.401855495225668 ], [ 5.746636732954519, 52.402060018507548 ], [ 5.747813259435641, 52.402236118670345 ], [ 5.748109325661224, 52.402946761706197 ], [ 5.748515958878395, 52.403043060526095 ], [ 5.748710859738386, 52.402931509639316 ], [ 5.75029933014021, 52.403877179314804 ], [ 5.752794762960362, 52.40441727027617 ], [ 5.753535910665357, 52.404366664723391 ], [ 5.753782021875356, 52.404750067504622 ], [ 5.75421815758321, 52.40495654678012 ], [ 5.755139209412022, 52.405082108776583 ], [ 5.755559498465527, 52.405803920474746 ], [ 5.756637414438369, 52.406308055805617 ], [ 5.756970933531085, 52.407148569952987 ], [ 5.75792329869285, 52.407555492959638 ], [ 5.75852661785996, 52.408132803567078 ], [ 5.760091472156399, 52.408519535308471 ], [ 5.762792001097793, 52.409504342080439 ], [ 5.765606571832074, 52.410965740344608 ], [ 5.766178371991685, 52.410964226635862 ], [ 5.766101520914867, 52.411134596700045 ], [ 5.76639323605156, 52.411420610790394 ], [ 5.767538949205867, 52.411842820151087 ], [ 5.768110571829721, 52.412254909819218 ], [ 5.768463450615647, 52.412150782562207 ], [ 5.768525050767603, 52.412363458706217 ], [ 5.769332451349197, 52.412662052464263 ], [ 5.769512342226213, 52.412901361486782 ], [ 5.769842242576773, 52.412800438013576 ], [ 5.769797454082928, 52.413120895936906 ], [ 5.770298409835898, 52.413128441773807 ], [ 5.771274842984008, 52.413765232430784 ], [ 5.771536266715573, 52.413750572161035 ], [ 5.771932277339833, 52.41343652713681 ], [ 5.771615149195081, 52.413772562405796 ], [ 5.771649329493252, 52.413964717204394 ], [ 5.773216990905461, 52.414966444785954 ], [ 5.774532049599962, 52.415546230144855 ], [ 5.774689649510114, 52.415821498724277 ], [ 5.775129427423697, 52.416074798977014 ], [ 5.775374066748786, 52.416059435497523 ], [ 5.776450571688631, 52.416598356993681 ], [ 5.776559440699078, 52.416813357691709 ], [ 5.777466343248283, 52.417172377193339 ], [ 5.778752741263282, 52.41796436957177 ], [ 5.779561247990225, 52.418091847365524 ], [ 5.780547680815304, 52.418715720229542 ], [ 5.780614923293277, 52.418896990302684 ], [ 5.781237890566729, 52.418909938225681 ], [ 5.781674168059394, 52.419436132650219 ], [ 5.782176571707805, 52.419506204213896 ], [ 5.78225601844287, 52.419811234470195 ], [ 5.783065605417437, 52.420274150044662 ], [ 5.78437884111162, 52.420746938740038 ], [ 5.784959266468948, 52.420739320205492 ], [ 5.785738975729109, 52.421309215269453 ], [ 5.788646307725933, 52.422308155004103 ], [ 5.788638205028352, 52.422562660813142 ], [ 5.790116748000548, 52.423250745441578 ], [ 5.790565847263988, 52.423946541756322 ], [ 5.791803129787752, 52.42463266740171 ], [ 5.792022321886088, 52.425018701613922 ], [ 5.793033688879377, 52.425271806974521 ], [ 5.793418040232133, 52.425558265769389 ], [ 5.793327034074779, 52.425688535264172 ], [ 5.793471464801375, 52.425830720656982 ], [ 5.794226246778643, 52.426007731873391 ], [ 5.794692669372289, 52.426512817970043 ], [ 5.795397106613543, 52.426752808610019 ], [ 5.796581868882158, 52.427720397501027 ], [ 5.796979319544302, 52.427806359668018 ], [ 5.797345966568612, 52.427658282525314 ], [ 5.797663697394424, 52.427814696425934 ], [ 5.797492355470244, 52.427960892153756 ], [ 5.797564313024396, 52.428102099274518 ], [ 5.797931378009516, 52.427967383619354 ], [ 5.798216743202276, 52.428105557608255 ], [ 5.797943322127537, 52.42832865140668 ], [ 5.798041369379345, 52.428487085816101 ], [ 5.798513218364061, 52.428244950938641 ], [ 5.798867096601949, 52.428392630951862 ], [ 5.799468936854281, 52.428774247621931 ], [ 5.799300389706727, 52.4290663095233 ], [ 5.800180824554997, 52.429594844758832 ], [ 5.801603142950652, 52.42998953333241 ], [ 5.802602845869135, 52.430560140954078 ], [ 5.802988322119102, 52.430476754028454 ], [ 5.803058251162168, 52.430816212960821 ], [ 5.803491653421252, 52.430628318259046 ], [ 5.803483769165099, 52.430923125777809 ], [ 5.803892849418583, 52.430912364652791 ], [ 5.80382680548376, 52.431095653479737 ], [ 5.804027515884271, 52.431174328193578 ], [ 5.804156318525836, 52.431558459757639 ], [ 5.804785846412898, 52.431813753029623 ], [ 5.805488277717241, 52.432541724549857 ], [ 5.806690009353384, 52.433023157887014 ], [ 5.807339883337771, 52.433658330866017 ], [ 5.809190674833764, 52.434585398759801 ], [ 5.811465600137418, 52.436056448489559 ], [ 5.812083991264401, 52.43657788030054 ], [ 5.81243113599332, 52.437455258207173 ], [ 5.813849234006381, 52.43862876106374 ], [ 5.814183464335394, 52.438737358074462 ], [ 5.814271266824333, 52.439041726162507 ], [ 5.815094927040218, 52.439659438547153 ], [ 5.815115136202425, 52.439929182884512 ], [ 5.815511730407482, 52.440297222891381 ], [ 5.817044100841136, 52.441545172364215 ], [ 5.817264018196652, 52.441550013138205 ], [ 5.817439166734826, 52.442039500886565 ], [ 5.817821374207881, 52.442180209111655 ], [ 5.818293438783673, 52.442876348643978 ], [ 5.82005067508157, 52.444177059421236 ], [ 5.820195725804137, 52.444673637996388 ], [ 5.821834047473948, 52.44609089819749 ], [ 5.820386519461293, 52.446672758138533 ], [ 5.819815594207394, 52.447099766800612 ], [ 5.81977279339394, 52.447355362597705 ], [ 5.821060842501685, 52.448510132722618 ], [ 5.82146832249093, 52.448411865225026 ], [ 5.821530604396568, 52.448102853552768 ], [ 5.821780459617137, 52.448004902214173 ], [ 5.822912370635493, 52.447909926240072 ], [ 5.822967228369904, 52.448069117764739 ], [ 5.823254158305601, 52.448125739667049 ], [ 5.823326999500391, 52.448230495157546 ], [ 5.823100196061497, 52.448500917504809 ], [ 5.823570095061229, 52.448695695601238 ], [ 5.823468346338352, 52.449036693901974 ], [ 5.823746408640906, 52.449287868747781 ], [ 5.823405507772874, 52.449466664507661 ], [ 5.822949672743056, 52.449430205580867 ], [ 5.822720181572911, 52.448965193972136 ], [ 5.822180042862092, 52.448897017202768 ], [ 5.821903955248831, 52.449025786437552 ], [ 5.82157170619554, 52.448661732184888 ], [ 5.821322774935172, 52.448616240768885 ], [ 5.821257268576658, 52.448743214540286 ], [ 5.822258770723708, 52.449700374097972 ], [ 5.821970392028739, 52.450025783689533 ], [ 5.822815695237671, 52.450788405163713 ], [ 5.822850949434087, 52.451172197889271 ], [ 5.824735450743463, 52.45135483980323 ], [ 5.824832399828364, 52.451189460929861 ], [ 5.824430137622377, 52.450299128236097 ], [ 5.824596816444566, 52.450296778213236 ], [ 5.824941665559216, 52.451121652492652 ], [ 5.824694483564536, 52.452259973243649 ], [ 5.8244526265731, 52.452506577952015 ], [ 5.823696901692333, 52.452602450925689 ], [ 5.822067730497919, 52.453368090324112 ], [ 5.821466144239301, 52.453862925776725 ], [ 5.821155621617423, 52.454399696013425 ], [ 5.82091830816308, 52.454485042082155 ], [ 5.820611137650888, 52.454312228986893 ], [ 5.81720024843781, 52.455440901985362 ], [ 5.816758419086664, 52.455954418559159 ], [ 5.816753955144875, 52.456344849365188 ], [ 5.817301690074929, 52.457320827917677 ], [ 5.817984830138554, 52.457839547795224 ], [ 5.818900293574007, 52.458143426666389 ], [ 5.820194619908832, 52.457763013318797 ], [ 5.828043234635529, 52.452448135890016 ], [ 5.827824411612907, 52.452068268618618 ], [ 5.828051728513481, 52.451662327301428 ], [ 5.828668302905165, 52.451869294414671 ], [ 5.830186327041643, 52.450865694957329 ], [ 5.830527154184292, 52.450805418038613 ], [ 5.8305755687676, 52.450602042437133 ], [ 5.829882701170733, 52.449968367612549 ], [ 5.830214025310866, 52.449870011822199 ], [ 5.830364862348644, 52.449970943448854 ], [ 5.830852768075032, 52.450734337728164 ], [ 5.830623494067471, 52.451127840342387 ], [ 5.830797068598403, 52.451350609738064 ], [ 5.829518658106476, 52.451677839496682 ], [ 5.824970975772986, 52.454908063204215 ], [ 5.824962009365892, 52.455046923247323 ], [ 5.825239510040326, 52.455200021070965 ], [ 5.825139353720312, 52.455411633734471 ], [ 5.824664643465006, 52.455587563761483 ], [ 5.824424597048194, 52.455899086285292 ], [ 5.824075071042251, 52.455749537999793 ], [ 5.822976075437645, 52.456453703904224 ], [ 5.822790043166544, 52.456374218139032 ], [ 5.822487890484149, 52.456511259612547 ], [ 5.820101472565863, 52.458063509608188 ], [ 5.819746996162642, 52.458424525031596 ], [ 5.819567898675614, 52.45892658363617 ], [ 5.819872668242285, 52.459920717077914 ], [ 5.828131726551008, 52.469493562739991 ], [ 5.828684709183757, 52.469021723211064 ], [ 5.828762210565415, 52.468296754346476 ], [ 5.828504492093305, 52.467935240722866 ], [ 5.828161486532734, 52.467885393969389 ], [ 5.82809677947963, 52.467684172589166 ], [ 5.826636334526706, 52.466707359813348 ], [ 5.826145401224148, 52.466199832131785 ], [ 5.826281126162629, 52.465943695496549 ], [ 5.825921703593257, 52.46577660660293 ], [ 5.82598759489627, 52.465550435374183 ], [ 5.825757096761741, 52.46541955926849 ], [ 5.826298360817003, 52.46521338500191 ], [ 5.826766403158119, 52.464705375093715 ], [ 5.826321955247697, 52.464032330197448 ], [ 5.826053716200021, 52.464093650470168 ], [ 5.826422073378072, 52.464674507663496 ], [ 5.826105618905497, 52.464998849877468 ], [ 5.825414444826459, 52.465263775566513 ], [ 5.825145955126452, 52.46518240584458 ], [ 5.824162587531981, 52.464084383701632 ], [ 5.824179330103589, 52.463889464336809 ], [ 5.823992001048813, 52.463849111852873 ], [ 5.823784496862986, 52.463215095670733 ], [ 5.823062722808982, 52.462560033049748 ], [ 5.823879891479819, 52.46148791411705 ], [ 5.823824490364556, 52.460952304336999 ], [ 5.823414652799401, 52.46053602217318 ], [ 5.823576323015908, 52.459776332680214 ], [ 5.823196398728968, 52.459340395510523 ], [ 5.824259194599244, 52.459491425714731 ], [ 5.826565067942461, 52.459261246018727 ], [ 5.827428785177494, 52.458745213271257 ], [ 5.827430118613639, 52.458391288043508 ], [ 5.82718160508453, 52.458189686512782 ], [ 5.827320127925926, 52.457924608129225 ], [ 5.827190383429278, 52.457740628111154 ], [ 5.828905982418522, 52.458169541160906 ], [ 5.83135293648807, 52.459266278074416 ], [ 5.831863917613478, 52.459132080241268 ], [ 5.833450449415474, 52.459670033122762 ], [ 5.835397763402407, 52.458492063589738 ], [ 5.835961239699084, 52.457986142581831 ], [ 5.835982240206618, 52.45766805025665 ], [ 5.840110425417115, 52.458678583796001 ], [ 5.841502187303641, 52.458784779941233 ], [ 5.848045018427038, 52.456906169343284 ], [ 5.849437473477916, 52.45680957073148 ], [ 5.853063013883911, 52.457824951549846 ], [ 5.853024403610154, 52.458237443791383 ], [ 5.853186137872235, 52.458500071489162 ], [ 5.858963536184549, 52.462626461825103 ], [ 5.861292338249575, 52.461755103412521 ], [ 5.862344174264684, 52.461563860739282 ], [ 5.863399876711597, 52.462505746467968 ], [ 5.86396039085438, 52.462475051713227 ], [ 5.864874106871139, 52.462149247776026 ], [ 5.864899667369132, 52.461974954722486 ], [ 5.863190382113282, 52.460944017068378 ], [ 5.870662105351765, 52.458010356482177 ], [ 5.87142177553689, 52.457874153893286 ], [ 5.871547985052, 52.456730359482535 ], [ 5.872113952622169, 52.456744309536937 ], [ 5.872825441704982, 52.455702300956162 ], [ 5.8725371327905, 52.455514058621738 ], [ 5.872603620114229, 52.455362387410908 ], [ 5.874105536192745, 52.455751518101856 ], [ 5.874403562046565, 52.455324484486837 ], [ 5.874463808555545, 52.454494899392699 ], [ 5.874636125807801, 52.454327034679523 ], [ 5.877723209808662, 52.453109742123956 ], [ 5.876484755524034, 52.451845285629418 ], [ 5.874959297843182, 52.450684610365435 ], [ 5.875059626854172, 52.450526549959456 ], [ 5.874406774859991, 52.449685988814871 ], [ 5.872019894208383, 52.448316499583846 ], [ 5.871598608774156, 52.447885564934147 ], [ 5.873806854785167, 52.447085726577605 ], [ 5.873835465869902, 52.446923060718191 ], [ 5.872305279580373, 52.446271393999503 ], [ 5.871157958736909, 52.445443127707939 ], [ 5.868947029251217, 52.444769165546106 ], [ 5.870705821443394, 52.442633933204753 ], [ 5.872304793459549, 52.443109265543882 ], [ 5.875791260163829, 52.439395356134618 ], [ 5.876352598212853, 52.43917899124348 ], [ 5.884410831564055, 52.431891548687382 ], [ 5.884584592779125, 52.431908289897827 ], [ 5.88641063770173, 52.430262386994507 ], [ 5.886824323231694, 52.429882764118759 ], [ 5.886797589403837, 52.429738628028105 ], [ 5.88894697017823, 52.427798722974856 ], [ 5.891983294333023, 52.426280472339762 ], [ 5.893125669159544, 52.425544955538683 ], [ 5.897854826953558, 52.421511786723201 ], [ 5.897845379580096, 52.420827130872574 ], [ 5.898529430636701, 52.420706369312093 ], [ 5.898879952873934, 52.420800093641276 ], [ 5.900006725646905, 52.419902716919914 ], [ 5.908469617667237, 52.416284341519571 ], [ 5.911361681679231, 52.417655211787434 ], [ 5.912762819769695, 52.417530312575323 ], [ 5.91563147086559, 52.41895913131227 ], [ 5.919922114838605, 52.415852617416562 ], [ 5.930459667922841, 52.412267960565401 ], [ 5.930769508253508, 52.411751112252752 ], [ 5.930746617867652, 52.410193936243509 ], [ 5.932476102599745, 52.411273290505534 ], [ 5.933258351889813, 52.410667589883026 ], [ 5.935529591812507, 52.41188773992554 ], [ 5.936764727089062, 52.412852869988392 ], [ 5.937320821043577, 52.413430172338749 ], [ 5.937464649049807, 52.414746482136415 ], [ 5.936608712668585, 52.415938970386968 ], [ 5.938101756172792, 52.416613538739639 ], [ 5.938791712976811, 52.415528710469715 ], [ 5.939513322945031, 52.415023487688352 ], [ 5.941640548418546, 52.412841430491106 ], [ 5.94352425254646, 52.413774922999295 ], [ 5.948239691176612, 52.415617983973704 ], [ 5.94989841478065, 52.41665478942911 ], [ 5.950728942922783, 52.417518235876663 ], [ 5.952104836540955, 52.418148768050138 ], [ 5.954960090352743, 52.415541567218462 ], [ 5.956873808251776, 52.417064876871322 ], [ 5.958951553570077, 52.418004125369826 ], [ 5.963980864975363, 52.411993465222729 ], [ 5.962852247881866, 52.411690129652634 ], [ 5.959844078052355, 52.410292678741349 ], [ 5.958872802215459, 52.409471462067302 ], [ 5.953558586159387, 52.408264564858079 ], [ 5.949772870194703, 52.405779106063548 ], [ 5.948755249400334, 52.404841902659278 ], [ 5.949397244070759, 52.404258344886351 ], [ 5.955974335528412, 52.40081466557654 ], [ 5.955960271362891, 52.400609143519731 ], [ 5.954695335180787, 52.400027685099701 ], [ 5.95612235210959, 52.398561832865653 ], [ 5.958727104724913, 52.400075300434892 ], [ 5.960987824010849, 52.399056554917415 ], [ 5.964596894390284, 52.397948659351371 ], [ 5.964697790263766, 52.397782541846908 ], [ 5.966078235773733, 52.397505949940758 ], [ 5.979782363008716, 52.393386641776964 ], [ 5.980115254969876, 52.393820704588272 ], [ 5.980545998376315, 52.393689827332565 ], [ 5.98116972474481, 52.392966257695718 ], [ 5.982176726066578, 52.392594319980105 ], [ 5.981792133253567, 52.391557472958532 ], [ 5.981350746462565, 52.38885897646464 ], [ 5.980208897056787, 52.388534456570873 ], [ 5.980423324315025, 52.388284845237564 ], [ 5.980458466012776, 52.387914741181461 ], [ 5.981281315026471, 52.387648675140603 ], [ 5.981049608548892, 52.383869695349681 ], [ 5.981195395207023, 52.383596583656569 ], [ 5.981802316571029, 52.383313495860705 ], [ 5.981521384668409, 52.383017958405318 ], [ 5.981590539774991, 52.382878699928135 ], [ 5.982960136839501, 52.382582869080018 ], [ 5.983166603721684, 52.382155704926262 ], [ 5.984630613220943, 52.381547663762504 ], [ 5.985549071507173, 52.381771763077701 ], [ 5.985878095399674, 52.38166657343605 ], [ 5.986324392361398, 52.380834220265342 ], [ 5.987911511952426, 52.380151817827858 ], [ 5.988239532760911, 52.380150297553918 ], [ 5.98828844869935, 52.379988066222403 ], [ 5.991370730722932, 52.378690760911716 ], [ 5.992424421591448, 52.378291146812543 ], [ 5.993681327671252, 52.378348135129848 ], [ 5.994208018393776, 52.377700508231072 ], [ 5.996105263842016, 52.377391865719396 ], [ 5.996822274545782, 52.377461080226333 ], [ 5.997370426097494, 52.377322206398681 ], [ 5.999896809216131, 52.377547109351617 ], [ 5.999966827321566, 52.377004042492793 ], [ 6.000397051405431, 52.376940699058693 ], [ 6.000418167606596, 52.376480342836913 ], [ 6.001528758569949, 52.376557438752094 ], [ 6.001640245723205, 52.375966700272798 ], [ 6.003716868675998, 52.375661765260467 ], [ 6.003802799898277, 52.374543704791613 ], [ 6.01330850974062, 52.371395447401504 ], [ 6.016312841080252, 52.370604334598511 ], [ 6.017422947834633, 52.369991829195918 ], [ 6.029923656033841, 52.367859033461045 ], [ 6.031684844918517, 52.367377310016749 ], [ 6.034731946269316, 52.366186903039065 ], [ 6.033997349423504, 52.364773536260806 ], [ 6.037808565919881, 52.362174369941556 ], [ 6.042756252916059, 52.36359608938529 ], [ 6.041863846485384, 52.358329151784083 ], [ 6.041874493637951, 52.356625877759122 ], [ 6.045087349729663, 52.357150633310908 ], [ 6.04756077289382, 52.357979429510017 ], [ 6.04813955722325, 52.358612704412245 ], [ 6.049935278301348, 52.359922602554484 ], [ 6.051826009158957, 52.360405830620216 ], [ 6.052388472027025, 52.361099248969246 ], [ 6.074160507710956, 52.361902550335785 ], [ 6.074688621399628, 52.361994717901609 ], [ 6.074246721779172, 52.363114766366564 ], [ 6.077840133184238, 52.364396946169677 ], [ 6.079153035739551, 52.362953764298631 ], [ 6.080912618078276, 52.36213133866179 ], [ 6.082410503708815, 52.361827423298912 ], [ 6.087809785878013, 52.361367176837284 ], [ 6.090750362727543, 52.360536858635193 ], [ 6.09227999961626, 52.3597301542693 ], [ 6.093586535314095, 52.358748147490218 ], [ 6.094957134044924, 52.35696025403351 ], [ 6.092005811064491, 52.355553459587036 ], [ 6.087264165064184, 52.353792839569842 ], [ 6.078121737912418, 52.352343769900813 ], [ 6.078166151312943, 52.351661660431553 ], [ 6.07758505465558, 52.351585706916552 ], [ 6.076170213788694, 52.350520915868714 ], [ 6.07623016759995, 52.345654930232229 ], [ 6.075502565963945, 52.344608402363882 ], [ 6.075890224203897, 52.344404890147864 ], [ 6.075717807881636, 52.341933405431675 ], [ 6.076110561899877, 52.341826475567338 ], [ 6.076830475323531, 52.340149342877957 ], [ 6.076893893056547, 52.339738498635072 ], [ 6.076679235068768, 52.338764149915313 ], [ 6.07686324978243, 52.338637413577025 ], [ 6.075695130563636, 52.334710833740466 ], [ 6.074159626618431, 52.334457648144088 ], [ 6.074307442505478, 52.334226518593468 ], [ 6.075422255132872, 52.333710680689968 ], [ 6.075732044349349, 52.333291569105711 ], [ 6.07493506842514, 52.332902219963522 ], [ 6.074223199630959, 52.332234886658092 ], [ 6.074054873657443, 52.331794630786902 ], [ 6.074142120900922, 52.33145903712451 ], [ 6.073734919056552, 52.330485258403449 ], [ 6.053044362340032, 52.330805140647428 ], [ 6.052801567017729, 52.325772672254239 ], [ 6.050395125888604, 52.322569763646122 ], [ 6.049611289567158, 52.321260144670795 ], [ 6.047968154102277, 52.318279409979425 ], [ 6.047434018200891, 52.316898034254748 ], [ 6.045455408642719, 52.313739522349103 ], [ 6.045494821463877, 52.313600771535107 ], [ 6.040298371371003, 52.304301364340716 ], [ 6.03492909949571, 52.294925250157263 ], [ 6.034730157255626, 52.293914737114491 ], [ 6.034903234788734, 52.292643183663742 ], [ 6.035185929332348, 52.291941961652235 ], [ 6.040670217887567, 52.283275035836461 ], [ 6.041907999146257, 52.280629485104207 ], [ 6.043415090429086, 52.278821196783909 ], [ 6.043558085718069, 52.275708014204859 ], [ 6.047048463723836, 52.275860206996434 ], [ 6.04756629297615, 52.273914473741478 ], [ 6.048325773582937, 52.273824840901504 ], [ 6.049273238583634, 52.270181565356054 ], [ 6.049175946522811, 52.270014698252133 ], [ 6.04314411905349, 52.269387250284666 ], [ 6.041620141783793, 52.269371319966019 ], [ 6.036637512656696, 52.268455263623736 ], [ 6.034353316596872, 52.268976855419467 ], [ 6.030345933639393, 52.26911428151967 ], [ 6.030229762730239, 52.269359905051594 ], [ 6.030838656284945, 52.270830331065042 ], [ 6.028520568777355, 52.270886243878628 ], [ 6.028431264686389, 52.270994478379855 ], [ 6.028845156833579, 52.272381179760785 ], [ 6.029867066353313, 52.272775806186715 ], [ 6.029864154221232, 52.273187215002267 ], [ 6.031132688106722, 52.275224832410878 ], [ 6.030233342551017, 52.276239137157354 ], [ 6.029417733333015, 52.276398505997527 ], [ 6.029234416912152, 52.276619617751962 ], [ 6.028854687030223, 52.276712999374233 ], [ 6.027998956782976, 52.276483335968763 ], [ 6.0198721077996, 52.276621121973619 ], [ 6.019467914587922, 52.276256961787468 ], [ 6.017256640287792, 52.2766752349388 ], [ 6.016220642769542, 52.276694482622915 ], [ 6.014203373899158, 52.276212463249884 ], [ 6.010969285569621, 52.275986125765293 ], [ 6.009242147154619, 52.276246611248467 ], [ 6.007846203816887, 52.275827293762667 ], [ 6.007004469992329, 52.275940031802428 ], [ 5.993377470995445, 52.273831519493285 ], [ 5.989884289805323, 52.273852012042823 ], [ 5.988949915646102, 52.273997547208793 ], [ 5.988882167197381, 52.274132717551581 ], [ 5.99109768551497, 52.279964629557249 ], [ 5.992312660367421, 52.284776732734258 ], [ 5.991329909769603, 52.285437217507237 ], [ 5.988720533489436, 52.285229995252479 ], [ 5.985806543156596, 52.285550604197198 ], [ 5.985406722667171, 52.284506865390711 ], [ 5.983208521394961, 52.284157772296965 ], [ 5.983242860991075, 52.283820436270297 ], [ 5.982235997930918, 52.283732131498653 ], [ 5.981238632135025, 52.281189060980296 ], [ 5.981221839169297, 52.280650443580008 ], [ 5.977775161232315, 52.277109628448486 ], [ 5.977479014077449, 52.275859560768325 ], [ 5.976339565060401, 52.274610444159414 ], [ 5.975560052427488, 52.274718302601705 ], [ 5.973912753702775, 52.273111735221192 ], [ 5.957919564504836, 52.272267025234044 ], [ 5.936215216196929, 52.274318369636916 ], [ 5.923047497785507, 52.271912830695534 ], [ 5.925159930368508, 52.265973630244353 ], [ 5.924230404564804, 52.265796182795917 ], [ 5.918941678063432, 52.262968481105013 ], [ 5.916489714651404, 52.263450445244843 ], [ 5.91322483225734, 52.264341221854579 ], [ 5.913492400951857, 52.263379487186732 ], [ 5.913876093503684, 52.262738772633817 ], [ 5.913732616851242, 52.262403206279153 ], [ 5.9138693390004, 52.261832918913733 ], [ 5.913470534839504, 52.261216654326702 ], [ 5.912267236203335, 52.260067574115311 ], [ 5.905629242519281, 52.258798654217422 ], [ 5.905440848143511, 52.258908668803549 ], [ 5.904948894142445, 52.259912698344614 ], [ 5.900038999889644, 52.259031376823508 ], [ 5.90097166122186, 52.255191677292714 ], [ 5.896926220874125, 52.25530648862523 ], [ 5.896515720454144, 52.254645292893379 ], [ 5.895914750796488, 52.254309609889361 ], [ 5.895773159519289, 52.253822862914681 ], [ 5.895149519853033, 52.253149015199135 ], [ 5.894281987503971, 52.252768788810002 ], [ 5.89442457528838, 52.250525923012169 ], [ 5.890547696829026, 52.24986314320897 ], [ 5.891107920488928, 52.24940804504795 ], [ 5.891102307502321, 52.249260666830402 ], [ 5.887329636139825, 52.248417383922558 ], [ 5.885798437447158, 52.247897860023116 ], [ 5.87971422041282, 52.24849241827809 ], [ 5.877559129292408, 52.248376600959936 ], [ 5.874512633159122, 52.248833285178812 ], [ 5.872378438719143, 52.248687352062426 ], [ 5.872113424911631, 52.249197607049673 ], [ 5.870497396903746, 52.250454487891332 ], [ 5.869880754187809, 52.251309976523977 ], [ 5.869407026434078, 52.251578017752998 ], [ 5.866834165828628, 52.252481145109599 ], [ 5.863569267462977, 52.252490574682433 ], [ 5.862139576832651, 52.252717733866533 ], [ 5.862149084096049, 52.254899196460755 ], [ 5.860492961613492, 52.256012663028791 ], [ 5.861138504274208, 52.257194954097876 ], [ 5.862009787048017, 52.257658923935168 ], [ 5.861437751347021, 52.258328027736368 ], [ 5.861388534505925, 52.258832531159499 ], [ 5.860966496309007, 52.259337018252552 ], [ 5.860545837495884, 52.260294930740095 ], [ 5.858091918380652, 52.263456570000123 ], [ 5.858459777841004, 52.26390775611403 ], [ 5.857876038023998, 52.267505000082068 ], [ 5.858150032646431, 52.270458785945728 ], [ 5.858832460502257, 52.270987527784527 ], [ 5.855266420441773, 52.27074761870773 ], [ 5.851695032438344, 52.270932482348606 ], [ 5.851591259883408, 52.271108126347649 ], [ 5.852265406224736, 52.27354059036584 ], [ 5.84272709963252, 52.274553185998947 ], [ 5.842728103509289, 52.274745533761951 ], [ 5.844583035554762, 52.27707189529059 ], [ 5.841508142336076, 52.277382323120356 ], [ 5.839403111313066, 52.274890518920778 ], [ 5.836010044636806, 52.275251596577689 ], [ 5.83222751315606, 52.270443828574493 ], [ 5.829599529605093, 52.271206694211145 ], [ 5.821424944475853, 52.272570801340457 ], [ 5.81720693335038, 52.272014107294915 ], [ 5.814767693843732, 52.270867532202566 ], [ 5.811646067889827, 52.270375044720971 ], [ 5.809804377013352, 52.270177035935248 ], [ 5.80223827962839, 52.270398820325283 ], [ 5.798685267217381, 52.270014840282357 ], [ 5.797244486044556, 52.269595780828247 ], [ 5.795040339367108, 52.269753162707978 ], [ 5.795928156764831, 52.270595872681255 ], [ 5.792904118897036, 52.270497191468195 ], [ 5.792400177207017, 52.27015110294235 ], [ 5.792280033600782, 52.269887275373875 ], [ 5.785483797285587, 52.270328338200237 ], [ 5.779921673620797, 52.270502030773777 ], [ 5.751295410080315, 52.269463220958308 ], [ 5.749369734003796, 52.268244707248179 ], [ 5.75067332393328, 52.266475170225164 ], [ 5.752630219639781, 52.263211342309312 ], [ 5.753097830411571, 52.262147760690645 ], [ 5.761532353139967, 52.24835858459106 ], [ 5.76149854621455, 52.248217150698501 ], [ 5.750939114143691, 52.245798157627597 ], [ 5.746891060956888, 52.245320597810782 ], [ 5.745804967584457, 52.246308039435839 ], [ 5.745341822432704, 52.246511611717175 ], [ 5.744902938053701, 52.247116108165599 ], [ 5.745018811719366, 52.247293978755593 ], [ 5.747771362388544, 52.248127334511032 ], [ 5.747205146780225, 52.249030491728647 ], [ 5.746913707193586, 52.248958905564557 ], [ 5.74564440881596, 52.252932008533037 ], [ 5.729990725820607, 52.258655599825715 ], [ 5.730256973613075, 52.256213506720428 ], [ 5.730105915321755, 52.254272230215108 ], [ 5.729373597396213, 52.254020784565263 ], [ 5.72977612746868, 52.252228674480335 ], [ 5.729753980468296, 52.251345974150667 ], [ 5.730904955325891, 52.250429820578056 ], [ 5.730923407337865, 52.250302230015727 ], [ 5.730915978704392, 52.250277849123506 ], [ 5.730757959240916, 52.249852508189775 ], [ 5.730669426762805, 52.24998694184265 ], [ 5.729333001362609, 52.249802071600406 ], [ 5.729151801724525, 52.24994026933004 ], [ 5.727300434880779, 52.248374709360029 ], [ 5.725206363332678, 52.247906541441864 ], [ 5.723990863427846, 52.246478646104158 ], [ 5.723306196999465, 52.245903544476199 ], [ 5.722640542528317, 52.245425019991323 ], [ 5.721879967335927, 52.245131600233421 ], [ 5.721899879535164, 52.244695224228678 ], [ 5.721285167462981, 52.244481923626807 ], [ 5.720733211676031, 52.243878360258073 ], [ 5.720725949225675, 52.243537844759508 ], [ 5.720310311923636, 52.243423945140499 ], [ 5.719325714287084, 52.242356096305798 ], [ 5.719424598222539, 52.241671913028007 ], [ 5.718467733576458, 52.241548477343471 ], [ 5.715242470436295, 52.240234252396782 ], [ 5.711075387164801, 52.239743598941857 ], [ 5.709861955874619, 52.239425449808806 ], [ 5.693946505225366, 52.239812163085908 ], [ 5.690692201440669, 52.240483986363138 ], [ 5.689214919696782, 52.240562184911248 ], [ 5.68807065467759, 52.241099705129848 ], [ 5.687951917583159, 52.240993093891525 ], [ 5.688060159485786, 52.240602106644936 ], [ 5.686013201949184, 52.240511703416644 ], [ 5.683847645837265, 52.240669002991751 ], [ 5.681517429045699, 52.241797426078413 ], [ 5.6812905983746, 52.242847140642255 ], [ 5.679346658161576, 52.245503750873524 ], [ 5.679157064343361, 52.245580880372188 ], [ 5.677979168916322, 52.244628293532905 ], [ 5.675419775592337, 52.243506826249188 ], [ 5.674153931129426, 52.242696343627458 ], [ 5.676801712295632, 52.237909870581419 ], [ 5.676892900685129, 52.237220953455463 ], [ 5.679269943914904, 52.237600774138855 ], [ 5.680907666241684, 52.237189578386399 ], [ 5.680932439244859, 52.236568781143205 ], [ 5.68291880452292, 52.236446754779116 ], [ 5.681183093923264, 52.225425505267886 ], [ 5.670850155591843, 52.224067529248828 ], [ 5.665486505045045, 52.22279917251619 ], [ 5.633214453042644, 52.208251436780742 ], [ 5.633482482895105, 52.206368925953619 ], [ 5.63474403293238, 52.203819393202011 ], [ 5.625625345355239, 52.192844853416382 ], [ 5.624287924435959, 52.193426140569208 ], [ 5.619611433665176, 52.193216703462532 ], [ 5.618519878990086, 52.191282764876568 ], [ 5.617852354138426, 52.19128165806552 ], [ 5.616831221004047, 52.192309967955012 ], [ 5.617568384284873, 52.192632969575662 ], [ 5.617481517304251, 52.194451562807345 ], [ 5.607862990475827, 52.194393794819604 ], [ 5.607787215328092, 52.195254220203608 ], [ 5.601923730624577, 52.196596153189255 ], [ 5.601443449303164, 52.197129588576608 ], [ 5.600307618584288, 52.197749462014187 ], [ 5.595545518135344, 52.196441251241161 ], [ 5.594265396791278, 52.196539409625331 ], [ 5.59287363119341, 52.196281082400844 ], [ 5.589848009748372, 52.196049754136439 ], [ 5.589534117626116, 52.195529035066031 ], [ 5.587974403704669, 52.195585589965638 ], [ 5.587805823252537, 52.195164775894597 ], [ 5.587963023355265, 52.194989766724355 ], [ 5.585642578411051, 52.195425474454929 ], [ 5.583199101864482, 52.195510609057344 ], [ 5.582019207782119, 52.195140326677191 ], [ 5.581942779794849, 52.19494770132868 ], [ 5.580419064025733, 52.194583875309583 ], [ 5.577648648337388, 52.194895352438856 ], [ 5.575073896821724, 52.192662239181494 ], [ 5.576830346464458, 52.191622966971813 ], [ 5.577021340617504, 52.189444941415701 ], [ 5.577352765378492, 52.188634295489123 ], [ 5.577792450363456, 52.186383339363992 ], [ 5.575500275837324, 52.187097100595288 ], [ 5.575270166137368, 52.187003172259701 ], [ 5.57491294766871, 52.186274633836987 ], [ 5.573372484794451, 52.186164766097804 ], [ 5.57079465109382, 52.186557712794588 ], [ 5.570708920794019, 52.186691928272154 ], [ 5.566481247266251, 52.18662073632489 ], [ 5.564441611994653, 52.185391025390281 ], [ 5.564765802890769, 52.181766711489111 ], [ 5.565142731382385, 52.180674000680398 ], [ 5.566953944024246, 52.18071035154545 ], [ 5.568300068042829, 52.179631263650094 ], [ 5.568603415121908, 52.179050306126648 ], [ 5.568688083510357, 52.178622083616141 ], [ 5.5685440302289, 52.178266768244576 ], [ 5.568712198800009, 52.178000370406188 ], [ 5.565263265360893, 52.17821057663474 ], [ 5.557261668248338, 52.17652009581137 ], [ 5.554503704812701, 52.175759339582434 ], [ 5.552070942905443, 52.175731829932595 ], [ 5.548955353061416, 52.175420929788395 ], [ 5.546638318824884, 52.176876191957845 ], [ 5.543204055548839, 52.177367605790465 ], [ 5.542068148123297, 52.177877718135569 ], [ 5.539825718912343, 52.179985010901937 ], [ 5.539934402023235, 52.180154386099076 ], [ 5.537468606443265, 52.182507540954589 ], [ 5.535288949495163, 52.185592668683313 ], [ 5.535025618271075, 52.185557165426502 ], [ 5.53374526871008, 52.187447259159555 ], [ 5.53355360268292, 52.187454232123116 ], [ 5.532939600524313, 52.18871816484377 ], [ 5.531697238007426, 52.190162801338943 ], [ 5.530861571102994, 52.191584721100249 ], [ 5.528881837406647, 52.190911830954711 ], [ 5.528390464833637, 52.191177326671173 ], [ 5.52380509540578, 52.191496897498496 ], [ 5.522367040928375, 52.191850622480906 ], [ 5.521195630364044, 52.191933663943736 ], [ 5.521039879711979, 52.19174039517295 ], [ 5.520038693498646, 52.191365881305884 ], [ 5.512074193906773, 52.188674033637859 ], [ 5.509394321026044, 52.188699480750572 ], [ 5.509328042293088, 52.188502061150324 ], [ 5.504973143092176, 52.188673501113065 ], [ 5.504179179060878, 52.189234770029309 ], [ 5.501021951510813, 52.188720060518165 ], [ 5.49723416309573, 52.187159483839764 ], [ 5.495735279113362, 52.186361491072205 ], [ 5.495356244540311, 52.186340116178222 ], [ 5.494701142970855, 52.185882528489621 ], [ 5.494386997077902, 52.18608358402453 ], [ 5.492461963127548, 52.184874067296334 ], [ 5.491053772261973, 52.18424018023299 ], [ 5.490854403896341, 52.184315557882094 ], [ 5.490627752025317, 52.184152923990581 ], [ 5.49068566493828, 52.184004644961966 ], [ 5.485540113879925, 52.182046714893168 ], [ 5.485371650031811, 52.181639935363116 ], [ 5.485089684557646, 52.17337616342666 ], [ 5.484592255880959, 52.172019754059569 ], [ 5.484955277048704, 52.171748870632854 ], [ 5.48306279406579, 52.170331589278909 ], [ 5.482265441342245, 52.169207415317018 ], [ 5.480769762469309, 52.168019193739504 ], [ 5.480307031692083, 52.167168155887964 ], [ 5.480218196442249, 52.166325812776144 ], [ 5.479873336932685, 52.165917571903378 ], [ 5.475743381039821, 52.166195421198665 ], [ 5.475650292691427, 52.165868927079885 ], [ 5.44892572972422, 52.167792904264317 ], [ 5.44660196425157, 52.168111975359601 ], [ 5.444275678360461, 52.168658474618574 ], [ 5.442073620993508, 52.169820645363728 ], [ 5.439965304526584, 52.171257300958494 ], [ 5.439645260221892, 52.172084884612396 ], [ 5.439066689429747, 52.172871147383795 ], [ 5.44023699081241, 52.17321884595259 ], [ 5.439147221828828, 52.18408656638411 ], [ 5.439346620323424, 52.184328015952012 ], [ 5.438229258477309, 52.184629670498865 ], [ 5.438958091241042, 52.18586000946587 ], [ 5.439698382174863, 52.187792627171312 ], [ 5.440194391561455, 52.190035096413737 ], [ 5.440263358039044, 52.19203673156526 ], [ 5.440073209099857, 52.195763449129139 ], [ 5.439807873180252, 52.196008089126366 ], [ 5.439872097385733, 52.197286295498216 ], [ 5.439521746781874, 52.199971385292073 ], [ 5.439486755134507, 52.201426875207417 ], [ 5.43953773020041, 52.202052147732509 ], [ 5.439759367627502, 52.202189685343029 ], [ 5.439729789608939, 52.202562523218361 ], [ 5.441239772336864, 52.204278293226523 ], [ 5.440340417415321, 52.20467025332696 ], [ 5.441018081045246, 52.20540602104662 ], [ 5.441109444389387, 52.205764766524183 ], [ 5.439774744884393, 52.206072659467246 ], [ 5.439179225816607, 52.204730761766534 ], [ 5.436677375995677, 52.205682767251417 ], [ 5.436353560124986, 52.205412609967532 ], [ 5.434781815036801, 52.205956646004893 ], [ 5.434400677528756, 52.206145246420441 ], [ 5.434367617042924, 52.206306671914945 ], [ 5.431933270983841, 52.207214034046771 ], [ 5.431735501989054, 52.207451794228213 ], [ 5.426079478922309, 52.210425749702381 ], [ 5.422043832535536, 52.2123627304697 ], [ 5.421072565782281, 52.213284186881943 ], [ 5.419663796131282, 52.213802205829523 ], [ 5.409695168926056, 52.218676329733292 ], [ 5.408709167761433, 52.217015552227494 ], [ 5.4071694154676, 52.213535916967942 ], [ 5.393603098726866, 52.220238396363172 ], [ 5.393315922968056, 52.220696353116026 ], [ 5.394670338366642, 52.224101833998709 ], [ 5.395060189842434, 52.225547384388101 ], [ 5.396330946910274, 52.228430707779559 ], [ 5.396881902520923, 52.230340874934647 ], [ 5.399928712189446, 52.237542657502075 ], [ 5.403548726589935, 52.24683384993709 ], [ 5.404578413538272, 52.246967496766509 ], [ 5.405849185337287, 52.246596671235281 ], [ 5.408642096289872, 52.246327438074815 ], [ 5.411870863795119, 52.246416446372223 ], [ 5.413221052602808, 52.245983999241687 ], [ 5.413701477372236, 52.245662054762498 ], [ 5.414621163600827, 52.245531975365182 ], [ 5.416257888400293, 52.246209987971852 ], [ 5.41877581523714, 52.246913983637782 ], [ 5.424845166573388, 52.249579104424072 ], [ 5.430776006771876, 52.250385567426086 ], [ 5.432803822264054, 52.251125272201016 ], [ 5.435294747804025, 52.252432575967902 ], [ 5.438168994750844, 52.252777601495019 ], [ 5.452066001314342, 52.253857967538956 ], [ 5.454282238556013, 52.253599624521975 ], [ 5.455422077963655, 52.254234947381626 ], [ 5.456475066035956, 52.254508172609093 ], [ 5.457255082328927, 52.25439614379119 ], [ 5.458528416266964, 52.254682519174679 ], [ 5.459927634666281, 52.255386183658452 ], [ 5.460623786558586, 52.255242553219716 ], [ 5.46139390458519, 52.255641548776275 ], [ 5.462017371764433, 52.255434759162846 ], [ 5.462381006201322, 52.255486677670625 ], [ 5.462992044779432, 52.256224369411797 ], [ 5.462770951931102, 52.256530631728879 ], [ 5.463267070760952, 52.256498856109914 ], [ 5.463429320933731, 52.25668264584305 ], [ 5.463386996421788, 52.257798100968508 ], [ 5.463879436456438, 52.257976989391565 ], [ 5.463549422731792, 52.258267404236172 ], [ 5.463992919329315, 52.258316017601416 ], [ 5.463950878187715, 52.258870350189305 ], [ 5.463351283495447, 52.258874526205737 ], [ 5.463294797301403, 52.259036610605108 ], [ 5.464009926017905, 52.259151132648022 ], [ 5.464154931120373, 52.25936437834725 ], [ 5.464412553266446, 52.259321913245202 ], [ 5.464770509493162, 52.258165931600843 ], [ 5.465264062760231, 52.255667995562654 ], [ 5.464860379303477, 52.255519412501947 ], [ 5.464899635349743, 52.255271290504446 ], [ 5.465922921535513, 52.255566962362138 ], [ 5.465897076977265, 52.255927132273413 ], [ 5.46641500530921, 52.255989830104781 ], [ 5.46601622461486, 52.257884280842298 ], [ 5.465437799882035, 52.257893002558568 ], [ 5.465128824965062, 52.259419982430629 ], [ 5.466298588937149, 52.259219975646019 ], [ 5.467426527546369, 52.258651860557421 ], [ 5.470992964448027, 52.259311961473145 ], [ 5.471184801554122, 52.259399707850271 ], [ 5.470871483322988, 52.259567633449912 ], [ 5.468555942988142, 52.259181465175217 ], [ 5.468222770512443, 52.259442773469331 ], [ 5.468523187525137, 52.259742737983437 ], [ 5.470645935437897, 52.260129885212997 ], [ 5.470239582009489, 52.260917441342663 ], [ 5.46976970508143, 52.261131167949415 ], [ 5.469920032952608, 52.261437925760866 ], [ 5.47103826847236, 52.261882791871265 ], [ 5.472948990652206, 52.262217155494255 ], [ 5.47413915320565, 52.262181675756679 ], [ 5.474526775797205, 52.261969004509766 ], [ 5.474238630887664, 52.261579169884129 ], [ 5.472293293429933, 52.261189130487253 ], [ 5.473721649394045, 52.257716098131013 ], [ 5.474866851489173, 52.257170584014702 ], [ 5.48004201275597, 52.258289430490123 ], [ 5.487488097595956, 52.262067271026183 ], [ 5.488499482742312, 52.262756954649262 ], [ 5.493269044379281, 52.263352632578439 ], [ 5.494532785234391, 52.26389485182461 ], [ 5.49624233260757, 52.263803530813711 ], [ 5.497804520252721, 52.263980600025739 ], [ 5.499552958855004, 52.26428871261713 ], [ 5.50037265192568, 52.264650738850001 ], [ 5.501898867128431, 52.264582285836894 ], [ 5.506223004446286, 52.264923534165703 ], [ 5.51246521767669, 52.264245202321014 ], [ 5.524547330863432, 52.26401186962871 ], [ 5.525178702226364, 52.263809208342266 ], [ 5.527990385808894, 52.263888139177695 ], [ 5.528114934178544, 52.2641519828612 ], [ 5.528015976674457, 52.264273881410354 ], [ 5.527389949809167, 52.264281340758885 ], [ 5.523668053465349, 52.265463672580267 ], [ 5.523038693888879, 52.266111652712787 ], [ 5.523220901695352, 52.266328985108309 ], [ 5.523501512610979, 52.266305050905672 ], [ 5.523846666390909, 52.266822139798144 ], [ 5.523571439890801, 52.266844633524279 ], [ 5.522625938342344, 52.266501342968354 ], [ 5.519181258957849, 52.266360961749726 ], [ 5.518604398814859, 52.265936557923006 ], [ 5.516960216318774, 52.266104312542417 ], [ 5.515748891476204, 52.265956469971229 ], [ 5.515665493652667, 52.265787749332809 ], [ 5.515047543652498, 52.265678347483004 ], [ 5.514015046779169, 52.265560078767351 ], [ 5.513695911897605, 52.265657867644293 ], [ 5.512091340788401, 52.265319895374503 ], [ 5.511744607719986, 52.265514071301602 ], [ 5.511585239642964, 52.265303905212079 ], [ 5.508340751329674, 52.264890883994063 ], [ 5.506160581327222, 52.265148044257934 ], [ 5.501754419957978, 52.264752267205523 ], [ 5.500324346089534, 52.264842614215588 ], [ 5.49882161208082, 52.264358464782134 ], [ 5.496355074716781, 52.263988545761336 ], [ 5.494623414777783, 52.264079101713946 ], [ 5.492744440610394, 52.263457536688648 ], [ 5.489114436645782, 52.263083111129895 ], [ 5.487682983868047, 52.262608035792354 ], [ 5.483951700517299, 52.26216180231927 ], [ 5.482094974760955, 52.261742205746224 ], [ 5.481027766123371, 52.261223635413444 ], [ 5.480683821611063, 52.261285096664977 ], [ 5.478776569998015, 52.260307377793602 ], [ 5.478725411402725, 52.260041450409268 ], [ 5.478447295970332, 52.260091286752633 ], [ 5.47797322279787, 52.259824543469051 ], [ 5.477690638361698, 52.260010988584128 ], [ 5.477802529777266, 52.260187315814591 ], [ 5.481867694623303, 52.262224835139747 ], [ 5.487627529884753, 52.263018523750844 ], [ 5.488519362347373, 52.263375252569666 ], [ 5.492726879835672, 52.263848523520018 ], [ 5.49428719439343, 52.26440256588802 ], [ 5.496067132755985, 52.264317053308908 ], [ 5.498641711039478, 52.264712537738276 ], [ 5.500186330256565, 52.26524166711927 ], [ 5.501652675317419, 52.265116861065884 ], [ 5.506292543992684, 52.265511052225726 ], [ 5.507686633102409, 52.26533887698325 ], [ 5.508439702563894, 52.265561410860762 ], [ 5.516710510177523, 52.26644873484944 ], [ 5.518151795535687, 52.266384167443533 ], [ 5.519032984879136, 52.266698642485949 ], [ 5.521369123571596, 52.26693323977139 ], [ 5.522051915970053, 52.266871565302026 ], [ 5.523989199944573, 52.267223653517917 ], [ 5.524438613341378, 52.266897502139784 ], [ 5.523980770563839, 52.266235359826197 ], [ 5.524203352933984, 52.265829299689557 ], [ 5.526388932708033, 52.265104507841428 ], [ 5.528291271734845, 52.264828184523417 ], [ 5.529288862037415, 52.265267901731278 ], [ 5.529162404003316, 52.265600122161629 ], [ 5.529306366531085, 52.265751190883066 ], [ 5.529711875023525, 52.2656927215872 ], [ 5.529821594591731, 52.265921960717421 ], [ 5.530587376346352, 52.265992311628267 ], [ 5.531159290598917, 52.266727798146519 ], [ 5.531267549273181, 52.267109664057209 ], [ 5.530637648140006, 52.267553337822676 ], [ 5.531384310329481, 52.267587683268594 ], [ 5.531541917489907, 52.267797494773397 ], [ 5.531139723918223, 52.268525612937907 ], [ 5.530507611068827, 52.269147401150278 ], [ 5.530521088295052, 52.269412515092888 ], [ 5.53079617381492, 52.269550225313907 ], [ 5.530961085565294, 52.271625303194 ], [ 5.531269388877611, 52.27158760760252 ], [ 5.531331338044225, 52.270247840538865 ], [ 5.531641965010643, 52.269208573052765 ], [ 5.533254677074544, 52.269095173404082 ], [ 5.53467846279598, 52.270514918602316 ], [ 5.533091847337813, 52.271146813098255 ], [ 5.531596567337036, 52.271306791051622 ], [ 5.531550001172397, 52.271544904106882 ], [ 5.533170330587515, 52.271635744064056 ], [ 5.53340947712181, 52.2714935619722 ], [ 5.533395595178047, 52.271760825423435 ], [ 5.533553688391123, 52.271851462927238 ], [ 5.533764429727554, 52.27161799712308 ], [ 5.53459584397179, 52.271352625681359 ], [ 5.535879946129628, 52.271589081444553 ], [ 5.536034517539025, 52.271810868167222 ], [ 5.535712025329998, 52.272054388075581 ], [ 5.53572324057451, 52.272221771472616 ], [ 5.535876865578757, 52.272277648707984 ], [ 5.536239775499713, 52.272037466110049 ], [ 5.536428745701452, 52.272120001458802 ], [ 5.536692094310801, 52.272424577793764 ], [ 5.53654800152855, 52.272905381813025 ], [ 5.536771216823481, 52.2729619678693 ], [ 5.536957969689379, 52.272771988667714 ], [ 5.53738334163923, 52.27302643080322 ], [ 5.53731629503377, 52.274370224564471 ], [ 5.538853210281154, 52.274841203300049 ], [ 5.538498484617266, 52.276184032744297 ], [ 5.538767072854339, 52.276333402016604 ], [ 5.539404334178839, 52.276174722881159 ], [ 5.539775811724825, 52.276302412078017 ], [ 5.54009214588846, 52.276775788423514 ], [ 5.539948881494333, 52.27738006206387 ], [ 5.540586904177928, 52.277429884458805 ], [ 5.541012781814248, 52.277934389396407 ], [ 5.540932035293274, 52.278353051270102 ], [ 5.540382395804417, 52.279247725481902 ], [ 5.540722699909569, 52.279293498499186 ], [ 5.540996136612935, 52.279638668242661 ], [ 5.541721121982231, 52.279576789912547 ], [ 5.542295088762669, 52.280035843746454 ], [ 5.54241477886116, 52.280404045549517 ], [ 5.542174206598321, 52.28089283825436 ], [ 5.542768143809607, 52.281008265200427 ], [ 5.542974216130114, 52.281712127279775 ], [ 5.542524649797242, 52.282553775805283 ], [ 5.541950584347243, 52.28285608761702 ], [ 5.541785737182811, 52.283117968199157 ], [ 5.542317197985242, 52.28390988098149 ], [ 5.542214806805863, 52.284116969087087 ], [ 5.54268637789832, 52.284899930133015 ], [ 5.542630733703722, 52.285112834239882 ], [ 5.54298523984421, 52.28534059792014 ], [ 5.544267558870438, 52.285317316099025 ], [ 5.544706810477309, 52.285585431027485 ], [ 5.544830527380268, 52.286053299508204 ], [ 5.544738359480408, 52.286845268839777 ], [ 5.545200424894602, 52.28705051082293 ], [ 5.546053156258946, 52.287983631296825 ], [ 5.545996022755799, 52.288246445107191 ], [ 5.546241467718442, 52.288394096550533 ], [ 5.54626120104308, 52.288862336717969 ], [ 5.546484568080039, 52.289058814471609 ], [ 5.546603969125737, 52.289747626378741 ], [ 5.54705309213516, 52.289907239333594 ], [ 5.546698752713233, 52.290549879529777 ], [ 5.547967251350722, 52.291816355920609 ], [ 5.547767484787753, 52.292541130328949 ], [ 5.54797720172972, 52.293149951633872 ], [ 5.548991284456727, 52.293723880540036 ], [ 5.549421468340189, 52.294304149270381 ], [ 5.549222932999918, 52.294857877206468 ], [ 5.549932697904556, 52.295303384055721 ], [ 5.549950526478094, 52.295630873315751 ], [ 5.55024267498218, 52.295790428108653 ], [ 5.550060388853724, 52.295986857577176 ], [ 5.550101655230809, 52.296220099730462 ], [ 5.550612127859534, 52.296405269088041 ], [ 5.550092217127829, 52.296696842464982 ], [ 5.550001063565663, 52.296961199331001 ], [ 5.550614214670372, 52.296842601184522 ], [ 5.550973583039278, 52.297025735769864 ], [ 5.551446439904989, 52.29787653735373 ], [ 5.551153318129494, 52.29805196005897 ], [ 5.551154378262904, 52.298218794481052 ], [ 5.551622354427455, 52.298337386453682 ], [ 5.551914057433339, 52.298762852964103 ], [ 5.552291565180763, 52.298821079158138 ], [ 5.552002079960816, 52.299047497069793 ], [ 5.552431358873236, 52.299393123580955 ], [ 5.552306551635403, 52.2996949446568 ], [ 5.552444048518375, 52.299887638298678 ], [ 5.552273198646056, 52.30018075286717 ], [ 5.55180438211691, 52.300284397029728 ], [ 5.551764092663778, 52.300421845696079 ], [ 5.552629484093067, 52.300514703707442 ], [ 5.553139225428402, 52.30109651139805 ], [ 5.553227063905069, 52.301493398765146 ], [ 5.552812756862034, 52.301919902283387 ], [ 5.553326020573171, 52.30202698590778 ], [ 5.553552970925451, 52.302273298071469 ], [ 5.553549373287, 52.302882558008704 ], [ 5.554047559885599, 52.30309425958702 ], [ 5.554253163749548, 52.303372107687984 ], [ 5.554012667123248, 52.303613180510588 ], [ 5.554597288021253, 52.30380883955484 ], [ 5.555294045521215, 52.304901276192389 ], [ 5.555292914749201, 52.305176787027598 ], [ 5.554858955515632, 52.305647601244488 ], [ 5.555518550482655, 52.305614216691147 ], [ 5.555895020934711, 52.305802831679053 ], [ 5.556179003093572, 52.306301231458988 ], [ 5.5556552951608, 52.306732656454599 ], [ 5.556194321368189, 52.30670663266298 ], [ 5.556601698889941, 52.306892278686881 ], [ 5.557308118639665, 52.307939812970794 ], [ 5.557185605489726, 52.308333960855968 ], [ 5.557621950837313, 52.308413360922657 ], [ 5.558121513226858, 52.309035621721669 ], [ 5.558237572771692, 52.309511210173248 ], [ 5.557863871551731, 52.310282540237395 ], [ 5.559064342347949, 52.310838353976813 ], [ 5.560042347246355, 52.311878772473293 ], [ 5.559997067903662, 52.312703221797605 ], [ 5.558903099599207, 52.313448756222428 ], [ 5.558970054574723, 52.313707064700239 ], [ 5.559375708059866, 52.313991235369791 ], [ 5.558946047512204, 52.314051808590065 ], [ 5.55849902769004, 52.314478384143939 ], [ 5.558697428571892, 52.314617336365494 ], [ 5.559151207720581, 52.31429714170244 ], [ 5.559662061036542, 52.314312652802236 ], [ 5.559933763636426, 52.314452793401138 ], [ 5.560305681826947, 52.314993378754721 ], [ 5.560249297643945, 52.315130989887408 ], [ 5.55978329800372, 52.315204608748843 ], [ 5.559368789360943, 52.315628676947519 ], [ 5.559535654113793, 52.315807037052693 ], [ 5.559904458690555, 52.315469512249209 ], [ 5.560054067508093, 52.315544310210093 ], [ 5.559330167441277, 52.316615351197925 ], [ 5.559339250730487, 52.316995260269024 ], [ 5.559623012294099, 52.317370009865442 ], [ 5.560698642456241, 52.318334459604216 ], [ 5.561162901229983, 52.318191570484963 ], [ 5.561189249643885, 52.317787008631292 ], [ 5.560090789257718, 52.316843758587396 ], [ 5.560205168778737, 52.316429162666388 ], [ 5.560812171579145, 52.315832117599022 ], [ 5.561532233607782, 52.315503281450397 ], [ 5.562296184000686, 52.31539951944125 ], [ 5.563168627480605, 52.31562116113335 ], [ 5.564198618468747, 52.316460811970146 ], [ 5.563877092204955, 52.316624669500555 ], [ 5.563991894318549, 52.316837357175103 ], [ 5.563774406313959, 52.316952959338273 ], [ 5.563825917735842, 52.317107484341314 ], [ 5.561849732607488, 52.317682049627869 ], [ 5.561863287826858, 52.318070256881001 ], [ 5.562535766378671, 52.318048673190027 ], [ 5.563890677412607, 52.319264877163747 ], [ 5.56673348676687, 52.319245935721625 ], [ 5.567408178378166, 52.319021854239402 ], [ 5.567592456726997, 52.319105582436322 ], [ 5.566946499980869, 52.319479346426569 ], [ 5.566884670587998, 52.319808732708481 ], [ 5.56740204431351, 52.320350945622778 ], [ 5.567982675003597, 52.320573401337292 ], [ 5.568605416686416, 52.321215882239684 ], [ 5.56853370452658, 52.321668423605537 ], [ 5.568729131462893, 52.322002015826989 ], [ 5.569650441587484, 52.322122238820143 ], [ 5.570209889867647, 52.322423988297054 ], [ 5.57132310808931, 52.323331457635973 ], [ 5.571217338387908, 52.323699635230447 ], [ 5.571746475586267, 52.324052122036733 ], [ 5.572222744414861, 52.324129513025532 ], [ 5.572590038508499, 52.324479274891175 ], [ 5.572572882087014, 52.324763271750172 ], [ 5.57295346569001, 52.324931032032566 ], [ 5.572999119736592, 52.325148510847711 ], [ 5.573608881197589, 52.325475704075593 ], [ 5.573752984255854, 52.325711377598147 ], [ 5.57449731628746, 52.325796502051766 ], [ 5.574850944188473, 52.326481046101108 ], [ 5.575893976880646, 52.326766022545627 ], [ 5.577826204737989, 52.327824365653406 ], [ 5.578086328595958, 52.328371151124323 ], [ 5.578278979798339, 52.328289917479282 ], [ 5.578503038199154, 52.328464137676576 ], [ 5.578807306405931, 52.328358909950303 ], [ 5.57978065493927, 52.32886755209995 ], [ 5.580143680048013, 52.329487631280408 ], [ 5.580965588158085, 52.329432682251309 ], [ 5.581319866937267, 52.329605866515593 ], [ 5.58148545025249, 52.3299754473463 ], [ 5.582713719704834, 52.330500740728304 ], [ 5.582996253034417, 52.330845486405316 ], [ 5.583670968087958, 52.330948671622096 ], [ 5.585488782289238, 52.331882412714592 ], [ 5.586217486590684, 52.332002933597913 ], [ 5.588308911140858, 52.331890064695287 ], [ 5.588889948496097, 52.33231237814298 ], [ 5.590070216033536, 52.332811711740597 ], [ 5.590264205606366, 52.3334354915742 ], [ 5.590626139824002, 52.333631904762484 ], [ 5.59145140336227, 52.333743445247968 ], [ 5.591961882707516, 52.334079203266782 ], [ 5.593294887013271, 52.334020773538811 ], [ 5.593873419019745, 52.334343413305248 ], [ 5.594408880283829, 52.335026609559158 ], [ 5.594864666864569, 52.335245091356974 ], [ 5.595470023542982, 52.335226218141443 ], [ 5.596005672097642, 52.33553443795379 ], [ 5.596199340397313, 52.33612942012951 ], [ 5.597038628284905, 52.336483082167952 ], [ 5.597621476099087, 52.337015068163311 ], [ 5.598152320734314, 52.337285417918217 ], [ 5.598851647125095, 52.337220851613893 ], [ 5.599087257679475, 52.337402744480165 ], [ 5.599320427173367, 52.338040523449088 ], [ 5.600854864591265, 52.338171212407744 ], [ 5.600666402122366, 52.338335060858775 ], [ 5.600782032495018, 52.338679146830145 ], [ 5.602376232676614, 52.33926712558867 ], [ 5.603300038136671, 52.340150456531191 ], [ 5.604243177139747, 52.340393788484768 ], [ 5.604542813259973, 52.340896164116977 ], [ 5.605063284593808, 52.341028699581052 ], [ 5.605029971584295, 52.341336147094808 ], [ 5.60601570034517, 52.341767838087939 ], [ 5.60673076124634, 52.342399196131559 ], [ 5.607372203088355, 52.342709427261305 ], [ 5.607717104733118, 52.343587536526215 ], [ 5.608624095715962, 52.344011636080026 ], [ 5.608866800347412, 52.344358943466993 ], [ 5.609771827644332, 52.344645382138353 ], [ 5.609804152681867, 52.345078129739179 ], [ 5.610387417955538, 52.345573940364986 ], [ 5.610872873354936, 52.345718548976826 ], [ 5.611222958128558, 52.345649581061565 ], [ 5.611488869545697, 52.34621049493856 ], [ 5.612083169855741, 52.346381092243362 ], [ 5.611928822820246, 52.346698258951641 ], [ 5.612357454875142, 52.346958772372183 ], [ 5.612163091198924, 52.347540641884791 ], [ 5.612271710509677, 52.348919090644465 ], [ 5.612936143172516, 52.34942459980617 ], [ 5.613220668589629, 52.35006809656273 ], [ 5.613638673541274, 52.35041350775704 ], [ 5.614591203648516, 52.350791556824518 ], [ 5.615461801528533, 52.351638964717459 ], [ 5.615483332858926, 52.351890497780346 ], [ 5.613220292906194, 52.352035302420774 ], [ 5.613243491719867, 52.352336480978749 ], [ 5.615223737051101, 52.353280126831933 ], [ 5.615452072338964, 52.353549472152025 ], [ 5.61499175310772, 52.355100894211425 ], [ 5.614204600804795, 52.356734520256026 ], [ 5.612894425470491, 52.357849121977651 ], [ 5.612972793760783, 52.358051246978064 ], [ 5.613164088055296, 52.358074852370486 ], [ 5.614372101020231, 52.357006177937023 ], [ 5.615314079596711, 52.356501326198156 ], [ 5.619368394384254, 52.354953605537872 ], [ 5.619698343233629, 52.354674084591878 ], [ 5.619797001146674, 52.354291434726356 ], [ 5.619495616741721, 52.354039194429674 ], [ 5.619610187418014, 52.35386380175391 ], [ 5.618601266737016, 52.352987314289962 ], [ 5.619050213959643, 52.352791533607267 ], [ 5.619947756869371, 52.353570135191511 ], [ 5.619732916942753, 52.353837919181501 ], [ 5.620222519816735, 52.354282888679336 ], [ 5.620494437803832, 52.354011382027622 ], [ 5.620300297159197, 52.353716702543899 ], [ 5.621018449441453, 52.353317555922054 ], [ 5.621423013354634, 52.352886793675019 ], [ 5.622304007000907, 52.352345535781993 ], [ 5.623808455177058, 52.352012795193239 ], [ 5.623928690134554, 52.351518929477372 ], [ 5.623621106046487, 52.351212629027223 ], [ 5.624147593586877, 52.350982924262681 ], [ 5.624609453328467, 52.351389596529636 ], [ 5.624124697090996, 52.351559681295029 ], [ 5.624075158875403, 52.351984630654172 ], [ 5.623624062681844, 52.35214404020217 ], [ 5.619679963625394, 52.354822398233075 ], [ 5.619712341997552, 52.355180627723811 ], [ 5.622685391990988, 52.355524441742887 ], [ 5.62407525380118, 52.355224786829602 ], [ 5.626821603957326, 52.353419623370876 ], [ 5.627251341080192, 52.353662085625309 ], [ 5.623707621505347, 52.3559880650892 ], [ 5.622306652086133, 52.355835756778681 ], [ 5.6219504489719, 52.355512319780068 ], [ 5.62091813455327, 52.355379532561784 ], [ 5.619890311465338, 52.355883033267069 ], [ 5.618777018194582, 52.356070609948375 ], [ 5.618609716849376, 52.356352215348203 ], [ 5.617967396059774, 52.356174242860114 ], [ 5.616065101340401, 52.356767267144619 ], [ 5.61587546251679, 52.357213612470801 ], [ 5.615980692840308, 52.357376725302004 ], [ 5.618968567163069, 52.358459384387018 ], [ 5.619557490122462, 52.358222671997922 ], [ 5.619780000016941, 52.358288386919178 ], [ 5.621070029686161, 52.357731910997167 ], [ 5.621430901792581, 52.357997821303805 ], [ 5.622873132838516, 52.357543600692416 ], [ 5.623141649891317, 52.357733671290227 ], [ 5.619276941163163, 52.359457377445736 ], [ 5.619294628722911, 52.359951067502998 ], [ 5.619049979753649, 52.358541091707785 ], [ 5.618782699605237, 52.358593014415554 ], [ 5.618920243562796, 52.359606734718191 ], [ 5.618741133340072, 52.359631558015565 ], [ 5.618661085406754, 52.359442484592321 ], [ 5.618468173579569, 52.359434410478315 ], [ 5.618310908463734, 52.358858859698401 ], [ 5.61805453775717, 52.358898964238989 ], [ 5.617790601828676, 52.359210640814332 ], [ 5.615877172543571, 52.358563970597309 ], [ 5.615948517137338, 52.358334407265822 ], [ 5.615510488111743, 52.358176713726962 ], [ 5.616072364261355, 52.357618911392478 ], [ 5.615888002894886, 52.357490174996272 ], [ 5.615716195576466, 52.357574889528514 ], [ 5.615137986013809, 52.357112151504836 ], [ 5.614840296566114, 52.35717700616123 ], [ 5.614283826029072, 52.357847676087253 ], [ 5.614203797190272, 52.358159790514044 ], [ 5.614377383584145, 52.358256200238507 ], [ 5.614347728189466, 52.358477377106084 ], [ 5.614768827488344, 52.358760055621076 ], [ 5.61739532432964, 52.359646741248092 ], [ 5.618787386268346, 52.360448745286902 ], [ 5.618231243108725, 52.360516694835937 ], [ 5.618298566304199, 52.360807926316184 ], [ 5.617794617958831, 52.360667043864808 ], [ 5.617785572438176, 52.360854443452936 ], [ 5.617581132484309, 52.360941785026036 ], [ 5.616945919616096, 52.360569477071969 ], [ 5.616629362129715, 52.360575625300285 ], [ 5.614814178335889, 52.361586457491569 ], [ 5.613364353845595, 52.362658825183026 ], [ 5.611480960828394, 52.363421553893417 ], [ 5.611312135845938, 52.363622576540898 ], [ 5.61140688944742, 52.363856096402252 ], [ 5.610803926336128, 52.364182291619009 ], [ 5.61018946665938, 52.364109184595556 ], [ 5.608288788581576, 52.365276141517278 ], [ 5.607493997565303, 52.364575687123398 ], [ 5.606881034523377, 52.364403143083834 ], [ 5.605083300421371, 52.364975335015579 ], [ 5.601594657658651, 52.365048249247863 ], [ 5.601063343524126, 52.365448333527603 ], [ 5.588608442523597, 52.363108682105739 ], [ 5.586176118815974, 52.362873264700148 ], [ 5.583905853818684, 52.362849742685775 ], [ 5.581126682730633, 52.363151090667749 ], [ 5.579128072190613, 52.363589734403988 ], [ 5.566663384065476, 52.366514384000773 ], [ 5.563763844508832, 52.367450587251426 ], [ 5.539755623070488, 52.351314443736769 ], [ 5.538427676555036, 52.350063933358875 ], [ 5.537522973461268, 52.348459024378144 ], [ 5.537319489713753, 52.347226604291947 ], [ 5.537503615517194, 52.345872412492682 ], [ 5.542257068534814, 52.336678314921443 ], [ 5.545175344804757, 52.335182559130878 ], [ 5.548025746727039, 52.335678071026685 ], [ 5.552924418253165, 52.334199094619031 ], [ 5.552337393078017, 52.331699448256188 ], [ 5.552130239558914, 52.33159797170876 ], [ 5.551925219852461, 52.331789465692374 ], [ 5.552116516645788, 52.332528270266309 ], [ 5.549854775973588, 52.33311089275221 ], [ 5.549631229702813, 52.333284446304802 ], [ 5.549874162120423, 52.333440891579507 ], [ 5.551467856768954, 52.333074120858335 ], [ 5.552081604039286, 52.333859226774642 ], [ 5.549283807244212, 52.334633596560863 ], [ 5.548778791269131, 52.333922734142341 ], [ 5.549242246401177, 52.333705595619705 ], [ 5.548911508721738, 52.333296709612419 ], [ 5.547954348981682, 52.333623618521294 ], [ 5.548380473506011, 52.334356126772278 ], [ 5.54824309537337, 52.33470744403558 ], [ 5.547606023782715, 52.334007538484101 ], [ 5.547179285091556, 52.334590732242276 ], [ 5.5471985923416, 52.334411595549383 ], [ 5.546578130390875, 52.33377938744848 ], [ 5.546158088643096, 52.334405513539124 ], [ 5.546186552840463, 52.334231132672478 ], [ 5.545558939723633, 52.333578629045313 ], [ 5.545063165296461, 52.334171759929994 ], [ 5.545489709060472, 52.333364469503032 ], [ 5.546755131080712, 52.333613734942233 ], [ 5.548533076853946, 52.333040834465727 ], [ 5.548836647969851, 52.332580135362193 ], [ 5.548571903056589, 52.332316760265392 ], [ 5.547896601057502, 52.332486693840373 ], [ 5.545560552805456, 52.332031336539401 ], [ 5.545670881802513, 52.331823215203535 ], [ 5.546358245505813, 52.331948708738778 ], [ 5.547638282358042, 52.331890491230901 ], [ 5.547741523419162, 52.332246083761511 ], [ 5.548129611460882, 52.332388618905107 ], [ 5.549068077362769, 52.332047067062319 ], [ 5.549311292031436, 52.331641760957567 ], [ 5.54906485214192, 52.331257090131189 ], [ 5.54599453244833, 52.330658775976794 ], [ 5.546708802702721, 52.329370401759554 ], [ 5.547290093907687, 52.329432542526618 ], [ 5.547368064539573, 52.329729829388704 ], [ 5.54920353991616, 52.330078728022755 ], [ 5.549945819870589, 52.331572894108795 ], [ 5.550939447393117, 52.331610621942659 ], [ 5.551209386996504, 52.33146410371036 ], [ 5.551203011689947, 52.331139452805971 ], [ 5.549827546629753, 52.329004863118335 ], [ 5.550392512263404, 52.328841330828205 ], [ 5.550445439828732, 52.328635990667252 ], [ 5.549096210273168, 52.328522463428421 ], [ 5.548626846610039, 52.328078055172924 ], [ 5.548477893195489, 52.327501576951825 ], [ 5.548626602173928, 52.327118248822728 ], [ 5.549570763850564, 52.326171958330981 ], [ 5.549252904974881, 52.325692716291663 ], [ 5.549294170507128, 52.325431336080889 ], [ 5.55053867495532, 52.324394235897081 ], [ 5.550578167723502, 52.324152080721781 ], [ 5.550358833601456, 52.3237513160947 ], [ 5.550472580068755, 52.323501882967996 ], [ 5.551588201915028, 52.322924871432669 ], [ 5.551707410003097, 52.322468860174787 ], [ 5.551260384508565, 52.322234343984249 ], [ 5.551282700783196, 52.322081134880499 ], [ 5.552180815017668, 52.322300421597795 ], [ 5.553010418410738, 52.322034404173209 ], [ 5.552875294573036, 52.321833666660574 ], [ 5.552294450218064, 52.322030218712982 ], [ 5.55182420578832, 52.321985320629203 ], [ 5.551653847512616, 52.32171564261418 ], [ 5.551805719177183, 52.321435765488999 ], [ 5.55292610775684, 52.320887114196111 ], [ 5.552618134330223, 52.320809016319103 ], [ 5.552543675368662, 52.319607963130061 ], [ 5.551120022104731, 52.319245434596795 ], [ 5.550698279351816, 52.318885423755241 ], [ 5.54988203985481, 52.317288417077968 ], [ 5.549763219476405, 52.316504822385816 ], [ 5.549339247300745, 52.31627044976382 ], [ 5.549045504059048, 52.315720415412422 ], [ 5.548758897726829, 52.314472022439446 ], [ 5.549132307580964, 52.313767506660135 ], [ 5.549123347700968, 52.313402623440147 ], [ 5.548707569523239, 52.312988042435379 ], [ 5.548683784642115, 52.312605223072765 ], [ 5.549169795991061, 52.31228923999933 ], [ 5.549208270667817, 52.312024891468162 ], [ 5.548106039940401, 52.312157117816042 ], [ 5.546708461609701, 52.311789592510159 ], [ 5.547154030158484, 52.310950545251799 ], [ 5.548726716891504, 52.311222416566146 ], [ 5.549120964370319, 52.311737351817079 ], [ 5.54932289645512, 52.311634206933697 ], [ 5.549341044932315, 52.311430658424804 ], [ 5.549049867765287, 52.310962656858912 ], [ 5.547630969794493, 52.310645628738826 ], [ 5.546928725953211, 52.310319588472524 ], [ 5.545990337004245, 52.309193392438502 ], [ 5.545623096772681, 52.308314023627588 ], [ 5.545846117631498, 52.307714028902872 ], [ 5.545610523845783, 52.307497832748133 ], [ 5.545811019051866, 52.307165606134767 ], [ 5.545275103524967, 52.306521821703456 ], [ 5.54509345722119, 52.305760878997646 ], [ 5.544076065175105, 52.303458738544954 ], [ 5.543968831330981, 52.302758973467022 ], [ 5.543610935032801, 52.302481458183308 ], [ 5.542867436153474, 52.302357191283392 ], [ 5.542801161997969, 52.302070899853142 ], [ 5.543058698164113, 52.301419709571988 ], [ 5.542712326544976, 52.300858456762832 ], [ 5.542609541389075, 52.300048420717474 ], [ 5.542439513532906, 52.299799751227312 ], [ 5.54203587695091, 52.299672507411756 ], [ 5.541853100133851, 52.298938975957782 ], [ 5.540463430591693, 52.297564821813459 ], [ 5.540283963638567, 52.297085503973669 ], [ 5.540380999435564, 52.296813900223093 ], [ 5.539335324910148, 52.295103572506292 ], [ 5.539403498216614, 52.29492621577451 ], [ 5.539156409649821, 52.294516885613618 ], [ 5.538137434518419, 52.294040611670503 ], [ 5.537971599211285, 52.293522530136023 ], [ 5.537691622945228, 52.29322510085241 ], [ 5.538105225078708, 52.293057499614484 ], [ 5.538686129386341, 52.292272343156739 ], [ 5.539109891315013, 52.291309061519449 ], [ 5.539027769927933, 52.290938650741836 ], [ 5.538225260809633, 52.290372148642774 ], [ 5.5376747071345, 52.289595984833191 ], [ 5.537439235949189, 52.289716046566731 ], [ 5.537902358845082, 52.290529900073111 ], [ 5.537543982922124, 52.290646397125329 ], [ 5.537488352599111, 52.291157710942308 ], [ 5.536719212049666, 52.291559148548245 ], [ 5.536208321903703, 52.291466588033487 ], [ 5.535667064528278, 52.29050402955302 ], [ 5.536258567969443, 52.289906216019624 ], [ 5.538085705079187, 52.289335569286621 ], [ 5.538241647904095, 52.289071698618137 ], [ 5.536015947920765, 52.289067567245802 ], [ 5.535372168929384, 52.288225900539878 ], [ 5.534817971114538, 52.28790576884743 ], [ 5.534327482167692, 52.286949678995079 ], [ 5.534339922964849, 52.286252951473017 ], [ 5.533717347448358, 52.285848907169338 ], [ 5.533533115971261, 52.285322582747924 ], [ 5.533609048494309, 52.284955066726255 ], [ 5.533142662657736, 52.284305770957921 ], [ 5.533074074893107, 52.283734327071038 ], [ 5.532492789982824, 52.283190661698818 ], [ 5.531537969697287, 52.281033106354272 ], [ 5.531098116146883, 52.280776901367723 ], [ 5.531039569868176, 52.280209290127686 ], [ 5.530496002319774, 52.279435446218258 ], [ 5.530444805264267, 52.279126448078152 ], [ 5.529910785279697, 52.278922268853236 ], [ 5.529915016747959, 52.278611823065958 ], [ 5.530122569169813, 52.278391484146226 ], [ 5.529382631789846, 52.277357984862981 ], [ 5.529366047141766, 52.276827143428775 ], [ 5.529205846511133, 52.276624570551938 ], [ 5.529436789063145, 52.276092225950649 ], [ 5.529280733315965, 52.275684514377929 ], [ 5.52884246114917, 52.275248560065599 ], [ 5.528759977531212, 52.274846766590137 ], [ 5.526086241354652, 52.273299424338589 ], [ 5.524544322119376, 52.273547377065526 ], [ 5.521944367837072, 52.273376662421761 ], [ 5.521374317872707, 52.273010358307758 ], [ 5.518342453196479, 52.272598850992381 ], [ 5.517096087634735, 52.272221040614227 ], [ 5.516558264565055, 52.272205773459177 ], [ 5.516219200278773, 52.271965334510988 ], [ 5.515851278102718, 52.272056623615903 ], [ 5.514138298049672, 52.271740744257386 ], [ 5.513774002844293, 52.271416211027123 ], [ 5.510975965132494, 52.271073473995806 ], [ 5.510486532984963, 52.271138886387611 ], [ 5.509557246559733, 52.270787312480422 ], [ 5.507820373894488, 52.270740624745592 ], [ 5.507416830743376, 52.270470377607289 ], [ 5.505808786151792, 52.270323706020534 ], [ 5.505065611238518, 52.270007255794134 ], [ 5.504265593269197, 52.270140794873662 ], [ 5.503884964817526, 52.26985115442298 ], [ 5.503472831384323, 52.270006927988085 ], [ 5.50322312521566, 52.269686672072801 ], [ 5.502167431056423, 52.269817216665949 ], [ 5.501524921748591, 52.269649943462746 ], [ 5.501331810788527, 52.269389764259913 ], [ 5.498829066917112, 52.26922668889469 ], [ 5.498449950308332, 52.268911218874891 ], [ 5.497920594642336, 52.26898533901101 ], [ 5.497357546261525, 52.268645655129319 ], [ 5.496237572981391, 52.268768248792384 ], [ 5.49587660606582, 52.268309337085739 ], [ 5.494800848316408, 52.268240564099429 ], [ 5.49452740152334, 52.267948877411456 ], [ 5.49388738037995, 52.268186410345585 ], [ 5.49331756005695, 52.268189697511943 ], [ 5.492757926919412, 52.267661033949025 ], [ 5.492444213254735, 52.267658119498137 ], [ 5.49227287692964, 52.267901807140056 ], [ 5.491760305588373, 52.26790498599258 ], [ 5.491198266457966, 52.26741615876329 ], [ 5.490758241037539, 52.267441329783402 ], [ 5.488807245723613, 52.266971891378297 ], [ 5.488943239187715, 52.266661510711636 ], [ 5.487971635703357, 52.266203453337639 ], [ 5.487805031111314, 52.266412978401704 ], [ 5.488509196195885, 52.266754589058621 ], [ 5.488043147876203, 52.267093731342328 ], [ 5.487619989612819, 52.266903326587375 ], [ 5.487392698438095, 52.266515047797547 ], [ 5.48738153719502, 52.265826215659125 ], [ 5.487145634421378, 52.265852505111056 ], [ 5.487077312414844, 52.266252285371266 ], [ 5.48576986417436, 52.266035859206198 ], [ 5.485310799889381, 52.266098304891869 ], [ 5.476359994087079, 52.264481051807152 ], [ 5.475368301124599, 52.264161356714965 ], [ 5.47326301662043, 52.263920028447842 ], [ 5.470573567146022, 52.26324272375625 ], [ 5.467723005900034, 52.262926585207794 ], [ 5.462483633297023, 52.26199346821101 ], [ 5.454551190956143, 52.260245649573868 ], [ 5.454664265157591, 52.260030097686624 ], [ 5.45454231869963, 52.259894364710973 ], [ 5.454267882195584, 52.260179914559394 ], [ 5.452675367604088, 52.259826346755553 ], [ 5.452397702807538, 52.259660155841644 ], [ 5.452801485560362, 52.259538011002903 ], [ 5.452988833148638, 52.259136069666567 ], [ 5.452908120668371, 52.259013990187064 ], [ 5.452600179939219, 52.259313842308188 ], [ 5.451947384729553, 52.259322068703447 ], [ 5.450992259395941, 52.25915383034058 ], [ 5.450840124358528, 52.258899034195132 ], [ 5.45044210051517, 52.25884588166025 ], [ 5.449918162547498, 52.259201252461537 ], [ 5.447825546523101, 52.258648826313738 ], [ 5.446910125659659, 52.258742537821398 ], [ 5.446381848751664, 52.258488325522599 ], [ 5.445145522092502, 52.258373903255048 ], [ 5.443621691210867, 52.257910737089134 ], [ 5.44308977732815, 52.258029209308454 ], [ 5.442903171430427, 52.257865468001782 ], [ 5.441181715831111, 52.257587320154848 ], [ 5.440892289460513, 52.257630209381695 ], [ 5.440719428661888, 52.257839323659269 ], [ 5.440323367348066, 52.257668499163785 ], [ 5.440229305904405, 52.257466857971799 ], [ 5.439637408578261, 52.257533571257746 ], [ 5.438691790701687, 52.257233959501058 ], [ 5.438465001277673, 52.256960478495166 ], [ 5.437004380541868, 52.256931962318042 ], [ 5.433587002335482, 52.256309773244418 ], [ 5.433061567855454, 52.255716951018236 ], [ 5.428344833195977, 52.255077987997581 ], [ 5.427180775214238, 52.2554243035135 ], [ 5.426490476299663, 52.255257840468701 ], [ 5.42623316031193, 52.254965690626435 ], [ 5.425741276660946, 52.25501719450871 ], [ 5.425287115578883, 52.254783451139467 ], [ 5.423774513759622, 52.254729976821864 ], [ 5.42168618779283, 52.254346602691591 ], [ 5.421879677414696, 52.254007392460707 ], [ 5.421807612160173, 52.253865976338894 ], [ 5.421486108433184, 52.254163779097446 ], [ 5.417813534552034, 52.253455948151093 ], [ 5.417500583056339, 52.253389081802716 ], [ 5.417645956809483, 52.253083424729162 ], [ 5.41753371109157, 52.252960448443815 ], [ 5.417295494115528, 52.253198704842376 ], [ 5.41705158334528, 52.253081102153793 ], [ 5.415969566137773, 52.253186383181479 ], [ 5.41544370298084, 52.252850742837722 ], [ 5.413055141559229, 52.252867401194329 ], [ 5.41288803738462, 52.252816743480821 ], [ 5.412849156041922, 52.252447862362303 ], [ 5.412638696083094, 52.252688250747042 ], [ 5.412168408259612, 52.252551433392448 ], [ 5.409467353979665, 52.252521367395751 ], [ 5.408532550214618, 52.252918666319765 ], [ 5.402649922846839, 52.253389716277532 ], [ 5.401401765546723, 52.253231100020493 ], [ 5.40036961918407, 52.254295521327791 ], [ 5.400177397255113, 52.254788082214901 ], [ 5.399615489073548, 52.255165896045206 ], [ 5.398824420880681, 52.255338225389416 ], [ 5.397955820210004, 52.255823144085994 ], [ 5.395862832503278, 52.256215556719603 ], [ 5.395791120291398, 52.256416480279903 ], [ 5.396182678229053, 52.256701570475308 ], [ 5.396213752662508, 52.256928586517724 ], [ 5.394809921080991, 52.257670621432432 ], [ 5.393702383420131, 52.257061916299435 ], [ 5.395355834297598, 52.256091010185848 ], [ 5.395752006667274, 52.256033677013278 ], [ 5.395874463515392, 52.255871634665816 ], [ 5.395767726524576, 52.255719495813501 ], [ 5.395173779516222, 52.255819514498981 ], [ 5.392041357263082, 52.257650497024635 ], [ 5.391973857423269, 52.257834951757488 ], [ 5.392166187656263, 52.257924383291794 ], [ 5.392936765561703, 52.257480044934951 ], [ 5.393910841663313, 52.258052060599219 ], [ 5.39266594323827, 52.258794390939059 ], [ 5.391802450677473, 52.258092064633907 ], [ 5.391768606512327, 52.257802147698733 ], [ 5.391583814020051, 52.257776832919149 ], [ 5.391495064169233, 52.258132171793008 ], [ 5.391136775008333, 52.258375721261508 ], [ 5.391036569189216, 52.258894255939872 ], [ 5.391222549026961, 52.258982766936469 ], [ 5.391371994000709, 52.258754008424077 ], [ 5.391533116600449, 52.258770882111875 ], [ 5.391961307129741, 52.25896926248673 ], [ 5.391957195610494, 52.259103650797599 ], [ 5.391271491464259, 52.259390031560343 ], [ 5.390874355161158, 52.259270544734868 ], [ 5.3908452225398, 52.259446951910363 ], [ 5.391067689595848, 52.259582844835691 ], [ 5.39047506018011, 52.260127228911962 ], [ 5.389414162905757, 52.260319302320674 ], [ 5.389392820770251, 52.260842550454385 ], [ 5.388986013531623, 52.261269090733748 ], [ 5.388139934056112, 52.261435981512278 ], [ 5.38810528326985, 52.26121417336153 ], [ 5.387866375882462, 52.261134891555741 ], [ 5.387860852305915, 52.261455129748136 ], [ 5.387522166235201, 52.261570672505286 ], [ 5.386963972938219, 52.262245656507453 ], [ 5.385217998358615, 52.263314255447312 ], [ 5.385173782362404, 52.263877195971503 ], [ 5.328420128016021, 52.2973595391041 ], [ 5.317096810822401, 52.303499224401705 ], [ 5.317113485328656, 52.303645621591137 ], [ 5.320169026675877, 52.305443437334546 ], [ 5.333484387989852, 52.31437160516596 ], [ 5.344207848673541, 52.310266953775013 ], [ 5.348170008413598, 52.309479927707656 ], [ 5.348601948590873, 52.30926679868103 ], [ 5.348960740240385, 52.309402132477501 ], [ 5.351499338267407, 52.309335438070612 ], [ 5.353992911589479, 52.309506482714205 ], [ 5.379063851883849, 52.314069770236948 ], [ 5.378928299225838, 52.314350678862816 ], [ 5.306294368144263, 52.377421445267984 ], [ 5.305303161409321, 52.377131182631473 ], [ 5.304158036741871, 52.377777340292589 ], [ 5.303137674196231, 52.378131435964661 ], [ 5.299200384626125, 52.378817511552725 ], [ 5.297928648397101, 52.37954977801882 ], [ 5.297472838517631, 52.380152201546068 ], [ 5.297503100689754, 52.380477850509671 ] ], [ [ 5.487104095345743, 52.266701919363186 ], [ 5.486745032320046, 52.266810412274452 ], [ 5.485845837298997, 52.266604439362844 ], [ 5.485915786394656, 52.266444732285144 ], [ 5.487104095345743, 52.266701919363186 ] ], [ [ 5.614468602544653, 52.358243917938559 ], [ 5.614560071056238, 52.358049657905191 ], [ 5.614838604387365, 52.358159352786657 ], [ 5.614729897271009, 52.358398460623555 ], [ 5.614468602544653, 52.358243917938559 ] ], [ [ 5.564167545735127, 52.317970223532654 ], [ 5.564257978343397, 52.317907814505119 ], [ 5.56504038256675, 52.317906639543544 ], [ 5.565263489762063, 52.31792787293282 ], [ 5.565283094832542, 52.318624202580722 ], [ 5.565024502880692, 52.3179201220197 ], [ 5.564354553007371, 52.317965552950241 ], [ 5.564369399521171, 52.318646898130254 ], [ 5.564222823206036, 52.318649049092713 ], [ 5.564167545735127, 52.317970223532654 ] ], [ [ 5.565864079158701, 52.317921285411515 ], [ 5.566041769579863, 52.317919333435249 ], [ 5.566813801171111, 52.318608299843532 ], [ 5.566626953550789, 52.318689925023243 ], [ 5.565733627434526, 52.317922715300682 ], [ 5.565864079158701, 52.317921285411515 ] ], [ [ 5.542507835575033, 52.283853231913461 ], [ 5.542127572013021, 52.283118484268371 ], [ 5.542737436805671, 52.282909260400231 ], [ 5.543722203956156, 52.28487641893507 ], [ 5.543184428771464, 52.284887525849591 ], [ 5.542938373110307, 52.284211368562403 ], [ 5.542507835575033, 52.283853231913461 ] ], [ [ 5.73829809585047, 52.397105033188396 ], [ 5.738284916074675, 52.397068867463929 ], [ 5.738200936146415, 52.396955443249063 ], [ 5.738437188779924, 52.397014774524557 ], [ 5.73829809585047, 52.397105033188396 ] ], [ [ 5.735139141764999, 52.39671145264758 ], [ 5.735064776986261, 52.396665998738008 ], [ 5.735422876766653, 52.396423379546981 ], [ 5.735140136721181, 52.396712966154986 ], [ 5.735139141764999, 52.39671145264758 ] ], [ [ 5.627478376770533, 52.361020210906162 ], [ 5.627503068806838, 52.360791009735102 ], [ 5.627849232637044, 52.360767991322405 ], [ 5.627827276343671, 52.360985991137625 ], [ 5.627478376770533, 52.361020210906162 ] ], [ [ 5.329005009009412, 52.397587990463236 ], [ 5.329076358049524, 52.39751668969172 ], [ 5.329832378510405, 52.396746131961173 ], [ 5.329632934233945, 52.397514435404453 ], [ 5.328755941651681, 52.397824807979781 ], [ 5.329005009009412, 52.397587990463236 ] ], [ [ 5.538210149504823, 52.290865823431346 ], [ 5.538467761273308, 52.291511849668879 ], [ 5.538195125043516, 52.291964742606609 ], [ 5.538219110212514, 52.292229541227243 ], [ 5.537953262704815, 52.29233921187636 ], [ 5.537826967566489, 52.292725183829944 ], [ 5.537263481562825, 52.292945491948288 ], [ 5.537112491293406, 52.292547526293944 ], [ 5.537189708331171, 52.291712551579714 ], [ 5.53788545759542, 52.291461644472648 ], [ 5.538054301555428, 52.290695730659266 ], [ 5.538210149504823, 52.290865823431346 ] ] ], [ [ [ 5.613794844999854, 52.351856324223526 ], [ 5.614930355950755, 52.351788861448462 ], [ 5.614525618983456, 52.35129238970076 ], [ 5.614509161153638, 52.350876651353495 ], [ 5.61436675537708, 52.35074625428549 ], [ 5.612683158474002, 52.351030223597597 ], [ 5.611883608235984, 52.35178500963022 ], [ 5.613794844999854, 52.351856324223526 ] ] ] ] } }
]
}
