{
"type": "FeatureCollection",
"name": "SWVPO2203",
"crs": { "type": "name", "properties": { "name": "urn:ogc:def:crs:OGC:1.3:CRS84" } },
"features": [
{ "type": "Feature", "properties": { "PO SWV": "PO2203", "strokeColor": "#A9A9A9", "strokeWidth": 2, "fillColor": "#ADD8E6" }, "geometry": { "type": "Polygon", "coordinates": [ [ [ 6.346500456762669, 52.909729153407916 ], [ 6.353026657057244, 52.90753269071898 ], [ 6.353034561885654, 52.907352666247775 ], [ 6.352045248648702, 52.906533195837234 ], [ 6.35161965320169, 52.90551152835814 ], [ 6.350850235604464, 52.90461541077088 ], [ 6.352969841293406, 52.904651900846865 ], [ 6.353107778164643, 52.904498321930092 ], [ 6.35193628321054, 52.903102713731393 ], [ 6.345540066398272, 52.900820999410094 ], [ 6.345352104614025, 52.899915358593731 ], [ 6.344789544458553, 52.898678332224335 ], [ 6.343081735275184, 52.897806497017946 ], [ 6.346799298137164, 52.895138092812161 ], [ 6.347713012546146, 52.89220009202571 ], [ 6.349174028468274, 52.893430197344202 ], [ 6.350985305681463, 52.892152462337044 ], [ 6.352554088676579, 52.892110721162354 ], [ 6.355353282851357, 52.890910850042857 ], [ 6.355248495295787, 52.890194500827732 ], [ 6.354813475032935, 52.889463728795491 ], [ 6.355269361866557, 52.889158388147919 ], [ 6.355612619040036, 52.88920125952577 ], [ 6.358795838602984, 52.888072064165783 ], [ 6.360206699884693, 52.888565784006857 ], [ 6.363152952776905, 52.888036323994626 ], [ 6.36325858270583, 52.887505759754923 ], [ 6.364508516700322, 52.886994957181479 ], [ 6.365657606594599, 52.886851477725081 ], [ 6.366956814257606, 52.887300447850549 ], [ 6.370449816488079, 52.886644145174337 ], [ 6.369141544369612, 52.884829159028115 ], [ 6.366329917201003, 52.884669014834891 ], [ 6.367160480329732, 52.88361177416818 ], [ 6.367909822345602, 52.883305135702329 ], [ 6.366670585892979, 52.881650354642687 ], [ 6.368902328991615, 52.876805353514278 ], [ 6.372558469539391, 52.876026820277239 ], [ 6.372580259413374, 52.877896657679649 ], [ 6.371983659891357, 52.881361484248856 ], [ 6.374346752708131, 52.883491120238226 ], [ 6.376916816781098, 52.886689571128784 ], [ 6.379867002451689, 52.888493710859201 ], [ 6.38132586538169, 52.889857994149892 ], [ 6.381608066952171, 52.889671609360143 ], [ 6.382066103583099, 52.890071508908889 ], [ 6.38409106300081, 52.889368567808781 ], [ 6.384092635773286, 52.889183348979302 ], [ 6.420020706031969, 52.882417914483185 ], [ 6.420302086597733, 52.881701630133087 ], [ 6.419889270312009, 52.88147447468058 ], [ 6.422363317141097, 52.880319426688949 ], [ 6.421949675688406, 52.879982455582201 ], [ 6.421833974489719, 52.879325384782085 ], [ 6.421634878991856, 52.879081016144639 ], [ 6.420315209838425, 52.877961078617709 ], [ 6.427713282767384, 52.872643617635028 ], [ 6.429357514517507, 52.873193906249945 ], [ 6.429794797398935, 52.871917235343304 ], [ 6.430859740860829, 52.871921009069439 ], [ 6.431542725037418, 52.869979380442587 ], [ 6.432242145448789, 52.867751347870602 ], [ 6.431152484866886, 52.867570901047088 ], [ 6.434444994913569, 52.856994634118443 ], [ 6.431871297985859, 52.856707260439357 ], [ 6.431438549479169, 52.856517101584302 ], [ 6.429328015892869, 52.856400415627185 ], [ 6.429692774684494, 52.855103073049541 ], [ 6.429538596540323, 52.854986608114089 ], [ 6.429664712324445, 52.854531583715506 ], [ 6.430289377349863, 52.854016446741419 ], [ 6.430262195346947, 52.851839034937193 ], [ 6.43094370301212, 52.850496871699647 ], [ 6.433940047069869, 52.851156572186838 ], [ 6.435450041578412, 52.851246954833059 ], [ 6.437506800521603, 52.850993114438424 ], [ 6.439644049208916, 52.850308709523866 ], [ 6.441209112570364, 52.850017722914181 ], [ 6.451263976109171, 52.850115039174497 ], [ 6.453618745374942, 52.850586358433084 ], [ 6.457976333340589, 52.852468358850381 ], [ 6.460786673625037, 52.853136806584388 ], [ 6.463249121472951, 52.848906270716377 ], [ 6.46199701523572, 52.848453735842774 ], [ 6.462187427420671, 52.846538595367001 ], [ 6.461259992085823, 52.845095333779199 ], [ 6.463063647049879, 52.83910733250795 ], [ 6.462849301216899, 52.83875659721302 ], [ 6.468171122726576, 52.838369615974536 ], [ 6.468411439164234, 52.837850774384442 ], [ 6.469845046519812, 52.837456034479189 ], [ 6.470027350585668, 52.837538548537168 ], [ 6.470074041026223, 52.837333008975357 ], [ 6.474835667002035, 52.8360133983522 ], [ 6.474893328930952, 52.835863388188834 ], [ 6.472811847165591, 52.834222952862355 ], [ 6.470850109081863, 52.833840082931872 ], [ 6.469439914881468, 52.833356939509798 ], [ 6.468074720928482, 52.833829518295019 ], [ 6.467179235059328, 52.832554295709215 ], [ 6.461273262584671, 52.830347254269903 ], [ 6.462486160696574, 52.829452797167569 ], [ 6.462664671146582, 52.828891484472571 ], [ 6.463439454419087, 52.828166327207747 ], [ 6.462254973778869, 52.827392487190089 ], [ 6.459246168988457, 52.826580114536377 ], [ 6.456458816024512, 52.823619787469696 ], [ 6.447231426822135, 52.826399640300153 ], [ 6.444939398521999, 52.823044562743583 ], [ 6.439818499069795, 52.82405690524331 ], [ 6.438788635867371, 52.822596514546774 ], [ 6.440232532527803, 52.819917868657619 ], [ 6.439658965590139, 52.819885732645595 ], [ 6.437567916064249, 52.818945691175621 ], [ 6.437935908275942, 52.81878770432516 ], [ 6.43810706904568, 52.818471432721438 ], [ 6.438227230048047, 52.817626962513479 ], [ 6.438045003011614, 52.817329670001627 ], [ 6.438229111442498, 52.817137831677115 ], [ 6.439159256125714, 52.817366683073111 ], [ 6.445075244746021, 52.815574797134829 ], [ 6.445075358296459, 52.815403742798217 ], [ 6.443583114427216, 52.813559673049411 ], [ 6.443000141545504, 52.812254009436842 ], [ 6.446931197691824, 52.812728209084334 ], [ 6.446305294279344, 52.808377624129733 ], [ 6.446703718404137, 52.808151706422535 ], [ 6.44684977866499, 52.807538607615378 ], [ 6.446825540395038, 52.806520261493155 ], [ 6.446452016369115, 52.805116117904092 ], [ 6.446992045634, 52.804012198719832 ], [ 6.446902751123554, 52.803772081915284 ], [ 6.446383555729993, 52.803378518223106 ], [ 6.447077234262182, 52.80240509555999 ], [ 6.491869892757959, 52.793199443319097 ], [ 6.496264156516419, 52.786220256000043 ], [ 6.490811199415136, 52.77098277497624 ], [ 6.493183865373068, 52.77103549240887 ], [ 6.503416727779288, 52.769341672671288 ], [ 6.505639047041748, 52.76995682895145 ], [ 6.506533013263688, 52.770029406412107 ], [ 6.506959216389238, 52.769518681884854 ], [ 6.507924800738428, 52.76898405832241 ], [ 6.512847787756241, 52.76214346956391 ], [ 6.528600887648592, 52.766278699636146 ], [ 6.53536042840541, 52.768204109560187 ], [ 6.537570442345301, 52.765334893366941 ], [ 6.566422739516224, 52.765671698836435 ], [ 6.566476746011772, 52.765538308220044 ], [ 6.563080554914063, 52.757924013549541 ], [ 6.565046346085525, 52.758208705358619 ], [ 6.565142786996395, 52.758068767565248 ], [ 6.564096149116158, 52.757642842028346 ], [ 6.56250798854218, 52.756624126992349 ], [ 6.557920431339559, 52.746289938840512 ], [ 6.558006905220016, 52.746138910591945 ], [ 6.557670920523983, 52.745314776908536 ], [ 6.559694850233391, 52.745159483700526 ], [ 6.573304552798548, 52.739848877576996 ], [ 6.574163502241525, 52.740580604397422 ], [ 6.586277576973394, 52.735870273238675 ], [ 6.58660230268668, 52.736133908575866 ], [ 6.587444750453015, 52.735806267449441 ], [ 6.576782630972147, 52.725657263512055 ], [ 6.575779055080181, 52.725666590927524 ], [ 6.575702925309984, 52.724362249833426 ], [ 6.576333909260621, 52.724318907632295 ], [ 6.576424925825051, 52.724165535495359 ], [ 6.596669112944574, 52.723442763307283 ], [ 6.595771535347651, 52.71312049457682 ], [ 6.604035209504735, 52.712787638985056 ], [ 6.604127864580142, 52.712680403048097 ], [ 6.61068664391313, 52.712565756167983 ], [ 6.610802980406961, 52.712734429464717 ], [ 6.612852506144809, 52.712543759972753 ], [ 6.624048509190781, 52.712322858123684 ], [ 6.629834444910461, 52.712614931649156 ], [ 6.628785485968762, 52.697931374455784 ], [ 6.628948325398786, 52.697829602930859 ], [ 6.628918291372383, 52.69642709843464 ], [ 6.629399480344928, 52.692479846335715 ], [ 6.630397679355096, 52.690687598498307 ], [ 6.63031937392764, 52.690538556859444 ], [ 6.63205870976474, 52.68756469731742 ], [ 6.63231166129761, 52.686718404936521 ], [ 6.631995245347795, 52.680966254041422 ], [ 6.632186315822722, 52.680862400937286 ], [ 6.632175962142509, 52.679894434759468 ], [ 6.631974297169041, 52.678564302241554 ], [ 6.631770964207059, 52.674333549663693 ], [ 6.631493804637602, 52.673485257881836 ], [ 6.629415743292332, 52.669803343724865 ], [ 6.614523729784315, 52.674149225004228 ], [ 6.552807828057114, 52.66569403817504 ], [ 6.546410926050877, 52.663623793123698 ], [ 6.513779540853193, 52.646351114162414 ], [ 6.518490091992055, 52.614177043333569 ], [ 6.512073499692416, 52.613751799736335 ], [ 6.511192394241379, 52.61445395541125 ], [ 6.509359160267369, 52.614883188194867 ], [ 6.50733347164731, 52.61561886298685 ], [ 6.50469075765523, 52.617108130207583 ], [ 6.500023195171603, 52.618068820460117 ], [ 6.495062074265959, 52.618107315999708 ], [ 6.494182564081028, 52.618336193050098 ], [ 6.49265768846507, 52.619085241721905 ], [ 6.491535987189355, 52.619270277212969 ], [ 6.488125214736796, 52.618928817575593 ], [ 6.48388471859208, 52.619175984257581 ], [ 6.481840002190503, 52.618362876491993 ], [ 6.48136014439007, 52.618439086730319 ], [ 6.480584457858455, 52.61825666238861 ], [ 6.480183696040948, 52.618391984534775 ], [ 6.480005447246072, 52.618883440684641 ], [ 6.479646474085672, 52.61885869887783 ], [ 6.479329078137416, 52.619103348485289 ], [ 6.47834500767891, 52.619102804807291 ], [ 6.478041121929687, 52.618728479062781 ], [ 6.477743489905312, 52.618868461953845 ], [ 6.477652301551619, 52.619191022443111 ], [ 6.476797875067961, 52.619763959381437 ], [ 6.476938543895002, 52.620174217456096 ], [ 6.476767107865874, 52.62048073875831 ], [ 6.476785517828372, 52.620873585672754 ], [ 6.47653941720449, 52.621050165075424 ], [ 6.476313093230599, 52.620960901492886 ], [ 6.475969616862586, 52.621364278929278 ], [ 6.474361628946556, 52.620833512802356 ], [ 6.47359217326879, 52.621283009683246 ], [ 6.473231908709614, 52.621296678295842 ], [ 6.473422720841803, 52.621572385827314 ], [ 6.473309871613133, 52.621822508383893 ], [ 6.472595021553289, 52.622228490882343 ], [ 6.473184564321303, 52.622173418171606 ], [ 6.473418845009795, 52.62256674061436 ], [ 6.473419861455784, 52.622959455789974 ], [ 6.472716579642348, 52.623647006732462 ], [ 6.472892867992526, 52.624083702017963 ], [ 6.472428156058007, 52.624659689969143 ], [ 6.470079693588051, 52.62510707336132 ], [ 6.468952959732897, 52.624684967704333 ], [ 6.467646136301616, 52.624579863718665 ], [ 6.465368941798603, 52.623983091122113 ], [ 6.464187791322487, 52.623895711076749 ], [ 6.463845124509637, 52.624001460432282 ], [ 6.4632198423521, 52.623589574479468 ], [ 6.463089870188039, 52.623245383348412 ], [ 6.463350027545999, 52.62265912301222 ], [ 6.463113902256773, 52.622124270130023 ], [ 6.463355240721987, 52.621825468874178 ], [ 6.463796581467593, 52.621695302866804 ], [ 6.463041913946367, 52.621205095960455 ], [ 6.462347916977186, 52.621014650271903 ], [ 6.462146298182951, 52.62052420824692 ], [ 6.462252209391207, 52.620068121786652 ], [ 6.461912140887979, 52.619480940819166 ], [ 6.461968359412167, 52.619186250329584 ], [ 6.461516131921554, 52.618948063194054 ], [ 6.461415869502067, 52.618537424020765 ], [ 6.460852566263116, 52.618091691019757 ], [ 6.460576960900565, 52.617544094882625 ], [ 6.460736550428439, 52.616336562439621 ], [ 6.459756921455353, 52.615855196217105 ], [ 6.45772633890139, 52.616143716502549 ], [ 6.457516268480801, 52.615859000274305 ], [ 6.457072977810621, 52.615912206015508 ], [ 6.4551095972399, 52.615536207713234 ], [ 6.454848626783997, 52.615213192824186 ], [ 6.45492179600791, 52.614971203823266 ], [ 6.454527471558843, 52.615020717786273 ], [ 6.454440545039457, 52.61526334901226 ], [ 6.453896897799499, 52.615112382847009 ], [ 6.453804796268559, 52.614706222245424 ], [ 6.453910943304495, 52.614543648831564 ], [ 6.453361285105347, 52.614045777496109 ], [ 6.45223369449136, 52.614405483388254 ], [ 6.450575296772233, 52.615314932223853 ], [ 6.449669363316799, 52.615318665780926 ], [ 6.449447427551685, 52.615071850595626 ], [ 6.448104326109842, 52.614891830563266 ], [ 6.446883969956298, 52.615183845329135 ], [ 6.445968498947277, 52.615192786214898 ], [ 6.445188623615276, 52.61547137543166 ], [ 6.445055515289577, 52.615766226397248 ], [ 6.443778985896532, 52.615936669601183 ], [ 6.443486069026096, 52.61620623684464 ], [ 6.443034162751902, 52.616295487949969 ], [ 6.442450200861824, 52.61612958556988 ], [ 6.442056762688464, 52.615749419925002 ], [ 6.441790763775241, 52.615754240938465 ], [ 6.441816561383866, 52.615995981728986 ], [ 6.441629707126096, 52.61623002221836 ], [ 6.441100234947413, 52.616307266220723 ], [ 6.440815251111324, 52.616175683293164 ], [ 6.438084073772137, 52.617347510999529 ], [ 6.437849017197802, 52.61775937899241 ], [ 6.436520038659532, 52.618160228557215 ], [ 6.436265607252242, 52.61850541486335 ], [ 6.436271818731099, 52.61897456948374 ], [ 6.435866269575751, 52.619306113413593 ], [ 6.435010949184747, 52.619351249000729 ], [ 6.434638109006789, 52.619862658643385 ], [ 6.434711347757448, 52.620162898021277 ], [ 6.434568900680463, 52.620405025117222 ], [ 6.435312423062037, 52.620454263069639 ], [ 6.43569670045121, 52.620816134999714 ], [ 6.435739025442212, 52.6215775757139 ], [ 6.435573671889415, 52.622029143870257 ], [ 6.433948319506154, 52.623758157727181 ], [ 6.433708499462278, 52.62437797564418 ], [ 6.43259155147608, 52.625642486131056 ], [ 6.433785927885375, 52.626043006257532 ], [ 6.433895164348033, 52.626448167028954 ], [ 6.433419705091534, 52.626852651515286 ], [ 6.4330561577333, 52.627841940217181 ], [ 6.43124235007289, 52.628477929627024 ], [ 6.430786655191004, 52.628345964493406 ], [ 6.430521757478513, 52.627930794155873 ], [ 6.43005281495772, 52.62792531681189 ], [ 6.429569701121291, 52.628255562821842 ], [ 6.428126180882575, 52.628274926308926 ], [ 6.427796434740837, 52.627721243004991 ], [ 6.427932820139839, 52.627203033029865 ], [ 6.427362425373841, 52.627196597719561 ], [ 6.426534480868715, 52.626914697196185 ], [ 6.425938246708379, 52.625818579763887 ], [ 6.426261158598377, 52.625481801782342 ], [ 6.426296959832194, 52.625172497445234 ], [ 6.426797327473334, 52.624846575851457 ], [ 6.426739525466279, 52.62461166957727 ], [ 6.426030256482886, 52.624720408155007 ], [ 6.425145955454046, 52.624420543957619 ], [ 6.424325848422018, 52.62438769389793 ], [ 6.424149866982585, 52.624250457655066 ], [ 6.424182017003356, 52.623918398923621 ], [ 6.421061556004342, 52.623042960646281 ], [ 6.420177910030194, 52.622398713766025 ], [ 6.419888521423114, 52.621337202023504 ], [ 6.419271963057607, 52.621284659512838 ], [ 6.418916700323496, 52.620972671980034 ], [ 6.419016542716268, 52.620479699890893 ], [ 6.418745180060871, 52.619717822671454 ], [ 6.41898003835055, 52.61935207544677 ], [ 6.418782561582715, 52.619122294013799 ], [ 6.417315977834422, 52.619292156968079 ], [ 6.417044639120696, 52.619179135387732 ], [ 6.416772295646631, 52.618775771197839 ], [ 6.416299776599979, 52.618744805411879 ], [ 6.415046143967307, 52.619249205556535 ], [ 6.412883387372124, 52.619671456652057 ], [ 6.411766159899413, 52.620207483758946 ], [ 6.411811353922809, 52.620538468628048 ], [ 6.411212226053984, 52.620913238025928 ], [ 6.410941567938165, 52.621399610356953 ], [ 6.410387351851424, 52.621382472433936 ], [ 6.41002202166047, 52.62169210018353 ], [ 6.409481008987057, 52.621830980016988 ], [ 6.409220788577586, 52.621634645774733 ], [ 6.409236244990807, 52.621442715746056 ], [ 6.408632398787433, 52.621475487264078 ], [ 6.408338249590416, 52.621164578981691 ], [ 6.406755366753628, 52.62075796935757 ], [ 6.406183408949724, 52.620768209802087 ], [ 6.405781350225036, 52.619889420963169 ], [ 6.405794938487807, 52.61869359276232 ], [ 6.406730786582189, 52.617838873552358 ], [ 6.406310659021765, 52.617792979283031 ], [ 6.406181253701885, 52.617455030775851 ], [ 6.405821644690588, 52.617186659378461 ], [ 6.403980733769473, 52.616835562097705 ], [ 6.40385414798889, 52.616679212407391 ], [ 6.403956287937698, 52.616541500281052 ], [ 6.403700736621115, 52.616353546830084 ], [ 6.401135411557546, 52.616359983715064 ], [ 6.400385481310922, 52.616591219119243 ], [ 6.399212701324353, 52.617266682422709 ], [ 6.398528512659561, 52.617322875507462 ], [ 6.397601764525013, 52.617122713977977 ], [ 6.397461287095186, 52.617247644513604 ], [ 6.397522797976841, 52.617679078393195 ], [ 6.396020563931424, 52.61788688315567 ], [ 6.393786195173451, 52.617313928576614 ], [ 6.393685033217465, 52.617156307216163 ], [ 6.393791821619144, 52.616893020418132 ], [ 6.393293487172417, 52.616480676435458 ], [ 6.393538901517627, 52.616171654769239 ], [ 6.392667988975366, 52.615970479445977 ], [ 6.392428365089986, 52.615640537401873 ], [ 6.391607515456548, 52.615219565242271 ], [ 6.391474076146341, 52.61460818863867 ], [ 6.389015710453709, 52.6144372007277 ], [ 6.388278647331585, 52.613939855936309 ], [ 6.3867433055757, 52.61371371410371 ], [ 6.385745999564073, 52.613069183441084 ], [ 6.38385183562031, 52.612297287587381 ], [ 6.383442834416566, 52.612453997142389 ], [ 6.383211020686367, 52.613083313329078 ], [ 6.383332270132641, 52.613475010845733 ], [ 6.383667794600604, 52.613708572961485 ], [ 6.383616132226682, 52.614660268954992 ], [ 6.382848674927053, 52.615746192789764 ], [ 6.38168421669151, 52.615681742266851 ], [ 6.380782154092735, 52.615420502139891 ], [ 6.380345580949657, 52.615072592535633 ], [ 6.379802193827098, 52.615540440542752 ], [ 6.379175711785057, 52.615625405204469 ], [ 6.379402461307474, 52.615857653472254 ], [ 6.379302195668918, 52.616073833788725 ], [ 6.378610173199871, 52.616162299847424 ], [ 6.378388673052857, 52.616465671799148 ], [ 6.37659428924368, 52.616986343480725 ], [ 6.376166146692743, 52.617804902213194 ], [ 6.377006451905998, 52.61828994739016 ], [ 6.376807114460805, 52.618557316429261 ], [ 6.376833720761875, 52.619147329072362 ], [ 6.376475045092887, 52.619345556404987 ], [ 6.376868467695207, 52.619435039942388 ], [ 6.37729367464973, 52.619906244554251 ], [ 6.377267525241307, 52.620405286408683 ], [ 6.376882549282207, 52.620819895158434 ], [ 6.376334175219579, 52.62099017429091 ], [ 6.376365337058222, 52.621567985915419 ], [ 6.375443115770429, 52.621603123378939 ], [ 6.375300708324308, 52.622094613642943 ], [ 6.373720937345883, 52.623036215008824 ], [ 6.373696474274776, 52.623454983261112 ], [ 6.373364841491554, 52.6238172370293 ], [ 6.374648828787627, 52.624280532747967 ], [ 6.37488204875728, 52.624545804397776 ], [ 6.374867653463282, 52.624944940419965 ], [ 6.375362214171624, 52.625245412799742 ], [ 6.37525338248054, 52.626100237212938 ], [ 6.374202592447928, 52.626446005420782 ], [ 6.374322589847412, 52.626681942124939 ], [ 6.37521443832978, 52.626941839319059 ], [ 6.375298173231097, 52.627446660588085 ], [ 6.374384597416761, 52.62766847266758 ], [ 6.37498794959121, 52.627963718696748 ], [ 6.374577307259278, 52.628298154793292 ], [ 6.374680846264436, 52.628529020501972 ], [ 6.374192513516918, 52.629093116872149 ], [ 6.373822032135098, 52.629304710451997 ], [ 6.373084476381511, 52.629271241239806 ], [ 6.373117954260078, 52.629541495741869 ], [ 6.372964733959026, 52.629721570443294 ], [ 6.372340705234572, 52.629579111896227 ], [ 6.371972849106455, 52.630176367746806 ], [ 6.372158243093989, 52.63072041212525 ], [ 6.371697036298178, 52.631096407800392 ], [ 6.371731890986667, 52.63163504814284 ], [ 6.371543459741289, 52.631873578989349 ], [ 6.370705837040573, 52.631675195128899 ], [ 6.370165365781645, 52.631988229826227 ], [ 6.369272289327767, 52.632114504249728 ], [ 6.369671545723067, 52.632541854214338 ], [ 6.369667037880972, 52.632748814510265 ], [ 6.36873450294488, 52.63349624834791 ], [ 6.369114885389769, 52.633973133902622 ], [ 6.368871865946067, 52.634415956952864 ], [ 6.369871511035734, 52.634933467748468 ], [ 6.369593048948868, 52.635554649213738 ], [ 6.369180938748568, 52.635729471055576 ], [ 6.368240429646893, 52.635666018148811 ], [ 6.368040717348997, 52.636343087891305 ], [ 6.367428831361427, 52.636611694898519 ], [ 6.367037481522051, 52.637186725484376 ], [ 6.366531895810881, 52.637287791105095 ], [ 6.366324298025138, 52.637657761765183 ], [ 6.364283496012079, 52.637745826484668 ], [ 6.364235917451655, 52.638193556818969 ], [ 6.36309991363195, 52.63911792433219 ], [ 6.363119472991762, 52.639296330665985 ], [ 6.364010791753179, 52.639230894485621 ], [ 6.364334898920474, 52.639577561541316 ], [ 6.364369091053885, 52.640474233708048 ], [ 6.36411295484703, 52.640547871937734 ], [ 6.363868765155753, 52.64038922315445 ], [ 6.363258424961883, 52.640939884787457 ], [ 6.364243049481862, 52.641209015315141 ], [ 6.364698834288874, 52.641508509238804 ], [ 6.36455880280355, 52.642190997321222 ], [ 6.364041912421658, 52.642301814219664 ], [ 6.364471994666768, 52.642734608699342 ], [ 6.364502835849883, 52.643253183126518 ], [ 6.363848531504292, 52.643227086228258 ], [ 6.36325188172122, 52.6434741373264 ], [ 6.362411717947776, 52.644028167682059 ], [ 6.362651648329081, 52.644151394112853 ], [ 6.362620086181757, 52.644325678838619 ], [ 6.36036878277631, 52.645231547689669 ], [ 6.359771689402729, 52.645659737339003 ], [ 6.358600246522387, 52.645351105764711 ], [ 6.358644761575543, 52.645655622231736 ], [ 6.358512402471472, 52.645805462077753 ], [ 6.356726908458382, 52.645712364828142 ], [ 6.355408815274724, 52.646229601131843 ], [ 6.354707727763014, 52.646240773972671 ], [ 6.353975609351231, 52.645822275080789 ], [ 6.353433189193336, 52.646035380394622 ], [ 6.35374794773398, 52.646739555937835 ], [ 6.353475613562181, 52.647052159926318 ], [ 6.353353471529799, 52.647897255684072 ], [ 6.352531114977767, 52.648120087067852 ], [ 6.352031700688189, 52.648737641059029 ], [ 6.351836012602983, 52.648689751121545 ], [ 6.351711488053482, 52.648403655085573 ], [ 6.351057762756213, 52.648679068884846 ], [ 6.350792857281294, 52.648508001780939 ], [ 6.350065594023621, 52.648519512814318 ], [ 6.348669949089007, 52.649246145288807 ], [ 6.347037857666616, 52.649243137437843 ], [ 6.347078958996315, 52.649430651685677 ], [ 6.347612972091115, 52.649448544971584 ], [ 6.347649349051146, 52.649755666933444 ], [ 6.347447663551386, 52.649988954559916 ], [ 6.345768365998126, 52.65033355390311 ], [ 6.34527191831322, 52.650849531752236 ], [ 6.344724897554836, 52.650829629882317 ], [ 6.344422060123148, 52.651266907213959 ], [ 6.343642136831154, 52.651248707971504 ], [ 6.342496594838034, 52.652615415312226 ], [ 6.341440437434281, 52.654210383802258 ], [ 6.339537413140381, 52.654827550035549 ], [ 6.339164919840234, 52.654724623216808 ], [ 6.339098916087842, 52.654461943575718 ], [ 6.338236676053503, 52.654239250198771 ], [ 6.337621521427342, 52.654332446879678 ], [ 6.337383438805591, 52.654665890895899 ], [ 6.336553866678942, 52.654462904064715 ], [ 6.335681265979543, 52.655284789645016 ], [ 6.334788040671361, 52.654750027591604 ], [ 6.3340305289399, 52.65479546652 ], [ 6.333107009101188, 52.655143484668422 ], [ 6.332464243701395, 52.655748117097474 ], [ 6.332532107532133, 52.656272895242203 ], [ 6.332777516317553, 52.656683315006198 ], [ 6.332688489746631, 52.656837002537735 ], [ 6.331213134678331, 52.657260369492796 ], [ 6.330179153440838, 52.657105189490082 ], [ 6.329902357101798, 52.657604958828479 ], [ 6.328790924972999, 52.65849216512828 ], [ 6.327775794209198, 52.658790315306803 ], [ 6.326491249773111, 52.657853148848936 ], [ 6.326149412923862, 52.657392007521594 ], [ 6.314680767087126, 52.627895799278036 ], [ 6.307907073599553, 52.62818154663826 ], [ 6.30550506600206, 52.628151656080561 ], [ 6.303747012626517, 52.627763506471354 ], [ 6.302201171595125, 52.626857288945466 ], [ 6.301519416417178, 52.625738750401219 ], [ 6.30116931312067, 52.624782198042212 ], [ 6.299859085355334, 52.624258889746145 ], [ 6.299592362513383, 52.624558565772304 ], [ 6.29881575211227, 52.624779120979461 ], [ 6.298089572592314, 52.625308547850224 ], [ 6.297637001786285, 52.625208597600611 ], [ 6.297098099257367, 52.624780925364071 ], [ 6.29380645696618, 52.62625211374344 ], [ 6.292632935522134, 52.62644785601686 ], [ 6.292283521335477, 52.625785582840898 ], [ 6.29159109060092, 52.625447545580101 ], [ 6.291405098805647, 52.624955029492618 ], [ 6.291755103181794, 52.624724611196378 ], [ 6.290917845622789, 52.623450444910169 ], [ 6.289086128242179, 52.623955971859793 ], [ 6.288860316593965, 52.625003844810465 ], [ 6.287147410456247, 52.625446085880007 ], [ 6.28764654048375, 52.626158162721147 ], [ 6.287582491315237, 52.626324746806439 ], [ 6.286577649831433, 52.626744860423898 ], [ 6.281215543670273, 52.628307011163002 ], [ 6.281379469308435, 52.628840563463832 ], [ 6.281324171494911, 52.62966467715728 ], [ 6.279789222951311, 52.630039721760156 ], [ 6.278182367369333, 52.630732484373667 ], [ 6.27570066243358, 52.632412671183509 ], [ 6.274991904353324, 52.632532894583406 ], [ 6.275097599984418, 52.632881183371722 ], [ 6.274880278276461, 52.633046543010899 ], [ 6.274633198865027, 52.632585568848391 ], [ 6.272850016479723, 52.632845785764715 ], [ 6.271241045521442, 52.632704535869777 ], [ 6.270686205942383, 52.632594347833425 ], [ 6.270597918764883, 52.632381204114367 ], [ 6.2688677421599, 52.63239631338287 ], [ 6.266095058918626, 52.631291729685948 ], [ 6.265636227740661, 52.631590429299727 ], [ 6.259506037802405, 52.628930902143338 ], [ 6.258024876702958, 52.629396784848566 ], [ 6.256349401188855, 52.628210670349134 ], [ 6.252390093988586, 52.629513602293621 ], [ 6.249582880716985, 52.628158113042034 ], [ 6.249628701912609, 52.627903629028353 ], [ 6.248448540281032, 52.627436722286276 ], [ 6.247448564009001, 52.626397588880764 ], [ 6.246021514365589, 52.625482133673337 ], [ 6.243298400005361, 52.624686840309373 ], [ 6.24142799811137, 52.623767813264479 ], [ 6.241168663891543, 52.6238867001478 ], [ 6.240877209779034, 52.623750795463884 ], [ 6.240693893272106, 52.62330604869004 ], [ 6.241952454267774, 52.615309518723258 ], [ 6.241243298956454, 52.613517702114748 ], [ 6.230831537172015, 52.598122132380986 ], [ 6.225519662070921, 52.604339202683207 ], [ 6.223532020831304, 52.606986396063874 ], [ 6.223018572435706, 52.607904701782516 ], [ 6.217212518179696, 52.606341320167829 ], [ 6.208032613481067, 52.610903663222189 ], [ 6.210201236787745, 52.612617618330766 ], [ 6.208732659732357, 52.614760183763828 ], [ 6.20961273509737, 52.61594756223036 ], [ 6.213008838040703, 52.614893132293027 ], [ 6.216128742338449, 52.61754736745867 ], [ 6.214007448868862, 52.618153899062705 ], [ 6.208830220748408, 52.622227981350342 ], [ 6.206457762791902, 52.621990258829427 ], [ 6.205705668436225, 52.622454883079968 ], [ 6.20530036855334, 52.622321774829437 ], [ 6.203169239377241, 52.624458254685592 ], [ 6.192890772521418, 52.632122682465884 ], [ 6.191078747902949, 52.633238089552478 ], [ 6.184831959526502, 52.63803799424776 ], [ 6.174726807241631, 52.633163538834324 ], [ 6.172017031299268, 52.635178238545514 ], [ 6.174655534292164, 52.636473154164882 ], [ 6.174735555285205, 52.636653364580631 ], [ 6.171566705454269, 52.639012563457833 ], [ 6.166890764440551, 52.639876330373752 ], [ 6.160746006774517, 52.64127434728745 ], [ 6.158219321813391, 52.63790003330336 ], [ 6.147116320871415, 52.640218454753828 ], [ 6.146623915869046, 52.64292179768033 ], [ 6.14715974329919, 52.643945185241698 ], [ 6.148767149565781, 52.643751910151515 ], [ 6.155172965500137, 52.646669344336239 ], [ 6.157383819936369, 52.648483967985364 ], [ 6.159482881350613, 52.650946028939998 ], [ 6.136763270619912, 52.655523226585636 ], [ 6.129825126237077, 52.643926371912706 ], [ 6.115102749663976, 52.642341224420463 ], [ 6.111947674513234, 52.636922394367737 ], [ 6.09740499954239, 52.636313092833319 ], [ 6.096765928522369, 52.635683514343476 ], [ 6.095817414728802, 52.63092892387921 ], [ 6.097531933178921, 52.62751526569685 ], [ 6.098182165760364, 52.625775695276864 ], [ 6.103923076179764, 52.625915625126972 ], [ 6.104192308824549, 52.624383917388499 ], [ 6.106712858083228, 52.621547010276558 ], [ 6.10680247398823, 52.620813119611142 ], [ 6.107704923030955, 52.618012462462865 ], [ 6.106319742661311, 52.617902841487684 ], [ 6.106836302531269, 52.614907095439257 ], [ 6.10360244017104, 52.612702614928068 ], [ 6.106097469144181, 52.607085242119027 ], [ 6.102964340475842, 52.605639883529143 ], [ 6.104297108758043, 52.603965037189063 ], [ 6.105022906812424, 52.603579307144038 ], [ 6.10187505382323, 52.602420926372602 ], [ 6.100485221853697, 52.602343496219845 ], [ 6.097474326024871, 52.601037470975776 ], [ 6.097379332811119, 52.6008682068802 ], [ 6.09526190911131, 52.600183655441455 ], [ 6.090153317372214, 52.601227753519154 ], [ 6.091578078244969, 52.60222183495442 ], [ 6.093756272584574, 52.605300155479284 ], [ 6.093771734847692, 52.607369723786213 ], [ 6.09279193789434, 52.608880689698736 ], [ 6.091804452421056, 52.609775785657092 ], [ 6.090140255720033, 52.610904470876299 ], [ 6.085517081410964, 52.613283524071818 ], [ 6.082536726674451, 52.615041228749888 ], [ 6.078662415104044, 52.617952691973983 ], [ 6.07749436280751, 52.619187231534312 ], [ 6.077064664926809, 52.619961440849558 ], [ 6.076739318170036, 52.621010666121137 ], [ 6.076728244297894, 52.623195822278156 ], [ 6.077344380187731, 52.627025098766822 ], [ 6.078305844445015, 52.630375274627667 ], [ 6.078453004093741, 52.631530651748307 ], [ 6.078360527826728, 52.632131633523016 ], [ 6.077599540842582, 52.633536844792729 ], [ 6.076432771118631, 52.634986742324024 ], [ 6.07504710810385, 52.636022246609528 ], [ 6.073765064670805, 52.636663529758948 ], [ 6.070652830415801, 52.637572081427294 ], [ 6.068278514165275, 52.637757180833503 ], [ 6.065676750807019, 52.63753999833326 ], [ 6.064683612184511, 52.637313956401158 ], [ 6.062864937162692, 52.636580504509787 ], [ 6.061362821232459, 52.635454995067171 ], [ 6.060492908641296, 52.636915714174499 ], [ 6.060064380999869, 52.636777402075261 ], [ 6.059715444644104, 52.636993780950682 ], [ 6.058883608765491, 52.636607948984263 ], [ 6.056808478195711, 52.636023934632874 ], [ 6.049241455902663, 52.63418564321772 ], [ 6.047417043968931, 52.63415523166519 ], [ 6.045398165475174, 52.634756511501394 ], [ 6.044826479195543, 52.634584649504049 ], [ 6.04418797674639, 52.63512894771138 ], [ 6.041202698266321, 52.636524350744494 ], [ 6.038507918278388, 52.637151341110993 ], [ 6.036162872538901, 52.638112652856584 ], [ 6.034075814425488, 52.638724253935671 ], [ 6.031100333661801, 52.638804703520151 ], [ 6.026593381681321, 52.640385983567299 ], [ 6.024394439230115, 52.641322597953298 ], [ 6.023907281657053, 52.642043776021715 ], [ 6.021251992153416, 52.641482731315151 ], [ 6.021135282957354, 52.641327838218679 ], [ 6.021273198102907, 52.641007701601701 ], [ 6.021048561404251, 52.640804386292288 ], [ 6.020178486359888, 52.641566183018035 ], [ 6.019983280054151, 52.642055245783617 ], [ 6.018743498835906, 52.642452962849546 ], [ 6.018855959931659, 52.642860374248627 ], [ 6.018597651565017, 52.643152214238931 ], [ 6.016924077392664, 52.643440503688673 ], [ 6.015914812474176, 52.643900239983999 ], [ 6.015479354605017, 52.644378852133514 ], [ 6.01484182987848, 52.64554643007321 ], [ 6.014388395796721, 52.645945950589898 ], [ 6.011604840859819, 52.6476485536474 ], [ 6.011207688601386, 52.647951626272253 ], [ 6.011226895517446, 52.648198202164423 ], [ 6.010857585894268, 52.64820836601249 ], [ 6.010494965185035, 52.648482539988791 ], [ 6.010403012524198, 52.648769776061378 ], [ 6.010062892335852, 52.64880425758907 ], [ 6.007677716694131, 52.65059042221489 ], [ 6.007352136486784, 52.650892317645088 ], [ 6.007256541756005, 52.651244915931009 ], [ 6.006755421534304, 52.651507546089135 ], [ 6.006370071101413, 52.651423893284004 ], [ 6.004926255200322, 52.652267257313362 ], [ 6.004010308703372, 52.652593813216257 ], [ 6.003993303914683, 52.652812593507058 ], [ 6.002724346456147, 52.653083140991711 ], [ 5.99950072552222, 52.654539301589779 ], [ 5.99689923918806, 52.65495195293996 ], [ 5.996706236337, 52.655096410146953 ], [ 5.995028473478065, 52.655248655897886 ], [ 5.993503119040183, 52.655789860735169 ], [ 5.992432263736601, 52.655925554857227 ], [ 5.991765812646986, 52.655766033239416 ], [ 5.987486263657757, 52.656444511654733 ], [ 5.987348755449898, 52.656672407959483 ], [ 5.986247573301978, 52.656640861746737 ], [ 5.984170360932372, 52.657059264167749 ], [ 5.984168489478379, 52.657256758516176 ], [ 5.982738360167019, 52.658000885213376 ], [ 5.979596084301534, 52.66058236616599 ], [ 5.974598294688191, 52.66285819627781 ], [ 5.970858980775894, 52.66527813015523 ], [ 5.967971618488517, 52.66601969800584 ], [ 5.966886179969586, 52.666674040003436 ], [ 5.964963529865843, 52.666255799102551 ], [ 5.963086085002372, 52.666495070086555 ], [ 5.96192992461407, 52.667136656467171 ], [ 5.95818103290182, 52.667909110669804 ], [ 5.954026524946264, 52.667774411962377 ], [ 5.941597625795276, 52.670616591945169 ], [ 5.940033045910532, 52.670499805770049 ], [ 5.939648384830678, 52.668942371688523 ], [ 5.935192473519645, 52.669330297164358 ], [ 5.933177005884928, 52.671312593639328 ], [ 5.932854597516019, 52.673174376455705 ], [ 5.93394721285825, 52.675439737907418 ], [ 5.945427788936747, 52.682215296347373 ], [ 5.94544490380434, 52.682374802977805 ], [ 5.944899936216285, 52.682711774497925 ], [ 5.949528929081353, 52.685602626847704 ], [ 5.951492173886744, 52.684853296064063 ], [ 5.952772331723748, 52.685145298294543 ], [ 5.959438403548289, 52.689854883297151 ], [ 5.962163081813958, 52.690269414723147 ], [ 5.965249606782042, 52.693536099347028 ], [ 5.964923496029479, 52.698121853957396 ], [ 5.959057783516657, 52.703952156721485 ], [ 5.954953937620397, 52.703870291462692 ], [ 5.95540597047192, 52.707304402171374 ], [ 5.951221331795358, 52.711999252114452 ], [ 5.942618460684459, 52.715085501030508 ], [ 5.941972301579614, 52.715999274326876 ], [ 5.935645945708287, 52.730301853208424 ], [ 5.930232442728487, 52.739643666003758 ], [ 5.922643717864369, 52.750763268802331 ], [ 5.906054896937656, 52.761414632680214 ], [ 5.900072772917647, 52.761295686212996 ], [ 5.896149300684269, 52.762903904149191 ], [ 5.894433028579313, 52.765220183077858 ], [ 5.885190588508382, 52.76938618400569 ], [ 5.882760524715049, 52.771456232189031 ], [ 5.879725382516018, 52.77334090965595 ], [ 5.875633268680351, 52.77473579602669 ], [ 5.86875835702918, 52.778228279125948 ], [ 5.860289790792787, 52.781911191440798 ], [ 5.852479783818099, 52.783877239585017 ], [ 5.849703618440708, 52.784838610669013 ], [ 5.843477974157177, 52.784553374311685 ], [ 5.842627435227525, 52.784646560866406 ], [ 5.842600915643686, 52.784882500216362 ], [ 5.841625214546942, 52.785238149840737 ], [ 5.837336279797356, 52.785124607276188 ], [ 5.836253261838873, 52.78573735558178 ], [ 5.828137488990079, 52.785644932410037 ], [ 5.818868776857104, 52.784804050684592 ], [ 5.818355708020065, 52.786936535437455 ], [ 5.818723237022895, 52.787710199926607 ], [ 5.816904670648562, 52.789042019581963 ], [ 5.805981963604621, 52.79494284400981 ], [ 5.803542497738884, 52.796932213957788 ], [ 5.799335705868505, 52.801351862480544 ], [ 5.795334851360528, 52.806482091449467 ], [ 5.810055597735169, 52.813791899815833 ], [ 5.817064771092157, 52.816580330202896 ], [ 5.819691382203683, 52.817172331380732 ], [ 5.819812971915699, 52.816965764033455 ], [ 5.819747894387254, 52.816379625815138 ], [ 5.820016656283899, 52.816031334800321 ], [ 5.822156749917829, 52.815145873219727 ], [ 5.823219884785786, 52.813837408636381 ], [ 5.824163388724768, 52.813183220018139 ], [ 5.824991746971317, 52.813064609701065 ], [ 5.828701584074412, 52.813328700858982 ], [ 5.830943661709476, 52.812394520742878 ], [ 5.833576787463662, 52.811570097769177 ], [ 5.834397256530152, 52.810718547738226 ], [ 5.834923469151689, 52.80972721823489 ], [ 5.836754831595959, 52.80868831787911 ], [ 5.837270234312663, 52.808227636244411 ], [ 5.837211172241107, 52.807943749415308 ], [ 5.835834114716548, 52.806410465147287 ], [ 5.835856569277658, 52.806047343240742 ], [ 5.836445594462775, 52.805697283720569 ], [ 5.837341613045735, 52.805671402576834 ], [ 5.838778104591527, 52.805936293139965 ], [ 5.839469638909567, 52.806228900443529 ], [ 5.840471607992667, 52.806978917705976 ], [ 5.842142568995989, 52.807483138374195 ], [ 5.843573274415728, 52.80493463994884 ], [ 5.844186315701616, 52.805353687448267 ], [ 5.84619392972123, 52.805486250961621 ], [ 5.85017667049943, 52.806074582870195 ], [ 5.851297258539793, 52.806036762998801 ], [ 5.854675784571362, 52.805407189845994 ], [ 5.855500727066296, 52.805645116801095 ], [ 5.856592030201003, 52.807015502513522 ], [ 5.85701579913854, 52.807129213388237 ], [ 5.857408395468143, 52.806934170399948 ], [ 5.857698543060266, 52.806559075019656 ], [ 5.858644179151037, 52.805021202318123 ], [ 5.859609244801119, 52.804441079005308 ], [ 5.861803220500527, 52.8042313108839 ], [ 5.864645925079684, 52.804591275102787 ], [ 5.86561257446736, 52.804553029946113 ], [ 5.866576645670918, 52.804034957791607 ], [ 5.867685383237412, 52.803054454380472 ], [ 5.868652051575061, 52.802630111446646 ], [ 5.872659116377191, 52.801972694444721 ], [ 5.876274709919485, 52.800756420929957 ], [ 5.877753361695304, 52.80061845299187 ], [ 5.878781381275834, 52.800750563019399 ], [ 5.879807724115651, 52.801230061105031 ], [ 5.881565615600936, 52.803228993985684 ], [ 5.882612560850028, 52.803825777889813 ], [ 5.888591465767591, 52.805233752870059 ], [ 5.892804007566302, 52.805953360016389 ], [ 5.895218677742453, 52.807031711191961 ], [ 5.897924060865143, 52.807712831014605 ], [ 5.898720322204541, 52.808418956552551 ], [ 5.899401967056128, 52.810281688691163 ], [ 5.899855536061168, 52.811044889059744 ], [ 5.900707079894874, 52.811738124223901 ], [ 5.902314063732058, 52.81232555412123 ], [ 5.906033228227636, 52.812842246318624 ], [ 5.909412840960066, 52.813968829748433 ], [ 5.911454165643534, 52.815396799717448 ], [ 5.912549889157134, 52.816670579442551 ], [ 5.913632592008472, 52.818261587680574 ], [ 5.915051150170711, 52.819371494443651 ], [ 5.917851862340648, 52.821082064823209 ], [ 5.919424994559582, 52.821851643632918 ], [ 5.921661771571799, 52.822723704844442 ], [ 5.924135775365374, 52.823406008768963 ], [ 5.924429418798263, 52.823662013400373 ], [ 5.924434750602507, 52.82402405143138 ], [ 5.923120152492419, 52.826504396460358 ], [ 5.922993724945335, 52.827406447315447 ], [ 5.923279707682402, 52.827710668022313 ], [ 5.923890515596494, 52.827904072263472 ], [ 5.9261874684554, 52.827870863436651 ], [ 5.926456186611813, 52.828047724109176 ], [ 5.926506582212381, 52.828362478859077 ], [ 5.925968113181278, 52.828826924064266 ], [ 5.923127088060635, 52.829614774540588 ], [ 5.922750994747801, 52.830099812654183 ], [ 5.922918903369317, 52.830727969530955 ], [ 5.923644723748068, 52.831158897883668 ], [ 5.925532186774499, 52.831439255630798 ], [ 5.926852928620168, 52.831487869448459 ], [ 5.929922907551424, 52.831207538251 ], [ 5.930455841449278, 52.831410792034241 ], [ 5.93078525626458, 52.831911776268747 ], [ 5.930728602466682, 52.832313925706423 ], [ 5.929992570388269, 52.832725134429893 ], [ 5.927137543989813, 52.832995181774436 ], [ 5.92682849455816, 52.833387616090377 ], [ 5.927130400775369, 52.833740360376034 ], [ 5.930186634875874, 52.8349169675231 ], [ 5.931600854994032, 52.835228597479926 ], [ 5.935164621470492, 52.835389526962217 ], [ 5.937652314310678, 52.835251803735979 ], [ 5.940626200680457, 52.835608145809772 ], [ 5.942961505734776, 52.836243607633257 ], [ 5.944804655430618, 52.837166707369093 ], [ 5.94592861590276, 52.837352251942065 ], [ 5.946863821576026, 52.837145326172838 ], [ 5.949299372651256, 52.835900051553935 ], [ 5.953030815692512, 52.834490470752698 ], [ 5.954681330854362, 52.833246198328091 ], [ 5.955803084225162, 52.833136471912546 ], [ 5.956544251936566, 52.833477466866761 ], [ 5.956953330633338, 52.834440271950577 ], [ 5.956797137189167, 52.835076732810265 ], [ 5.955918408781883, 52.836719561546261 ], [ 5.955858192298165, 52.837339388650676 ], [ 5.956565133458081, 52.838141485142025 ], [ 5.95815196452448, 52.839310882282447 ], [ 5.959189015092353, 52.839860699256342 ], [ 5.960862989896303, 52.840386558631522 ], [ 5.969988449070263, 52.842275644075826 ], [ 5.972831903378602, 52.842360639279029 ], [ 5.972338096328592, 52.841915404260526 ], [ 5.972897313551993, 52.840938354440496 ], [ 5.972780266951959, 52.840670945958379 ], [ 5.976093313700555, 52.834690470143045 ], [ 5.977126692376807, 52.833369516530652 ], [ 5.981635528026281, 52.829274675685674 ], [ 5.981680597300754, 52.828901027761056 ], [ 5.98416709632061, 52.825686912489942 ], [ 5.98641187682794, 52.821619220417837 ], [ 5.988874943756328, 52.821959241968329 ], [ 5.990531152620536, 52.821506355968836 ], [ 5.991649224037791, 52.820551345963764 ], [ 5.994146274988526, 52.819038471252483 ], [ 5.99625848360356, 52.816858106510708 ], [ 5.996462839171358, 52.816472216492507 ], [ 5.999106293371353, 52.816813981704847 ], [ 6.00750612989263, 52.819949003216067 ], [ 6.017336629102761, 52.821731277663638 ], [ 6.024540112184632, 52.822440828717617 ], [ 6.025927164114175, 52.821606290582054 ], [ 6.026538232657463, 52.821015058484605 ], [ 6.031189658062526, 52.814892999665268 ], [ 6.034776368016161, 52.81645786664226 ], [ 6.04184018250232, 52.818980902276692 ], [ 6.04699295394339, 52.820432903162384 ], [ 6.050214626253076, 52.822525878221207 ], [ 6.05297231551154, 52.824029710849757 ], [ 6.055902574187215, 52.824760342998871 ], [ 6.060024343444385, 52.826050525185948 ], [ 6.055165451883534, 52.83121273568181 ], [ 6.052747219363121, 52.837241944007552 ], [ 6.056229341417169, 52.837801430040621 ], [ 6.061510695880297, 52.839196317390879 ], [ 6.068118515555263, 52.839311032487799 ], [ 6.075615137939432, 52.838596864043133 ], [ 6.08100768826991, 52.838632599899441 ], [ 6.08264345882589, 52.83905729386565 ], [ 6.083820933953469, 52.839739408312504 ], [ 6.083831151510445, 52.840311377224268 ], [ 6.084627709981495, 52.840977365257373 ], [ 6.087523016312881, 52.843023174642092 ], [ 6.092396639702096, 52.84418780052885 ], [ 6.121284960423505, 52.854649789151352 ], [ 6.16603113944265, 52.874934093234288 ], [ 6.206944286736054, 52.89065419900075 ], [ 6.232347430265116, 52.913354449003677 ], [ 6.244883328940358, 52.919502665025639 ], [ 6.245210193295833, 52.920830914587121 ], [ 6.247614093101941, 52.923609314686928 ], [ 6.256611092536611, 52.927539972306583 ], [ 6.302954292149916, 52.924874029703034 ], [ 6.333246957167196, 52.90626187539754 ], [ 6.334501029605966, 52.906478563948703 ], [ 6.343830358196425, 52.910636984276529 ], [ 6.346500456762669, 52.909729153407916 ] ] ] } }
]
}
