{
"type": "FeatureCollection",
"name": "SWVPO2303",
"crs": { "type": "name", "properties": { "name": "urn:ogc:def:crs:OGC:1.3:CRS84" } },
"features": [
{ "type": "Feature", "properties": { "PO SWV": "PO2303", "strokeColor": "#A9A9A9", "strokeWidth": 2, "fillColor": "#ADD8E6" }, "geometry": { "type": "Polygon", "coordinates": [ [ [ 6.326652033552255, 52.301438809641915 ], [ 6.328929989197374, 52.281174560672419 ], [ 6.330141209471201, 52.280734717085309 ], [ 6.330283709666028, 52.280451916324445 ], [ 6.331752619563613, 52.280080003261915 ], [ 6.333695223125703, 52.279030822358678 ], [ 6.337680624409593, 52.277403050912461 ], [ 6.338148761387516, 52.276915635910179 ], [ 6.339581436127187, 52.276584302300776 ], [ 6.346633063195113, 52.273362092201154 ], [ 6.347502309609465, 52.273106614686995 ], [ 6.348699214605086, 52.272442958710151 ], [ 6.348905858528988, 52.272151264386657 ], [ 6.350075448246499, 52.271864568423453 ], [ 6.350609145898126, 52.271518757126117 ], [ 6.349038176233238, 52.269938326905567 ], [ 6.350796470340473, 52.269370327735167 ], [ 6.352053357023151, 52.270983735679657 ], [ 6.354977212370811, 52.269237086121159 ], [ 6.353093843593276, 52.26834671987735 ], [ 6.355363886374827, 52.26737660500558 ], [ 6.356759380870191, 52.268219292395173 ], [ 6.363562097499647, 52.264276076298955 ], [ 6.363278796727592, 52.264000823207951 ], [ 6.364528496095916, 52.263280647956691 ], [ 6.364883914595834, 52.263519951055031 ], [ 6.370781035080434, 52.260118560386942 ], [ 6.372911813632924, 52.261099356369783 ], [ 6.376729236136229, 52.258862721760174 ], [ 6.377248682133975, 52.259021852782155 ], [ 6.377474814431459, 52.258764922225801 ], [ 6.377266263398519, 52.258614587436242 ], [ 6.377304618755463, 52.256591546568792 ], [ 6.374904158361466, 52.256199172713004 ], [ 6.374915535372337, 52.255348332935306 ], [ 6.377164486576162, 52.254592902819006 ], [ 6.377408912153903, 52.254365488006002 ], [ 6.376446993628379, 52.252186932933817 ], [ 6.376634542746269, 52.251390878919175 ], [ 6.377267955979611, 52.250869224291151 ], [ 6.376831803059595, 52.250223073715695 ], [ 6.377933355154354, 52.249938128452165 ], [ 6.381231664910291, 52.247524781585874 ], [ 6.381403403015806, 52.247113308130295 ], [ 6.380870678294865, 52.246857142043758 ], [ 6.38181425833311, 52.2464822178625 ], [ 6.381982535049517, 52.246076479124625 ], [ 6.381822504299141, 52.24620852083315 ], [ 6.366838703663157, 52.241632868228365 ], [ 6.358886378740062, 52.241863602007619 ], [ 6.350859178010913, 52.241774598981827 ], [ 6.34956059641969, 52.24128279870208 ], [ 6.34909247970548, 52.240234466009191 ], [ 6.349434979920167, 52.238890392485118 ], [ 6.348713472392074, 52.238783306934621 ], [ 6.347119855009286, 52.239258505608326 ], [ 6.344922947691623, 52.23869012036652 ], [ 6.342851727060831, 52.23784902267171 ], [ 6.341159325800782, 52.237705956903987 ], [ 6.341130533570433, 52.237447832753723 ], [ 6.341710103810717, 52.237286986661012 ], [ 6.341889210490905, 52.236547032900191 ], [ 6.341128450122183, 52.236096310869968 ], [ 6.337950993492538, 52.236289852080141 ], [ 6.338048869375563, 52.234240501691829 ], [ 6.337946735800807, 52.234131859659598 ], [ 6.338588321438925, 52.231365516382255 ], [ 6.338592303490247, 52.230383879922549 ], [ 6.33807830777837, 52.228330490591354 ], [ 6.338555596006699, 52.227248982090352 ], [ 6.325424768113932, 52.227096206662594 ], [ 6.321009696296461, 52.225801660856874 ], [ 6.298013606804619, 52.225630225696385 ], [ 6.297024778138705, 52.229072233061288 ], [ 6.293063133689815, 52.22961160481988 ], [ 6.29294109739285, 52.230818662990153 ], [ 6.292742251884265, 52.230968868879621 ], [ 6.291787177585787, 52.230982227402073 ], [ 6.287243964137837, 52.229827198608845 ], [ 6.28682022746632, 52.229937302594045 ], [ 6.286310899945623, 52.230459508600852 ], [ 6.277961218100831, 52.228500892401428 ], [ 6.277529422356634, 52.2285302407413 ], [ 6.277099986494522, 52.228334221991027 ], [ 6.277148063023064, 52.228023957334912 ], [ 6.276101897212533, 52.227866731447762 ], [ 6.275370696662943, 52.227780218172498 ], [ 6.27098463384077, 52.228007411663739 ], [ 6.270862327284303, 52.227814156542401 ], [ 6.271191944437295, 52.226515454019278 ], [ 6.269412355879648, 52.226556700062147 ], [ 6.267727920862944, 52.227003094018642 ], [ 6.2647954931958, 52.227332388711332 ], [ 6.264821238398365, 52.227549950432341 ], [ 6.264606435420673, 52.227811493721177 ], [ 6.263631711450635, 52.2277963077373 ], [ 6.263085078809964, 52.228294000216991 ], [ 6.262297687256561, 52.228529573494271 ], [ 6.261658580113687, 52.228480949684148 ], [ 6.261241449805108, 52.22874190581657 ], [ 6.261303647064477, 52.228979806255253 ], [ 6.260934572517534, 52.229168958949352 ], [ 6.260399743299179, 52.229111669380728 ], [ 6.260062140475984, 52.22924210944884 ], [ 6.25990036817621, 52.229194517187771 ], [ 6.259827018149672, 52.228903809240997 ], [ 6.259467151501382, 52.228823466969232 ], [ 6.25946715323479, 52.228519132000706 ], [ 6.258767220264272, 52.22829165158592 ], [ 6.258586238859222, 52.227841078543726 ], [ 6.257646597033935, 52.22778165873919 ], [ 6.257272070932766, 52.227380362902515 ], [ 6.255843809595333, 52.227279642982253 ], [ 6.255446603304446, 52.227595581969673 ], [ 6.255021305527693, 52.227668890352795 ], [ 6.254586910049993, 52.227581706389927 ], [ 6.254454435112389, 52.227387249363041 ], [ 6.253210814863973, 52.227502008920624 ], [ 6.253093700165724, 52.227273095103669 ], [ 6.252614430723867, 52.22712950677542 ], [ 6.251975800026082, 52.227406159088403 ], [ 6.251280118093078, 52.227259991869211 ], [ 6.251199837312206, 52.22709891955882 ], [ 6.250436031448027, 52.22700663241001 ], [ 6.249932483064512, 52.227598281390073 ], [ 6.249205441854344, 52.227418513509022 ], [ 6.248837400639065, 52.227504899239136 ], [ 6.248851602498203, 52.22766087860888 ], [ 6.248635718791702, 52.227737166143804 ], [ 6.248237750129601, 52.227750382341895 ], [ 6.248057853665216, 52.227580012485674 ], [ 6.247618525082045, 52.22755034590724 ], [ 6.247465004162351, 52.227318345569159 ], [ 6.246851276251039, 52.227208385115404 ], [ 6.245693268034018, 52.22735820545396 ], [ 6.245138084363847, 52.227550711586041 ], [ 6.245193593873051, 52.227772265858697 ], [ 6.244887618117033, 52.227961173051888 ], [ 6.244968342636503, 52.22822514563186 ], [ 6.244685112796924, 52.22837124892439 ], [ 6.24371994122935, 52.228202582451509 ], [ 6.24291958482867, 52.228305862490451 ], [ 6.241855053271256, 52.227791568042626 ], [ 6.24007445998554, 52.22782786731679 ], [ 6.239514909100277, 52.227582729987851 ], [ 6.239073256788035, 52.227850958414187 ], [ 6.238151406890545, 52.227649234815843 ], [ 6.238069882912828, 52.22784949413154 ], [ 6.237519180465094, 52.228121109705796 ], [ 6.236660591139812, 52.228307395343016 ], [ 6.2360049591725, 52.228176756457209 ], [ 6.235223611741317, 52.228257131383174 ], [ 6.234522531665266, 52.228923667683027 ], [ 6.233967825164554, 52.229128934058913 ], [ 6.233532626825683, 52.228941511620214 ], [ 6.232191383209904, 52.229355721463548 ], [ 6.230484506506076, 52.229156368777659 ], [ 6.230123722165559, 52.229248025388976 ], [ 6.230000549673345, 52.229497558643608 ], [ 6.229444860578021, 52.229366519329631 ], [ 6.229053721605299, 52.229633048071605 ], [ 6.228497180465156, 52.229620088104255 ], [ 6.227936189526448, 52.229867296262874 ], [ 6.227171226947032, 52.229879855729827 ], [ 6.227022643011797, 52.2296880287211 ], [ 6.226392745273154, 52.229515489388291 ], [ 6.223981645114452, 52.229100539104564 ], [ 6.223215526859941, 52.229242568594337 ], [ 6.222499820237912, 52.228962783301185 ], [ 6.221003549907853, 52.229373541931352 ], [ 6.216510908368038, 52.231569906764669 ], [ 6.216300457867909, 52.231544633293623 ], [ 6.216300644663725, 52.231366959386989 ], [ 6.215455473922749, 52.231640900551653 ], [ 6.214452751245347, 52.23151475594306 ], [ 6.214428612202703, 52.231275387770992 ], [ 6.215563255042617, 52.229453604328711 ], [ 6.215384474833702, 52.229345625418418 ], [ 6.216995379913508, 52.226564750411313 ], [ 6.210906465974485, 52.228283660010362 ], [ 6.201956549182552, 52.229522331465347 ], [ 6.19860048825004, 52.229245724450294 ], [ 6.19657841679256, 52.229265194954877 ], [ 6.19568349394596, 52.229466516321217 ], [ 6.193352881181238, 52.229257820364204 ], [ 6.191497015281456, 52.229709894203843 ], [ 6.190435984293964, 52.229337995940035 ], [ 6.189471936130373, 52.22942922800268 ], [ 6.189151031304012, 52.229284501815719 ], [ 6.186442147398451, 52.231360166015619 ], [ 6.185002265192331, 52.23186646536093 ], [ 6.185044445114984, 52.232062304972658 ], [ 6.182915204093822, 52.233824543191709 ], [ 6.182522990209972, 52.233924712186138 ], [ 6.17885152790827, 52.233561615759335 ], [ 6.178658719452209, 52.233659825490655 ], [ 6.174686321855699, 52.232981471060235 ], [ 6.1662366822735, 52.231108462243355 ], [ 6.162952937567277, 52.228588161967082 ], [ 6.16297621309401, 52.228436560363008 ], [ 6.163637430312865, 52.228173948901897 ], [ 6.167297049978155, 52.227669811144587 ], [ 6.168299233116016, 52.227234598566262 ], [ 6.167716948204067, 52.226338410040348 ], [ 6.162641303163481, 52.228130582724511 ], [ 6.162408334617837, 52.227957804632133 ], [ 6.162963595996217, 52.227183635518713 ], [ 6.163525723405282, 52.226787807311183 ], [ 6.163805562008505, 52.226292732832647 ], [ 6.163983049714409, 52.225680286423341 ], [ 6.163811653217457, 52.225506286005832 ], [ 6.164431232056264, 52.22437251066598 ], [ 6.165557949954921, 52.223519930713721 ], [ 6.165064538787786, 52.223090336879061 ], [ 6.165400728802552, 52.222518558458979 ], [ 6.16570572277663, 52.222211768674882 ], [ 6.168473840902817, 52.220710054545236 ], [ 6.167436561082568, 52.220151041795738 ], [ 6.167560491499115, 52.218954155028612 ], [ 6.166647606720182, 52.218904900739318 ], [ 6.165902575207612, 52.2178385513865 ], [ 6.165348299323317, 52.217604705547863 ], [ 6.164085804958003, 52.217540593770991 ], [ 6.16370055615813, 52.218011755518084 ], [ 6.162728606117405, 52.21841604886216 ], [ 6.162851656052286, 52.218978408440854 ], [ 6.163397177274206, 52.219907289499645 ], [ 6.163605469093399, 52.220760034914633 ], [ 6.164019795987995, 52.221327999804913 ], [ 6.164028631939686, 52.221953447845834 ], [ 6.162367202032652, 52.224131155860562 ], [ 6.161430717522393, 52.224843390595431 ], [ 6.160168280488358, 52.225321992409526 ], [ 6.157222811399315, 52.225628165534303 ], [ 6.151527064223084, 52.2270479727324 ], [ 6.149606536105124, 52.227206191185104 ], [ 6.147714844578095, 52.227786451569351 ], [ 6.145833295053178, 52.229069565144982 ], [ 6.143754467250322, 52.23105288728636 ], [ 6.142407146862021, 52.232683062978417 ], [ 6.142036456366541, 52.233472481875573 ], [ 6.141818458873233, 52.234152406311203 ], [ 6.141736517863587, 52.23656795411798 ], [ 6.142353924680418, 52.238415902823107 ], [ 6.143012554816951, 52.238763844922104 ], [ 6.144388266662913, 52.239118382425701 ], [ 6.149791601178435, 52.241605462580523 ], [ 6.152545418251582, 52.243381282340792 ], [ 6.153664010302309, 52.243937909378097 ], [ 6.154017255809137, 52.24445044321358 ], [ 6.154300734116126, 52.245710250696867 ], [ 6.153813419894975, 52.246865524061938 ], [ 6.151959233186968, 52.247777753282627 ], [ 6.150019679518378, 52.248415930649799 ], [ 6.149354154231657, 52.247961141749144 ], [ 6.144480925168547, 52.247218036006316 ], [ 6.143904773332922, 52.246943017618193 ], [ 6.143490045593153, 52.246520040419369 ], [ 6.143339343764992, 52.24669246038934 ], [ 6.141628046531777, 52.247011349685941 ], [ 6.138806849600553, 52.24788919586652 ], [ 6.137671608691284, 52.248465509009918 ], [ 6.136935141717232, 52.249052572891138 ], [ 6.135437177466735, 52.249711525624171 ], [ 6.133755172842741, 52.249928205162675 ], [ 6.130975047896404, 52.250556487203433 ], [ 6.126478664129566, 52.250753241973548 ], [ 6.124790464785932, 52.251119266565063 ], [ 6.123949873929772, 52.251542660373168 ], [ 6.123656616641129, 52.252738000859011 ], [ 6.123751689050052, 52.253700759463875 ], [ 6.124590927855639, 52.255791498365099 ], [ 6.125234418032719, 52.256777794518925 ], [ 6.125808398279652, 52.257404181357082 ], [ 6.127586877921436, 52.258589934113964 ], [ 6.128299908260201, 52.258541284097852 ], [ 6.128422730853956, 52.258747927503158 ], [ 6.128217144136025, 52.258971766534422 ], [ 6.12968298857598, 52.259795866641063 ], [ 6.129739620333636, 52.260203539857649 ], [ 6.130160264720988, 52.260732469449955 ], [ 6.126878028405627, 52.262077882668748 ], [ 6.125587436266779, 52.262878771824774 ], [ 6.124619784139015, 52.263726393264825 ], [ 6.123993226909687, 52.264557865372765 ], [ 6.123542836484243, 52.265546264780646 ], [ 6.123346345618045, 52.267938184597377 ], [ 6.123077123243918, 52.269286148196834 ], [ 6.122303748653878, 52.270783107259028 ], [ 6.121749038584777, 52.271501429842964 ], [ 6.12116704649377, 52.272107232290111 ], [ 6.118317776281141, 52.274139512811708 ], [ 6.114082857639857, 52.276651327811734 ], [ 6.113248669628807, 52.277376306742177 ], [ 6.112447447685785, 52.278361182626035 ], [ 6.111574158286581, 52.280007059273636 ], [ 6.111347958307289, 52.280937440439068 ], [ 6.111351889148989, 52.281949817168027 ], [ 6.111830059874642, 52.28556435084954 ], [ 6.111842877140073, 52.286954088569018 ], [ 6.111698426778491, 52.287645190157413 ], [ 6.111014635100266, 52.288837260723582 ], [ 6.110454978023614, 52.289417674377873 ], [ 6.109293283747438, 52.290287294067589 ], [ 6.106399902592184, 52.292013326399598 ], [ 6.105650869457262, 52.292869330420984 ], [ 6.105084535066831, 52.293939564794663 ], [ 6.10487090136369, 52.294773579557024 ], [ 6.105093964036428, 52.296241342174248 ], [ 6.104997257707501, 52.296754315367735 ], [ 6.104215500282542, 52.297840360804244 ], [ 6.102014257678745, 52.299869591055987 ], [ 6.10146821598993, 52.30111381815334 ], [ 6.101560671954013, 52.30123113241519 ], [ 6.101230043534753, 52.302072266931454 ], [ 6.101164321592893, 52.303123412978891 ], [ 6.101529344821614, 52.305266269427399 ], [ 6.102777535313687, 52.305699965463141 ], [ 6.10356296179577, 52.307942796753743 ], [ 6.102794208055939, 52.308133917146463 ], [ 6.103306015174836, 52.309621274740707 ], [ 6.103256836566952, 52.310839835005886 ], [ 6.102320751943741, 52.312344690582293 ], [ 6.101541744940205, 52.313046198835615 ], [ 6.105558729868528, 52.314173198512265 ], [ 6.107113382136388, 52.312796371355539 ], [ 6.108288675135925, 52.309243278480885 ], [ 6.10992526518929, 52.307160016836512 ], [ 6.111242441827742, 52.303541362364065 ], [ 6.11162267693356, 52.299772063380004 ], [ 6.112062020271773, 52.298718398871344 ], [ 6.112595212636805, 52.29807541612697 ], [ 6.118601179506806, 52.29879375385169 ], [ 6.12240801584148, 52.299925550725071 ], [ 6.134158539940366, 52.302249105885416 ], [ 6.141430598605044, 52.303878367492416 ], [ 6.168755937684651, 52.308208101227976 ], [ 6.170286567656276, 52.308684825861882 ], [ 6.182200165654934, 52.308813771930581 ], [ 6.181659683537545, 52.31476711220953 ], [ 6.184098912031517, 52.314948298930283 ], [ 6.190078876559037, 52.314656161363537 ], [ 6.199514792335104, 52.315781276863412 ], [ 6.199867397229687, 52.316254764860759 ], [ 6.202779208970956, 52.31718197542785 ], [ 6.20255649507032, 52.317673165998073 ], [ 6.202568158957568, 52.318074442393069 ], [ 6.203229777055387, 52.319687422050016 ], [ 6.203673193515436, 52.319682007336716 ], [ 6.203837094721488, 52.320221240487911 ], [ 6.20650069614561, 52.321021227299724 ], [ 6.235253241459972, 52.319724777992889 ], [ 6.235084736567141, 52.314367802457198 ], [ 6.26445696197627, 52.301999447993744 ], [ 6.267218441014658, 52.300706724488187 ], [ 6.286558241579782, 52.300421527913151 ], [ 6.305090025410669, 52.300445439464966 ], [ 6.326636980682776, 52.301573396726674 ], [ 6.326652033552255, 52.301438809641915 ] ] ] } }
]
}
