{
"type": "FeatureCollection",
"name": "SWVPO2702",
"crs": { "type": "name", "properties": { "name": "urn:ogc:def:crs:OGC:1.3:CRS84" } },
"features": [
{ "type": "Feature", "properties": { "PO SWV": "PO2702", "strokeColor": "#A9A9A9", "strokeWidth": 2, "fillColor": "#ADD8E6" }, "geometry": { "type": "Polygon", "coordinates": [ [ [ 4.898427819725964, 52.706574457891335 ], [ 4.898618063465583, 52.706917753792141 ], [ 4.898982317339772, 52.706910192830264 ], [ 4.899935410517534, 52.708021396547871 ], [ 4.904809962258241, 52.712627330637524 ], [ 4.906244844205517, 52.714321476929037 ], [ 4.912164079748542, 52.720334748402934 ], [ 4.931172161689135, 52.74174815791153 ], [ 4.931374083292099, 52.742152590180886 ], [ 4.932722282894185, 52.748998571262263 ], [ 4.937499858488406, 52.749853341883046 ], [ 4.940289860384544, 52.750514228664429 ], [ 4.944450966443317, 52.752796559932143 ], [ 4.944403036101593, 52.75354079352055 ], [ 4.946117311301364, 52.753873161451111 ], [ 4.946164399919881, 52.754022377992023 ], [ 4.947257705215127, 52.754291869893869 ], [ 4.949945259036377, 52.754600281663841 ], [ 4.954346298185897, 52.755396248363581 ], [ 4.954822543452408, 52.755151064786489 ], [ 4.955063908875546, 52.754119187688751 ], [ 4.955874140142954, 52.753375230426215 ], [ 5.015956120965884, 52.751688826971616 ], [ 5.029305986915827, 52.751713412139146 ], [ 5.034828649571909, 52.751990242983048 ], [ 5.040111225590247, 52.752507097986872 ], [ 5.040354737301845, 52.752149701077506 ], [ 5.041725168798797, 52.752294917795851 ], [ 5.042271513077721, 52.752375642211852 ], [ 5.043434439346753, 52.752967152533863 ], [ 5.045884112881673, 52.753450347318967 ], [ 5.048916875848657, 52.754816388224285 ], [ 5.055438654552749, 52.757004070649792 ], [ 5.057530982787137, 52.757925571841177 ], [ 5.063219359295629, 52.761739637064117 ], [ 5.064684477885826, 52.763179619035547 ], [ 5.067124517149913, 52.766399993849177 ], [ 5.069430420031862, 52.7680126695778 ], [ 5.070384853958585, 52.768337488115542 ], [ 5.073496955199309, 52.768982702250291 ], [ 5.076197548166337, 52.769344416654015 ], [ 5.08201033834102, 52.769711858328812 ], [ 5.088002304347223, 52.769674207887597 ], [ 5.090153581686375, 52.769509727683946 ], [ 5.092627548697862, 52.76886787422837 ], [ 5.093156114736982, 52.768585970327628 ], [ 5.096272917516335, 52.770517422851867 ], [ 5.099069160747277, 52.771866257344726 ], [ 5.099254186450683, 52.772018146982568 ], [ 5.098585789064173, 52.77240376529214 ], [ 5.099309588614173, 52.77319822590637 ], [ 5.100153848454042, 52.773665598774329 ], [ 5.103047159690054, 52.774533460575192 ], [ 5.103372975217335, 52.774273311897922 ], [ 5.103898492624516, 52.774546980999673 ], [ 5.107926381322414, 52.774527155337772 ], [ 5.111819733614472, 52.774755903520969 ], [ 5.112518960875923, 52.77454029748953 ], [ 5.113164300895783, 52.774771410984648 ], [ 5.113318886741517, 52.774652403816631 ], [ 5.113235025344144, 52.774412512229077 ], [ 5.112619517476554, 52.774221211758615 ], [ 5.112721905875611, 52.773792969353764 ], [ 5.11040291639476, 52.772203177532212 ], [ 5.110460291043921, 52.772013136368741 ], [ 5.110874540798435, 52.771956427393611 ], [ 5.11191759211195, 52.772518853579122 ], [ 5.112411082327583, 52.77194444765739 ], [ 5.112204790643186, 52.771532778106213 ], [ 5.109132108541435, 52.770017694380648 ], [ 5.109394724447117, 52.769582147164691 ], [ 5.112838276156253, 52.770993678530679 ], [ 5.112159099899579, 52.772777460767259 ], [ 5.112882402486067, 52.773622615856567 ], [ 5.113411517819264, 52.773586820051221 ], [ 5.11330225051951, 52.77413465606201 ], [ 5.113805819580583, 52.774506053044306 ], [ 5.113902000593054, 52.77432785865053 ], [ 5.113743874124187, 52.774120565259388 ], [ 5.113928706761988, 52.773449388255422 ], [ 5.1145846618542, 52.772711747110868 ], [ 5.114988230614507, 52.772740375318058 ], [ 5.115745115286358, 52.771446800629093 ], [ 5.11734377681515, 52.771538668726542 ], [ 5.11728865052232, 52.771325999304743 ], [ 5.116087180513818, 52.771144760030381 ], [ 5.116670212350449, 52.770718174178178 ], [ 5.116568869375173, 52.770473772202742 ], [ 5.115581976568855, 52.770678212319275 ], [ 5.11710018687503, 52.770204812701436 ], [ 5.117696422481896, 52.769771566957957 ], [ 5.118206784484676, 52.767990938668788 ], [ 5.120405321716216, 52.768121496661735 ], [ 5.120938502029188, 52.767992782176492 ], [ 5.12131017875551, 52.768596882232622 ], [ 5.121378140497249, 52.769064947170719 ], [ 5.121068630753532, 52.769924198083402 ], [ 5.120460763242177, 52.770514768456053 ], [ 5.11963182741827, 52.770955122365955 ], [ 5.118276953492942, 52.771307137521369 ], [ 5.118264534182699, 52.771565104724644 ], [ 5.119039414513133, 52.771492727790836 ], [ 5.120146793506226, 52.771123765407637 ], [ 5.120974371560706, 52.770574170173219 ], [ 5.121568265829663, 52.769874146537504 ], [ 5.121771084945523, 52.768774544542303 ], [ 5.121085939715059, 52.767618280241955 ], [ 5.12055070824303, 52.76727944889091 ], [ 5.120340413007963, 52.767385512778375 ], [ 5.120423459751046, 52.767649572297593 ], [ 5.119644442522091, 52.76769493799609 ], [ 5.118957171474606, 52.767417093155998 ], [ 5.118719229890845, 52.767121729752333 ], [ 5.118716052772861, 52.766868486539948 ], [ 5.11978119563461, 52.765540037203195 ], [ 5.119530118788884, 52.765439001352021 ], [ 5.119082717541763, 52.765828093665441 ], [ 5.118497874053004, 52.766061439366034 ], [ 5.118057729805827, 52.765933416926408 ], [ 5.118036752546521, 52.765622579459937 ], [ 5.118495871086457, 52.764647546564838 ], [ 5.119485464423855, 52.764568193336402 ], [ 5.11964345726046, 52.764731119987488 ], [ 5.119656176706395, 52.765309264980985 ], [ 5.119839526522514, 52.765411042275005 ], [ 5.120329464904076, 52.764761881879174 ], [ 5.121033775522214, 52.764669943512331 ], [ 5.121856592562452, 52.764709652872547 ], [ 5.123414857926821, 52.765246545711904 ], [ 5.123312966734292, 52.765448846079543 ], [ 5.121611824962466, 52.766191544009246 ], [ 5.121884383972326, 52.766430293382015 ], [ 5.126719667458373, 52.764035912860635 ], [ 5.125686745462406, 52.76334360330646 ], [ 5.125468350456482, 52.763357585369384 ], [ 5.125401377982636, 52.763562281412973 ], [ 5.126105828558412, 52.763970694697051 ], [ 5.124271445043673, 52.76493475307003 ], [ 5.122733693308128, 52.764302688210677 ], [ 5.120597463036145, 52.764075781695198 ], [ 5.120550304351146, 52.762778343730204 ], [ 5.120068680630787, 52.761651189415119 ], [ 5.120070053637861, 52.761294054899793 ], [ 5.12042759852132, 52.76089167261771 ], [ 5.121096828737619, 52.761329414450259 ], [ 5.121668707494373, 52.761312792395501 ], [ 5.121856289593046, 52.761118870241852 ], [ 5.120198820237341, 52.760100046007523 ], [ 5.119206919409716, 52.75999239410929 ], [ 5.119287440061559, 52.759878396154335 ], [ 5.120088620746731, 52.759828859210565 ], [ 5.120840669519303, 52.759260640980536 ], [ 5.121136400366069, 52.758707275059685 ], [ 5.121538581366832, 52.758579012192264 ], [ 5.123237326319883, 52.758818160274444 ], [ 5.124895648511711, 52.758690587884068 ], [ 5.127039943152961, 52.759867996408069 ], [ 5.127529413382616, 52.760874986483472 ], [ 5.127481515981744, 52.762029058744851 ], [ 5.127315014000747, 52.762802681483464 ], [ 5.126770355469855, 52.762571549762647 ], [ 5.126601556408281, 52.76276027251189 ], [ 5.127616190266329, 52.763425819432115 ], [ 5.127876792178264, 52.763327106367711 ], [ 5.127614975044835, 52.762914702781003 ], [ 5.127859134855975, 52.762275320773135 ], [ 5.127947984630175, 52.760899541758555 ], [ 5.127299984668737, 52.759564987649206 ], [ 5.1263878913521, 52.75857020599674 ], [ 5.125285980432674, 52.757733526295063 ], [ 5.125144474506891, 52.757530060019192 ], [ 5.125258698814168, 52.75688599866443 ], [ 5.125041730913766, 52.756871082917428 ], [ 5.124805506526551, 52.757217374833616 ], [ 5.124479064663746, 52.757259770472757 ], [ 5.123908069866018, 52.757890544535613 ], [ 5.123580975802412, 52.757741428694111 ], [ 5.123586687342504, 52.757519744819454 ], [ 5.123030104377217, 52.756902999388224 ], [ 5.123793841959264, 52.756274275843893 ], [ 5.123652636075908, 52.755730021424114 ], [ 5.125839186757248, 52.754157132450779 ], [ 5.128105592322815, 52.752992465577989 ], [ 5.130050507275522, 52.751776559917595 ], [ 5.131462585040917, 52.751181718857971 ], [ 5.131869374069202, 52.751077523069391 ], [ 5.1332731951611, 52.751580098449722 ], [ 5.133957927262362, 52.751603772022449 ], [ 5.13499564799851, 52.751418599870227 ], [ 5.13620333669825, 52.750807128413989 ], [ 5.136665299199296, 52.750410303872535 ], [ 5.136770250655551, 52.750196840957742 ], [ 5.136659713913647, 52.750068832679851 ], [ 5.135467840987574, 52.750114685892171 ], [ 5.134798777513005, 52.750429620582921 ], [ 5.134688167639026, 52.750573771403587 ], [ 5.134808210109941, 52.750676437740793 ], [ 5.135635741643557, 52.750395622163119 ], [ 5.135788467874368, 52.750370782765337 ], [ 5.135357602354557, 52.750618492584699 ], [ 5.135414137689105, 52.750925544000296 ], [ 5.134839158160124, 52.751182144334059 ], [ 5.134645375405995, 52.751082089758548 ], [ 5.133793060375189, 52.751325489997896 ], [ 5.132973340009344, 52.751181432458203 ], [ 5.133879264165938, 52.750840154186115 ], [ 5.1338306169284, 52.750637070681897 ], [ 5.133177601947817, 52.750713716326793 ], [ 5.132668931132174, 52.750990176177062 ], [ 5.13250619196439, 52.750866733307404 ], [ 5.135029232586478, 52.749270295784314 ], [ 5.136148906995003, 52.748731421162645 ], [ 5.139222363737881, 52.746546504461321 ], [ 5.138621329888191, 52.74598291689793 ], [ 5.139929545181675, 52.745194383152231 ], [ 5.140810713938385, 52.744943540407426 ], [ 5.14142052207665, 52.744565095663098 ], [ 5.142368122761207, 52.744600007231988 ], [ 5.142631829785214, 52.743894486937521 ], [ 5.146472188269571, 52.741570700906223 ], [ 5.146266080372127, 52.741841097057304 ], [ 5.146345387583893, 52.742175562515996 ], [ 5.147751934718825, 52.742884264128051 ], [ 5.147134424974062, 52.743044824195707 ], [ 5.147120265488478, 52.743223539034432 ], [ 5.148216511241133, 52.743005463946531 ], [ 5.148934882371415, 52.743250172961687 ], [ 5.14901149419967, 52.742966095647134 ], [ 5.148740796898037, 52.742013056366751 ], [ 5.148020224592495, 52.740714523549606 ], [ 5.147327230444119, 52.739935174752837 ], [ 5.14743408932819, 52.739591162296477 ], [ 5.148406906216219, 52.739713007565271 ], [ 5.150515035052489, 52.740777032586195 ], [ 5.152880821850813, 52.741118260527955 ], [ 5.152935298426375, 52.740953491112833 ], [ 5.152682567302902, 52.740743895554452 ], [ 5.152512170764678, 52.740123573594119 ], [ 5.152331461659023, 52.739969364218489 ], [ 5.15215653507085, 52.739902393107336 ], [ 5.151810238469799, 52.740199666205186 ], [ 5.151824991775189, 52.740368124412235 ], [ 5.151657908692759, 52.740564706121667 ], [ 5.151680265208546, 52.740224453965901 ], [ 5.152240550573272, 52.739695972737657 ], [ 5.152943136255189, 52.739546042154693 ], [ 5.153391977953406, 52.739255822547392 ], [ 5.153289302298627, 52.739067681824871 ], [ 5.154032374685825, 52.738703680557627 ], [ 5.154070978142747, 52.73852405297437 ], [ 5.153843323905835, 52.738385164188571 ], [ 5.154120149178926, 52.738159980735574 ], [ 5.153911350719555, 52.737832717500815 ], [ 5.15431227814541, 52.737771640025628 ], [ 5.1546766596541, 52.737448856824507 ], [ 5.15548927709166, 52.737442933193179 ], [ 5.155916560263558, 52.737674348958734 ], [ 5.156375032385117, 52.737600263547506 ], [ 5.156641539615578, 52.737374436615355 ], [ 5.157924237024303, 52.737511901278616 ], [ 5.158392366214705, 52.737345387340063 ], [ 5.161821166710496, 52.737474529091514 ], [ 5.164057359104436, 52.737357768260516 ], [ 5.164954645652214, 52.737144171067442 ], [ 5.165092408861035, 52.737259439420541 ], [ 5.164670603374173, 52.737367446885202 ], [ 5.164806150480096, 52.737639413653504 ], [ 5.164711227645487, 52.737869186427993 ], [ 5.163967192487347, 52.738506401510861 ], [ 5.163691874416439, 52.739110162581206 ], [ 5.163988187852221, 52.739453126859644 ], [ 5.164459538545829, 52.739521755963111 ], [ 5.164749776542326, 52.739345131265097 ], [ 5.164804266268744, 52.739258049369006 ], [ 5.164858809018441, 52.739094311599217 ], [ 5.164931346358427, 52.738934265189386 ], [ 5.164950414199909, 52.738905586361035 ], [ 5.165061353536095, 52.739323897162443 ], [ 5.164830673435864, 52.739542427139 ], [ 5.165464683440432, 52.739834599714683 ], [ 5.16524978185343, 52.740017626032042 ], [ 5.165298951956362, 52.740762179450975 ], [ 5.164872338575158, 52.741042039570743 ], [ 5.165078693599558, 52.74120278348741 ], [ 5.169630555396687, 52.741068825948247 ], [ 5.170053412148992, 52.740692784511467 ], [ 5.169208703702898, 52.740309491946114 ], [ 5.169379043656311, 52.740196242339614 ], [ 5.169321437230468, 52.740034921789153 ], [ 5.168681330943868, 52.739975987023151 ], [ 5.168586281769793, 52.7397178740922 ], [ 5.168702060879897, 52.739305582522952 ], [ 5.169274540081607, 52.7388788454885 ], [ 5.170536020638103, 52.73868501789449 ], [ 5.172159562953449, 52.739007349484694 ], [ 5.172691828338165, 52.739345314523803 ], [ 5.17285356333679, 52.739679176136988 ], [ 5.172731918593795, 52.739963843966336 ], [ 5.172229069043683, 52.740178330796631 ], [ 5.170930854769741, 52.740338692152108 ], [ 5.170571227001617, 52.740174770188489 ], [ 5.170669166006587, 52.740865628178852 ], [ 5.171045157620272, 52.741111139173228 ], [ 5.171302224627911, 52.741063544009421 ], [ 5.171210506473674, 52.740853483154105 ], [ 5.171367692677078, 52.740710272337758 ], [ 5.171745551402321, 52.740660513625478 ], [ 5.17220127264233, 52.740653639648784 ], [ 5.172855480175395, 52.740969858125553 ], [ 5.172910012097569, 52.740829862221609 ], [ 5.172670321114414, 52.740578371397298 ], [ 5.173699361987531, 52.740222638092149 ], [ 5.174194620888144, 52.740266875665171 ], [ 5.174197096906827, 52.740037827157913 ], [ 5.174835974403407, 52.739852767599288 ], [ 5.175016674041944, 52.739624667944582 ], [ 5.176019604681663, 52.739682863269998 ], [ 5.176294080747402, 52.739779075013914 ], [ 5.176307815450885, 52.740014474613581 ], [ 5.17716276060261, 52.740078789406475 ], [ 5.179393739723439, 52.740986800896835 ], [ 5.180217658792556, 52.741455956749462 ], [ 5.180707354754044, 52.742239893503339 ], [ 5.182436698217246, 52.743880397375811 ], [ 5.180199601298836, 52.745404622420381 ], [ 5.180188507416176, 52.745611979292924 ], [ 5.180519301871299, 52.74562868232578 ], [ 5.182944718936034, 52.743950240912035 ], [ 5.181074894869784, 52.742186153070037 ], [ 5.181315933184086, 52.742000207980425 ], [ 5.182805143195917, 52.74305184707292 ], [ 5.183599997327245, 52.743954922735931 ], [ 5.182834544236409, 52.74448975853398 ], [ 5.184456923096429, 52.746573925838433 ], [ 5.18358194691409, 52.746926755358523 ], [ 5.180076181974606, 52.745957589160334 ], [ 5.179622958183126, 52.745368224241986 ], [ 5.179313954705517, 52.745322353280116 ], [ 5.179186932102649, 52.745532327767933 ], [ 5.179583662190418, 52.746137596239414 ], [ 5.183520796695056, 52.747294384319289 ], [ 5.185549764136032, 52.746702533927362 ], [ 5.185769370368227, 52.746755282780398 ], [ 5.192271516382586, 52.754735250396486 ], [ 5.192818993794953, 52.755121305638774 ], [ 5.193321354116363, 52.755257358532369 ], [ 5.205150938413105, 52.755086887066177 ], [ 5.205232113011634, 52.75531752919813 ], [ 5.205397983299116, 52.75534568822372 ], [ 5.205463291400555, 52.755090297437086 ], [ 5.211709655530924, 52.755042216493564 ], [ 5.218782664548566, 52.754064695786205 ], [ 5.222761432507306, 52.753789845431655 ], [ 5.224533435172855, 52.752895688887357 ], [ 5.225991106808674, 52.752548039094968 ], [ 5.256382064540093, 52.753695091574151 ], [ 5.258285521527674, 52.753562040259261 ], [ 5.260222506387543, 52.753098837249517 ], [ 5.261556247658758, 52.75252159272371 ], [ 5.269599156499737, 52.747826884417961 ], [ 5.271669992113772, 52.747699265289178 ], [ 5.271833714616175, 52.747481543789348 ], [ 5.271644347763284, 52.747342158505518 ], [ 5.269266802850609, 52.747455484084931 ], [ 5.263710591742788, 52.746874097361683 ], [ 5.263606602737506, 52.746731397255587 ], [ 5.261260723466276, 52.746919084484546 ], [ 5.260592278262091, 52.746555555047614 ], [ 5.258810832319572, 52.746314504099033 ], [ 5.258322524340584, 52.745989393352147 ], [ 5.258422858434076, 52.745766309949694 ], [ 5.259831462183755, 52.745427395077506 ], [ 5.262720008928886, 52.745514730474383 ], [ 5.262986154508853, 52.745751625197116 ], [ 5.263271651321842, 52.745525419556714 ], [ 5.2654389322697, 52.745498226681896 ], [ 5.265793329505609, 52.745662299792919 ], [ 5.265921387130486, 52.745500875973505 ], [ 5.26678951238577, 52.745540098180207 ], [ 5.267904724627233, 52.745695686170635 ], [ 5.268089624397517, 52.745844570595075 ], [ 5.268231157216039, 52.745726131577406 ], [ 5.269699370472922, 52.745677387942976 ], [ 5.270892934831357, 52.746237416614441 ], [ 5.271849871192147, 52.746463959461899 ], [ 5.273051968757615, 52.745954979502272 ], [ 5.277811076953865, 52.743270253745614 ], [ 5.279472120520823, 52.742844478073408 ], [ 5.282512400399258, 52.742480242440394 ], [ 5.282887434510569, 52.742246325264858 ], [ 5.283014534402167, 52.741793821364745 ], [ 5.282941581838186, 52.740361648377892 ], [ 5.285247569810363, 52.738188763095401 ], [ 5.28683833156606, 52.736226707433268 ], [ 5.28746526815933, 52.732751699336056 ], [ 5.287237234219133, 52.732655882983082 ], [ 5.287045011531827, 52.733070054279338 ], [ 5.285875114783205, 52.733097031849709 ], [ 5.284985633885696, 52.733702102455887 ], [ 5.284697349884162, 52.733704840669269 ], [ 5.286688786747397, 52.732161177437654 ], [ 5.286204026351356, 52.732020367229559 ], [ 5.284546631822401, 52.732221575892858 ], [ 5.283887811246833, 52.731621270382682 ], [ 5.283722802825626, 52.730777089540119 ], [ 5.288935388920192, 52.727665909261979 ], [ 5.288850966944424, 52.727551695887385 ], [ 5.288444330030011, 52.727591068692583 ], [ 5.28743054861756, 52.728002482524722 ], [ 5.286665665990872, 52.728103809968744 ], [ 5.285562604335838, 52.727662978207647 ], [ 5.28485027709034, 52.727069031197196 ], [ 5.284533510225878, 52.726065527133372 ], [ 5.284613626919854, 52.725011478336199 ], [ 5.285680635861829, 52.724791207979834 ], [ 5.285846006769756, 52.724389688876308 ], [ 5.285583413336051, 52.723961930334795 ], [ 5.2846959554101, 52.723992137424595 ], [ 5.285025033108623, 52.722151177302663 ], [ 5.283738176725619, 52.721984449538112 ], [ 5.285269811717233, 52.72179727012697 ], [ 5.285601562379966, 52.720912713572709 ], [ 5.286360431478328, 52.719651565859131 ], [ 5.288664870884397, 52.719053585333882 ], [ 5.288037103482134, 52.715943889594151 ], [ 5.288081749660175, 52.714867332364513 ], [ 5.289048542181697, 52.714221026725923 ], [ 5.28967126293653, 52.714333345879467 ], [ 5.290875809221325, 52.71349795743015 ], [ 5.290770526045506, 52.713273957957377 ], [ 5.291232609667998, 52.712875169136744 ], [ 5.294580273328676, 52.71086517078561 ], [ 5.295142221382418, 52.710640372077442 ], [ 5.295503420873443, 52.710672840243753 ], [ 5.295499187373049, 52.710458238819804 ], [ 5.296487489054078, 52.709956863270754 ], [ 5.298395082837422, 52.709414883128282 ], [ 5.298822609040376, 52.709562466650759 ], [ 5.300491775591082, 52.708629072076803 ], [ 5.300908996664481, 52.708876156309486 ], [ 5.301297630308816, 52.708899631443224 ], [ 5.301697569274026, 52.708693010926439 ], [ 5.305511911411235, 52.709082261032968 ], [ 5.305457556067503, 52.708890389746855 ], [ 5.302468223023427, 52.708503369497016 ], [ 5.304504230561321, 52.708273127238613 ], [ 5.304962584568415, 52.708541714851052 ], [ 5.305649450797372, 52.708508786485062 ], [ 5.306977709365439, 52.708937217249996 ], [ 5.307126403224677, 52.70910048492771 ], [ 5.307176781292442, 52.71000072296907 ], [ 5.307334420434832, 52.710085914515652 ], [ 5.307743476004746, 52.70912430511865 ], [ 5.307873709078313, 52.707997635959153 ], [ 5.307648458909655, 52.706985084376598 ], [ 5.307172769118282, 52.70628449215549 ], [ 5.305011479835465, 52.705210995491967 ], [ 5.304934721448282, 52.705441826215733 ], [ 5.305908985998329, 52.705886110892187 ], [ 5.304708082816886, 52.706645112387967 ], [ 5.302512744706699, 52.707184070924875 ], [ 5.301204026066857, 52.70772993588681 ], [ 5.300994471140447, 52.707631774031405 ], [ 5.300205490827159, 52.707985799924863 ], [ 5.298037919438425, 52.706585542133929 ], [ 5.29807615649864, 52.706382469824689 ], [ 5.298544611326037, 52.706155421597479 ], [ 5.299484826577308, 52.706041512707102 ], [ 5.29946991987079, 52.705841162433565 ], [ 5.299242900106416, 52.705780384775181 ], [ 5.2997517101478, 52.705648230719916 ], [ 5.299586010911143, 52.705498364445447 ], [ 5.299251122678771, 52.705512103053834 ], [ 5.299117993179914, 52.705059962165258 ], [ 5.298360629651666, 52.704806651853872 ], [ 5.298049288346445, 52.70379311642607 ], [ 5.299355055940036, 52.702857780440404 ], [ 5.303802650876069, 52.704906470938802 ], [ 5.303997308384965, 52.704868656793401 ], [ 5.303998468624584, 52.704722317113642 ], [ 5.297100956818748, 52.70150048860323 ], [ 5.293817180345006, 52.69947073179501 ], [ 5.293580501506665, 52.699661543025584 ], [ 5.294006135370457, 52.699954141962763 ], [ 5.292518416957084, 52.699975284173618 ], [ 5.289502732458215, 52.700503151009158 ], [ 5.289322417223947, 52.70015790376933 ], [ 5.292080308676997, 52.699503084536417 ], [ 5.293151124416585, 52.699559202383348 ], [ 5.293269046123389, 52.69928827264571 ], [ 5.292998918699597, 52.699136035025433 ], [ 5.292158855727513, 52.699095064628445 ], [ 5.289794123552111, 52.699341149810842 ], [ 5.289900092191402, 52.698795826435074 ], [ 5.291339749627168, 52.698919123851326 ], [ 5.291608434127217, 52.698854431526193 ], [ 5.291693126365656, 52.698656609647749 ], [ 5.290703982514296, 52.698443336524136 ], [ 5.290891354101432, 52.697901286568204 ], [ 5.286536300088793, 52.695488238657958 ], [ 5.286072931739323, 52.695636309250965 ], [ 5.286172709636071, 52.696013013007871 ], [ 5.286471332387094, 52.696328608979414 ], [ 5.286689399548889, 52.696417603370243 ], [ 5.287081920099411, 52.696181996106638 ], [ 5.289929956818717, 52.697745918429042 ], [ 5.289650421350253, 52.697981475702697 ], [ 5.289190080194612, 52.699335934360874 ], [ 5.283757936034899, 52.698689508770912 ], [ 5.283869110492989, 52.6982956969239 ], [ 5.284680666975233, 52.698346547708454 ], [ 5.285596516049069, 52.698068289516193 ], [ 5.287121618648552, 52.698581545047581 ], [ 5.288895006533593, 52.698734858851012 ], [ 5.289090171463168, 52.698547115286736 ], [ 5.288933865168261, 52.698372720223254 ], [ 5.286140866235812, 52.697565753987611 ], [ 5.284023097935566, 52.696683507169453 ], [ 5.279747243564843, 52.695916878854632 ], [ 5.279526728119322, 52.694796231699172 ], [ 5.282660779558071, 52.69328500991633 ], [ 5.283305240479, 52.693611483630974 ], [ 5.283884786570563, 52.693594419686235 ], [ 5.283893686634949, 52.693325377378464 ], [ 5.283413071118771, 52.692997755291323 ], [ 5.283479459033729, 52.692839941854317 ], [ 5.283912630528287, 52.692942306277288 ], [ 5.284211983398762, 52.692779328883844 ], [ 5.284199217621654, 52.692524537394704 ], [ 5.283893552789579, 52.692285411074707 ], [ 5.284290164436949, 52.692479217225902 ], [ 5.284389780657846, 52.692339634145284 ], [ 5.284155229079462, 52.692138836382625 ], [ 5.284630421407383, 52.692382353628986 ], [ 5.285042017147585, 52.69234649290749 ], [ 5.285088070033845, 52.692155487552299 ], [ 5.28550994241938, 52.691913146629638 ], [ 5.285533508283496, 52.691679561450805 ], [ 5.286925163596091, 52.690881615209939 ], [ 5.287140043016304, 52.690939287455834 ], [ 5.288062995207699, 52.692891183089174 ], [ 5.28966196483281, 52.694599664843466 ], [ 5.292120761788413, 52.696209197651463 ], [ 5.29331563077051, 52.696784930297703 ], [ 5.293543472739089, 52.696629942341822 ], [ 5.290567843463105, 52.694975571748984 ], [ 5.289104692094451, 52.693717187100624 ], [ 5.288019222396755, 52.692287937895593 ], [ 5.286938041089156, 52.689811701566704 ], [ 5.286436478136258, 52.689952426065155 ], [ 5.28586559414886, 52.689724150907075 ], [ 5.276074289389695, 52.684034473765394 ], [ 5.275766607061109, 52.684070364444693 ], [ 5.275618265390474, 52.684260128824491 ], [ 5.275993845246646, 52.684612345244837 ], [ 5.27422599222897, 52.685770520958712 ], [ 5.274212876004674, 52.686023065145385 ], [ 5.274466167815244, 52.686058198928265 ], [ 5.276368687128079, 52.684832560980659 ], [ 5.285927812424831, 52.690356425188959 ], [ 5.28390046315543, 52.691419722350666 ], [ 5.283680732160348, 52.691350453820533 ], [ 5.283546099036677, 52.69158524757183 ], [ 5.283799096933749, 52.691883832506974 ], [ 5.28350234631434, 52.691820776651888 ], [ 5.28352806192946, 52.692041034921381 ], [ 5.282884852026931, 52.691850101382251 ], [ 5.281421608642956, 52.691021537723763 ], [ 5.281234191871763, 52.691163717499926 ], [ 5.28129499074447, 52.691417902260092 ], [ 5.280956428265425, 52.691439385525122 ], [ 5.280464127358475, 52.691157439546288 ], [ 5.280184335217801, 52.691209294921627 ], [ 5.279908935393509, 52.691514941921362 ], [ 5.279801650507237, 52.692043130339322 ], [ 5.274244697031846, 52.688624280086671 ], [ 5.271116012900861, 52.687541754268089 ], [ 5.269945451949209, 52.687378990511441 ], [ 5.272123827586114, 52.684045553664333 ], [ 5.272000863332125, 52.683823201862751 ], [ 5.271767293992093, 52.683914167976141 ], [ 5.269549153605045, 52.687382754161334 ], [ 5.267839510973374, 52.687605821963714 ], [ 5.266935341316627, 52.687905272200972 ], [ 5.265823137199236, 52.688149364444605 ], [ 5.266460064508234, 52.687974828003192 ], [ 5.266506327704393, 52.68784286684663 ], [ 5.265445262012613, 52.687414933424591 ], [ 5.26114196414135, 52.686526461589601 ], [ 5.259844092605702, 52.686594227494616 ], [ 5.259115329248228, 52.6868478332282 ], [ 5.258920237587397, 52.687093576103933 ], [ 5.257813567367717, 52.686931821168379 ], [ 5.25678757247582, 52.68663537198875 ], [ 5.256764951737858, 52.686460241709014 ], [ 5.257010930637923, 52.686264791393768 ], [ 5.25684194482272, 52.686107731188777 ], [ 5.254940388779039, 52.687119435739611 ], [ 5.254842904613808, 52.687138165045056 ], [ 5.256929057612201, 52.685889472995498 ], [ 5.257442151293549, 52.685773822554367 ], [ 5.257368959837112, 52.685557875582511 ], [ 5.254256717781024, 52.68655526711585 ], [ 5.248081562313339, 52.685837700671293 ], [ 5.247448874643376, 52.685550782352472 ], [ 5.246181264869718, 52.685297011050366 ], [ 5.245820646998202, 52.685038688462917 ], [ 5.245630381354599, 52.683453134240011 ], [ 5.246274877827982, 52.683360787451818 ], [ 5.246337505929127, 52.683161816259727 ], [ 5.245584532855053, 52.683080485603774 ], [ 5.245339482932442, 52.68208091762245 ], [ 5.244017306156845, 52.681673720331865 ], [ 5.243629282825665, 52.681324404069734 ], [ 5.243711060209399, 52.678734999700403 ], [ 5.243543357296954, 52.678354301161995 ], [ 5.242991743073228, 52.677973149953559 ], [ 5.243441594905836, 52.67753075964454 ], [ 5.243448098406018, 52.675356465645621 ], [ 5.243123847884133, 52.674668105465344 ], [ 5.242760561655317, 52.672602018722607 ], [ 5.24245441624533, 52.672302428964905 ], [ 5.238275255536283, 52.665316426182017 ], [ 5.238427034041463, 52.664299105489533 ], [ 5.237054682453914, 52.660457065380939 ], [ 5.23660567172757, 52.659821451576619 ], [ 5.23631235710323, 52.65762028410208 ], [ 5.235831529568427, 52.65698209025205 ], [ 5.233284720325885, 52.655756728488704 ], [ 5.232320955943544, 52.655134113379674 ], [ 5.230819653877568, 52.652742090514664 ], [ 5.225583063007441, 52.651197138113815 ], [ 5.225032743916121, 52.650764551793984 ], [ 5.224003487220863, 52.65037048017075 ], [ 5.219097646448395, 52.649120387579636 ], [ 5.21619880054519, 52.647418460924342 ], [ 5.216130352338407, 52.647157896603986 ], [ 5.21595094166514, 52.647286125301449 ], [ 5.211487438470503, 52.645588863350092 ], [ 5.206450824546244, 52.644278464466325 ], [ 5.206081318083615, 52.643451104672195 ], [ 5.202755302533527, 52.64184513417225 ], [ 5.201425604167579, 52.640972209130211 ], [ 5.200725880951687, 52.639951417315146 ], [ 5.200231578378469, 52.638305804716332 ], [ 5.199083672134695, 52.636853616334797 ], [ 5.198573644075839, 52.636449854431845 ], [ 5.198555609929326, 52.636217300143137 ], [ 5.189803496635518, 52.636585461175301 ], [ 5.188432024984926, 52.636217976036875 ], [ 5.185814752279326, 52.635990237784313 ], [ 5.185630159460795, 52.635818219722232 ], [ 5.184030138308446, 52.635497669594464 ], [ 5.180553726510817, 52.634951042630178 ], [ 5.174766353577762, 52.632997952415607 ], [ 5.171590430468212, 52.631022962037491 ], [ 5.171851852211218, 52.630848659704554 ], [ 5.172464572183407, 52.630787588630902 ], [ 5.172530569596678, 52.630585194256177 ], [ 5.171560782602894, 52.630456562362376 ], [ 5.170813632996516, 52.63056480098264 ], [ 5.166547310415881, 52.62809612078285 ], [ 5.165431347493101, 52.627598257896757 ], [ 5.161461156715717, 52.625131257484242 ], [ 5.160552684688857, 52.624748300526484 ], [ 5.159343725865464, 52.623086552516568 ], [ 5.153638908538447, 52.62316075730881 ], [ 5.149664671044026, 52.623540009310332 ], [ 5.147077010455008, 52.622574061631227 ], [ 5.146351660379291, 52.622630984962164 ], [ 5.145859523456053, 52.623024485083242 ], [ 5.127991605721604, 52.619754903959716 ], [ 5.125496370654759, 52.621488205322635 ], [ 5.125309194932409, 52.62191887515943 ], [ 5.125471585141541, 52.622414793626589 ], [ 5.126217066144757, 52.6234535797931 ], [ 5.127983458679175, 52.624375655610734 ], [ 5.128622335372084, 52.62565999772827 ], [ 5.128598699422806, 52.62605010319264 ], [ 5.128144412699805, 52.626517267063939 ], [ 5.127460422066998, 52.626680476018343 ], [ 5.127011412735326, 52.626599777224335 ], [ 5.126926775784147, 52.626778317401453 ], [ 5.127184292017665, 52.62688343038095 ], [ 5.126266635419028, 52.628392304635469 ], [ 5.125307245602478, 52.629528599494947 ], [ 5.124458226100701, 52.630098548244654 ], [ 5.124215609049858, 52.630039305699874 ], [ 5.123859130232108, 52.630438709575635 ], [ 5.122818658157322, 52.631094386255434 ], [ 5.121538977762454, 52.6316986445864 ], [ 5.120972762931017, 52.632533167310278 ], [ 5.120333637909111, 52.632766424567542 ], [ 5.119707215185731, 52.632574260501976 ], [ 5.117222796561336, 52.632789091773709 ], [ 5.114715216341009, 52.632559991350064 ], [ 5.111632659634369, 52.632183982681767 ], [ 5.110371053196686, 52.631656765079569 ], [ 5.108769196277335, 52.631256035407702 ], [ 5.108343545375567, 52.631348250077103 ], [ 5.107909043624868, 52.632321501143288 ], [ 5.107881115969221, 52.631869749595609 ], [ 5.107683226992668, 52.631726172300226 ], [ 5.106862526536912, 52.631473090609788 ], [ 5.106350743743402, 52.631515320843299 ], [ 5.101001906091197, 52.63370785083152 ], [ 5.100788320400725, 52.634245797415147 ], [ 5.100854827092282, 52.634571032873588 ], [ 5.097935071187227, 52.636294899956056 ], [ 5.09529144699049, 52.638124919062101 ], [ 5.092235783308059, 52.64065171267022 ], [ 5.089520505611221, 52.640067757488147 ], [ 5.089213326827293, 52.640127612287692 ], [ 5.089188638875214, 52.640323256574838 ], [ 5.089567795339328, 52.640460929472539 ], [ 5.089568086115652, 52.640744404509931 ], [ 5.089775729359784, 52.640816720014598 ], [ 5.089585184558034, 52.641069790195736 ], [ 5.089108092529012, 52.640946437650236 ], [ 5.088949095249776, 52.641048398053449 ], [ 5.088969059322067, 52.641201204734898 ], [ 5.089374435147438, 52.641327349342475 ], [ 5.088653612338451, 52.642408101443408 ], [ 5.083508556951051, 52.641496679525794 ], [ 5.084000553217566, 52.641025396065409 ], [ 5.088221232048411, 52.639884700447382 ], [ 5.088731516968966, 52.639592315295403 ], [ 5.088757721963492, 52.639378597456286 ], [ 5.088476303240415, 52.639264554844274 ], [ 5.086691918090249, 52.639888431447716 ], [ 5.08629520130412, 52.63997659399061 ], [ 5.086023933454588, 52.639858981894932 ], [ 5.087764093806452, 52.63860728630916 ], [ 5.08843552026557, 52.638591417896819 ], [ 5.088919930268308, 52.638930942242567 ], [ 5.0892386582703, 52.638967854781811 ], [ 5.089259886574117, 52.638776106933136 ], [ 5.088405935037843, 52.638260561339614 ], [ 5.08772472471152, 52.637369558980168 ], [ 5.086929190436512, 52.636762007864853 ], [ 5.086628299823363, 52.636755854447799 ], [ 5.086598752005838, 52.636968347563275 ], [ 5.087202854832624, 52.637279189026714 ], [ 5.08761612520627, 52.637879483177997 ], [ 5.086274661363185, 52.639096048842148 ], [ 5.084486769104073, 52.640396236948362 ], [ 5.082394403763548, 52.640806664127062 ], [ 5.081510774168166, 52.641270348166174 ], [ 5.081321862709527, 52.641586605098112 ], [ 5.079843121779128, 52.640947398248194 ], [ 5.079583142315665, 52.640619155609954 ], [ 5.079863308879901, 52.639561209436998 ], [ 5.080453567100226, 52.63872819129891 ], [ 5.081204989320148, 52.638025353144158 ], [ 5.084037362758935, 52.636412186583492 ], [ 5.086210767006493, 52.636324640660519 ], [ 5.086266094513878, 52.63617027163076 ], [ 5.086033394384644, 52.636046568339154 ], [ 5.083244488461142, 52.636031036678901 ], [ 5.08325832912009, 52.636202939361503 ], [ 5.083659743117376, 52.636238128656807 ], [ 5.080681382668138, 52.638000448474777 ], [ 5.079929319891706, 52.638826015513942 ], [ 5.079395369039807, 52.639798190420322 ], [ 5.078065549266647, 52.639744151249339 ], [ 5.078074269786387, 52.63995768501276 ], [ 5.079223075748739, 52.640140870433115 ], [ 5.07915373458359, 52.640603421061577 ], [ 5.078522230943256, 52.640934781407438 ], [ 5.078710259596099, 52.641236383903809 ], [ 5.07861896225677, 52.641339018591971 ], [ 5.078058129605957, 52.641411584521258 ], [ 5.077572919511245, 52.64135775182281 ], [ 5.07772041805026, 52.641267981053296 ], [ 5.077624634333408, 52.64110974214335 ], [ 5.076675180160105, 52.641242937116765 ], [ 5.075650469354017, 52.640683008136186 ], [ 5.075350316179081, 52.640436020811237 ], [ 5.075855985207023, 52.64012821742741 ], [ 5.075685013585509, 52.64000847002805 ], [ 5.075244256516039, 52.640189078854029 ], [ 5.07544585591372, 52.639845734148402 ], [ 5.075399311633547, 52.639375344933434 ], [ 5.074647200497989, 52.63881966154073 ], [ 5.073680700767415, 52.638493223241056 ], [ 5.073574169051244, 52.638271498578661 ], [ 5.072918549113279, 52.638019137954934 ], [ 5.072067366955994, 52.637232554272757 ], [ 5.070320329773171, 52.636244081105247 ], [ 5.068146953204397, 52.634663116621375 ], [ 5.067946250991629, 52.634735630677973 ], [ 5.067902216788366, 52.634939203570589 ], [ 5.064423681351026, 52.63689109741069 ], [ 5.064538732818183, 52.637098088506718 ], [ 5.066917387034937, 52.63737663045773 ], [ 5.066818654536368, 52.638297185991647 ], [ 5.065696251156941, 52.638253218569496 ], [ 5.063666229265712, 52.637266100959401 ], [ 5.063173255687375, 52.636864489325895 ], [ 5.063155547810164, 52.633798017572502 ], [ 5.062839603118518, 52.633367874557102 ], [ 5.061718006483944, 52.633526053775959 ], [ 5.061681442014685, 52.634895644654002 ], [ 5.061715938932224, 52.6362815998936 ], [ 5.062824059663354, 52.636285862686265 ], [ 5.058281631691692, 52.63674170518896 ], [ 5.057847115582525, 52.636234966827516 ], [ 5.058265517025428, 52.636033904201554 ], [ 5.05787474148001, 52.634670574222952 ], [ 5.060500169418999, 52.633934101756559 ], [ 5.06059218228573, 52.633577367715006 ], [ 5.06174390236731, 52.633131595791404 ], [ 5.063004149579454, 52.632966331527676 ], [ 5.063191951794737, 52.632802568111543 ], [ 5.064227014530185, 52.632771726989219 ], [ 5.064106560616932, 52.63259330256605 ], [ 5.063021308019766, 52.632502682539993 ], [ 5.056081365275129, 52.633638594933082 ], [ 5.055477651273231, 52.633876541098054 ], [ 5.055315676664327, 52.634476655289674 ], [ 5.05564880499701, 52.635278157270875 ], [ 5.055454663147521, 52.635877644717702 ], [ 5.05710087181953, 52.637583895259496 ], [ 5.054778391049254, 52.640001089330099 ], [ 5.054602406576625, 52.640168796358211 ], [ 5.054261058208604, 52.64017925805188 ], [ 5.054210371345598, 52.640469371636591 ], [ 5.053867765332842, 52.640669775113828 ], [ 5.052217744606066, 52.641320980078071 ], [ 5.051567407729704, 52.64118863613745 ], [ 5.049666330782776, 52.641637869150365 ], [ 5.048554008293024, 52.641489759980125 ], [ 5.047653175828903, 52.641597916135531 ], [ 5.046552173808376, 52.641285913262621 ], [ 5.04645838038718, 52.641526822644963 ], [ 5.045765673093149, 52.641550669974258 ], [ 5.044152784056831, 52.641038967275634 ], [ 5.043016695650766, 52.640070540911736 ], [ 5.04098063790024, 52.639032479050591 ], [ 5.040323050394722, 52.6384316500029 ], [ 5.039359068384204, 52.636823182033758 ], [ 5.038922712657383, 52.636469627460912 ], [ 5.036225649332166, 52.63656205795516 ], [ 5.029938021647469, 52.63549201981796 ], [ 5.026994870603207, 52.633744759586378 ], [ 5.023466900079707, 52.632879484413891 ], [ 5.022229697926021, 52.632033023187333 ], [ 5.021644190912268, 52.631876738421987 ], [ 5.019849812278776, 52.630899404220884 ], [ 5.019240478772543, 52.630343823983445 ], [ 5.018634235313143, 52.62873085855523 ], [ 5.017339350845228, 52.626218483961175 ], [ 5.017075256286441, 52.624934158653687 ], [ 5.015945520759852, 52.624860483613062 ], [ 5.017062377826881, 52.624724740029656 ], [ 5.017140624116166, 52.621857700536737 ], [ 5.017456598113312, 52.619096725111632 ], [ 5.017280831269221, 52.618636638989884 ], [ 5.019708587583765, 52.612838691563084 ], [ 5.019749399978561, 52.612586407468392 ], [ 5.01975905676959, 52.612461011413366 ], [ 5.018831666676623, 52.612535192864712 ], [ 5.018678505353249, 52.612099834780992 ], [ 5.016468061196663, 52.611939269034963 ], [ 5.015416660801336, 52.611664826444702 ], [ 5.012556296714474, 52.611348648554973 ], [ 5.01229257294569, 52.611171574683112 ], [ 5.010437125263015, 52.610961590055602 ], [ 5.010165854233728, 52.611055645586475 ], [ 5.00650270508208, 52.610576241965475 ], [ 5.007849892246938, 52.607818103305874 ], [ 5.006494899960813, 52.603109409639828 ], [ 5.005941506178125, 52.601833059157656 ], [ 5.005998504288365, 52.601491145672071 ], [ 5.00480629593156, 52.597674177443025 ], [ 5.00248908537217, 52.597667822635451 ], [ 5.00191060582867, 52.597799189353616 ], [ 5.001659098121809, 52.597662974765015 ], [ 4.996210336331226, 52.597546793894679 ], [ 4.949844530617476, 52.595385199227835 ], [ 4.949264133768672, 52.594789769184388 ], [ 4.949362892062601, 52.593839819264481 ], [ 4.941664158455455, 52.595630824938667 ], [ 4.944751493735146, 52.600590905688485 ], [ 4.949014731974497, 52.599515002926196 ], [ 4.950656058575857, 52.600427187872086 ], [ 4.952386858712286, 52.601159494512288 ], [ 4.956869219344223, 52.602310772602074 ], [ 4.958351415439886, 52.603165378688281 ], [ 4.958753087985659, 52.60366234071239 ], [ 4.958962513601394, 52.603674548383331 ], [ 4.959419552801313, 52.604695088120152 ], [ 4.958679919437917, 52.606766429266735 ], [ 4.956711819740604, 52.610732077633671 ], [ 4.955233278311024, 52.612479526143218 ], [ 4.953537142144508, 52.613411853873593 ], [ 4.951939491570678, 52.614047907179341 ], [ 4.950407845835141, 52.614185103478057 ], [ 4.948351178481137, 52.613598579394527 ], [ 4.943861837476292, 52.610945602000875 ], [ 4.939758470680686, 52.609186997020522 ], [ 4.93785837985662, 52.607595164167286 ], [ 4.936937524949006, 52.607171482509671 ], [ 4.93458953978484, 52.606308276096911 ], [ 4.93095069276192, 52.605730188248323 ], [ 4.929059184702023, 52.605261781463149 ], [ 4.928131204222148, 52.60579038310226 ], [ 4.927011614985749, 52.60675480765299 ], [ 4.92630265352604, 52.608926590044987 ], [ 4.925858942751206, 52.609548913618575 ], [ 4.924777971610474, 52.610422642108162 ], [ 4.923304189593059, 52.611324025109766 ], [ 4.922442606779408, 52.611570002919464 ], [ 4.920963218584752, 52.611739406572049 ], [ 4.916406514320346, 52.611635365410685 ], [ 4.914884755784739, 52.611891561541341 ], [ 4.91108794224393, 52.612049911880753 ], [ 4.908150815227156, 52.612521631087489 ], [ 4.90688070040612, 52.612453201845341 ], [ 4.903621098113575, 52.612667233847297 ], [ 4.902658191402212, 52.612969212762167 ], [ 4.896937503621076, 52.613451899498358 ], [ 4.891774125104401, 52.613141834163471 ], [ 4.884137481152225, 52.613237794089201 ], [ 4.886085365367399, 52.618082951817101 ], [ 4.886888054359964, 52.61967735758293 ], [ 4.887343310778348, 52.622546457926127 ], [ 4.889166194658003, 52.623297278065074 ], [ 4.889439263928676, 52.6236189355457 ], [ 4.889514037209042, 52.624039985142446 ], [ 4.889304513476167, 52.625759300143571 ], [ 4.887926868825479, 52.627711009458309 ], [ 4.885563080094426, 52.629610830063058 ], [ 4.885073212087585, 52.631161517848881 ], [ 4.882445654563344, 52.633114693963385 ], [ 4.880612370081019, 52.633810403950854 ], [ 4.875602714974018, 52.634203995075652 ], [ 4.875440609215344, 52.633977107241286 ], [ 4.873614774910517, 52.634164043541254 ], [ 4.873421931510244, 52.634653950658567 ], [ 4.875089317250412, 52.634791240428854 ], [ 4.875930895773356, 52.635539419645589 ], [ 4.876290024378492, 52.635475556456043 ], [ 4.876494957597109, 52.635816066860514 ], [ 4.877373909675898, 52.639406269746779 ], [ 4.87658457043736, 52.641019086775827 ], [ 4.875474220880673, 52.642391420166092 ], [ 4.870281993465624, 52.646231922339183 ], [ 4.867826035496889, 52.64752624891954 ], [ 4.865143892985694, 52.649509634624508 ], [ 4.864361186415504, 52.650448291277662 ], [ 4.862801728079045, 52.653024079780984 ], [ 4.863168903499324, 52.656060647622617 ], [ 4.862944165485823, 52.656172613331016 ], [ 4.863025567971694, 52.656525270941209 ], [ 4.866560462454077, 52.660399616887403 ], [ 4.867933167101921, 52.663819637390695 ], [ 4.868168076177055, 52.663825414052745 ], [ 4.868404494892285, 52.664313661813942 ], [ 4.869832716529447, 52.665921022625568 ], [ 4.87209837305646, 52.669696684210216 ], [ 4.873515465564569, 52.672656563952899 ], [ 4.873808675315671, 52.674258787549746 ], [ 4.87452750317343, 52.676274644743273 ], [ 4.875770952050298, 52.6776528326141 ], [ 4.877493644076762, 52.678548956991754 ], [ 4.879487439604167, 52.680043271820637 ], [ 4.879463163611223, 52.680299340544352 ], [ 4.879238502933997, 52.680344634031158 ], [ 4.876669160778917, 52.684972726436882 ], [ 4.876186354344871, 52.685583664986275 ], [ 4.876330319558059, 52.686233391521796 ], [ 4.877741481640935, 52.687174732608504 ], [ 4.879660736816151, 52.687898223894024 ], [ 4.882126506308985, 52.687942520562906 ], [ 4.8887489845476, 52.690366291641283 ], [ 4.890386392649229, 52.694071937157332 ], [ 4.891470924655533, 52.695089754188878 ], [ 4.89567902440348, 52.696135463031609 ], [ 4.899926047197779, 52.697511412697381 ], [ 4.899983547831767, 52.699946469842196 ], [ 4.89948857804852, 52.703239908350575 ], [ 4.899208363041365, 52.706468148771648 ], [ 4.898427819725964, 52.706574457891335 ] ], [ [ 5.171504990750127, 52.630758149397536 ], [ 5.171361183451952, 52.630798868785647 ], [ 5.17129504981334, 52.630790832435125 ], [ 5.171557721737442, 52.630743220493216 ], [ 5.171504990750127, 52.630758149397536 ] ], [ [ 5.170444718713778, 52.630947062411671 ], [ 5.170446298586471, 52.630960087859989 ], [ 5.170420533065743, 52.63094197303684 ], [ 5.170444735975164, 52.630940711997283 ], [ 5.170444718713778, 52.630947062411671 ] ], [ [ 5.298623311423952, 52.705780655683796 ], [ 5.298552057606331, 52.705384196241361 ], [ 5.298824939373003, 52.705367129812593 ], [ 5.298944748045496, 52.705757769900906 ], [ 5.298623311423952, 52.705780655683796 ] ], [ [ 5.302328076701349, 52.708494869928366 ], [ 5.302196754261735, 52.708455483379531 ], [ 5.302160031107851, 52.708447186145051 ], [ 5.302237367760303, 52.708444534569942 ], [ 5.302328076701349, 52.708494869928366 ] ], [ [ 5.301765719399725, 52.708363704882572 ], [ 5.30176519662183, 52.708363568538275 ], [ 5.301722253214091, 52.708352488843694 ], [ 5.301793705279099, 52.7083709297642 ], [ 5.301765719399725, 52.708363704882572 ] ], [ [ 5.286859719536255, 52.719033082669583 ], [ 5.286592094930454, 52.718950386961865 ], [ 5.287095818687858, 52.718765038015846 ], [ 5.287122535014297, 52.71893867466305 ], [ 5.286859719536255, 52.719033082669583 ] ], [ [ 5.165288454041115, 52.739374100254146 ], [ 5.165390698276696, 52.739375147684633 ], [ 5.165379333443864, 52.739425981504922 ], [ 5.165260454240846, 52.739370954635866 ], [ 5.165288454041115, 52.739374100254146 ] ], [ [ 5.165045811449802, 52.738762104920973 ], [ 5.165148009985192, 52.738659651612366 ], [ 5.164991901493882, 52.738843187741679 ], [ 5.165045811449802, 52.738762104920973 ] ], [ [ 5.167249500800075, 52.738669110455092 ], [ 5.167405255295015, 52.739611539809211 ], [ 5.168180060361499, 52.740578785317091 ], [ 5.168050319806778, 52.740585358484985 ], [ 5.16724171896015, 52.739466488063286 ], [ 5.167145627432687, 52.738736770600063 ], [ 5.167250514151604, 52.738466782609009 ], [ 5.167249500800075, 52.738669110455092 ] ], [ [ 5.153779251312854, 52.737825831434428 ], [ 5.148794822810119, 52.739614439610023 ], [ 5.148741847665823, 52.73954719744215 ], [ 5.148785080726568, 52.739238020689733 ], [ 5.153779251312854, 52.737825831434428 ] ], [ [ 5.143157657004078, 52.74320410390412 ], [ 5.145503684906441, 52.741705069597579 ], [ 5.145944732881279, 52.741170132512785 ], [ 5.14645018445335, 52.741178350855591 ], [ 5.143157657004078, 52.74320410390412 ] ], [ [ 5.147026338972714, 52.74038477274155 ], [ 5.146940176502151, 52.740221023121563 ], [ 5.147161279400757, 52.740161566647991 ], [ 5.14734376538879, 52.740373789962533 ], [ 5.147026338972714, 52.74038477274155 ] ], [ [ 5.136018280397333, 52.750335685073139 ], [ 5.13608233375512, 52.750338599261042 ], [ 5.136264599817962, 52.750402160304496 ], [ 5.135980206728301, 52.750344645241732 ], [ 5.136018280397333, 52.750335685073139 ] ], [ [ 5.11028177737558, 52.771898288466637 ], [ 5.1099707420548, 52.771939112391379 ], [ 5.108442102581478, 52.770958567513553 ], [ 5.108656834732281, 52.770791595210795 ], [ 5.108519770421388, 52.770609801181102 ], [ 5.110391936038239, 52.771702125234384 ], [ 5.11028177737558, 52.771898288466637 ] ], [ [ 5.263985070612668, 52.687883687161388 ], [ 5.262430840041115, 52.687583156737659 ], [ 5.261386810989729, 52.687340453753791 ], [ 5.265156023590059, 52.68811010033739 ], [ 5.263985070612668, 52.687883687161388 ] ], [ [ 5.254762833799044, 52.687142623857426 ], [ 5.254603901584265, 52.687165215066244 ], [ 5.254596636949927, 52.687151923188274 ], [ 5.254658060859836, 52.687088278301083 ], [ 5.254762833799044, 52.687142623857426 ] ], [ [ 5.106407354094565, 52.634673608887105 ], [ 5.106397850850989, 52.634662321357951 ], [ 5.106397688070438, 52.634656454781016 ], [ 5.106407354094565, 52.634673608887105 ] ], [ [ 5.081645732309132, 52.642146540238329 ], [ 5.081609162810008, 52.642184430793932 ], [ 5.081123324499433, 52.642618730238475 ], [ 5.081079594870855, 52.642654336354923 ], [ 5.081089710851031, 52.64244798003206 ], [ 5.081645732309132, 52.642146540238329 ] ], [ [ 5.074236515959741, 52.641122526938673 ], [ 5.074086670708192, 52.641129710729473 ], [ 5.073924273760093, 52.641091742037197 ], [ 5.074255946005032, 52.641114057219355 ], [ 5.074236515959741, 52.641122526938673 ] ], [ [ 5.072735701638722, 52.641276756471989 ], [ 5.072761161710194, 52.641324050751663 ], [ 5.072678438783274, 52.641311320988592 ], [ 5.072734147277666, 52.641270072432533 ], [ 5.072735701638722, 52.641276756471989 ] ], [ [ 5.070173011450468, 52.640858143963101 ], [ 5.070265254902448, 52.640826034557357 ], [ 5.070446400542804, 52.64090774144438 ], [ 5.070173011450468, 52.640858143963101 ] ], [ [ 5.063465411489186, 52.637621902637129 ], [ 5.063881467778867, 52.638064004158458 ], [ 5.065631557980338, 52.639128206613506 ], [ 5.064635544412115, 52.638910352265448 ], [ 5.06316715454204, 52.63797211704189 ], [ 5.063068074877389, 52.637392213768464 ], [ 5.063465411489186, 52.637621902637129 ] ], [ [ 5.062771755477995, 52.638529135783429 ], [ 5.06276106249364, 52.638465796925793 ], [ 5.06283431704617, 52.638454465376775 ], [ 5.062771755477995, 52.638529135783429 ] ], [ [ 5.060461085570083, 52.637976277672308 ], [ 5.060342894680762, 52.638195309096631 ], [ 5.060459584290793, 52.638354923938714 ], [ 5.060089104808492, 52.638085752308449 ], [ 5.060461085570083, 52.637976277672308 ] ], [ [ 5.066196487467918, 52.639135726776431 ], [ 5.068389641775316, 52.639346791744053 ], [ 5.068238322895993, 52.640105120302223 ], [ 5.066956323607177, 52.639951316797088 ], [ 5.066669361540176, 52.64032265301298 ], [ 5.06634589584317, 52.640230555556386 ], [ 5.066390895183975, 52.639587192301654 ], [ 5.066196487467918, 52.639135726776431 ] ], [ [ 5.068876255301055, 52.639549130309753 ], [ 5.068904990023098, 52.639551326293926 ], [ 5.068841892557902, 52.639715531862876 ], [ 5.068876255301055, 52.639549130309753 ] ], [ [ 5.068486853165679, 52.64022347226409 ], [ 5.068484574549998, 52.640225759595914 ], [ 5.068483600949149, 52.640226736751046 ], [ 5.068483595508707, 52.640223225526555 ], [ 5.068486853165679, 52.64022347226409 ] ], [ [ 5.066355305593786, 52.640708803225159 ], [ 5.066174310796588, 52.640777510168206 ], [ 5.065740371263989, 52.641049555507706 ], [ 5.065727991210782, 52.640982266213904 ], [ 5.066241543566097, 52.640702648365846 ], [ 5.066355305593786, 52.640708803225159 ] ], [ [ 5.063656391732014, 52.64235829966978 ], [ 5.064810254374456, 52.641465494259599 ], [ 5.065023490932522, 52.641499769597424 ], [ 5.063656391732014, 52.64235829966978 ] ], [ [ 5.021436001391809, 52.632143686276308 ], [ 5.021364166819269, 52.63242204816774 ], [ 5.021031021955625, 52.632497360987955 ], [ 5.021438090009403, 52.632137519726612 ], [ 5.021436001391809, 52.632143686276308 ] ], [ [ 5.015774360866605, 52.624861333182047 ], [ 5.015769519620887, 52.624846502033314 ], [ 5.015914351699932, 52.62486063832376 ], [ 5.015774360866605, 52.624861333182047 ] ] ] } }
]
}
