{
"type": "FeatureCollection",
"name": "SWVPO2818",
"crs": { "type": "name", "properties": { "name": "urn:ogc:def:crs:OGC:1.3:CRS84" } },
"features": [
{ "type": "Feature", "properties": { "PO SWV": "PO2818", "strokeColor": "#A9A9A9", "strokeWidth": 2, "fillColor": "#ADD8E6" }, "geometry": { "type": "Polygon", "coordinates": [ [ [ 4.535195613032419, 51.91381985222479 ], [ 4.535118846658352, 51.913968843528593 ], [ 4.535711464214371, 51.914715426037773 ], [ 4.538122664943431, 51.915310006659638 ], [ 4.538212930960602, 51.915443741379512 ], [ 4.540323816534478, 51.915362729726283 ], [ 4.537465913758388, 51.91972358490672 ], [ 4.537521132442133, 51.919874251058744 ], [ 4.539124352612204, 51.919758345538952 ], [ 4.541081082633301, 51.919359715909586 ], [ 4.550717312070087, 51.919438475982687 ], [ 4.553533296439008, 51.919794876425506 ], [ 4.556325846464991, 51.92041640000798 ], [ 4.556918329408988, 51.920029513648799 ], [ 4.557263255841, 51.92016973140224 ], [ 4.558380314746213, 51.9193374946368 ], [ 4.561241302387643, 51.921154450674685 ], [ 4.560787000617008, 51.921679304082602 ], [ 4.561401274908013, 51.921939214930028 ], [ 4.5613823692143, 51.922251080075988 ], [ 4.563514383517191, 51.923091837123636 ], [ 4.565042191250072, 51.924211346102368 ], [ 4.565419578287067, 51.924673532846171 ], [ 4.564838210021032, 51.92456626332055 ], [ 4.565456601237691, 51.926002273858849 ], [ 4.565311016143947, 51.927326065474723 ], [ 4.565691050607565, 51.927362564378939 ], [ 4.564977573646575, 51.929191638466769 ], [ 4.564603921066889, 51.929529436666627 ], [ 4.565158772986336, 51.929874964163972 ], [ 4.564324847206831, 51.931844669224823 ], [ 4.564182791577602, 51.93189989126595 ], [ 4.564208553639734, 51.932119378407215 ], [ 4.560501064309492, 51.940945817597104 ], [ 4.570470670305023, 51.942523419118061 ], [ 4.572593497872734, 51.943481798917247 ], [ 4.565615521909523, 51.949522150786102 ], [ 4.564219243019312, 51.951955520818437 ], [ 4.563837885474596, 51.952332584990785 ], [ 4.563556455267502, 51.953109371577128 ], [ 4.563009429576867, 51.953057141121846 ], [ 4.561452905862383, 51.956625569902208 ], [ 4.562147402914352, 51.956845141771574 ], [ 4.561653026642307, 51.957647666881343 ], [ 4.561750347184863, 51.957791265216485 ], [ 4.562351983429902, 51.957906722168609 ], [ 4.561905644495032, 51.958939882047055 ], [ 4.564377730088955, 51.960083188476482 ], [ 4.566819367966745, 51.957992283923716 ], [ 4.567999280350048, 51.958181986631089 ], [ 4.572648153944908, 51.960188916273104 ], [ 4.583790238971691, 51.965594716855577 ], [ 4.584157435892895, 51.965552694207226 ], [ 4.58419190222381, 51.965720058270051 ], [ 4.584782665253292, 51.966024420319677 ], [ 4.585330120276486, 51.966568594799504 ], [ 4.589986249626196, 51.968674372843594 ], [ 4.590689618339305, 51.968332169973642 ], [ 4.59230043050911, 51.968779069215877 ], [ 4.596679455928648, 51.970371952534876 ], [ 4.599473128072206, 51.971578430707986 ], [ 4.601785542940956, 51.972237489549265 ], [ 4.602143461833125, 51.972146607645641 ], [ 4.594545480048279, 51.975294603627496 ], [ 4.594047538766864, 51.975614318416326 ], [ 4.593860321790997, 51.975985032450438 ], [ 4.593936668037652, 51.976646255899766 ], [ 4.594345985221044, 51.977101894409756 ], [ 4.594316534116115, 51.977814476725563 ], [ 4.595763529964676, 51.980905795571893 ], [ 4.595784821278243, 51.981183404000149 ], [ 4.595540441557277, 51.981300515119173 ], [ 4.595690539451991, 51.981741569624006 ], [ 4.596496480042364, 51.982846727036375 ], [ 4.598584719676401, 51.988012707748688 ], [ 4.599108051181929, 51.9880713594086 ], [ 4.601011983441817, 51.98920220817098 ], [ 4.616822951286186, 51.999249295745116 ], [ 4.650618353765461, 51.978787281429327 ], [ 4.650577411456422, 51.978646612667006 ], [ 4.649050037676306, 51.978145094914638 ], [ 4.644385397309271, 51.975895389352218 ], [ 4.648633587355874, 51.973090132005723 ], [ 4.648625529651468, 51.972919580126991 ], [ 4.638245435773895, 51.971084581121957 ], [ 4.633545585206494, 51.970474652110859 ], [ 4.632327882928605, 51.969932607967039 ], [ 4.631087409145073, 51.968828121077408 ], [ 4.630938402183364, 51.968204239201448 ], [ 4.631176637295496, 51.967686244426922 ], [ 4.633015203906049, 51.966354581637994 ], [ 4.632317814648616, 51.965631910878301 ], [ 4.633848098104893, 51.964840253479757 ], [ 4.638370474828015, 51.961670002327189 ], [ 4.640526078108143, 51.959950594945113 ], [ 4.642126201286234, 51.959946135613407 ], [ 4.644158713519956, 51.95752641861727 ], [ 4.645738797642016, 51.956239721429569 ], [ 4.64620107674491, 51.955266225324351 ], [ 4.646198923956015, 51.954383147000833 ], [ 4.645870958892334, 51.953815413091256 ], [ 4.645099961520552, 51.953230869539134 ], [ 4.641227674523868, 51.952074455323455 ], [ 4.640100839902328, 51.951422953220145 ], [ 4.639595332788934, 51.950840762703137 ], [ 4.639204383668839, 51.950033890180805 ], [ 4.638503486750361, 51.947016388836509 ], [ 4.63769353763157, 51.94460346924815 ], [ 4.636904414887067, 51.943027305754214 ], [ 4.635020765764961, 51.938337929615734 ], [ 4.634301526768658, 51.937380333562764 ], [ 4.632923057682459, 51.936649795862422 ], [ 4.631314578923243, 51.936229538810231 ], [ 4.625148115268354, 51.936253822936685 ], [ 4.623798430195728, 51.936094114174111 ], [ 4.622722941223711, 51.935755141067929 ], [ 4.621433273330914, 51.935111452043031 ], [ 4.620139304298526, 51.934046956524604 ], [ 4.61784427178028, 51.93107432728619 ], [ 4.619393155665501, 51.930046483083743 ], [ 4.61925120961291, 51.92985620382418 ], [ 4.619450045856605, 51.92962603338573 ], [ 4.619288996893292, 51.929516692431477 ], [ 4.642583866782108, 51.91311491556025 ], [ 4.643105844419199, 51.912618935348917 ], [ 4.642982275383637, 51.912441220968049 ], [ 4.643246416755466, 51.912175651106885 ], [ 4.643204668038268, 51.912040978434881 ], [ 4.635175682800434, 51.90959766049675 ], [ 4.63177188188224, 51.909174907708447 ], [ 4.631160986657473, 51.909359243903822 ], [ 4.630771384953963, 51.909056527645689 ], [ 4.623482147156208, 51.908243376519273 ], [ 4.623108317134272, 51.908375322119369 ], [ 4.622877040967107, 51.908142338426536 ], [ 4.622206391631625, 51.908060091706844 ], [ 4.601168143606872, 51.906803736522143 ], [ 4.599801964405065, 51.906882471440021 ], [ 4.599472631168756, 51.907066186859986 ], [ 4.599093108433268, 51.906990893295351 ], [ 4.599013255953657, 51.907150916443442 ], [ 4.596629406834597, 51.907633209032184 ], [ 4.595356681153456, 51.90705619505264 ], [ 4.596815753871713, 51.905833888895501 ], [ 4.596798899562415, 51.905679577540553 ], [ 4.593518789429367, 51.904001902706852 ], [ 4.593117211491234, 51.904262277832039 ], [ 4.593061575098046, 51.904558039446499 ], [ 4.592462461264083, 51.904324137456449 ], [ 4.592366987177667, 51.90456289215193 ], [ 4.59253046220908, 51.904685777461523 ], [ 4.5924564853029, 51.904916841525932 ], [ 4.592250771964819, 51.904960208629085 ], [ 4.592130422807792, 51.905495194102642 ], [ 4.591611482047885, 51.905462735468092 ], [ 4.591493449692516, 51.905250034679426 ], [ 4.588841820509544, 51.904118856486349 ], [ 4.589197564024809, 51.902381557520727 ], [ 4.589093390509107, 51.902267629717244 ], [ 4.584169693176137, 51.903807559476547 ], [ 4.582615064583127, 51.903994451324635 ], [ 4.576325864913359, 51.902931754839976 ], [ 4.572902583737025, 51.903753855668782 ], [ 4.56945114509722, 51.904251621606278 ], [ 4.555083579872202, 51.905546450774253 ], [ 4.554110296698036, 51.905528295478305 ], [ 4.549205054871591, 51.90478786227569 ], [ 4.550532161406401, 51.908837717415722 ], [ 4.551013715241141, 51.909077902798082 ], [ 4.550839730297546, 51.909315259358657 ], [ 4.550990599646021, 51.909717961339389 ], [ 4.554429051914554, 51.910499037679124 ], [ 4.555551888221062, 51.910641249830441 ], [ 4.55671579769781, 51.9105023462498 ], [ 4.556403837656057, 51.914689710078306 ], [ 4.553967845873307, 51.914697454177507 ], [ 4.554129846517228, 51.916314310443489 ], [ 4.55386580830591, 51.91624368641051 ], [ 4.553881978871806, 51.916559720860889 ], [ 4.552775796733693, 51.915839873040056 ], [ 4.550341220722325, 51.91474176298388 ], [ 4.548061002270351, 51.908535177281024 ], [ 4.547819537572498, 51.908453231137941 ], [ 4.547572613082045, 51.908068376172878 ], [ 4.547543662417825, 51.907401467136168 ], [ 4.547768203833265, 51.907104581015815 ], [ 4.546156288100825, 51.906428222152975 ], [ 4.543845879859266, 51.906075076216894 ], [ 4.543248746045453, 51.906044673625274 ], [ 4.543058251685952, 51.906249034710669 ], [ 4.542067616631673, 51.906131550917998 ], [ 4.541763219725728, 51.90655524722446 ], [ 4.541555811695384, 51.906605084437125 ], [ 4.540403278033569, 51.908206341252111 ], [ 4.540172041844566, 51.908279401920382 ], [ 4.540118441381291, 51.908601580615034 ], [ 4.539744159123494, 51.909116201300186 ], [ 4.539565807035221, 51.909133644552263 ], [ 4.538419747048595, 51.910874717280436 ], [ 4.536418284407601, 51.911975061286029 ], [ 4.535960617435433, 51.911913569099454 ], [ 4.535536860965265, 51.912516844471426 ], [ 4.535716237127134, 51.9126671529731 ], [ 4.535426213040306, 51.913050332354132 ], [ 4.535452566363384, 51.913320732023003 ], [ 4.535033008192935, 51.913601223151851 ], [ 4.535195613032419, 51.91381985222479 ] ] ] } }
]
}
