{
"type": "FeatureCollection",
"name": "SWVPO2811",
"crs": { "type": "name", "properties": { "name": "urn:ogc:def:crs:OGC:1.3:CRS84" } },
"features": [
{ "type": "Feature", "properties": { "PO SWV": "PO2811", "strokeColor": "#A9A9A9", "strokeWidth": 2, "fillColor": "#ADD8E6" }, "geometry": { "type": "MultiPolygon", "coordinates": [ [ [ [ 3.845943026287389, 51.757041027752329 ], [ 3.842501779655234, 51.756208072203215 ], [ 3.842527836045796, 51.756391279653933 ], [ 3.839167091211707, 51.758326968616828 ], [ 3.840900446553374, 51.758689546699436 ], [ 3.841095443517635, 51.759337246300134 ], [ 3.841846328951004, 51.760519807933456 ], [ 3.845194647212443, 51.763936348524929 ], [ 3.845453633341744, 51.763874376605287 ], [ 3.845460541635413, 51.76357722303613 ], [ 3.843356977356173, 51.761050779163938 ], [ 3.843124261378682, 51.759947745395877 ], [ 3.843216404031015, 51.759779283529632 ], [ 3.844706373412428, 51.76015256022356 ], [ 3.845690972139074, 51.760771784380459 ], [ 3.846221035803766, 51.761366636183645 ], [ 3.847656323256641, 51.761313254869926 ], [ 3.848314120913455, 51.761569480930156 ], [ 3.849774698704925, 51.762363884990698 ], [ 3.850700623518261, 51.763321887762181 ], [ 3.8526899478555, 51.763881820967661 ], [ 3.853504345539379, 51.764542992887513 ], [ 3.85386223765517, 51.765111429537953 ], [ 3.856013555743712, 51.766547847538256 ], [ 3.859362846617148, 51.770181466988205 ], [ 3.862740487670479, 51.775575060662021 ], [ 3.861982726458544, 51.776082134059202 ], [ 3.861957469345868, 51.776267504582592 ], [ 3.862166816170063, 51.776323881176992 ], [ 3.862928322272068, 51.775892158992704 ], [ 3.863459230561469, 51.776734825155117 ], [ 3.863305569488773, 51.776916910714931 ], [ 3.86362172529166, 51.777004524333215 ], [ 3.864335257508602, 51.778154060246663 ], [ 3.864100791204111, 51.778591313868098 ], [ 3.864200321901101, 51.778815577383618 ], [ 3.864520089443391, 51.778752971394276 ], [ 3.86452342434024, 51.779176299821849 ], [ 3.863981042549306, 51.779553090702507 ], [ 3.8624118272491, 51.779968517416137 ], [ 3.861781284439206, 51.779800673500233 ], [ 3.861121881340804, 51.779354226453592 ], [ 3.860772308574323, 51.778613036197811 ], [ 3.860955995686729, 51.777527728652068 ], [ 3.86069050570971, 51.777482634836282 ], [ 3.860553981087756, 51.777787287982306 ], [ 3.860467697000226, 51.778978519304616 ], [ 3.86082729423641, 51.779558964092786 ], [ 3.861335088168675, 51.779955119471872 ], [ 3.862286687282068, 51.780302860921076 ], [ 3.86466254740685, 51.780231836830829 ], [ 3.864788187103387, 51.780416121424139 ], [ 3.865204524984459, 51.781251576399079 ], [ 3.865390780269665, 51.782202577769588 ], [ 3.865125419991667, 51.784521775400492 ], [ 3.864366485666904, 51.787024152643859 ], [ 3.863034733624055, 51.78980477100275 ], [ 3.859507729353683, 51.795127802958319 ], [ 3.855305483027556, 51.802460344961325 ], [ 3.854993927714099, 51.803232598795169 ], [ 3.854569936338403, 51.805265071446811 ], [ 3.854787667444561, 51.807084126239893 ], [ 3.855290665871184, 51.808431567125844 ], [ 3.856246531527709, 51.810100537108582 ], [ 3.85736207855677, 51.811603096319296 ], [ 3.859515645478261, 51.813978617901512 ], [ 3.865214922506846, 51.817819699478854 ], [ 3.869299666139244, 51.819698125377421 ], [ 3.877745262073093, 51.821300053019655 ], [ 3.891903660547985, 51.826044321887338 ], [ 3.8925078649836, 51.825867703447294 ], [ 3.892451001233659, 51.825694818276979 ], [ 3.891987687631906, 51.825469472672737 ], [ 3.891918339579569, 51.825233761201972 ], [ 3.892173093200106, 51.824965102416328 ], [ 3.89644785810011, 51.82574347482263 ], [ 3.899576904035619, 51.825891700094722 ], [ 3.899849475389159, 51.826021345005088 ], [ 3.899971891964443, 51.825910320452621 ], [ 3.90177002897743, 51.826098300730415 ], [ 3.904853766871715, 51.826129215204077 ], [ 3.909260968658327, 51.826885917624132 ], [ 3.913126832421751, 51.828004531636203 ], [ 3.91481826921809, 51.828220794613095 ], [ 3.916934842687689, 51.828999860828077 ], [ 3.917818419104106, 51.829143795937377 ], [ 3.925917345460406, 51.831574640822581 ], [ 3.930513456457518, 51.833173310147828 ], [ 3.932147506728979, 51.83390509257724 ], [ 3.933942223713779, 51.83424450870335 ], [ 3.935295028903037, 51.834697331365248 ], [ 3.936462104001169, 51.835451271635947 ], [ 3.937288202813101, 51.835589636049725 ], [ 3.938624634535451, 51.835475968305332 ], [ 3.939133742100549, 51.83529729878925 ], [ 3.939287965037689, 51.834927355155308 ], [ 3.938139307295851, 51.834640349957851 ], [ 3.939580356797933, 51.834681911508738 ], [ 3.940503072943607, 51.83518386017235 ], [ 3.941840992501659, 51.835382398401393 ], [ 3.942549244632468, 51.835851304820523 ], [ 3.943061411594391, 51.835915045581608 ], [ 3.946522868533279, 51.837244809206041 ], [ 3.949896942325883, 51.838248736962768 ], [ 3.950364909773387, 51.838198702253067 ], [ 3.953601534489907, 51.839326668268555 ], [ 3.954170266106124, 51.839333222791318 ], [ 3.954390618026677, 51.839081840604209 ], [ 3.957894657361098, 51.840546113965971 ], [ 3.959990517475348, 51.841097796005776 ], [ 3.960749576929633, 51.841157090855852 ], [ 3.961351644829837, 51.840912111745432 ], [ 3.964475066552259, 51.841377922110176 ], [ 3.966314372301328, 51.841786775901582 ], [ 3.966947896788129, 51.842203843082984 ], [ 3.969672414590312, 51.842899332386892 ], [ 3.971981939146775, 51.843243308192221 ], [ 3.971794786522698, 51.843441596612394 ], [ 3.972086672657369, 51.843577233612585 ], [ 3.973359881425254, 51.843528397562096 ], [ 3.973551749029261, 51.843395724299853 ], [ 3.973505822801845, 51.843205375702475 ], [ 3.975986864667927, 51.84354405171392 ], [ 3.978971548627602, 51.843666077766571 ], [ 3.979788490122975, 51.843635185618368 ], [ 3.980485452193282, 51.84332523314059 ], [ 3.981628947585557, 51.843993017885879 ], [ 3.983859288714077, 51.844205285953429 ], [ 3.987004283038891, 51.845075992212699 ], [ 4.000194685489479, 51.849394252623824 ], [ 4.002929373188542, 51.849216015014299 ], [ 4.006705667457624, 51.849953158998098 ], [ 4.008898126402279, 51.850027542405293 ], [ 4.011762875767259, 51.849650180333391 ], [ 4.012356181646542, 51.84937725562326 ], [ 4.012545623321, 51.849142839576608 ], [ 4.012549652386288, 51.847683509797108 ], [ 4.011274925044691, 51.847142623057479 ], [ 4.010961742549924, 51.846651697627095 ], [ 4.010500514801686, 51.846385527523609 ], [ 4.009870900612301, 51.84625030723732 ], [ 4.009523450765219, 51.845993661675038 ], [ 4.008524044782841, 51.846055706077443 ], [ 4.008440859895138, 51.845996827237315 ], [ 4.008772410412591, 51.845638956378416 ], [ 4.008535783371826, 51.845370742109132 ], [ 4.005509499406374, 51.844835600556998 ], [ 4.003220388353296, 51.844650470866327 ], [ 3.999198289950946, 51.843767559014452 ], [ 3.9937556494463, 51.843792278461265 ], [ 3.989662529017875, 51.843457984524541 ], [ 3.989832921531917, 51.843092307575027 ], [ 3.98975859639217, 51.842784109585793 ], [ 3.989138579948598, 51.842428649312026 ], [ 3.982598472937356, 51.842441372455362 ], [ 3.982146469801525, 51.842189629279943 ], [ 3.981893261212302, 51.841594205558522 ], [ 3.981148588631021, 51.841300939480746 ], [ 3.977922661357334, 51.840915720107432 ], [ 3.976335584361776, 51.840247871937706 ], [ 3.975054418884851, 51.839954816813538 ], [ 3.974747399673053, 51.840000373231021 ], [ 3.974713130668126, 51.840168607425781 ], [ 3.97422381992742, 51.84018863411459 ], [ 3.973921246755715, 51.839972572971917 ], [ 3.972788309048465, 51.839742486481477 ], [ 3.971157038295652, 51.839711844979789 ], [ 3.970336391520324, 51.839487793877694 ], [ 3.970101021038898, 51.839654162677945 ], [ 3.970156548415123, 51.839902629839706 ], [ 3.96990366052527, 51.839883053251789 ], [ 3.967711669649014, 51.839189621477139 ], [ 3.972813046495602, 51.839440525293071 ], [ 3.97622028310419, 51.83999684749773 ], [ 3.977582031115574, 51.840564169045827 ], [ 3.978887067116777, 51.840883403367577 ], [ 3.983421096651995, 51.84137262305839 ], [ 3.985546567791299, 51.841760864175122 ], [ 3.990051525355856, 51.841979000921995 ], [ 3.991632784200428, 51.841894149921274 ], [ 3.992228859185368, 51.841573020999974 ], [ 3.992441966527061, 51.841262233208333 ], [ 3.992402794065768, 51.84092493067039 ], [ 3.992131857493495, 51.840677550430712 ], [ 3.990932861978053, 51.840692930711981 ], [ 3.991128143942803, 51.840139357729541 ], [ 3.990681576251948, 51.839982429700598 ], [ 3.992702069544096, 51.83994840330724 ], [ 3.992964305028971, 51.840114493142472 ], [ 3.99243159992527, 51.840611215797374 ], [ 3.992512889535021, 51.841156377317176 ], [ 3.992898998314325, 51.841581457356398 ], [ 3.993272103901139, 51.841714303974371 ], [ 3.994328984442374, 51.841560029944191 ], [ 3.994928445219757, 51.841110295609148 ], [ 3.995336409373147, 51.840411831048485 ], [ 3.99540394108267, 51.840919525392096 ], [ 3.995763680948074, 51.841061774539895 ], [ 3.99510667296805, 51.841503165169932 ], [ 3.994970807653792, 51.841898081192646 ], [ 3.995248770910468, 51.842276779786772 ], [ 3.995736672386207, 51.842439413478608 ], [ 3.997085943147951, 51.842459957244699 ], [ 3.99799028243803, 51.842143534893076 ], [ 3.998318478655538, 51.842208419515821 ], [ 3.998891482621031, 51.841804162604134 ], [ 3.999519689397985, 51.841664629795538 ], [ 3.999884739647149, 51.841316054632912 ], [ 4.00028094160205, 51.841276172760956 ], [ 3.999504456838936, 51.84176647011649 ], [ 3.999528001596937, 51.842205241006191 ], [ 3.999751095920673, 51.842398354335245 ], [ 4.001122583955879, 51.842484145478466 ], [ 4.004431860247564, 51.843065081155224 ], [ 4.006009697555625, 51.843075203762005 ], [ 4.008396800149129, 51.842807745614984 ], [ 4.010053398266679, 51.842144529460576 ], [ 4.014669032362055, 51.840723520619775 ], [ 4.015202537215107, 51.840272179877822 ], [ 4.014637702518275, 51.839903758596606 ], [ 4.01386829728924, 51.839793549459927 ], [ 4.013884896485532, 51.839496631552301 ], [ 4.013675139309454, 51.839302659103936 ], [ 4.013213921288972, 51.839455549086821 ], [ 4.013316652129223, 51.8392006921164 ], [ 4.013125422258732, 51.838618295213664 ], [ 4.012864150484172, 51.838475815334071 ], [ 4.011366748677, 51.838698734767938 ], [ 4.01081208088482, 51.839124125347503 ], [ 4.010566290674797, 51.839660014593413 ], [ 4.010160570707095, 51.839846056727424 ], [ 4.010489281732965, 51.839373387275806 ], [ 4.01151826492715, 51.838522415104464 ], [ 4.012912470929145, 51.838299500030111 ], [ 4.013119644780264, 51.837988769670346 ], [ 4.012227544261984, 51.837292389524663 ], [ 4.012500892612488, 51.836557258253706 ], [ 4.012054749571382, 51.835953652300901 ], [ 4.011633309737189, 51.83573007310784 ], [ 4.010743744046547, 51.835581662660118 ], [ 4.010249075457124, 51.835617453106913 ], [ 4.009873372730389, 51.835866555682074 ], [ 4.010023195800587, 51.834840709640225 ], [ 4.009383026551882, 51.834255307364451 ], [ 4.00989456854835, 51.834536231019136 ], [ 4.01067573438953, 51.835472024958626 ], [ 4.011944016191739, 51.83574557655156 ], [ 4.012594871187267, 51.836038829858033 ], [ 4.01327108976617, 51.836621478207071 ], [ 4.01376199198336, 51.836626274944443 ], [ 4.015046139024567, 51.835451555859045 ], [ 4.015511622976573, 51.834565815978664 ], [ 4.016103842977552, 51.834229170318736 ], [ 4.019300915364917, 51.8330665824299 ], [ 4.02010174782352, 51.832468145091333 ], [ 4.020093977115426, 51.832180364550858 ], [ 4.02183129310432, 51.831445021447927 ], [ 4.024144820934456, 51.830184101150429 ], [ 4.027661647317264, 51.829082928120776 ], [ 4.028796543954993, 51.829158810758166 ], [ 4.029361023809011, 51.829416402127968 ], [ 4.031366784097995, 51.830952467825504 ], [ 4.033601741513034, 51.831718943655517 ], [ 4.034067374664788, 51.8316799963752 ], [ 4.034326281277601, 51.831465690064 ], [ 4.034205951204028, 51.831106917196756 ], [ 4.032397576262659, 51.830453493704347 ], [ 4.029002332694366, 51.827917399804676 ], [ 4.029330846468969, 51.827476239616495 ], [ 4.028882015827048, 51.826954944513751 ], [ 4.029032877146411, 51.826741225626684 ], [ 4.029423897805996, 51.82673884761082 ], [ 4.030143146621215, 51.827130354391706 ], [ 4.030414938901089, 51.827104430430715 ], [ 4.030523387023972, 51.826926390042367 ], [ 4.030336906054634, 51.826666575123454 ], [ 4.030413974362328, 51.826561851746511 ], [ 4.03587468807483, 51.823745817402148 ], [ 4.0361321353977, 51.823780771184182 ], [ 4.037072948160305, 51.824483931378737 ], [ 4.037591122436897, 51.82462750023231 ], [ 4.038070475521475, 51.824467658321467 ], [ 4.037750888276756, 51.824738168723187 ], [ 4.037931835762882, 51.825253392460375 ], [ 4.033007002006279, 51.827844073071851 ], [ 4.032873187998653, 51.828057844277616 ], [ 4.032907365699737, 51.828830495228033 ], [ 4.033066477583581, 51.829553524422693 ], [ 4.033297514101479, 51.829755794247845 ], [ 4.033966894757197, 51.829838634621069 ], [ 4.039725236086897, 51.828154201382105 ], [ 4.041622112067163, 51.82842776564322 ], [ 4.043696727224056, 51.829784332058296 ], [ 4.045756776609374, 51.828728224544818 ], [ 4.045390737963645, 51.827883201317356 ], [ 4.044587292592953, 51.824453622167937 ], [ 4.045077123875071, 51.823172272887831 ], [ 4.046794943942658, 51.821793646309061 ], [ 4.046787372100371, 51.821599992336758 ], [ 4.042893865185129, 51.822538850585119 ], [ 4.040882779200865, 51.823215532248206 ], [ 4.040499674302008, 51.823205063763545 ], [ 4.040607453869793, 51.823064381616675 ], [ 4.04038173894765, 51.822380133114443 ], [ 4.038875476829864, 51.82122947297507 ], [ 4.042688566944136, 51.819279519441309 ], [ 4.042644803391212, 51.819071198224492 ], [ 4.043570471950299, 51.81858487010971 ], [ 4.043563624700226, 51.818338637856819 ], [ 4.042701501423475, 51.817690522279449 ], [ 4.043662201596048, 51.817188600225933 ], [ 4.048906540907669, 51.820942540885589 ], [ 4.048566511183695, 51.821668692410547 ], [ 4.048694311219471, 51.821839619052859 ], [ 4.048954216287151, 51.821764584640952 ], [ 4.049345746997594, 51.821109310290126 ], [ 4.049358997694856, 51.820828061032891 ], [ 4.049155784659945, 51.820609413456928 ], [ 4.049802712824714, 51.820256771175451 ], [ 4.053627163370131, 51.819757570135671 ], [ 4.054097367926772, 51.82093206939691 ], [ 4.050084255833395, 51.821505327634796 ], [ 4.049425242969608, 51.822033731222874 ], [ 4.049594868662369, 51.82210384579944 ], [ 4.050423426933631, 51.821712913991199 ], [ 4.054929741537444, 51.82110394927065 ], [ 4.055012672883079, 51.820888938784833 ], [ 4.054530168031551, 51.820876195337355 ], [ 4.054393736762288, 51.820622219243404 ], [ 4.054416564998442, 51.820208386572055 ], [ 4.054644256991179, 51.819891751956668 ], [ 4.057997450125705, 51.818912032327766 ], [ 4.06277220235127, 51.817079729848068 ], [ 4.064946567856175, 51.816438722543481 ], [ 4.064792178261461, 51.816224314470091 ], [ 4.063508208741415, 51.816571566685298 ], [ 4.058323949272315, 51.818554516709334 ], [ 4.055573469820751, 51.819396732337971 ], [ 4.054881085362009, 51.819567069081565 ], [ 4.054366880061755, 51.819260303372815 ], [ 4.054851650825371, 51.818565354306692 ], [ 4.056534399408547, 51.817823679638735 ], [ 4.063568209180623, 51.813462704029668 ], [ 4.075039240224927, 51.809905469833232 ], [ 4.077161431493479, 51.809630293764606 ], [ 4.077753030745362, 51.809879833365905 ], [ 4.077885739662062, 51.80971851073609 ], [ 4.077578315563217, 51.809176759136932 ], [ 4.078080038283272, 51.808833722149224 ], [ 4.079403151695367, 51.808644911525164 ], [ 4.081489084590165, 51.808004084249689 ], [ 4.082622063067444, 51.807414424551034 ], [ 4.084893111073551, 51.806959056402341 ], [ 4.087260336994829, 51.805983169237543 ], [ 4.089476042906403, 51.805427792735131 ], [ 4.09011037741442, 51.8054990949217 ], [ 4.090170596090984, 51.805761529527224 ], [ 4.090483827122624, 51.805705189861143 ], [ 4.091027223316785, 51.805239601702112 ], [ 4.093649574814941, 51.804506599387935 ], [ 4.098197676736445, 51.802622931361057 ], [ 4.099065343565533, 51.802521485115776 ], [ 4.100355468218482, 51.80173997611849 ], [ 4.101577571442083, 51.801522817297169 ], [ 4.103324255521644, 51.800882686735264 ], [ 4.105905091053636, 51.799498129688267 ], [ 4.108743851981337, 51.798286012265336 ], [ 4.115861432392496, 51.795754929347602 ], [ 4.11775090676273, 51.795709444508027 ], [ 4.119684956567951, 51.795286151802685 ], [ 4.120895702385566, 51.795572170783053 ], [ 4.121131622334593, 51.795461951571767 ], [ 4.121121359815217, 51.795124851083017 ], [ 4.121896733448791, 51.795070661422997 ], [ 4.121853433258412, 51.794874352015242 ], [ 4.121442498953447, 51.794598904463392 ], [ 4.119179508100328, 51.793831001808812 ], [ 4.119277520642422, 51.793661975223827 ], [ 4.121088575586898, 51.79416374246096 ], [ 4.122414028252674, 51.794832056743395 ], [ 4.122526645985406, 51.794622329035988 ], [ 4.121750431182036, 51.793922885250332 ], [ 4.129094885967407, 51.791851342970666 ], [ 4.129063643940474, 51.791632022568436 ], [ 4.128744103424118, 51.791543843612516 ], [ 4.125768304936819, 51.788783524449833 ], [ 4.126803373709297, 51.7894819085639 ], [ 4.127495205947937, 51.788614282584987 ], [ 4.128690739752107, 51.788314108901439 ], [ 4.130803562347278, 51.78839858448687 ], [ 4.130987517425846, 51.788084890243056 ], [ 4.130769485531814, 51.787661236877391 ], [ 4.131517300962105, 51.788111904252581 ], [ 4.133565734960197, 51.786809813962044 ], [ 4.13443735286645, 51.786630225219852 ], [ 4.13567249393108, 51.786749874883135 ], [ 4.135995358340258, 51.78727701327584 ], [ 4.13569641660781, 51.787461716857642 ], [ 4.133708793780727, 51.78798573155867 ], [ 4.131791425310817, 51.788275215753032 ], [ 4.131855814012225, 51.788746554059458 ], [ 4.133362316267764, 51.790316748193888 ], [ 4.132628181631612, 51.79060682551782 ], [ 4.132832280186819, 51.790820848769677 ], [ 4.133164819436005, 51.790826321897839 ], [ 4.139717019480588, 51.789048531034304 ], [ 4.139660660226943, 51.7886560906855 ], [ 4.138871260778855, 51.788971466682639 ], [ 4.138000110621108, 51.78907876498787 ], [ 4.136669653672813, 51.787390172416799 ], [ 4.136379451884321, 51.78723098636236 ], [ 4.136092825468865, 51.786767872753884 ], [ 4.137768457235767, 51.786537778929251 ], [ 4.137736702468404, 51.786208268885915 ], [ 4.137296872344844, 51.786219113564847 ], [ 4.137620772856325, 51.785869015922479 ], [ 4.138335285377992, 51.786049233480206 ], [ 4.138042229759438, 51.786243067891192 ], [ 4.138242985084189, 51.786412908156599 ], [ 4.138857447205322, 51.786204263714943 ], [ 4.140115139804847, 51.786102448632384 ], [ 4.140224389528937, 51.785818127793881 ], [ 4.139989457961402, 51.785373100410396 ], [ 4.140430250669326, 51.785753990328693 ], [ 4.140888642035863, 51.785840375689808 ], [ 4.140746811285219, 51.786105520365389 ], [ 4.140924612530072, 51.786353556429219 ], [ 4.141511006265937, 51.786457230812985 ], [ 4.141295034067491, 51.78673332330866 ], [ 4.141514637751012, 51.787072623720071 ], [ 4.141959636819266, 51.787183962468752 ], [ 4.142540746898378, 51.787736167112605 ], [ 4.143283695312463, 51.787751067821084 ], [ 4.141489770055057, 51.788261931985112 ], [ 4.141675074408179, 51.788460198173439 ], [ 4.142050916674812, 51.788445422707561 ], [ 4.143586007600293, 51.788034808349856 ], [ 4.153863130648551, 51.784022592870443 ], [ 4.154193578397983, 51.784086773889058 ], [ 4.156225116766997, 51.783265727476142 ], [ 4.156636567966269, 51.78323027211011 ], [ 4.157654315882573, 51.782750870961884 ], [ 4.159712382324378, 51.781213669210693 ], [ 4.161381525070079, 51.780496822673008 ], [ 4.164066589816607, 51.779873944260714 ], [ 4.16417977419669, 51.779693541021764 ], [ 4.163882282804437, 51.779588203329205 ], [ 4.163811103925907, 51.779362539773949 ], [ 4.164145860786189, 51.779575932700482 ], [ 4.164693533668835, 51.779522412856949 ], [ 4.165393245009698, 51.778817169414665 ], [ 4.166037691801272, 51.778693365605037 ], [ 4.168341140595429, 51.778773316056316 ], [ 4.169246507313561, 51.77845095297279 ], [ 4.170088723598806, 51.778523471631622 ], [ 4.170396179665732, 51.778385281350708 ], [ 4.170402034650786, 51.778034600385617 ], [ 4.170748509967876, 51.777675959978261 ], [ 4.171898249333666, 51.777953453123168 ], [ 4.173513781776382, 51.777341450005821 ], [ 4.177322866593348, 51.776659795446015 ], [ 4.177596813620214, 51.776459081074258 ], [ 4.181222190866597, 51.775676152590535 ], [ 4.183493976132029, 51.775676044680871 ], [ 4.184418148684033, 51.775424353260007 ], [ 4.185926418530726, 51.775414914850693 ], [ 4.187190188709365, 51.775122871632796 ], [ 4.187501547887705, 51.775257302340236 ], [ 4.187707821438408, 51.774960746942845 ], [ 4.188483200803493, 51.774682063870195 ], [ 4.189261463929301, 51.774717365545762 ], [ 4.188723257480064, 51.775006787084401 ], [ 4.188869488402736, 51.775214670156409 ], [ 4.189981051348714, 51.774500750359287 ], [ 4.189956682936741, 51.774272819183821 ], [ 4.190979701030831, 51.774701724734889 ], [ 4.191934159248079, 51.775499715643683 ], [ 4.193440692452375, 51.776312508065139 ], [ 4.195279817047693, 51.776858626115384 ], [ 4.19533518957635, 51.776637728768151 ], [ 4.192295221871303, 51.77519901772385 ], [ 4.190481196761754, 51.773853277018226 ], [ 4.191431504972171, 51.774139950999889 ], [ 4.191837784266192, 51.773865120935938 ], [ 4.19030360204925, 51.772972900796027 ], [ 4.190957089194863, 51.772715099063568 ], [ 4.192227223259609, 51.773363761545866 ], [ 4.192818550944075, 51.773887340237614 ], [ 4.193668401570191, 51.775389142573914 ], [ 4.195730625519965, 51.776399785490206 ], [ 4.195738359450014, 51.776193682305184 ], [ 4.193833076722169, 51.775162975199393 ], [ 4.193457385758481, 51.774386140685486 ], [ 4.193654407257786, 51.773980636760896 ], [ 4.193255101590741, 51.77309771829588 ], [ 4.193654736009694, 51.772961318769127 ], [ 4.193967818970569, 51.773129496087655 ], [ 4.194082581606575, 51.773013936791209 ], [ 4.193556680641043, 51.772588169562333 ], [ 4.193859657758624, 51.771821468767186 ], [ 4.194886990478251, 51.771401577053311 ], [ 4.195118464584049, 51.771512753921584 ], [ 4.195064931824552, 51.771729610603259 ], [ 4.195260318823076, 51.771743046687412 ], [ 4.195425866889327, 51.77143294064301 ], [ 4.194962489348644, 51.771096766813727 ], [ 4.196452729008161, 51.769967225931417 ], [ 4.198224387681751, 51.769052417031482 ], [ 4.206179418114429, 51.763965284897203 ], [ 4.206954839122143, 51.763818506477293 ], [ 4.207124725868718, 51.76344725287823 ], [ 4.207694162274858, 51.763417988003745 ], [ 4.207724622597731, 51.762992662325779 ], [ 4.207870707194431, 51.762892428584728 ], [ 4.216512060885389, 51.757421499621337 ], [ 4.217073751291942, 51.757585488679005 ], [ 4.217450482112477, 51.757438633729215 ], [ 4.217471359876105, 51.757269342760928 ], [ 4.217080392583272, 51.756991240885149 ], [ 4.217682913067817, 51.757297928284174 ], [ 4.219110216726505, 51.756714259111483 ], [ 4.21992172774385, 51.756212075647014 ], [ 4.219938810250365, 51.756042583323115 ], [ 4.22117860270576, 51.755569254639319 ], [ 4.221501026898717, 51.755257977548062 ], [ 4.22269384375456, 51.75471201297136 ], [ 4.222747621374144, 51.754463356224434 ], [ 4.223641187932472, 51.753944773051778 ], [ 4.227861021628319, 51.751941770712747 ], [ 4.228184039840216, 51.751561622873922 ], [ 4.23088573994039, 51.750331850577915 ], [ 4.232658128132971, 51.749756341971768 ], [ 4.234919605961613, 51.748685145505398 ], [ 4.237472166081425, 51.747759208079259 ], [ 4.238193810403255, 51.747579568301497 ], [ 4.239327139071176, 51.747588006344074 ], [ 4.239367601915153, 51.747435410810198 ], [ 4.239124861667894, 51.74720531016672 ], [ 4.239877350861092, 51.746732406163069 ], [ 4.240825804360012, 51.745836615966716 ], [ 4.241467840235867, 51.745970292864421 ], [ 4.24144394194278, 51.74577799521699 ], [ 4.241045429845226, 51.745616395691897 ], [ 4.241570714527525, 51.745259229627557 ], [ 4.241580075439829, 51.745078607308407 ], [ 4.241923683827931, 51.745015306774583 ], [ 4.242362394146162, 51.745329706255951 ], [ 4.242640361412357, 51.745310755227614 ], [ 4.246590469584072, 51.742882918287506 ], [ 4.246302097054921, 51.742733420974822 ], [ 4.244525015853046, 51.743756003675394 ], [ 4.243340484354062, 51.742796833800085 ], [ 4.245186459799647, 51.741870240917422 ], [ 4.245920434652914, 51.742156962071505 ], [ 4.246170751349744, 51.742091703076696 ], [ 4.246981529958028, 51.742700285471898 ], [ 4.247238316508348, 51.742605078328637 ], [ 4.245296252538659, 51.741009655521879 ], [ 4.245554691858741, 51.741056339090385 ], [ 4.24735936595215, 51.742443106952038 ], [ 4.247536393992168, 51.742435178386359 ], [ 4.247576904262631, 51.742261649697227 ], [ 4.246727747491337, 51.741416315552193 ], [ 4.246833969454921, 51.741075635017722 ], [ 4.247697644492037, 51.7403812334638 ], [ 4.24789648761552, 51.739947538367709 ], [ 4.248627931328309, 51.739380585485812 ], [ 4.249482314092051, 51.739288868580701 ], [ 4.251414918344045, 51.737481836007021 ], [ 4.252784775486583, 51.73659577258536 ], [ 4.254384478037258, 51.735182807993652 ], [ 4.254488585901465, 51.734904533715444 ], [ 4.255145503705984, 51.734584145489222 ], [ 4.255457540675154, 51.734159336140287 ], [ 4.25587431328009, 51.73397413252696 ], [ 4.255790213701487, 51.733737581890338 ], [ 4.255900330101524, 51.733596007580722 ], [ 4.256636675142435, 51.733299264531347 ], [ 4.257211005556222, 51.732882664908978 ], [ 4.257207823501139, 51.732689326125033 ], [ 4.257672213667925, 51.732533111671771 ], [ 4.2586272448059, 51.731841910251816 ], [ 4.258812544780266, 51.731269542321343 ], [ 4.259147787835343, 51.731247993242519 ], [ 4.259902934658631, 51.730696484474393 ], [ 4.260322387990122, 51.730291643675955 ], [ 4.260371757525127, 51.730016615706781 ], [ 4.260669465648809, 51.730002307849212 ], [ 4.261683379612404, 51.7290065292528 ], [ 4.262233133603704, 51.728709149539164 ], [ 4.262550655499901, 51.728276020811229 ], [ 4.262603972215335, 51.727542217882977 ], [ 4.263046074418859, 51.7275791366554 ], [ 4.264706614649795, 51.726650772126547 ], [ 4.265415213952468, 51.726441068035911 ], [ 4.265762394068442, 51.726105706271184 ], [ 4.266543047032313, 51.725783253625679 ], [ 4.266869643731137, 51.725824183739206 ], [ 4.266840218751619, 51.72536930748953 ], [ 4.267378258613829, 51.725548616840541 ], [ 4.268014681082796, 51.725465158896021 ], [ 4.268434215878927, 51.724898223853614 ], [ 4.268980215438801, 51.724752013477392 ], [ 4.26914217862096, 51.724487875591038 ], [ 4.269524890455638, 51.724577173320192 ], [ 4.270054260966204, 51.724391385039972 ], [ 4.270232866505924, 51.724006617813082 ], [ 4.270589389199952, 51.723921899424496 ], [ 4.270865700420482, 51.723620040988834 ], [ 4.271642736669617, 51.723458883415816 ], [ 4.271832492132176, 51.723188976319889 ], [ 4.272257462836662, 51.723240700467215 ], [ 4.272838044596509, 51.722979759926559 ], [ 4.273615687938839, 51.722114290670362 ], [ 4.275069649708047, 51.722037221192465 ], [ 4.275404504610441, 51.722197203982013 ], [ 4.27556937499652, 51.72189791183979 ], [ 4.275913072807014, 51.72192072534552 ], [ 4.27608814109623, 51.721722987795417 ], [ 4.277002650573676, 51.721523665222364 ], [ 4.277541683714483, 51.721188006745599 ], [ 4.279525143301291, 51.720875630670982 ], [ 4.280094945720194, 51.721354985920257 ], [ 4.281627183687096, 51.721019192660265 ], [ 4.282502131508654, 51.721856646475494 ], [ 4.282704572443054, 51.721843087409141 ], [ 4.282768389144449, 51.721674354929718 ], [ 4.282449134262293, 51.721244877752127 ], [ 4.280905528807557, 51.720189867527694 ], [ 4.280037364621013, 51.719124807176691 ], [ 4.27993792220582, 51.718705985317825 ], [ 4.280114287867176, 51.718652359344155 ], [ 4.280130033045736, 51.718134572204647 ], [ 4.280260509075439, 51.71806110231163 ], [ 4.281238305447268, 51.71815879468528 ], [ 4.280587490182326, 51.718332667667319 ], [ 4.280954057382861, 51.719540652062179 ], [ 4.281277027063079, 51.719918925099371 ], [ 4.282251611994631, 51.720326352149755 ], [ 4.282211539223324, 51.720569247051607 ], [ 4.283402986471296, 51.721487483491423 ], [ 4.283542909012211, 51.72130124222214 ], [ 4.282710331251466, 51.720502582815605 ], [ 4.286393115165547, 51.718976311504996 ], [ 4.288420176776237, 51.718385197859327 ], [ 4.28970648180036, 51.718318986383181 ], [ 4.291540469323415, 51.717802727147095 ], [ 4.294032202819161, 51.717781520561601 ], [ 4.29446187535059, 51.718057633715141 ], [ 4.294600799965567, 51.717922601850198 ], [ 4.294475377099665, 51.717772152996744 ], [ 4.297463623796342, 51.717271486834562 ], [ 4.29890202099606, 51.716784532920776 ], [ 4.305448503749022, 51.713088652950162 ], [ 4.309317679085299, 51.711406370219031 ], [ 4.309971632949948, 51.710617689468812 ], [ 4.315924558466273, 51.707869121980757 ], [ 4.31875088870284, 51.706091525912008 ], [ 4.319034377053046, 51.705579332328163 ], [ 4.320434626861679, 51.705491294934681 ], [ 4.320946365445897, 51.705125452980724 ], [ 4.322587340273103, 51.704921955781877 ], [ 4.324498719102196, 51.704074482309977 ], [ 4.324798543580968, 51.703741050842268 ], [ 4.325764760388039, 51.703659883727632 ], [ 4.326681720184212, 51.703271193553121 ], [ 4.327689393674385, 51.70307853866268 ], [ 4.327065040736595, 51.703414467586057 ], [ 4.327198319370341, 51.703607382340017 ], [ 4.328192127281928, 51.703035644819664 ], [ 4.329466011082238, 51.702723776825302 ], [ 4.331393146030765, 51.702745483224 ], [ 4.332966518578615, 51.703011091113595 ], [ 4.335155656872915, 51.70296857549063 ], [ 4.335879504363529, 51.703131710210343 ], [ 4.337651793548123, 51.70288079769638 ], [ 4.341222451567264, 51.70304221675984 ], [ 4.341727492103973, 51.702903179719364 ], [ 4.344989550533644, 51.702866661514037 ], [ 4.348116643379971, 51.7023074614916 ], [ 4.348494191851871, 51.702426261813294 ], [ 4.350536502264544, 51.702396362307582 ], [ 4.351593875544637, 51.702202757615282 ], [ 4.353635532431841, 51.702251021739407 ], [ 4.357614709696497, 51.702458784324989 ], [ 4.358789424378447, 51.702717021219826 ], [ 4.361060865978154, 51.702713195178418 ], [ 4.365552731296071, 51.703203104706624 ], [ 4.366993331972562, 51.704792404036368 ], [ 4.367144766871419, 51.704611913955979 ], [ 4.365951124256982, 51.703259117778664 ], [ 4.36600047217127, 51.703045072928212 ], [ 4.368102070383659, 51.702949993621203 ], [ 4.370528050681232, 51.702575789448609 ], [ 4.374915557249855, 51.702700307790792 ], [ 4.377341136345821, 51.702434970658409 ], [ 4.378503210444878, 51.702554218605393 ], [ 4.379634670817917, 51.702283521927669 ], [ 4.380277915388167, 51.702487142436141 ], [ 4.381126300409607, 51.702409170894043 ], [ 4.381485725318449, 51.702533675139954 ], [ 4.381955864437692, 51.702242856072417 ], [ 4.383698371312894, 51.70218999073743 ], [ 4.383949712586851, 51.702254154810262 ], [ 4.383872502561359, 51.702509636048518 ], [ 4.384021757788515, 51.702676041797872 ], [ 4.385631431873, 51.702523959887444 ], [ 4.387081743022594, 51.702793508451876 ], [ 4.388154195383264, 51.703646820396798 ], [ 4.389088183142293, 51.704058553407584 ], [ 4.388972200078871, 51.704458642392034 ], [ 4.389474679141554, 51.704467607026288 ], [ 4.389647590132569, 51.704738660107388 ], [ 4.390271084316273, 51.704692007459045 ], [ 4.390105259244343, 51.704082808077928 ], [ 4.391015088867747, 51.704397041692381 ], [ 4.391341109667921, 51.70467180270068 ], [ 4.391591544873949, 51.705540072368599 ], [ 4.388793521948167, 51.706514723159209 ], [ 4.388811774800173, 51.706751820763273 ], [ 4.392808758811401, 51.705366557511311 ], [ 4.392416929198082, 51.705862012879926 ], [ 4.393332513297813, 51.706164651095008 ], [ 4.393826913134462, 51.706524565406767 ], [ 4.395646722318997, 51.709426280564323 ], [ 4.3952216201238, 51.709906442759078 ], [ 4.394318392445948, 51.71016686317067 ], [ 4.394501894628768, 51.71065015183931 ], [ 4.393788135651147, 51.710277322355061 ], [ 4.393617838693208, 51.71035386085844 ], [ 4.393633165520227, 51.710518271870868 ], [ 4.394420840097107, 51.710979828580996 ], [ 4.39513189806696, 51.711104018121759 ], [ 4.397381936918393, 51.710775654353654 ], [ 4.397893541198266, 51.711512929595017 ], [ 4.398330663385966, 51.711339026304429 ], [ 4.397931683157456, 51.710660124459295 ], [ 4.399322750081627, 51.710274725670338 ], [ 4.400793449251645, 51.709586344543787 ], [ 4.401439085146301, 51.70912338839188 ], [ 4.401622634585959, 51.708777088815488 ], [ 4.401568411304522, 51.708300573366962 ], [ 4.401384562768068, 51.708228516136877 ], [ 4.401223514573937, 51.708354503655656 ], [ 4.401298640568529, 51.708656763658716 ], [ 4.401088422924878, 51.709050270138469 ], [ 4.400460368991622, 51.70917428683925 ], [ 4.399305156601206, 51.70902687984595 ], [ 4.398241487908934, 51.708513298716426 ], [ 4.397845640371179, 51.707969110696972 ], [ 4.397576878980832, 51.707543280786737 ], [ 4.397533951849224, 51.70681525399138 ], [ 4.398304578347435, 51.705272988649959 ], [ 4.398795010083479, 51.704631493971085 ], [ 4.400596941428526, 51.704664987304781 ], [ 4.401399425421541, 51.704409043037785 ], [ 4.401624464036299, 51.704599201645742 ], [ 4.402259559522708, 51.704377604946565 ], [ 4.402985059615203, 51.704524977150889 ], [ 4.403222473363575, 51.704773390734474 ], [ 4.404077451768136, 51.705015078486376 ], [ 4.405604236265461, 51.705290649848841 ], [ 4.406871674298024, 51.705353640905791 ], [ 4.407041832538402, 51.705105772547654 ], [ 4.405115013923938, 51.704739126565173 ], [ 4.405320618572756, 51.704473661260558 ], [ 4.405243258778765, 51.704331961041433 ], [ 4.40480672700083, 51.704680726817074 ], [ 4.401213276951324, 51.703601561482216 ], [ 4.401093185750958, 51.703531430738479 ], [ 4.40156794999419, 51.703053918557849 ], [ 4.401465017881219, 51.70289215384993 ], [ 4.401074091155941, 51.703158753545793 ], [ 4.400670703836736, 51.703083958852666 ], [ 4.400349207419296, 51.703204688270283 ], [ 4.399581746885344, 51.702785985874506 ], [ 4.399474829256838, 51.702454527540368 ], [ 4.399128920863006, 51.702371159378963 ], [ 4.399196916161135, 51.702154308960921 ], [ 4.399546475790006, 51.701996324385362 ], [ 4.399867296927481, 51.701254246857189 ], [ 4.400246363944487, 51.701059130282097 ], [ 4.400468776515808, 51.700669804335639 ], [ 4.401086142122757, 51.700238673100159 ], [ 4.401901777960452, 51.699269585584581 ], [ 4.402772996968078, 51.699164067180725 ], [ 4.403667312421537, 51.698808487207309 ], [ 4.39441147136876, 51.693829573857478 ], [ 4.395005992477828, 51.694628556296081 ], [ 4.395124379319879, 51.695271038804051 ], [ 4.394965449876135, 51.695684281948324 ], [ 4.393661983656632, 51.696476907181896 ], [ 4.392412105154288, 51.696906948716183 ], [ 4.391382430349257, 51.69702028548511 ], [ 4.391028598076687, 51.696974708877256 ], [ 4.390944874540565, 51.696688798842381 ], [ 4.389885467912824, 51.696740603280126 ], [ 4.388603833611405, 51.695573688612754 ], [ 4.389883967701419, 51.695254852656177 ], [ 4.389805146774265, 51.694972119712617 ], [ 4.388377761440566, 51.695364740998137 ], [ 4.386281282186541, 51.693470133117259 ], [ 4.385921050995682, 51.693487626134058 ], [ 4.385815790383018, 51.693693911943292 ], [ 4.386147272542914, 51.694214735041058 ], [ 4.386724853814131, 51.694389714729972 ], [ 4.386671196937162, 51.694595405464312 ], [ 4.387001287930185, 51.694765048605369 ], [ 4.387295864955385, 51.695267752448515 ], [ 4.388023734658922, 51.695648532807226 ], [ 4.387959657541496, 51.695958711894974 ], [ 4.386678721685101, 51.696509961345761 ], [ 4.385162593218491, 51.696830528803879 ], [ 4.382269677789558, 51.69864938206436 ], [ 4.380788236187156, 51.699340233003362 ], [ 4.379622077974536, 51.699539470877873 ], [ 4.3796246475246, 51.699338707358017 ], [ 4.378619490039795, 51.699210665135588 ], [ 4.378080997884626, 51.69921040188634 ], [ 4.377640276114558, 51.699401689599547 ], [ 4.37657857907902, 51.698824086480329 ], [ 4.37557118279125, 51.698728346615269 ], [ 4.375584637162842, 51.698477830891335 ], [ 4.375019321765097, 51.698331066338262 ], [ 4.374913895657281, 51.697981959518913 ], [ 4.375603241374207, 51.697077954944099 ], [ 4.375628236240611, 51.696699089208018 ], [ 4.374429617440429, 51.69588237270753 ], [ 4.371460676873985, 51.695154928237727 ], [ 4.369499806848395, 51.695682623772235 ], [ 4.369082110177532, 51.695494654792633 ], [ 4.368339924734554, 51.695700245508277 ], [ 4.367638728535995, 51.696932997391741 ], [ 4.368098552475609, 51.697974759289629 ], [ 4.36871538461977, 51.698702718540076 ], [ 4.369192957162717, 51.699004318790649 ], [ 4.370213889654645, 51.699349594933743 ], [ 4.370987476453194, 51.699389985575323 ], [ 4.371393555330306, 51.699589121074993 ], [ 4.371305739379877, 51.699689916024397 ], [ 4.368991546920321, 51.69912257427243 ], [ 4.368541643735262, 51.699289741463879 ], [ 4.36690027853632, 51.697846488896587 ], [ 4.3665562313014, 51.696829397156733 ], [ 4.366999767069359, 51.696256620013024 ], [ 4.366746134471831, 51.696160129183262 ], [ 4.366302994896201, 51.695101738035653 ], [ 4.36598459547581, 51.694980146684884 ], [ 4.363748978197648, 51.695040591482993 ], [ 4.362708440451689, 51.694616793685263 ], [ 4.362316744765472, 51.694741568358829 ], [ 4.362640101891531, 51.693586734715453 ], [ 4.362480972466976, 51.693437650169578 ], [ 4.361506905758167, 51.696770081684399 ], [ 4.361282829711836, 51.696652649555432 ], [ 4.361000091743078, 51.69684144688248 ], [ 4.361258316691754, 51.696236273096709 ], [ 4.36152448535572, 51.696022878742433 ], [ 4.362128339525046, 51.69385415536059 ], [ 4.361424697507637, 51.693933390325604 ], [ 4.36086355403372, 51.694230053173548 ], [ 4.360418917490263, 51.694779877850372 ], [ 4.360457966310148, 51.69525040771989 ], [ 4.360302093071165, 51.694806152071813 ], [ 4.360125587116173, 51.694726228013565 ], [ 4.358872592841895, 51.695134016235443 ], [ 4.358801870318902, 51.695394365079608 ], [ 4.359243962189108, 51.696349456660364 ], [ 4.359265072056917, 51.696757783491257 ], [ 4.359191392237557, 51.697489418385963 ], [ 4.358865273620936, 51.697707591909442 ], [ 4.359007395292402, 51.696355599632383 ], [ 4.358550931802315, 51.69571952889568 ], [ 4.358391571803224, 51.694776894703679 ], [ 4.357484740627846, 51.694396125413384 ], [ 4.356767831597944, 51.695077558921291 ], [ 4.356538380568327, 51.695921929011888 ], [ 4.356596223656844, 51.696368230606659 ], [ 4.357005802218578, 51.697333717944609 ], [ 4.357739186684507, 51.697884203449064 ], [ 4.357838933119872, 51.698458454424951 ], [ 4.358172000517852, 51.698963995989693 ], [ 4.358397174491696, 51.699047285245548 ], [ 4.358229517351263, 51.699638833031791 ], [ 4.358418062819018, 51.700076763080055 ], [ 4.358083126757744, 51.700051813999053 ], [ 4.356387050389412, 51.700932324907576 ], [ 4.3559721242682, 51.700976584208419 ], [ 4.353017821647862, 51.700923381028247 ], [ 4.351897535465824, 51.70104907468879 ], [ 4.347372202937361, 51.700731355936433 ], [ 4.347078988334965, 51.700983121992238 ], [ 4.345815940354091, 51.700834292513548 ], [ 4.345823840736453, 51.70070781676565 ], [ 4.348502057270559, 51.700584528301285 ], [ 4.355960338198903, 51.700603291781995 ], [ 4.357041559126861, 51.700246096155283 ], [ 4.357500986936909, 51.699798254634608 ], [ 4.357557893523893, 51.699149424920698 ], [ 4.356985192065243, 51.698662586396622 ], [ 4.356579830923437, 51.698645810325949 ], [ 4.356675613419479, 51.698439889256356 ], [ 4.355833186651531, 51.698134027140391 ], [ 4.355336581834011, 51.69750566216517 ], [ 4.354979540612916, 51.69730037749197 ], [ 4.355132646063397, 51.696389959083099 ], [ 4.35536783863093, 51.696240727428616 ], [ 4.355535264399287, 51.69568319324047 ], [ 4.355376381361253, 51.695082546397025 ], [ 4.356245352816239, 51.694543450205288 ], [ 4.356405055190645, 51.694197588885231 ], [ 4.357100200519829, 51.69367091546215 ], [ 4.3594208366606, 51.692779208788671 ], [ 4.359532168738359, 51.692556726515491 ], [ 4.359266994181574, 51.692315603273563 ], [ 4.359229290689009, 51.691875319661627 ], [ 4.359291813192913, 51.69171148521761 ], [ 4.359390731614624, 51.692367036304361 ], [ 4.359599909979646, 51.692565246667648 ], [ 4.359978708875627, 51.692556600396308 ], [ 4.362210518304011, 51.692288070457174 ], [ 4.362720281897289, 51.692424093835285 ], [ 4.362912129347876, 51.691877840244565 ], [ 4.363496917493974, 51.691992886905531 ], [ 4.364717106654938, 51.691459072944674 ], [ 4.36511344775178, 51.69099772500104 ], [ 4.366126116748412, 51.690306917805017 ], [ 4.367454631720721, 51.688208488651483 ], [ 4.36745734142897, 51.68739138290718 ], [ 4.367169527926936, 51.686791850520457 ], [ 4.367215702136327, 51.686491406155426 ], [ 4.366593711014962, 51.686396729127928 ], [ 4.36624454836621, 51.686167868516264 ], [ 4.36662925153912, 51.68521528297579 ], [ 4.366372570533493, 51.684473761908443 ], [ 4.366989583997711, 51.685801930967131 ], [ 4.368156121941291, 51.685773962635871 ], [ 4.368969392059572, 51.685078718879097 ], [ 4.368796351593153, 51.684913768164328 ], [ 4.368460696058058, 51.685240483539978 ], [ 4.367968224467917, 51.68513498790275 ], [ 4.367791068597197, 51.684644140964124 ], [ 4.368487148690389, 51.684356875591618 ], [ 4.36836355113688, 51.684229223088359 ], [ 4.367746650924503, 51.684356197692331 ], [ 4.367578518341822, 51.684107745079693 ], [ 4.367341452890533, 51.683056110036716 ], [ 4.367554223339805, 51.682998068189598 ], [ 4.36752414219625, 51.682820106507513 ], [ 4.366467610962659, 51.682914928216562 ], [ 4.366217832605955, 51.682721958241537 ], [ 4.36625475063225, 51.682232351739039 ], [ 4.367073271267505, 51.681972722132549 ], [ 4.367100243032231, 51.681768898217278 ], [ 4.365209041072442, 51.682151717937479 ], [ 4.366166605023968, 51.68172979065006 ], [ 4.366702189859885, 51.681242294050165 ], [ 4.36652986631464, 51.681141333315843 ], [ 4.365702917015414, 51.681641759212539 ], [ 4.365498896137514, 51.68102994920207 ], [ 4.364930671891301, 51.680167971713608 ], [ 4.365043274817443, 51.679483029317453 ], [ 4.36462416717387, 51.677741977665036 ], [ 4.35719465430814, 51.671134461212823 ], [ 4.353353806337525, 51.669573673341965 ], [ 4.341454660771125, 51.665982045596124 ], [ 4.338650556320206, 51.664883573793503 ], [ 4.337148901626895, 51.664500559960032 ], [ 4.337087651144484, 51.664360322205852 ], [ 4.336802162959051, 51.664440312074497 ], [ 4.332576585962806, 51.66353450074908 ], [ 4.332399719125273, 51.6633594221124 ], [ 4.33017495214502, 51.662784886280917 ], [ 4.329106693535034, 51.662798015039016 ], [ 4.323649468596233, 51.662059484377039 ], [ 4.319726475613749, 51.661170970051785 ], [ 4.31952381474287, 51.660948028788091 ], [ 4.317810771982688, 51.660747255278729 ], [ 4.316433399135474, 51.660402243215188 ], [ 4.315873388369249, 51.660510677792615 ], [ 4.314613574061164, 51.661381052574185 ], [ 4.314251572026472, 51.661198728347919 ], [ 4.314250765950947, 51.660798135318984 ], [ 4.315124277949419, 51.660799813611995 ], [ 4.315385582335743, 51.660616585551054 ], [ 4.315337859910017, 51.660462905481083 ], [ 4.310788094047301, 51.659779501873942 ], [ 4.300590854012054, 51.659128310434852 ], [ 4.299303611774835, 51.659459860351291 ], [ 4.291861179875337, 51.657605601750127 ], [ 4.289848407252631, 51.656916093780758 ], [ 4.286706565264278, 51.656230136758602 ], [ 4.285991986215486, 51.655747870922617 ], [ 4.28385221188558, 51.655113058236019 ], [ 4.282106015702989, 51.654982340198352 ], [ 4.281050040646948, 51.654466396170051 ], [ 4.277725243550067, 51.654417837688428 ], [ 4.27700087461392, 51.654659356639577 ], [ 4.276238634864882, 51.654472648347657 ], [ 4.275665928472799, 51.654684083899667 ], [ 4.274319771429164, 51.654603068255796 ], [ 4.27351547707163, 51.654731279796167 ], [ 4.271934209975465, 51.654497846743894 ], [ 4.266734873726742, 51.655493462017141 ], [ 4.263586721330325, 51.65551639563774 ], [ 4.257652114117358, 51.656216262857008 ], [ 4.255192444686434, 51.656722619418964 ], [ 4.252255848023368, 51.657561704835295 ], [ 4.251628287288745, 51.657506688409832 ], [ 4.250612268017096, 51.657779185821902 ], [ 4.249342825559637, 51.657750120124064 ], [ 4.248536982002639, 51.657986601494279 ], [ 4.248293593827448, 51.657843283142839 ], [ 4.247485065209052, 51.657843738011259 ], [ 4.248989017449814, 51.65748197873917 ], [ 4.249124239020433, 51.657301342399329 ], [ 4.248931792721318, 51.657123077716385 ], [ 4.248450145418948, 51.657107241865077 ], [ 4.246796807823523, 51.657513044175566 ], [ 4.245370530855829, 51.65819483899886 ], [ 4.241602269070197, 51.658597905332741 ], [ 4.240834663214554, 51.658916685107855 ], [ 4.238436175182919, 51.659471968968361 ], [ 4.237778325652751, 51.659917286671742 ], [ 4.236797169331341, 51.660185753188522 ], [ 4.234520371799305, 51.661403103500824 ], [ 4.234158763117191, 51.661462474214083 ], [ 4.233932629658796, 51.660790201552174 ], [ 4.234468194760756, 51.659905842177523 ], [ 4.235486187223222, 51.659408657916806 ], [ 4.236881421435908, 51.65902536731523 ], [ 4.238303985476409, 51.659032025576259 ], [ 4.238493464287788, 51.658904551474286 ], [ 4.238422464657999, 51.658758587373306 ], [ 4.236667668225956, 51.658399956070134 ], [ 4.233185393085034, 51.660020788327067 ], [ 4.232327835318557, 51.661413382214739 ], [ 4.230773370293477, 51.662641400029031 ], [ 4.224147551956707, 51.666654548745043 ], [ 4.221322350414048, 51.669566271353609 ], [ 4.220651252173155, 51.670474857712442 ], [ 4.219342452126509, 51.672995192904402 ], [ 4.219512992547759, 51.673516326633049 ], [ 4.220070635004805, 51.673701471842804 ], [ 4.210892322933198, 51.67608395524789 ], [ 4.210465732328126, 51.67638429955214 ], [ 4.210376787218521, 51.676704649899705 ], [ 4.208949082688751, 51.675716881644284 ], [ 4.208790818600384, 51.675862845279369 ], [ 4.20901092554005, 51.676074372996624 ], [ 4.208778968109259, 51.676189796725538 ], [ 4.207527498689963, 51.676142054300385 ], [ 4.207136533270933, 51.674858961403302 ], [ 4.206954818958515, 51.674790593071315 ], [ 4.205400852109147, 51.676051956550282 ], [ 4.205279553521284, 51.677563945088664 ], [ 4.202208844215128, 51.678310369500075 ], [ 4.194419744111896, 51.679197551106085 ], [ 4.191177906254274, 51.681946619251221 ], [ 4.190187888638426, 51.682294574906116 ], [ 4.189225473631396, 51.682857610475537 ], [ 4.185721249864966, 51.68290796008948 ], [ 4.185360348809731, 51.682604009839729 ], [ 4.183848073448827, 51.682451851558206 ], [ 4.174617031870972, 51.683101334795737 ], [ 4.168363751134505, 51.683340277932992 ], [ 4.168125791246577, 51.68352696049962 ], [ 4.168319312543705, 51.683769900986192 ], [ 4.165372374886304, 51.685817118362699 ], [ 4.164431875172949, 51.685775814929258 ], [ 4.163763250045074, 51.685523027068434 ], [ 4.163756740018622, 51.685675761996961 ], [ 4.164306274576717, 51.686190523252108 ], [ 4.164880132646721, 51.686446004604313 ], [ 4.164294023512795, 51.687151373910254 ], [ 4.162161217174949, 51.685939529276403 ], [ 4.157408377726874, 51.682413491003153 ], [ 4.157390933322253, 51.6825815828374 ], [ 4.155431576739484, 51.683506356828808 ], [ 4.158476440440432, 51.685167630300192 ], [ 4.159075220986146, 51.685949301719212 ], [ 4.160845780299382, 51.686959759821427 ], [ 4.160907445808766, 51.687128849273641 ], [ 4.162411690442005, 51.687833660961026 ], [ 4.162372994485414, 51.688411998783934 ], [ 4.162181434818667, 51.689029813803721 ], [ 4.160761170192838, 51.690809400546655 ], [ 4.158534185850224, 51.693273674458574 ], [ 4.157491789091649, 51.693922932360103 ], [ 4.156879765004447, 51.695151568909317 ], [ 4.155982111045899, 51.695949718333907 ], [ 4.154352004805873, 51.696975004110982 ], [ 4.152613153035851, 51.697626000999009 ], [ 4.147853152600766, 51.69876327269575 ], [ 4.146691246941113, 51.699177350391771 ], [ 4.145976932141067, 51.699207464691561 ], [ 4.135018643293304, 51.701901685333276 ], [ 4.134622045931834, 51.701725068381045 ], [ 4.134004884155488, 51.701830656024406 ], [ 4.133506675092952, 51.701727397978736 ], [ 4.133257296918919, 51.702003953168166 ], [ 4.133154102866723, 51.702661792423584 ], [ 4.132365305962499, 51.703457305189495 ], [ 4.131577206086972, 51.703805932133847 ], [ 4.129082502505954, 51.703737313307379 ], [ 4.128904385950443, 51.702863437362119 ], [ 4.128468924080124, 51.702321099950616 ], [ 4.128265982257156, 51.701512996785574 ], [ 4.128073153850668, 51.701307643932971 ], [ 4.127724195517189, 51.701264138627906 ], [ 4.12804502420687, 51.702779701237581 ], [ 4.128918457240404, 51.704917408710386 ], [ 4.128909238472257, 51.705464730019457 ], [ 4.128333400929923, 51.703899305991655 ], [ 4.127796823223857, 51.703722251620093 ], [ 4.127642236663132, 51.703984127189464 ], [ 4.127186385993803, 51.704062320343915 ], [ 4.126036538802368, 51.7047253887553 ], [ 4.124638471971877, 51.70502921980129 ], [ 4.122678005911166, 51.706285477245565 ], [ 4.11131861455626, 51.70775883587293 ], [ 4.099857598110454, 51.707336991524578 ], [ 4.097710715512271, 51.707070976811906 ], [ 4.096267709342694, 51.707064998869228 ], [ 4.096006292238182, 51.7069851540505 ], [ 4.095630834291166, 51.706534516889199 ], [ 4.095205113330679, 51.706387119379528 ], [ 4.092526620287217, 51.706471186216135 ], [ 4.091747241500284, 51.706281324545323 ], [ 4.090630146621627, 51.705125775836777 ], [ 4.090113867701976, 51.704958271426655 ], [ 4.08748151159611, 51.70590625900698 ], [ 4.087353932918985, 51.706174143679085 ], [ 4.087702386867088, 51.706256602375134 ], [ 4.090126655454649, 51.705357286331775 ], [ 4.091144993943096, 51.70638635367812 ], [ 4.087474378574504, 51.70758327270984 ], [ 4.08689701800493, 51.707326769597522 ], [ 4.086691887873121, 51.706876466659985 ], [ 4.086347752899906, 51.706852475997977 ], [ 4.086149099581728, 51.707322415012264 ], [ 4.086492227132502, 51.707530454259548 ], [ 4.086463097955994, 51.708284513161836 ], [ 4.086076904597069, 51.708275984321681 ], [ 4.085983550104705, 51.708489543044934 ], [ 4.085966667982262, 51.708082395019836 ], [ 4.085618306560397, 51.707895410344584 ], [ 4.084849972414265, 51.707791187319692 ], [ 4.084657505641585, 51.707916885485474 ], [ 4.082655706310269, 51.707615938415579 ], [ 4.082817963848979, 51.706811736723559 ], [ 4.085681539329578, 51.706969373040494 ], [ 4.086560022041422, 51.705986721164784 ], [ 4.088747855423243, 51.698987849569917 ], [ 4.088565922358689, 51.698827063864236 ], [ 4.088017785894561, 51.70005155128765 ], [ 4.08653349432465, 51.705222465150896 ], [ 4.086241885796811, 51.705919094284333 ], [ 4.085575312312264, 51.70656743380043 ], [ 4.082538657028539, 51.706444983070135 ], [ 4.081431626012987, 51.707582062853376 ], [ 4.080819052497968, 51.7078566142401 ], [ 4.076660069121224, 51.708532443389011 ], [ 4.070276898910595, 51.707743943903957 ], [ 4.069595901507664, 51.707817071423911 ], [ 4.060846796883639, 51.710496654683006 ], [ 4.059951017368756, 51.711178778506216 ], [ 4.058727920526169, 51.713511682579231 ], [ 4.059029029003004, 51.712796429977381 ], [ 4.058530714688074, 51.71269671959633 ], [ 4.058954462367018, 51.712461731592029 ], [ 4.058776773860421, 51.712120737936296 ], [ 4.059177711389561, 51.711719036409313 ], [ 4.058939181009433, 51.711547785175696 ], [ 4.057998338778753, 51.711332078603746 ], [ 4.056622543056562, 51.711532288996239 ], [ 4.053978443015169, 51.711374249487065 ], [ 4.050987545259545, 51.711603259609035 ], [ 4.053164276666712, 51.709374694389965 ], [ 4.053943169595417, 51.708790563746454 ], [ 4.054403753505681, 51.707895922512748 ], [ 4.055195516861692, 51.707199668245437 ], [ 4.05608021681401, 51.706822042556595 ], [ 4.057162737903997, 51.706835569797711 ], [ 4.058988456405012, 51.707343742556539 ], [ 4.059133555451732, 51.707205120942106 ], [ 4.058968332302083, 51.707032576690899 ], [ 4.058269925240235, 51.706796222827705 ], [ 4.060045363888444, 51.706729268838821 ], [ 4.060339160719962, 51.707206874677176 ], [ 4.060562872105852, 51.707291518255388 ], [ 4.061336249217669, 51.706970133637327 ], [ 4.061185294824956, 51.706635952718777 ], [ 4.060236238802487, 51.706348896151461 ], [ 4.059510526431746, 51.706550344475502 ], [ 4.058512942790874, 51.706499853204981 ], [ 4.058008567375555, 51.706460932080894 ], [ 4.058023345182852, 51.706308706046656 ], [ 4.057782967184529, 51.706193353168842 ], [ 4.057067095639725, 51.706142998689451 ], [ 4.055183757606668, 51.706786827653708 ], [ 4.054160789600833, 51.70753257656115 ], [ 4.053872205776746, 51.708187517251076 ], [ 4.050402911227411, 51.711640435925808 ], [ 4.049051907710985, 51.714004937246671 ], [ 4.048522014137447, 51.714602612109822 ], [ 4.048757579715547, 51.714972746446485 ], [ 4.04919870844855, 51.715091101162429 ], [ 4.049514476953508, 51.714603375432837 ], [ 4.049512595986067, 51.714044983824543 ], [ 4.049712655488211, 51.714704448207534 ], [ 4.049686702487072, 51.715270200555551 ], [ 4.050087355067009, 51.715535596487982 ], [ 4.050221798280678, 51.716074992602493 ], [ 4.050500382533942, 51.716294896181182 ], [ 4.050222325548666, 51.716423049628411 ], [ 4.050291184476711, 51.71661014535173 ], [ 4.049910906543482, 51.716688467155848 ], [ 4.050471331830377, 51.717541073433125 ], [ 4.049904269427356, 51.718023238582354 ], [ 4.049576949713598, 51.718886476892237 ], [ 4.04864358419449, 51.719996883896975 ], [ 4.048381940708905, 51.720050351243117 ], [ 4.047722852797995, 51.721028110808888 ], [ 4.046492937779528, 51.721964374299027 ], [ 4.043777456739996, 51.724506491499191 ], [ 4.041322728766984, 51.726234270506765 ], [ 4.040594297144987, 51.727200897570413 ], [ 4.040510067862674, 51.727829765889425 ], [ 4.041021367226776, 51.730163726706415 ], [ 4.041782955770197, 51.730417050565073 ], [ 4.041911056575199, 51.730143001989511 ], [ 4.042573368894002, 51.730283280328344 ], [ 4.044448742303168, 51.729844934722912 ], [ 4.044263273980805, 51.730181891690933 ], [ 4.043647998457585, 51.730255157830562 ], [ 4.043395682026832, 51.730521614463647 ], [ 4.043623647318192, 51.730717850533303 ], [ 4.04443562392799, 51.730896280035182 ], [ 4.044385598974098, 51.731106040885642 ], [ 4.044002264406354, 51.731249703220861 ], [ 4.043486904535351, 51.730824902276872 ], [ 4.043084587049667, 51.730900832320792 ], [ 4.042614884552222, 51.731242290539583 ], [ 4.041786631381456, 51.731223735470536 ], [ 4.04193464652042, 51.731093711359627 ], [ 4.041816239579068, 51.730922707872281 ], [ 4.04083881679528, 51.730753783614439 ], [ 4.040182522043336, 51.730925401572897 ], [ 4.0389936270518, 51.732151340651399 ], [ 4.039044276559803, 51.732588873256894 ], [ 4.038593249459958, 51.732836045407893 ], [ 4.038698650048697, 51.733012284588476 ], [ 4.038243642834285, 51.733986276590301 ], [ 4.03784655087661, 51.735671970536409 ], [ 4.03745948935454, 51.735675603237802 ], [ 4.036496500915334, 51.736202711979416 ], [ 4.034914968643318, 51.736719223863105 ], [ 4.034058275285215, 51.737379615077991 ], [ 4.033830283049443, 51.737399792830722 ], [ 4.033846094619942, 51.737687005982622 ], [ 4.033112050602578, 51.738326131418852 ], [ 4.03311964087534, 51.738524325225505 ], [ 4.032693974733534, 51.739039215820085 ], [ 4.032739130344575, 51.740126305051042 ], [ 4.033124611626245, 51.740438726310373 ], [ 4.033010984421003, 51.7406958812428 ], [ 4.033569013567298, 51.741458088460234 ], [ 4.033427704366147, 51.741641575398461 ], [ 4.033595314489754, 51.741862182717448 ], [ 4.033384060830155, 51.742091804892539 ], [ 4.033756209671729, 51.742501734111677 ], [ 4.033762818971399, 51.743105256775806 ], [ 4.034245664339593, 51.743209291277509 ], [ 4.034351285829587, 51.742830388421538 ], [ 4.035328161843106, 51.743241592138105 ], [ 4.037267404409826, 51.743128080091623 ], [ 4.038559943385445, 51.743231387056277 ], [ 4.039144500339832, 51.74345532431682 ], [ 4.038588419953131, 51.743788328174823 ], [ 4.036572364215566, 51.743784067930278 ], [ 4.035739798139089, 51.743528607130905 ], [ 4.034301915477388, 51.74387074297924 ], [ 4.033108758590672, 51.744684423458494 ], [ 4.033131639330288, 51.744801695547118 ], [ 4.033382271113676, 51.744916111889616 ], [ 4.033624729079444, 51.745103420951757 ], [ 4.033637803209535, 51.745156825792044 ], [ 4.033480802560631, 51.745093152091108 ], [ 4.033166325199864, 51.745399759983833 ], [ 4.032848570347494, 51.745262730567418 ], [ 4.031413459961727, 51.745443058466648 ], [ 4.030772972471032, 51.746671402085987 ], [ 4.030290349463918, 51.747202023336342 ], [ 4.030136527311856, 51.747259215730402 ], [ 4.030077426027422, 51.747074787305081 ], [ 4.029770234293657, 51.746989703779711 ], [ 4.029092340854411, 51.747451836503444 ], [ 4.028623101342323, 51.747538221537567 ], [ 4.028750133379659, 51.747139525686542 ], [ 4.02910671048516, 51.747102876734651 ], [ 4.029122616353476, 51.74677548742828 ], [ 4.029382553716172, 51.746514425135778 ], [ 4.029949861001871, 51.74647890150495 ], [ 4.02975329705362, 51.7460992703258 ], [ 4.030758539809064, 51.745070824544612 ], [ 4.030625996448821, 51.744831171891782 ], [ 4.030874630982205, 51.744116337040715 ], [ 4.030604985988127, 51.743080147766804 ], [ 4.029657166382629, 51.742523217639175 ], [ 4.029417754443804, 51.743148412675687 ], [ 4.028987740296648, 51.743058594570961 ], [ 4.028452081615685, 51.743284145406307 ], [ 4.027759091619669, 51.743330533209814 ], [ 4.026939635698622, 51.742949719177126 ], [ 4.026592594253227, 51.742482111726034 ], [ 4.026528729763013, 51.742018012843374 ], [ 4.02595702530194, 51.741528925334322 ], [ 4.023985350604778, 51.741778255639709 ], [ 4.022556844908823, 51.742825188120598 ], [ 4.022291891117592, 51.743254622766244 ], [ 4.02166970617374, 51.744585794963818 ], [ 4.021568272195522, 51.745361429400525 ], [ 4.020919483085839, 51.746172033667193 ], [ 4.020955296233199, 51.746753710528175 ], [ 4.020754495949451, 51.74737562986077 ], [ 4.020207809629596, 51.747989260251806 ], [ 4.020285730422507, 51.748325496050285 ], [ 4.020113563505664, 51.749201164942029 ], [ 4.018627200762027, 51.752155630710625 ], [ 4.018363266754656, 51.75226326198807 ], [ 4.017458337433633, 51.752168009089715 ], [ 4.017253047385982, 51.752525894720918 ], [ 4.017385215667745, 51.752692732031235 ], [ 4.017980196568726, 51.752516972878148 ], [ 4.018611399206844, 51.752685779746933 ], [ 4.018271421452583, 51.753399847199141 ], [ 4.018518208497605, 51.754612520570106 ], [ 4.018433137632123, 51.755155239534744 ], [ 4.019359700709916, 51.755694529391285 ], [ 4.020154937746356, 51.755727643296851 ], [ 4.020784041339452, 51.755480420106558 ], [ 4.021400214739158, 51.755550375831916 ], [ 4.024106242845847, 51.756365748249124 ], [ 4.023922330563182, 51.755947384309636 ], [ 4.023303217628808, 51.755935335656112 ], [ 4.022262696498675, 51.755488548885253 ], [ 4.023222829396943, 51.755432867025391 ], [ 4.02443030719415, 51.755965267924445 ], [ 4.02490857811333, 51.755931201828041 ], [ 4.024632990297691, 51.756139581458633 ], [ 4.02479032770962, 51.756398539507352 ], [ 4.025002324384191, 51.756299409427818 ], [ 4.026130923569714, 51.756718397602519 ], [ 4.027564260336215, 51.75684362062438 ], [ 4.027867677610617, 51.75725691025643 ], [ 4.028286230124134, 51.75738027444919 ], [ 4.028429273911451, 51.757277635797706 ], [ 4.028373125881629, 51.757041694869976 ], [ 4.027998922360053, 51.756831492246661 ], [ 4.028294290291441, 51.756694643630311 ], [ 4.029548304325187, 51.756970562718479 ], [ 4.02994069404036, 51.756791644766196 ], [ 4.029801618257983, 51.757003233131847 ], [ 4.029825145031029, 51.757881483204137 ], [ 4.029491296860099, 51.757944627200054 ], [ 4.029396457695897, 51.758163774503025 ], [ 4.029472814440779, 51.75847702483312 ], [ 4.030011733843949, 51.758860808539836 ], [ 4.029532433323494, 51.759126758371636 ], [ 4.029679921091347, 51.759409949380156 ], [ 4.030436097231798, 51.759758603321522 ], [ 4.03066493540398, 51.760136688468208 ], [ 4.029667878678416, 51.75943496151416 ], [ 4.028704281837112, 51.759274066922345 ], [ 4.028739955984415, 51.759475074658084 ], [ 4.029079920979254, 51.75960914088472 ], [ 4.029423756910476, 51.760094865329833 ], [ 4.029631690077484, 51.760985536302549 ], [ 4.028959011175094, 51.761191230771239 ], [ 4.029331848068729, 51.761715857029046 ], [ 4.028286848882247, 51.762548723131786 ], [ 4.027892881533949, 51.762657291067683 ], [ 4.027803813636446, 51.762826940559606 ], [ 4.027955161637322, 51.763008990081168 ], [ 4.027760208121004, 51.763307326311789 ], [ 4.027240791070273, 51.763590746520755 ], [ 4.027186810521041, 51.76383123380824 ], [ 4.027828947542332, 51.764970613419258 ], [ 4.027692313326919, 51.765702531856476 ], [ 4.02780456904846, 51.765894445871943 ], [ 4.026501023723383, 51.766889149666291 ], [ 4.027136968053878, 51.767558985687266 ], [ 4.028475534257228, 51.768143286074221 ], [ 4.028461496711722, 51.76845096361528 ], [ 4.029584982528374, 51.768920781919903 ], [ 4.028977667486575, 51.768766736751438 ], [ 4.027375548803215, 51.767969784968173 ], [ 4.026786075468904, 51.768117063504164 ], [ 4.026719676808071, 51.768353723529245 ], [ 4.027119986450248, 51.768422452707554 ], [ 4.027028892652757, 51.768819155434244 ], [ 4.027488452982817, 51.769477852815484 ], [ 4.027177028778145, 51.769506866453206 ], [ 4.026881223078316, 51.769805504934254 ], [ 4.026202241699121, 51.76991995892314 ], [ 4.026056065779124, 51.770153141308846 ], [ 4.025686528473662, 51.77014433239308 ], [ 4.02479612233472, 51.771446343350171 ], [ 4.024178446944661, 51.772011265630283 ], [ 4.024186070828249, 51.772656760274671 ], [ 4.023311056750365, 51.773627209261832 ], [ 4.023147833596899, 51.774763252703224 ], [ 4.022368172911225, 51.775821478278203 ], [ 4.022117108877424, 51.777297429241855 ], [ 4.022474958157562, 51.778331580803872 ], [ 4.022136247719901, 51.77876122236524 ], [ 4.022023909578505, 51.779381768635325 ], [ 4.020883040234675, 51.780333967126957 ], [ 4.018858198409334, 51.781632832828677 ], [ 4.016561763887733, 51.783459478210197 ], [ 4.015042749522589, 51.784916844855097 ], [ 4.014051425114609, 51.785424767964749 ], [ 4.013910773457249, 51.78572969818557 ], [ 4.013123339122482, 51.786369984968495 ], [ 4.011069487707992, 51.787685362466021 ], [ 4.009721065620156, 51.788239699709607 ], [ 4.009648267899816, 51.7885067812581 ], [ 4.009847402022544, 51.788619734502021 ], [ 4.01074034732084, 51.788321110477959 ], [ 4.011017239182764, 51.788257271665351 ], [ 4.011070339856095, 51.78826894387533 ], [ 4.009686730015864, 51.788873171640923 ], [ 4.009559745632065, 51.78937247280868 ], [ 4.009056494933864, 51.789260613360632 ], [ 4.008768311635697, 51.789359386975732 ], [ 4.00839275960605, 51.789987425777461 ], [ 4.007739425991445, 51.790446316743314 ], [ 4.007649248876898, 51.790796291159978 ], [ 4.00699856655589, 51.79160288651692 ], [ 4.0065907059838, 51.791861974000874 ], [ 4.005458341649847, 51.793584328874374 ], [ 4.004907407584195, 51.793694676537697 ], [ 4.00483892994943, 51.794397859650289 ], [ 4.005236804049301, 51.794684616772528 ], [ 4.00513117286362, 51.794911864001357 ], [ 4.005262189370091, 51.795258171403127 ], [ 4.004407092908614, 51.79579107874784 ], [ 4.00439831112722, 51.796113086250891 ], [ 4.004047030305173, 51.796550815536449 ], [ 4.003530537367348, 51.79691772361619 ], [ 4.002962440767066, 51.797026343617759 ], [ 4.00291058262458, 51.797246835899472 ], [ 3.999382362525087, 51.798275831347148 ], [ 3.998577627868201, 51.798890722198713 ], [ 3.99768001510597, 51.799258933411927 ], [ 3.997133807743597, 51.799313935002736 ], [ 3.996153293981994, 51.79995111838435 ], [ 3.994046302225629, 51.800381486522305 ], [ 3.992628301796309, 51.801272647294681 ], [ 3.992263184396909, 51.801686612711535 ], [ 3.991248457703082, 51.80187841960889 ], [ 3.990333318568731, 51.802273844997167 ], [ 3.98881941042657, 51.802375596143442 ], [ 3.987173568547608, 51.802207045287304 ], [ 3.983090381194279, 51.801044216034782 ], [ 3.978328363214796, 51.801232146303377 ], [ 3.970831299490202, 51.800708892065629 ], [ 3.970951273683421, 51.800280713711928 ], [ 3.970770252612562, 51.800181668379665 ], [ 3.970487648774196, 51.800859135622169 ], [ 3.969011578843875, 51.80230653124854 ], [ 3.968271029196048, 51.802119326211148 ], [ 3.968645041228078, 51.802572984417608 ], [ 3.968030345346668, 51.803073703171478 ], [ 3.957329641989431, 51.803973925647583 ], [ 3.95325101403745, 51.803812887206135 ], [ 3.948139285261667, 51.802974038723704 ], [ 3.947475391025586, 51.802163026718624 ], [ 3.946166736085765, 51.801705329378578 ], [ 3.945999895946895, 51.801360825055703 ], [ 3.946483105005059, 51.801589438091689 ], [ 3.946641009441299, 51.801409967296436 ], [ 3.945795905028599, 51.80092687840429 ], [ 3.939164968336041, 51.798741140597322 ], [ 3.937249522459523, 51.798264627322411 ], [ 3.935667897777349, 51.79753557226195 ], [ 3.935607701047361, 51.797327137511196 ], [ 3.934783881932141, 51.797084065478039 ], [ 3.931851985979166, 51.797627677478509 ], [ 3.932012788067218, 51.797790927577175 ], [ 3.934761978695672, 51.797447078357933 ], [ 3.933619790261899, 51.798141253945907 ], [ 3.931576065402403, 51.79794282502133 ], [ 3.931618506484188, 51.797659009099277 ], [ 3.931482936973572, 51.797570265381786 ], [ 3.931254191618446, 51.79791128498281 ], [ 3.92590291721925, 51.797530228506474 ], [ 3.925498833247091, 51.797385355153025 ], [ 3.924986873049375, 51.796762153671253 ], [ 3.921174695035522, 51.796807883330224 ], [ 3.918468282391643, 51.796065416940181 ], [ 3.917075188246709, 51.795988569123928 ], [ 3.915282517262569, 51.79547513777743 ], [ 3.91365789903079, 51.795858006138801 ], [ 3.912894019959388, 51.795774313253339 ], [ 3.912055680056902, 51.79491913365856 ], [ 3.912717980747539, 51.794552497388516 ], [ 3.913461188544945, 51.794482052939024 ], [ 3.91356106109773, 51.794282598654235 ], [ 3.913411843355899, 51.794066370982257 ], [ 3.911717636451419, 51.79333702830391 ], [ 3.910006342958668, 51.793236725766477 ], [ 3.909416564453721, 51.792642096983357 ], [ 3.907665865485264, 51.792083680759021 ], [ 3.907168316237659, 51.792083726457072 ], [ 3.906514861322503, 51.792378801376692 ], [ 3.905975210936723, 51.79226471599614 ], [ 3.906178220866912, 51.791932305415223 ], [ 3.906030268173478, 51.791748163271954 ], [ 3.905625182514358, 51.792181781584432 ], [ 3.904667044586847, 51.792109170287844 ], [ 3.904634987741999, 51.791836782158555 ], [ 3.904203073069791, 51.792009568722833 ], [ 3.903979063646687, 51.791813950329441 ], [ 3.903738719808041, 51.79225244584967 ], [ 3.903487637305385, 51.792316010527685 ], [ 3.903236275082759, 51.792234032953715 ], [ 3.90298186610493, 51.791747446758066 ], [ 3.902099184888387, 51.791901023410034 ], [ 3.900611755073242, 51.791518567475499 ], [ 3.900576993059543, 51.791745008528046 ], [ 3.901159177964576, 51.792120034696993 ], [ 3.902482917118844, 51.792234733667605 ], [ 3.902789718720515, 51.792127525871109 ], [ 3.902859355739797, 51.792309418579975 ], [ 3.90272730631651, 51.792456590985665 ], [ 3.902334764021263, 51.79231794563669 ], [ 3.902109953061778, 51.792537013618379 ], [ 3.901746016720498, 51.792405951588194 ], [ 3.901401907964903, 51.792608472216877 ], [ 3.900846605926783, 51.792582181654041 ], [ 3.900739511123886, 51.792764914395796 ], [ 3.900110707424601, 51.792770447849733 ], [ 3.898866852729773, 51.79317539452326 ], [ 3.898251356896387, 51.793148815112517 ], [ 3.897188786832504, 51.793503390858817 ], [ 3.895923239591115, 51.793405581412166 ], [ 3.895007952127331, 51.792890593459262 ], [ 3.893903958158275, 51.792790190788693 ], [ 3.892855791928751, 51.792452912407725 ], [ 3.890715624068767, 51.792268914376315 ], [ 3.890824205737802, 51.791997571266037 ], [ 3.890345265740653, 51.791192750721265 ], [ 3.890417376374603, 51.790928152093052 ], [ 3.889976362865331, 51.790701332706227 ], [ 3.889723149743554, 51.790237605259065 ], [ 3.889795376785226, 51.789534361113049 ], [ 3.890242239399589, 51.788995300905832 ], [ 3.890910268732982, 51.788529197550396 ], [ 3.892079662417823, 51.787053306583154 ], [ 3.894987689146371, 51.785828211579009 ], [ 3.895165910848398, 51.785675745932494 ], [ 3.89504560739883, 51.785389270736779 ], [ 3.895363762737019, 51.784922734206759 ], [ 3.895323065063678, 51.784747237696259 ], [ 3.89569444969649, 51.785028998187357 ], [ 3.895828422689594, 51.784916426307376 ], [ 3.89571396507546, 51.784725323051362 ], [ 3.89252031214481, 51.782304490166339 ], [ 3.891664591482304, 51.782166014858909 ], [ 3.891065312641739, 51.781842163934208 ], [ 3.889717452084037, 51.781469577719193 ], [ 3.889512713071199, 51.781270315217625 ], [ 3.888078519127965, 51.780775894839849 ], [ 3.887960148356526, 51.780568237350948 ], [ 3.887374124565006, 51.78052314966731 ], [ 3.887110114432204, 51.780331772913812 ], [ 3.886624865108826, 51.78045772545417 ], [ 3.88584081810757, 51.780348243306058 ], [ 3.885551176138151, 51.780663562796668 ], [ 3.885807035109855, 51.780952273042892 ], [ 3.885410082555501, 51.780787770691376 ], [ 3.885230937116495, 51.780887289729392 ], [ 3.885623095174763, 51.78120585132578 ], [ 3.886270562095917, 51.781204115204979 ], [ 3.886135326868131, 51.781564340388123 ], [ 3.885753131599262, 51.781691366753321 ], [ 3.885115396850773, 51.781618337808474 ], [ 3.885051878229483, 51.781439390005673 ], [ 3.88432816612433, 51.781154503683069 ], [ 3.88213487973422, 51.780607867569749 ], [ 3.882200838279964, 51.780319853040083 ], [ 3.882500161757292, 51.780125136264346 ], [ 3.883585900464556, 51.779978693051582 ], [ 3.883631056289635, 51.779615145856923 ], [ 3.882835734926598, 51.779486734171613 ], [ 3.882927785997575, 51.779358697033715 ], [ 3.884660527943476, 51.779682890451753 ], [ 3.884727158280256, 51.779420647940889 ], [ 3.882348539414372, 51.779011369516759 ], [ 3.882067325590485, 51.779108899791822 ], [ 3.882011407813097, 51.779502721731795 ], [ 3.881862268828049, 51.779573788924445 ], [ 3.880063310739247, 51.779189016906209 ], [ 3.877305976659538, 51.779532695353851 ], [ 3.878411333010043, 51.779323981250002 ], [ 3.87884946315895, 51.778868430935908 ], [ 3.879689154557354, 51.778807861882278 ], [ 3.879713463281936, 51.778642789090526 ], [ 3.879481685759317, 51.778539433421564 ], [ 3.878684007494176, 51.778628589380972 ], [ 3.878273182988051, 51.779071442185874 ], [ 3.876418588430772, 51.779491427260076 ], [ 3.876417416449606, 51.779711445503764 ], [ 3.87680303344769, 51.779674531804432 ], [ 3.876834074525548, 51.779811410038235 ], [ 3.87372767677637, 51.780921799530304 ], [ 3.872544200812468, 51.781647919132254 ], [ 3.871227604107466, 51.781799519559975 ], [ 3.870858212404009, 51.781516355170488 ], [ 3.869547601731149, 51.78108993769235 ], [ 3.868365300368957, 51.779223492267825 ], [ 3.871228810836068, 51.777954795720582 ], [ 3.871845609111413, 51.777297825009363 ], [ 3.871786996157562, 51.776936635879757 ], [ 3.871362242512502, 51.776403986960716 ], [ 3.870521429904244, 51.7759883122311 ], [ 3.870419764415558, 51.776197154020913 ], [ 3.871117789543353, 51.776594947873456 ], [ 3.871505637914748, 51.777213772593143 ], [ 3.871051426561008, 51.777700150621854 ], [ 3.868604149707107, 51.778723097935995 ], [ 3.868092402369202, 51.777897220037111 ], [ 3.868244496565712, 51.777723554129416 ], [ 3.868047173964346, 51.777429948825279 ], [ 3.867817108909451, 51.777455860554483 ], [ 3.86717578588197, 51.776415987267654 ], [ 3.868514843526428, 51.775877855851633 ], [ 3.868578175880959, 51.775546938610702 ], [ 3.867911055815473, 51.775242744642945 ], [ 3.865863061863954, 51.775018023824678 ], [ 3.865441873710875, 51.774724006991192 ], [ 3.860633804528459, 51.766989402309342 ], [ 3.860485976780682, 51.766368048662557 ], [ 3.85958404874849, 51.765307607569781 ], [ 3.860969886762649, 51.763719373519038 ], [ 3.861330268628793, 51.762880872101448 ], [ 3.860646242651415, 51.762093756409648 ], [ 3.85867466058357, 51.762481833181177 ], [ 3.857450687285201, 51.760961711257089 ], [ 3.857153244817784, 51.760845634977422 ], [ 3.856286695147423, 51.759434610516685 ], [ 3.856402296441785, 51.759312317103024 ], [ 3.85625220895788, 51.758994226624729 ], [ 3.856017628050229, 51.75896322719521 ], [ 3.855522929319947, 51.757924659448953 ], [ 3.85689023186293, 51.757436823899077 ], [ 3.857040446911026, 51.757197401806827 ], [ 3.857537395693562, 51.757233659407724 ], [ 3.858515084391073, 51.757002093191922 ], [ 3.858766826390701, 51.756753643683574 ], [ 3.859128250262436, 51.756814894186697 ], [ 3.858640669368436, 51.757585221141142 ], [ 3.858975270415565, 51.75798327736257 ], [ 3.85932032656958, 51.758048702065651 ], [ 3.859802836486101, 51.757884703672261 ], [ 3.860125834418986, 51.757013034360774 ], [ 3.860478537196295, 51.757082225556147 ], [ 3.86072723636793, 51.757771288545648 ], [ 3.861113295533827, 51.757806344054416 ], [ 3.861056166515743, 51.758061510767057 ], [ 3.861839834102975, 51.758856156135757 ], [ 3.862940463279143, 51.760400402311632 ], [ 3.862804748450586, 51.760782044657752 ], [ 3.861197550242374, 51.761800682988486 ], [ 3.861229817270213, 51.762037443670714 ], [ 3.861515432342506, 51.762059758990645 ], [ 3.86326382574934, 51.760995045570567 ], [ 3.863635810917805, 51.760445807417604 ], [ 3.865940583467109, 51.759695073708428 ], [ 3.865766516656556, 51.759488818516182 ], [ 3.863943911301149, 51.760061523281792 ], [ 3.863782028086698, 51.759994184771749 ], [ 3.863778268829194, 51.759756220019653 ], [ 3.864055290649805, 51.759419085115688 ], [ 3.864960045223446, 51.758820939100907 ], [ 3.866510276599586, 51.758476983086247 ], [ 3.867076858109698, 51.758036598964303 ], [ 3.867683015292982, 51.757812801489898 ], [ 3.869338398666816, 51.757546254265172 ], [ 3.869481696443337, 51.757406291034378 ], [ 3.869371048476446, 51.757224946618734 ], [ 3.869751273465277, 51.757124504332992 ], [ 3.870428367041169, 51.756607672580401 ], [ 3.872265653772236, 51.756208519947577 ], [ 3.872302242417914, 51.755942316019429 ], [ 3.871964726075076, 51.755484261049794 ], [ 3.872366900250028, 51.75568843542851 ], [ 3.872940807587568, 51.75567421553508 ], [ 3.87434104458639, 51.754978195877783 ], [ 3.874569289328567, 51.754587528434108 ], [ 3.874475895912837, 51.753850696580109 ], [ 3.874727916891775, 51.753568540067931 ], [ 3.874714105228362, 51.753335436716476 ], [ 3.874317049478455, 51.753405730062354 ], [ 3.871927693834234, 51.751652090204807 ], [ 3.871190387736039, 51.750785501470745 ], [ 3.86996328818895, 51.750482137428953 ], [ 3.86903928981975, 51.750546342202405 ], [ 3.868106465645111, 51.750866287205298 ], [ 3.868027945741527, 51.751117971220125 ], [ 3.86833944979165, 51.751248513265388 ], [ 3.868003174838847, 51.751461174114404 ], [ 3.868029806851585, 51.751663027915598 ], [ 3.86753167726401, 51.752399446671397 ], [ 3.86716388932644, 51.752538809459274 ], [ 3.867112149716892, 51.752368455162717 ], [ 3.867509421142403, 51.752280778774242 ], [ 3.867954937118609, 51.751642409343731 ], [ 3.867942271385123, 51.751102848969609 ], [ 3.867586199444385, 51.750813506716163 ], [ 3.8669447602602, 51.750962823454145 ], [ 3.866393644906937, 51.751622599005472 ], [ 3.866401079866927, 51.751180913160468 ], [ 3.865951845819935, 51.751089843580544 ], [ 3.86589348637647, 51.75089339513378 ], [ 3.867879257603415, 51.750552105322939 ], [ 3.867943653034565, 51.750384412179478 ], [ 3.867812046463822, 51.750278551387296 ], [ 3.86453689910288, 51.750883201380923 ], [ 3.862684082780748, 51.751650104903675 ], [ 3.862673059072194, 51.751853825752811 ], [ 3.862935895073826, 51.75185207978339 ], [ 3.86210034289883, 51.752168278315679 ], [ 3.861860186991601, 51.752205228990576 ], [ 3.862059072755645, 51.752082844087795 ], [ 3.861961195879466, 51.751925885399359 ], [ 3.861350715127274, 51.751990980339642 ], [ 3.858291633034256, 51.752638961553139 ], [ 3.85677011882822, 51.752530412344839 ], [ 3.856601786025462, 51.75235930773718 ], [ 3.855066097042304, 51.752433436260112 ], [ 3.854293945511417, 51.752709751259829 ], [ 3.854159753422523, 51.752530134179189 ], [ 3.853474087887383, 51.752652893700919 ], [ 3.853218751278692, 51.752823270085742 ], [ 3.853057012511139, 51.753392092255709 ], [ 3.853193439612886, 51.753631060756511 ], [ 3.853781049518359, 51.753967690110613 ], [ 3.853458158731865, 51.754123645040352 ], [ 3.853639451426964, 51.754562826946362 ], [ 3.855039547808895, 51.755110084370308 ], [ 3.854353003147906, 51.75503675651543 ], [ 3.854232528780243, 51.755300905597011 ], [ 3.854352007151521, 51.755567682313846 ], [ 3.853920782460571, 51.75503765449681 ], [ 3.853520007275488, 51.755115729271353 ], [ 3.85302118107918, 51.754186284183739 ], [ 3.852178066792607, 51.753468637263822 ], [ 3.85216938849841, 51.753005190840398 ], [ 3.852555275689336, 51.752953198776211 ], [ 3.852568475367284, 51.752729304374412 ], [ 3.851820317473205, 51.752791252351557 ], [ 3.851354663264049, 51.753175436792745 ], [ 3.851274442196262, 51.753899434460692 ], [ 3.850805940890275, 51.754483308813725 ], [ 3.850999301625156, 51.754581769131441 ], [ 3.851421155740193, 51.754172497987952 ], [ 3.851530853547871, 51.754223352174066 ], [ 3.852180527255306, 51.754729635303583 ], [ 3.852026326910312, 51.755084188238804 ], [ 3.851367355714932, 51.755234981187904 ], [ 3.851361667378234, 51.755545589748237 ], [ 3.851117748912649, 51.755698775212927 ], [ 3.850350128346431, 51.755659119556093 ], [ 3.850143980010648, 51.755436974016654 ], [ 3.85058599477234, 51.754348249621138 ], [ 3.850401155766963, 51.754160222234276 ], [ 3.850120382333874, 51.754477918387998 ], [ 3.849941254281, 51.755215052354423 ], [ 3.848760006529658, 51.755743280331586 ], [ 3.848723276273512, 51.756295234223458 ], [ 3.848415674424578, 51.756592689105524 ], [ 3.847345513381796, 51.756986180047726 ], [ 3.845943026287389, 51.757041027752329 ] ], [ [ 3.973347722071904, 51.843160873127161 ], [ 3.973069667283507, 51.843169504123289 ], [ 3.973055761249467, 51.843111083936328 ], [ 3.973261990837543, 51.843096612119709 ], [ 3.973347722071904, 51.843160873127161 ] ], [ [ 4.006581230886901, 51.834913645359698 ], [ 4.006586811510715, 51.834789319254782 ], [ 4.006719445999624, 51.834588578099897 ], [ 4.006581230886901, 51.834913645359698 ] ], [ [ 4.244941686289117, 51.74061430689077 ], [ 4.244823769118085, 51.740671241292439 ], [ 4.24419758508132, 51.740250336084188 ], [ 4.243393379142476, 51.740364237447501 ], [ 4.244076371346125, 51.740226391790578 ], [ 4.244208859654615, 51.739752731261213 ], [ 4.24427769057287, 51.740151140846045 ], [ 4.244941686289117, 51.74061430689077 ] ], [ [ 4.358486379021357, 51.698968105295151 ], [ 4.358585187657247, 51.69879019536593 ], [ 4.358910345046543, 51.698831456214748 ], [ 4.358878637502087, 51.698922183544333 ], [ 4.358486379021357, 51.698968105295151 ] ], [ [ 4.362921768987923, 51.691750818166689 ], [ 4.362913304697849, 51.69170328703575 ], [ 4.362949536092656, 51.691735670540545 ], [ 4.362921768987923, 51.691750818166689 ] ], [ [ 4.220008002808988, 51.673033631661298 ], [ 4.220055704158538, 51.673001120027834 ], [ 4.22008329555316, 51.673066930401987 ], [ 4.220008002808988, 51.673033631661298 ] ], [ [ 4.220398763783235, 51.673257961226795 ], [ 4.220245863345078, 51.672911715558634 ], [ 4.220554654218188, 51.672482969156619 ], [ 4.220704595449845, 51.672908871130915 ], [ 4.221481278436323, 51.672975773538866 ], [ 4.220403759545824, 51.673486774081347 ], [ 4.220398763783235, 51.673257961226795 ] ], [ [ 4.05817438303594, 51.70678926685018 ], [ 4.058156089777463, 51.706793908327086 ], [ 4.058125103871762, 51.706781209895539 ], [ 4.058184084675074, 51.706787324150696 ], [ 4.05817438303594, 51.70678926685018 ] ], [ [ 4.041625962390526, 51.729966316721331 ], [ 4.041613635311929, 51.729943681859126 ], [ 4.041663840165711, 51.729986080378744 ], [ 4.041625962390526, 51.729966316721331 ] ], [ [ 4.022115931438565, 51.755443944942741 ], [ 4.021736322074505, 51.755371628254984 ], [ 4.021681310043261, 51.755352875829807 ], [ 4.021964080631594, 51.755321953539294 ], [ 4.022115931438565, 51.755443944942741 ] ], [ [ 4.030150505095133, 51.756629632939536 ], [ 4.03015871157227, 51.756624884063775 ], [ 4.030216570562971, 51.75658763664606 ], [ 4.030104502970899, 51.756654226947887 ], [ 4.030150505095133, 51.756629632939536 ] ], [ [ 3.894954797525966, 51.784506360716449 ], [ 3.894792977149481, 51.784405316694794 ], [ 3.894672215746801, 51.784274318290962 ], [ 3.895044100076812, 51.784548705118979 ], [ 3.894954797525966, 51.784506360716449 ] ], [ [ 3.85484533223294, 51.754219824286658 ], [ 3.85487848242059, 51.754216311704262 ], [ 3.854899986518546, 51.754220590232428 ], [ 3.854856878040511, 51.754245037918189 ], [ 3.85484533223294, 51.754219824286658 ] ], [ [ 3.855725273174603, 51.753758840297515 ], [ 3.855689060418378, 51.753714656904258 ], [ 3.855904810343954, 51.75368875519419 ], [ 3.85585644318434, 51.753750409735048 ], [ 3.855725273174603, 51.753758840297515 ] ], [ [ 3.854193381786272, 51.752808141174114 ], [ 3.854079205833493, 51.753018078142979 ], [ 3.853923818779785, 51.752924002223146 ], [ 3.853915127959193, 51.752859249049301 ], [ 3.854193381786272, 51.752808141174114 ] ], [ [ 3.861720629150168, 51.752472503566295 ], [ 3.862697449499602, 51.752294624843124 ], [ 3.863413971443283, 51.751828844729928 ], [ 3.863566492490198, 51.751889060150283 ], [ 3.862780689796978, 51.752396033390298 ], [ 3.861720629150168, 51.752472503566295 ] ], [ [ 3.869153690247035, 51.757082426694147 ], [ 3.869119165432437, 51.757066430004187 ], [ 3.869182710938891, 51.757036596481704 ], [ 3.869178013787959, 51.75709369904564 ], [ 3.869153690247035, 51.757082426694147 ] ], [ [ 3.935576050724922, 51.797621105262778 ], [ 3.935603014355439, 51.797984851092551 ], [ 3.936279026758811, 51.798379637639002 ], [ 3.934856710276393, 51.798168714036308 ], [ 3.935576050724922, 51.797621105262778 ] ], [ [ 4.030440461948758, 51.760237157569499 ], [ 4.030452377663986, 51.760403955232839 ], [ 4.030235565627588, 51.760432185270425 ], [ 4.03006887813455, 51.760160250610234 ], [ 4.030440461948758, 51.760237157569499 ] ], [ [ 4.03074321833493, 51.760148275916684 ], [ 4.030861634575869, 51.760146709571856 ], [ 4.030906332907769, 51.760196093796061 ], [ 4.030853524330099, 51.760195001926178 ], [ 4.03074321833493, 51.760148275916684 ] ], [ [ 4.03453257871279, 51.746174066361341 ], [ 4.034609887244382, 51.746287876859277 ], [ 4.034510846699097, 51.746150654533736 ], [ 4.03453257871279, 51.746174066361341 ] ], [ [ 4.034864807223042, 51.746629567283279 ], [ 4.034898180930534, 51.746656776112189 ], [ 4.034867792450522, 51.746756778329242 ], [ 4.034829061422328, 51.746586030112503 ], [ 4.034864807223042, 51.746629567283279 ] ], [ [ 4.041717566655538, 51.731227654852759 ], [ 4.04141875568444, 51.731231195478124 ], [ 4.041046773355906, 51.731172612586711 ], [ 4.041114227541368, 51.731146970907155 ], [ 4.041717566655538, 51.731227654852759 ] ], [ [ 4.085930485632574, 51.708685183783643 ], [ 4.085869945598711, 51.708908299973402 ], [ 4.085563746675284, 51.708883535224814 ], [ 4.085618054748987, 51.708701203874647 ], [ 4.085965880373931, 51.70855468868838 ], [ 4.085930485632574, 51.708685183783643 ] ], [ [ 4.128916052111457, 51.705498553489733 ], [ 4.129000392026841, 51.705562106636791 ], [ 4.129007482197641, 51.706042236087285 ], [ 4.128636101231288, 51.706091641012243 ], [ 4.128525969437133, 51.705700905685418 ], [ 4.128916052111457, 51.705498553489733 ] ], [ [ 4.36164346691229, 51.682413745179886 ], [ 4.361642933295736, 51.682413756084529 ], [ 4.361401968405797, 51.682419259064559 ], [ 4.361762979067278, 51.682411613515036 ], [ 4.36164346691229, 51.682413745179886 ] ], [ [ 4.360406741300443, 51.682475646972662 ], [ 4.354362714864879, 51.682893911512572 ], [ 4.353349653057596, 51.68294097366536 ], [ 4.353246875218246, 51.682852641453309 ], [ 4.361270758081356, 51.682422558703621 ], [ 4.360406741300443, 51.682475646972662 ] ], [ [ 4.353033151831038, 51.68285346494249 ], [ 4.352683895599077, 51.682866976529269 ], [ 4.352406324064698, 51.682515002702289 ], [ 4.352712403117954, 51.682469227110452 ], [ 4.353033151831038, 51.68285346494249 ] ], [ [ 4.365925069284843, 51.686261298429422 ], [ 4.365784837091381, 51.686316926041215 ], [ 4.365609531907358, 51.686442494458014 ], [ 4.365896729782426, 51.686216882328942 ], [ 4.365925069284843, 51.686261298429422 ] ], [ [ 4.356521862853841, 51.698658589967536 ], [ 4.356435704138469, 51.69872814718812 ], [ 4.356426098336439, 51.698863832942287 ], [ 4.356348757533199, 51.698951501831665 ], [ 4.356224029929701, 51.698724266465149 ], [ 4.356521862853841, 51.698658589967536 ] ], [ [ 4.358574998966971, 51.70013816337265 ], [ 4.358747718109441, 51.700116641839934 ], [ 4.358851751780714, 51.700426923590143 ], [ 4.358681903578113, 51.700353736192227 ], [ 4.358574998966971, 51.70013816337265 ] ], [ [ 4.359289568504675, 51.699886376655698 ], [ 4.359321706679465, 51.69987809563321 ], [ 4.359339736107144, 51.699931191363802 ], [ 4.359267350054774, 51.699902238918511 ], [ 4.359289568504675, 51.699886376655698 ] ], [ [ 4.361522973226274, 51.697344623539294 ], [ 4.361333053239478, 51.697153078469185 ], [ 4.361503750430193, 51.69702321063285 ], [ 4.361522973226274, 51.697344623539294 ] ], [ [ 4.362240237403264, 51.694994740606589 ], [ 4.36201532611809, 51.696092232052244 ], [ 4.36175471814728, 51.696803068970588 ], [ 4.361854822610172, 51.696158081429786 ], [ 4.362240237403264, 51.694994740606589 ] ], [ [ 4.368594320462611, 51.699633922069012 ], [ 4.368616733089444, 51.699665565092253 ], [ 4.368581399849242, 51.699693483026365 ], [ 4.368589780812346, 51.699624660625467 ], [ 4.368594320462611, 51.699633922069012 ] ], [ [ 4.369307045633819, 51.695884666866419 ], [ 4.369302803102943, 51.695895118107217 ], [ 4.369267805050447, 51.695996715000682 ], [ 4.369215809536459, 51.695920081819331 ], [ 4.369307045633819, 51.695884666866419 ] ], [ [ 4.39784912079873, 51.704405372644466 ], [ 4.397776154272075, 51.704395600309212 ], [ 4.397667970755765, 51.704383950334922 ], [ 4.397720042764097, 51.704313615125372 ], [ 4.39784912079873, 51.704405372644466 ] ], [ [ 4.397318337454136, 51.704346319496644 ], [ 4.397177846052051, 51.704331199088919 ], [ 4.397163573377705, 51.704242351323096 ], [ 4.397227629555299, 51.704295258263727 ], [ 4.397318337454136, 51.704346319496644 ] ], [ [ 4.009920470916601, 51.838258172632472 ], [ 4.009936515544267, 51.838257412095977 ], [ 4.00994697079747, 51.838265705869219 ], [ 4.009920470916601, 51.838258172632472 ] ], [ [ 4.012669029541077, 51.839726783563435 ], [ 4.012651432768632, 51.839767139187792 ], [ 4.012588178071634, 51.839788241790146 ], [ 4.012667676651443, 51.839727463011485 ], [ 4.012669029541077, 51.839726783563435 ] ], [ [ 3.976050596831339, 51.84060584829659 ], [ 3.976077205213797, 51.840631183352748 ], [ 3.976122919695474, 51.840649267518813 ], [ 3.975973760767819, 51.840610923558515 ], [ 3.976050596831339, 51.84060584829659 ] ], [ [ 3.976509932919388, 51.84064826254648 ], [ 3.976489622177952, 51.840794885918818 ], [ 3.97632289205861, 51.840662522351522 ], [ 3.976509932919388, 51.84064826254648 ] ], [ [ 3.976616460117081, 51.841034268169018 ], [ 3.976662012887155, 51.841186266663151 ], [ 3.97645214993063, 51.841106823122416 ], [ 3.976579402215477, 51.841021449724948 ], [ 3.976616460117081, 51.841034268169018 ] ], [ [ 3.975846707995658, 51.84107991593315 ], [ 3.97557204033797, 51.841145568548846 ], [ 3.974994059207885, 51.841033978464239 ], [ 3.975624386062725, 51.840915319095302 ], [ 3.975846707995658, 51.84107991593315 ] ], [ [ 3.974032019029183, 51.840793912696377 ], [ 3.973901859452384, 51.84071555081713 ], [ 3.973901394966843, 51.840712404765377 ], [ 3.974149360404722, 51.840821683862195 ], [ 3.974032019029183, 51.840793912696377 ] ], [ [ 3.974263385807385, 51.840704508443956 ], [ 3.974270504968163, 51.840703548466877 ], [ 3.97427711938392, 51.84070630597126 ], [ 3.974261103410655, 51.840708992080209 ], [ 3.974263385807385, 51.840704508443956 ] ], [ [ 3.977153670956368, 51.84137383678091 ], [ 3.977298931780894, 51.841328243034148 ], [ 3.97731575357957, 51.841437481013564 ], [ 3.977003167870619, 51.841363832351774 ], [ 3.977153670956368, 51.84137383678091 ] ], [ [ 3.977606277826987, 51.841523818343113 ], [ 3.977526913539576, 51.841535342791019 ], [ 3.977491304993499, 51.841512413641169 ], [ 3.977606277826987, 51.841523818343113 ] ] ], [ [ [ 3.883749443247027, 51.779894711561845 ], [ 3.883711162499408, 51.780700142518235 ], [ 3.88424118873638, 51.781037201171053 ], [ 3.884918671511457, 51.780957406128586 ], [ 3.885220965992647, 51.780545815481069 ], [ 3.885734099203679, 51.780247666899371 ], [ 3.885662053129081, 51.779943650222783 ], [ 3.885373244920348, 51.779853246134529 ], [ 3.884223890916564, 51.779709189072129 ], [ 3.883749443247027, 51.779894711561845 ] ] ] ] } }
]
}
