{
"type": "FeatureCollection",
"name": "SWVPO3101",
"crs": { "type": "name", "properties": { "name": "urn:ogc:def:crs:OGC:1.3:CRS84" } },
"features": [
{ "type": "Feature", "properties": { "PO SWV": "PO3101", "strokeColor": "#A9A9A9", "strokeWidth": 2, "fillColor": "#ADD8E6" }, "geometry": { "type": "Polygon", "coordinates": [ [ [ 5.842692845475395, 51.347446301269706 ], [ 5.874509540376113, 51.353408223650149 ], [ 5.931131767844415, 51.384780548595565 ], [ 5.915724246862986, 51.40271441259506 ], [ 5.871604365362286, 51.450070135504532 ], [ 5.860631468040851, 51.491924472406986 ], [ 5.852457121474478, 51.504145477070743 ], [ 5.838167028906313, 51.566484595528394 ], [ 5.891487223263534, 51.560302430333273 ], [ 5.906685205707234, 51.552132252330743 ], [ 5.935432382037889, 51.55369965992535 ], [ 5.976322024465974, 51.561735361024503 ], [ 5.986219781267121, 51.564770801663855 ], [ 5.993419649599194, 51.566792808992567 ], [ 5.998835320365938, 51.568854775165967 ], [ 6.004248981825704, 51.570343446493126 ], [ 6.018266112227606, 51.563418747596451 ], [ 6.03163534834293, 51.552495128739636 ], [ 6.032191810877501, 51.553600093456147 ], [ 6.033397477055371, 51.554718726704529 ], [ 6.033236992914516, 51.555044575064308 ], [ 6.033532367210766, 51.55540610201745 ], [ 6.032508388922032, 51.556897040924177 ], [ 6.033810395721338, 51.557204135540402 ], [ 6.034284814825204, 51.557590657757636 ], [ 6.035947927883987, 51.557786768241328 ], [ 6.037319902796669, 51.558248547041622 ], [ 6.040014493381224, 51.556824100589559 ], [ 6.040910004680723, 51.556730696094199 ], [ 6.042199663543364, 51.556865346067951 ], [ 6.044181566183099, 51.557504676945648 ], [ 6.042844699071749, 51.558472066428983 ], [ 6.04268615785974, 51.558650858277893 ], [ 6.042754158597337, 51.558774874417637 ], [ 6.04468542364106, 51.559124277012465 ], [ 6.046431686992761, 51.557765151823851 ], [ 6.047888785565962, 51.558469624781964 ], [ 6.046218528028655, 51.559358183274689 ], [ 6.04372858570113, 51.561352600285574 ], [ 6.040638007658102, 51.564387930176643 ], [ 6.038659286096473, 51.567465517628804 ], [ 6.037565414288946, 51.569923087607329 ], [ 6.037468099732769, 51.571241241760475 ], [ 6.037720095009909, 51.574134336616204 ], [ 6.03949455635734, 51.579747983780315 ], [ 6.039683829667695, 51.580874046074044 ], [ 6.039241740739747, 51.58280772600385 ], [ 6.03848584687624, 51.584235196357596 ], [ 6.037068953814726, 51.586188677169432 ], [ 6.035197997934457, 51.588089224538628 ], [ 6.032699904956702, 51.590058989044465 ], [ 6.028726646920438, 51.592774326891487 ], [ 6.027170169743588, 51.594230587475884 ], [ 6.026195029440636, 51.595526468925854 ], [ 6.024850047522166, 51.598027824044522 ], [ 6.023950719824637, 51.600733469933822 ], [ 6.023667128586615, 51.603237205642351 ], [ 6.024020209663857, 51.610617444351071 ], [ 6.024006644873185, 51.614374441841939 ], [ 6.023819417465875, 51.615763698309181 ], [ 6.02262734386571, 51.618711368974004 ], [ 6.020556861034701, 51.621223157907487 ], [ 6.01974409927281, 51.621969991162686 ], [ 6.01558304129288, 51.624714731528279 ], [ 6.010622410056205, 51.627519378261091 ], [ 6.0082688853175, 51.629157212335151 ], [ 6.007170094204414, 51.630128780384986 ], [ 6.001516687203437, 51.633219638038661 ], [ 5.996306363915685, 51.636630069939471 ], [ 5.985046762228174, 51.641331648830231 ], [ 5.982088020553164, 51.642425615697931 ], [ 5.97505686055326, 51.644031376788682 ], [ 5.973878879495733, 51.64452552914463 ], [ 5.972330357553333, 51.645487326393699 ], [ 5.967864220307141, 51.648790742669313 ], [ 5.966371195956276, 51.650311427993906 ], [ 5.965021354598737, 51.652196118493045 ], [ 5.96416065490491, 51.654124721519601 ], [ 5.96358005454713, 51.65625726605316 ], [ 5.963143099843633, 51.660134661339647 ], [ 5.963265529700371, 51.662346949503515 ], [ 5.96418272538697, 51.668397807499488 ], [ 5.964543089481322, 51.671982482067108 ], [ 5.964573685364779, 51.673771536602253 ], [ 5.964293650861463, 51.677357779337541 ], [ 5.963614384323063, 51.680661225351507 ], [ 5.962310557691951, 51.684540420741627 ], [ 5.959104182193156, 51.692114445212745 ], [ 5.958131495964214, 51.695228941385039 ], [ 5.956471242495178, 51.698914059735451 ], [ 5.955978926065881, 51.701142435252947 ], [ 5.956197364440741, 51.705708204431126 ], [ 5.956080448199111, 51.707228952108608 ], [ 5.955848497158547, 51.708095233284119 ], [ 5.955216577729985, 51.709237139428453 ], [ 5.95314760183757, 51.710833989210201 ], [ 5.950707563108311, 51.712110927499495 ], [ 5.94889815767711, 51.712776724685568 ], [ 5.941277141343994, 51.714677496926264 ], [ 5.927696736890457, 51.716998644454982 ], [ 5.919468860291112, 51.717571497818433 ], [ 5.911988148495122, 51.717777518156048 ], [ 5.906038101914548, 51.718665951449871 ], [ 5.899541043236799, 51.720093290634139 ], [ 5.897025983653466, 51.720792597397384 ], [ 5.892016177058883, 51.722733989461268 ], [ 5.888916834295079, 51.724443201380701 ], [ 5.886552796306135, 51.726208595087883 ], [ 5.885259058496633, 51.728454432487105 ], [ 5.883971361318567, 51.733950701692017 ], [ 5.883902921962891, 51.735302929173677 ], [ 5.883469782315133, 51.737527921595543 ], [ 5.881520296369098, 51.741500461594597 ], [ 5.880501031433948, 51.744333188404546 ], [ 5.880228457834603, 51.748523231783487 ], [ 5.879483583193089, 51.749847522984474 ], [ 5.876678670666908, 51.752009694731953 ], [ 5.872718157617784, 51.754267381175772 ], [ 5.869149896299334, 51.756024067853666 ], [ 5.864368845502415, 51.757682506092664 ], [ 5.865541439936395, 51.758889733399975 ], [ 5.865537248953022, 51.759139102814444 ], [ 5.866076108602863, 51.759288049541503 ], [ 5.867112258303391, 51.76058162188081 ], [ 5.868386238146398, 51.761779382818773 ], [ 5.869124239449039, 51.762862526996038 ], [ 5.868501832804077, 51.763812945194466 ], [ 5.868097623928998, 51.764809574814393 ], [ 5.867928611554524, 51.765408160459081 ], [ 5.867939850993528, 51.766195637758322 ], [ 5.867318571796124, 51.767481813435325 ], [ 5.86700420514356, 51.769677480888674 ], [ 5.867045965210442, 51.772071385039801 ], [ 5.867191182866994, 51.773094614137968 ], [ 5.86732239797, 51.773165007806398 ], [ 5.867355605687259, 51.7744288136346 ], [ 5.867827452995708, 51.775596370347984 ], [ 5.868815613435361, 51.775669068810615 ], [ 5.86944706024699, 51.776190570623477 ], [ 5.878267962316661, 51.777045620510677 ], [ 5.885342253348163, 51.778562740724773 ], [ 5.88731858894681, 51.77872719310443 ], [ 5.889490778788161, 51.778586322216839 ], [ 5.893470041689099, 51.777932332353835 ], [ 5.900003400413524, 51.771846748353262 ], [ 5.905442419867749, 51.765759606605421 ], [ 5.90762510957228, 51.76431048002879 ], [ 5.911184793602038, 51.762476879773125 ], [ 5.913485903597177, 51.759038704885135 ], [ 5.913429764037608, 51.755542329966175 ], [ 5.915348581633755, 51.752374614398569 ], [ 5.933385441230996, 51.748176892048569 ], [ 5.933382366707052, 51.748017935230088 ], [ 5.930804654067596, 51.746458550254637 ], [ 5.930286425864431, 51.745836446946115 ], [ 5.930059958789425, 51.744489853066064 ], [ 5.931913728158907, 51.743619191489273 ], [ 5.931924080274101, 51.743473591499715 ], [ 5.931677416199659, 51.743373594995234 ], [ 5.931832400761449, 51.743172075078945 ], [ 5.932373365247509, 51.743278699200147 ], [ 5.932327362532406, 51.743002585425145 ], [ 5.93285238580825, 51.742019943031913 ], [ 5.934518138291415, 51.742052820800396 ], [ 5.935276793429944, 51.741222893391274 ], [ 5.935892300806144, 51.741129504833985 ], [ 5.937459536105854, 51.741663859807581 ], [ 5.939525633054787, 51.741914838741657 ], [ 5.941018201989933, 51.741628026322076 ], [ 5.943945877315861, 51.741915703413454 ], [ 5.946104544859804, 51.742457102392585 ], [ 5.950705862796326, 51.744425373616565 ], [ 5.951022204179326, 51.744297812802181 ], [ 5.952372724063041, 51.744622508198361 ], [ 5.952197982005925, 51.746151656228108 ], [ 5.953314238504828, 51.748120627550399 ], [ 5.953416600860369, 51.747907810806225 ], [ 5.952905133244028, 51.74692724886868 ], [ 5.952609129044923, 51.745467601587663 ], [ 5.952666770983648, 51.744860682006561 ], [ 5.95239545890737, 51.742687329173656 ], [ 5.952600859231727, 51.742117471493415 ], [ 5.953220246206978, 51.741594875252879 ], [ 5.953203612690929, 51.74100209101762 ], [ 5.954756836651883, 51.739477011093086 ], [ 5.955200614403337, 51.738240982851956 ], [ 5.95684299841159, 51.738753537463069 ], [ 5.959161774221111, 51.738390268458275 ], [ 5.961101717926645, 51.738881206110236 ], [ 5.965785484567093, 51.738868125540101 ], [ 5.968407799217963, 51.738603856415097 ], [ 5.970843869060134, 51.739206456487615 ], [ 5.973358377793676, 51.739405529972807 ], [ 5.979192808596591, 51.738851876633511 ], [ 5.981461844721034, 51.738920251171287 ], [ 5.985499336142259, 51.73936757453022 ], [ 5.987328070356012, 51.73902459884075 ], [ 5.991680878247593, 51.738816430613952 ], [ 5.99421453918607, 51.738407814648987 ], [ 5.99992304614571, 51.735520639270192 ], [ 6.002336322651636, 51.734680392444709 ], [ 6.003619355526565, 51.733884442334315 ], [ 6.013462538884838, 51.730853115024793 ], [ 6.017511663257169, 51.729137608117917 ], [ 6.022524767510707, 51.728022031600105 ], [ 6.02956558547549, 51.725574840409607 ], [ 6.032336412658102, 51.723882573185861 ], [ 6.032284607013178, 51.723248005794645 ], [ 6.033062200383895, 51.721495615440453 ], [ 6.033654078225354, 51.721190549819383 ], [ 6.034615173449525, 51.721518851988854 ], [ 6.035115505147314, 51.721285709162807 ], [ 6.03484688639735, 51.720306835418896 ], [ 6.035494309356168, 51.717893967902917 ], [ 6.038287800117017, 51.718209614809176 ], [ 6.037620738358264, 51.719491376873371 ], [ 6.037646031616366, 51.719838603910965 ], [ 6.037892794334135, 51.7200290662391 ], [ 6.044994385595537, 51.716996717387296 ], [ 6.045017593897035, 51.71685134286566 ], [ 6.043971756504092, 51.715621773129662 ], [ 6.043759240259591, 51.714911715021394 ], [ 6.042050693708307, 51.713253629709214 ], [ 6.040894431259385, 51.713523868439573 ], [ 6.038722977857857, 51.713651413172997 ], [ 6.03791967239879, 51.713609800851422 ], [ 6.03773020643938, 51.712644066492651 ], [ 6.036296079185286, 51.712758520656301 ], [ 6.034513647214792, 51.712621329981125 ], [ 6.033351802295583, 51.713233928489949 ], [ 6.031535392748501, 51.712888777039304 ], [ 6.028401290259779, 51.711665252089425 ], [ 6.028246301908319, 51.710732369187639 ], [ 6.026929425512372, 51.709967596756279 ], [ 6.026157073324738, 51.708676058107507 ], [ 6.027155772283799, 51.707164746822095 ], [ 6.027266901182031, 51.70507835160771 ], [ 6.026927185080492, 51.704276660405874 ], [ 6.02795333718947, 51.703215955428156 ], [ 6.0281955502164, 51.702638679998671 ], [ 6.027859156668356, 51.700587084851897 ], [ 6.028982008742113, 51.699341116925339 ], [ 6.030668751827239, 51.69849758258264 ], [ 6.031210343307629, 51.69644416774144 ], [ 6.031122340670062, 51.694991467747272 ], [ 6.031455589220698, 51.693519963565294 ], [ 6.03187815737155, 51.692555035123505 ], [ 6.031832234965506, 51.692128101812827 ], [ 6.030180156472499, 51.689928540926566 ], [ 6.02837972987794, 51.689523465158203 ], [ 6.02940414959727, 51.688095833187063 ], [ 6.029852152037408, 51.687582763317451 ], [ 6.030245843977205, 51.687409418957493 ], [ 6.030276776913895, 51.687191155254439 ], [ 6.032331099235584, 51.684821487174375 ], [ 6.031987574579327, 51.684398192186237 ], [ 6.032385287792546, 51.684063897018291 ], [ 6.032366982050772, 51.683851350549403 ], [ 6.030507302979214, 51.682956981692598 ], [ 6.030637603411431, 51.682791808946675 ], [ 6.030384907763402, 51.679752334176428 ], [ 6.030193957363835, 51.679567857466687 ], [ 6.030353057148289, 51.678924412699999 ], [ 6.02993471197812, 51.678129695545707 ], [ 6.032001117365967, 51.676249950914524 ], [ 6.03329330048957, 51.67621224682172 ], [ 6.034763167030169, 51.675187942815796 ], [ 6.034764322036985, 51.674811798613327 ], [ 6.034301354859628, 51.674578523104572 ], [ 6.031730070310403, 51.67457853760191 ], [ 6.032380333236734, 51.674154916466854 ], [ 6.03497017230796, 51.674085259777897 ], [ 6.036684525986625, 51.672852564385281 ], [ 6.072383735189119, 51.66394223211622 ], [ 6.075751189658424, 51.664922052928794 ], [ 6.076589722738676, 51.664194672550252 ], [ 6.07864881919644, 51.66350237325662 ], [ 6.07972921260115, 51.663536506536111 ], [ 6.079112726524846, 51.661986208057208 ], [ 6.079581541049719, 51.661688190664314 ], [ 6.080838678280221, 51.661607616707329 ], [ 6.083050522744654, 51.661828381256505 ], [ 6.083137288085369, 51.662040623787327 ], [ 6.084187306929547, 51.662531035145406 ], [ 6.084631245719375, 51.662937274990625 ], [ 6.085357642731994, 51.663013253605655 ], [ 6.086585725292118, 51.662627148829678 ], [ 6.087275735975635, 51.661900015546983 ], [ 6.087561791466319, 51.661231813163759 ], [ 6.087432163238473, 51.660308216489746 ], [ 6.087930077641329, 51.659951893122134 ], [ 6.09504580722104, 51.659802333567917 ], [ 6.099625217766044, 51.658231989862152 ], [ 6.101902674008905, 51.660686071859217 ], [ 6.102856753824672, 51.660602932432461 ], [ 6.106063359532028, 51.659336081913963 ], [ 6.108414289206709, 51.659087514774257 ], [ 6.116919752113176, 51.656628725498962 ], [ 6.118168359503654, 51.656031740425192 ], [ 6.116501804417902, 51.654194802277473 ], [ 6.115873148252869, 51.653207614180033 ], [ 6.116613755131747, 51.651438664002079 ], [ 6.117330464075406, 51.650807787404247 ], [ 6.117321201945411, 51.650663439471977 ], [ 6.116384609816212, 51.650083293866643 ], [ 6.109584320714406, 51.646842947805681 ], [ 6.111773389534164, 51.644688106715073 ], [ 6.108121642857721, 51.641868642115782 ], [ 6.102838426665946, 51.629764270656345 ], [ 6.100093308273523, 51.624020134065866 ], [ 6.097262934908634, 51.620789442601009 ], [ 6.094049691483529, 51.622001640383353 ], [ 6.09448085118422, 51.617560199755381 ], [ 6.094453604069779, 51.615177228625754 ], [ 6.094078770180944, 51.613639614237648 ], [ 6.091491464266017, 51.605946421489762 ], [ 6.11711387858303, 51.593944256553762 ], [ 6.119309714893508, 51.593763924257864 ], [ 6.121533674398052, 51.592832135064455 ], [ 6.130628798832193, 51.581161721529099 ], [ 6.140834765397101, 51.574245340356818 ], [ 6.147032842091485, 51.570678977155985 ], [ 6.157094460907313, 51.566653965423143 ], [ 6.176967248903597, 51.538636516014023 ], [ 6.188713702061275, 51.533570797881026 ], [ 6.199986686888352, 51.527463069540985 ], [ 6.207781866464007, 51.519164042284665 ], [ 6.21211296832493, 51.513435872818903 ], [ 6.213172020777558, 51.509801926380987 ], [ 6.21390305283284, 51.504499493662301 ], [ 6.214294681054509, 51.502917972031227 ], [ 6.213809927493777, 51.499349606550993 ], [ 6.213920743105411, 51.499202146583954 ], [ 6.212897254714645, 51.493490259105847 ], [ 6.212867271147076, 51.491339268864444 ], [ 6.218515623198771, 51.484501884645049 ], [ 6.218967713460148, 51.485059877656113 ], [ 6.219123211089795, 51.485024240164691 ], [ 6.223653934244259, 51.474988166256445 ], [ 6.223547519637335, 51.47280408001189 ], [ 6.222953239004769, 51.469508400959391 ], [ 6.223775429101209, 51.468705635067977 ], [ 6.22239397043554, 51.466130314155741 ], [ 6.222197129483805, 51.46107069715174 ], [ 6.220349434400203, 51.455674046408092 ], [ 6.220108558670901, 51.455322111916644 ], [ 6.220684961620436, 51.446606066359728 ], [ 6.214296441821104, 51.446636066199119 ], [ 6.214039002247422, 51.44623812084874 ], [ 6.214860161074654, 51.433864939006213 ], [ 6.205398096539697, 51.399655217526949 ], [ 6.21135784607532, 51.401025490592936 ], [ 6.226757780038596, 51.400312134906571 ], [ 6.226218669359773, 51.399594154666097 ], [ 6.226809225638481, 51.399465915527031 ], [ 6.226849179363455, 51.399314125479719 ], [ 6.223769906412883, 51.3964783055374 ], [ 6.222270327416593, 51.395382946208336 ], [ 6.217703856091386, 51.391523632614444 ], [ 6.214644712561867, 51.389651649655377 ], [ 6.216459829194085, 51.388870610280186 ], [ 6.214877479100886, 51.387496339579137 ], [ 6.226489564699698, 51.360327810368801 ], [ 6.190041993315125, 51.339438555261566 ], [ 6.193289332452941, 51.335849440476679 ], [ 6.194050637286217, 51.335235029949544 ], [ 6.194326704867958, 51.334921864704455 ], [ 6.194281812475043, 51.334789895918284 ], [ 6.192353773120721, 51.334570615000331 ], [ 6.190899697994339, 51.334844664384399 ], [ 6.188308303409121, 51.334967841141555 ], [ 6.185412564445964, 51.334564429247081 ], [ 6.183107536655754, 51.334037512521313 ], [ 6.180237187246246, 51.333772341436287 ], [ 6.179066167784895, 51.33350635409527 ], [ 6.179016199092976, 51.333370021198483 ], [ 6.178251288091939, 51.333126793466803 ], [ 6.178042320293686, 51.333306174310223 ], [ 6.174142466289716, 51.332958597090581 ], [ 6.171365377793994, 51.333107992601271 ], [ 6.168627324615205, 51.332882288591904 ], [ 6.168299456102469, 51.331895542940195 ], [ 6.168351257743757, 51.331481645787846 ], [ 6.169219020513104, 51.330156613295358 ], [ 6.169466306904106, 51.329325854979771 ], [ 6.167135631668193, 51.327433788444175 ], [ 6.166022479061266, 51.326801324815811 ], [ 6.164257012184899, 51.325479142389412 ], [ 6.162177846330052, 51.322970159147133 ], [ 6.161681563764637, 51.321543511190292 ], [ 6.159688166073147, 51.319646677396499 ], [ 6.159511969464645, 51.31560182032554 ], [ 6.155603585240362, 51.312347690549835 ], [ 6.154941132958469, 51.311527684111994 ], [ 6.154338211973839, 51.311064151566605 ], [ 6.154293149007014, 51.309590036211191 ], [ 6.153903222027549, 51.307387408574151 ], [ 6.145212094931557, 51.298042153289948 ], [ 6.129089399341733, 51.285636645983011 ], [ 6.12485572020647, 51.277521372198457 ], [ 6.124574121460067, 51.274659517355992 ], [ 6.085674284606137, 51.24754362615105 ], [ 6.072816464152479, 51.242512493993893 ], [ 6.062818415131434, 51.246498775990659 ], [ 6.054426118453829, 51.252026821828203 ], [ 6.052989427078624, 51.250417048782253 ], [ 6.051977826663535, 51.25184275882868 ], [ 6.050743982526009, 51.25235147745402 ], [ 6.046838662848473, 51.250086738063416 ], [ 6.04292828524944, 51.247099355404004 ], [ 6.038370796067237, 51.246206559805664 ], [ 6.036710130478094, 51.246728088265044 ], [ 6.032515225824075, 51.247090147293086 ], [ 6.029969687664413, 51.246427974755413 ], [ 6.027834604054808, 51.245647295305453 ], [ 6.027501347988745, 51.245654593328005 ], [ 6.027423109116771, 51.245903674950995 ], [ 6.027132424194552, 51.245997661690595 ], [ 6.026595346883727, 51.245866357798199 ], [ 6.026431502671445, 51.24598594445547 ], [ 6.026622008464749, 51.24633107936112 ], [ 6.026203252118814, 51.246492740272345 ], [ 6.026525581901671, 51.246688495050719 ], [ 6.026109453337979, 51.246887367792738 ], [ 6.026265884950536, 51.247112358840575 ], [ 6.026210426659755, 51.247349011637645 ], [ 6.025714368411769, 51.247361598107716 ], [ 6.024961227755352, 51.247640081282796 ], [ 6.025142131704336, 51.247763187701736 ], [ 6.0250959751416, 51.247917907276339 ], [ 6.024535390496947, 51.247978169670489 ], [ 6.024193033095126, 51.248366796813507 ], [ 6.02347615337842, 51.248178143487138 ], [ 6.023448363596621, 51.248477980987822 ], [ 6.022901670703843, 51.248455243603132 ], [ 6.022823911662263, 51.248793196118832 ], [ 6.022240623106846, 51.248891193654266 ], [ 6.022099686007615, 51.249296082137 ], [ 6.021159120039416, 51.249250881581531 ], [ 6.021006545835003, 51.249567424831753 ], [ 6.019732364261897, 51.24980665146564 ], [ 6.020276237380568, 51.249903092561212 ], [ 6.02050651893026, 51.250147160309226 ], [ 6.020429199073572, 51.250389093779141 ], [ 6.01990677400734, 51.250692554969973 ], [ 6.017871105200702, 51.250518720284163 ], [ 6.017149125783079, 51.250746808990456 ], [ 6.016729116314123, 51.250704243356616 ], [ 6.016693647458453, 51.250869251656049 ], [ 6.01618853960633, 51.250975003032316 ], [ 6.016754874542317, 51.251801239134942 ], [ 6.016814853190003, 51.25282260617702 ], [ 6.016161043788031, 51.254038343211278 ], [ 6.014835029540311, 51.255161459164725 ], [ 6.012796515264042, 51.256047582963284 ], [ 6.007879318372019, 51.257339255832541 ], [ 6.006609412984679, 51.258086197553673 ], [ 6.005794567420867, 51.258969685992334 ], [ 6.005385581425462, 51.260256961043773 ], [ 6.005464790965316, 51.261188801800159 ], [ 6.005734037335339, 51.262009524236696 ], [ 6.006429090254004, 51.263135834473346 ], [ 6.00742483739683, 51.2642885808431 ], [ 6.008491072332483, 51.265107228879202 ], [ 6.009698261350345, 51.265708729454452 ], [ 6.009723537816916, 51.266314994704352 ], [ 6.010414025100719, 51.267496536817113 ], [ 6.010626985763283, 51.269576449038084 ], [ 6.011097654231023, 51.271309796706539 ], [ 6.010964713552416, 51.272017902251953 ], [ 6.009674627017003, 51.2740295019996 ], [ 6.009292918843537, 51.275072688764531 ], [ 6.009274517461832, 51.275597575373297 ], [ 6.008310985644768, 51.277625634020332 ], [ 5.978832042938261, 51.290010644975652 ], [ 5.954739093112608, 51.300374496666969 ], [ 5.933772643162198, 51.306111213355621 ], [ 5.935727223357055, 51.30867971327369 ], [ 5.93568323050088, 51.308833725114127 ], [ 5.928341540605574, 51.310865504734046 ], [ 5.923563075210525, 51.308918676825165 ], [ 5.907458696170766, 51.313397088859766 ], [ 5.907417473973486, 51.313201786827491 ], [ 5.910442766405941, 51.307877524309049 ], [ 5.88402621090507, 51.315653254618525 ], [ 5.852183559777767, 51.320796901537427 ], [ 5.832219487398069, 51.338056048063436 ], [ 5.840267514431194, 51.34680961360624 ], [ 5.840175306567406, 51.346975360760183 ], [ 5.842692845475395, 51.347446301269706 ] ] ] } }
]
}
