{
"type": "FeatureCollection",
"name": "SWVPO2304",
"crs": { "type": "name", "properties": { "name": "urn:ogc:def:crs:OGC:1.3:CRS84" } },
"features": [
{ "type": "Feature", "properties": { "PO SWV": "PO2304", "strokeColor": "#A9A9A9", "strokeWidth": 2, "fillColor": "#ADD8E6" }, "geometry": { "type": "MultiPolygon", "coordinates": [ [ [ [ 6.31466450123973, 52.627896810175407 ], [ 6.326149412923862, 52.657392007521594 ], [ 6.326491249773111, 52.657853148848936 ], [ 6.327806662212956, 52.65879234551079 ], [ 6.328790924972999, 52.65849216512828 ], [ 6.329902357101798, 52.657604958828479 ], [ 6.330179153440838, 52.657105189490082 ], [ 6.331213134678331, 52.657260369492796 ], [ 6.332688489746631, 52.656837002537735 ], [ 6.332777516317553, 52.656683315006198 ], [ 6.332532107532133, 52.656272895242203 ], [ 6.332464243701395, 52.655748117097474 ], [ 6.333107009101188, 52.655143484668422 ], [ 6.3340305289399, 52.65479546652 ], [ 6.334788040671361, 52.654750027591604 ], [ 6.335681265979543, 52.655284789645016 ], [ 6.336553866678942, 52.654462904064715 ], [ 6.337383438805591, 52.654665890895899 ], [ 6.337621521427342, 52.654332446879678 ], [ 6.338236676053503, 52.654239250198771 ], [ 6.339098916087842, 52.654461943575718 ], [ 6.339164919840234, 52.654724623216808 ], [ 6.339537413140381, 52.654827550035549 ], [ 6.341440437434281, 52.654210383802258 ], [ 6.342496594838034, 52.652615415312226 ], [ 6.343642136831154, 52.651248707971504 ], [ 6.344422060123148, 52.651266907213959 ], [ 6.344724897554836, 52.650829629882317 ], [ 6.34527191831322, 52.650849531752236 ], [ 6.345768365998126, 52.65033355390311 ], [ 6.347447663551386, 52.649988954559916 ], [ 6.347649349051146, 52.649755666933444 ], [ 6.347612972091115, 52.649448544971584 ], [ 6.347078958996315, 52.649430651685677 ], [ 6.347037857666616, 52.649243137437843 ], [ 6.348669949089007, 52.649246145288807 ], [ 6.350065594023621, 52.648519512814318 ], [ 6.350792857281294, 52.648508001780939 ], [ 6.351057762756213, 52.648679068884846 ], [ 6.351711488053482, 52.648403655085573 ], [ 6.351836012602983, 52.648689751121545 ], [ 6.352031700688189, 52.648737641059029 ], [ 6.352531114977767, 52.648120087067852 ], [ 6.353353471529799, 52.647897255684072 ], [ 6.353475613562181, 52.647052159926318 ], [ 6.35374794773398, 52.646739555937835 ], [ 6.353433189193336, 52.646035380394622 ], [ 6.353975609351231, 52.645822275080789 ], [ 6.354707727763014, 52.646240773972671 ], [ 6.355408815274724, 52.646229601131843 ], [ 6.356726908458382, 52.645712364828142 ], [ 6.358512402471472, 52.645805462077753 ], [ 6.358644761575543, 52.645655622231736 ], [ 6.358600246522387, 52.645351105764711 ], [ 6.359771689402729, 52.645659737339003 ], [ 6.36036878277631, 52.645231547689669 ], [ 6.362620086181757, 52.644325678838619 ], [ 6.362651648329081, 52.644151394112853 ], [ 6.362411717947776, 52.644028167682059 ], [ 6.36325188172122, 52.6434741373264 ], [ 6.363848531504292, 52.643227086228258 ], [ 6.364502835849883, 52.643253183126518 ], [ 6.364471994666768, 52.642734608699342 ], [ 6.364041912421658, 52.642301814219664 ], [ 6.36455880280355, 52.642190997321222 ], [ 6.364698834288874, 52.641508509238804 ], [ 6.364243049481862, 52.641209015315141 ], [ 6.363258424961883, 52.640939884787457 ], [ 6.363868765155753, 52.64038922315445 ], [ 6.36411295484703, 52.640547871937734 ], [ 6.364369091053885, 52.640474233708048 ], [ 6.364334898920474, 52.639577561541316 ], [ 6.364010791753179, 52.639230894485621 ], [ 6.363119472991762, 52.639296330665985 ], [ 6.36309991363195, 52.63911792433219 ], [ 6.364235917451655, 52.638193556818969 ], [ 6.364283496012079, 52.637745826484668 ], [ 6.366324298025138, 52.637657761765183 ], [ 6.366531895810881, 52.637287791105095 ], [ 6.367037481522051, 52.637186725484376 ], [ 6.367428831361427, 52.636611694898519 ], [ 6.368040717348997, 52.636343087891305 ], [ 6.368240429646893, 52.635666018148811 ], [ 6.369180938748568, 52.635729471055576 ], [ 6.369593048948868, 52.635554649213738 ], [ 6.369871511035734, 52.634933467748468 ], [ 6.368871865946067, 52.634415956952864 ], [ 6.369114885389769, 52.633973133902622 ], [ 6.36873450294488, 52.63349624834791 ], [ 6.369667037880972, 52.632748814510265 ], [ 6.369671545723067, 52.632541854214338 ], [ 6.369272289327767, 52.632114504249728 ], [ 6.370165365781645, 52.631988229826227 ], [ 6.370705837040573, 52.631675195128899 ], [ 6.371543459741289, 52.631873578989349 ], [ 6.371731890986667, 52.63163504814284 ], [ 6.371697036298178, 52.631096407800392 ], [ 6.372158243093989, 52.63072041212525 ], [ 6.371972849106455, 52.630176367746806 ], [ 6.372340705234572, 52.629579111896227 ], [ 6.372964733959026, 52.629721570443294 ], [ 6.373117954260078, 52.629541495741869 ], [ 6.373084476381511, 52.629271241239806 ], [ 6.373822032135098, 52.629304710451997 ], [ 6.374192513516918, 52.629093116872149 ], [ 6.374680846264436, 52.628529020501972 ], [ 6.374577307259278, 52.628298154793292 ], [ 6.37498794959121, 52.627963718696748 ], [ 6.374384597416761, 52.62766847266758 ], [ 6.375298173231097, 52.627446660588085 ], [ 6.37521443832978, 52.626941839319059 ], [ 6.374322589847412, 52.626681942124939 ], [ 6.374202592447928, 52.626446005420782 ], [ 6.37525338248054, 52.626100237212938 ], [ 6.375362214171624, 52.625245412799742 ], [ 6.374867653463282, 52.624944940419965 ], [ 6.37488204875728, 52.624545804397776 ], [ 6.374648828787627, 52.624280532747967 ], [ 6.373364841491554, 52.6238172370293 ], [ 6.373696474274776, 52.623454983261112 ], [ 6.373720937345883, 52.623036215008824 ], [ 6.375300708324308, 52.622094613642943 ], [ 6.375443115770429, 52.621603123378939 ], [ 6.376365337058222, 52.621567985915419 ], [ 6.376334175219579, 52.62099017429091 ], [ 6.376882549282207, 52.620819895158434 ], [ 6.377267525241307, 52.620405286408683 ], [ 6.37729367464973, 52.619906244554251 ], [ 6.376868467695207, 52.619435039942388 ], [ 6.376475045092887, 52.619345556404987 ], [ 6.376833720761875, 52.619147329072362 ], [ 6.376807114460805, 52.618557316429261 ], [ 6.377006451905998, 52.61828994739016 ], [ 6.376166146692743, 52.617804902213194 ], [ 6.37659428924368, 52.616986343480725 ], [ 6.378388673052857, 52.616465671799148 ], [ 6.378610173199871, 52.616162299847424 ], [ 6.379302195668918, 52.616073833788725 ], [ 6.379402461307474, 52.615857653472254 ], [ 6.379175711785057, 52.615625405204469 ], [ 6.379802193827098, 52.615540440542752 ], [ 6.380345580949657, 52.615072592535633 ], [ 6.380782154092735, 52.615420502139891 ], [ 6.38168421669151, 52.615681742266851 ], [ 6.382848674927053, 52.615746192789764 ], [ 6.383616132226682, 52.614660268954992 ], [ 6.383667794600604, 52.613708572961485 ], [ 6.383332270132641, 52.613475010845733 ], [ 6.383211020686367, 52.613083313329078 ], [ 6.383442834416566, 52.612453997142389 ], [ 6.38385183562031, 52.612297287587381 ], [ 6.385745999564073, 52.613069183441084 ], [ 6.3867433055757, 52.61371371410371 ], [ 6.388278647331585, 52.613939855936309 ], [ 6.389015710453709, 52.6144372007277 ], [ 6.391474076146341, 52.61460818863867 ], [ 6.391607515456548, 52.615219565242271 ], [ 6.392428365089986, 52.615640537401873 ], [ 6.392667988975366, 52.615970479445977 ], [ 6.393538901517627, 52.616171654769239 ], [ 6.393293487172417, 52.616480676435458 ], [ 6.393791821619144, 52.616893020418132 ], [ 6.393685033217465, 52.617156307216163 ], [ 6.393786195173451, 52.617313928576614 ], [ 6.396020563931424, 52.61788688315567 ], [ 6.397522797976841, 52.617679078393195 ], [ 6.397461287095186, 52.617247644513604 ], [ 6.397601764525013, 52.617122713977977 ], [ 6.398528512659561, 52.617322875507462 ], [ 6.399212701324353, 52.617266682422709 ], [ 6.400385481310922, 52.616591219119243 ], [ 6.401135411557546, 52.616359983715064 ], [ 6.403700736621115, 52.616353546830084 ], [ 6.403956287937698, 52.616541500281052 ], [ 6.40385414798889, 52.616679212407391 ], [ 6.403980733769473, 52.616835562097705 ], [ 6.405821644690588, 52.617186659378461 ], [ 6.406181253701885, 52.617455030775851 ], [ 6.406310659021765, 52.617792979283031 ], [ 6.406730786582189, 52.617838873552358 ], [ 6.405794938487807, 52.61869359276232 ], [ 6.405781350225036, 52.619889420963169 ], [ 6.406183408949724, 52.620768209802087 ], [ 6.406755366753628, 52.62075796935757 ], [ 6.408338249590416, 52.621164578981691 ], [ 6.408632398787433, 52.621475487264078 ], [ 6.409236244990807, 52.621442715746056 ], [ 6.409220788577586, 52.621634645774733 ], [ 6.409481008987057, 52.621830980016988 ], [ 6.41002202166047, 52.62169210018353 ], [ 6.410387351851424, 52.621382472433936 ], [ 6.410941567938165, 52.621399610356953 ], [ 6.411212226053984, 52.620913238025928 ], [ 6.411811353922809, 52.620538468628048 ], [ 6.411766159899413, 52.620207483758946 ], [ 6.412883387372124, 52.619671456652057 ], [ 6.415046143967307, 52.619249205556535 ], [ 6.416299776599979, 52.618744805411879 ], [ 6.416772295646631, 52.618775771197839 ], [ 6.417044639120696, 52.619179135387732 ], [ 6.417315977834422, 52.619292156968079 ], [ 6.418782561582715, 52.619122294013799 ], [ 6.41898003835055, 52.61935207544677 ], [ 6.418745180060871, 52.619717822671454 ], [ 6.419016542716268, 52.620479699890893 ], [ 6.418916700323496, 52.620972671980034 ], [ 6.419271963057607, 52.621284659512838 ], [ 6.419888521423114, 52.621337202023504 ], [ 6.420177910030194, 52.622398713766025 ], [ 6.421061556004342, 52.623042960646281 ], [ 6.424182017003356, 52.623918398923621 ], [ 6.424149866982585, 52.624250457655066 ], [ 6.424325848422018, 52.62438769389793 ], [ 6.425145955454046, 52.624420543957619 ], [ 6.426030256482886, 52.624720408155007 ], [ 6.426739525466279, 52.62461166957727 ], [ 6.426797327473334, 52.624846575851457 ], [ 6.426296959832194, 52.625172497445234 ], [ 6.426261158598377, 52.625481801782342 ], [ 6.425938246708379, 52.625818579763887 ], [ 6.426534480868715, 52.626914697196185 ], [ 6.427362425373841, 52.627196597719561 ], [ 6.427932820139839, 52.627203033029865 ], [ 6.427796434740837, 52.627721243004991 ], [ 6.428126180882575, 52.628274926308926 ], [ 6.429569701121291, 52.628255562821842 ], [ 6.43005281495772, 52.62792531681189 ], [ 6.430521757478513, 52.627930794155873 ], [ 6.430786655191004, 52.628345964493406 ], [ 6.43124235007289, 52.628477929627024 ], [ 6.4330561577333, 52.627841940217181 ], [ 6.433419705091534, 52.626852651515286 ], [ 6.433895164348033, 52.626448167028954 ], [ 6.433785927885375, 52.626043006257532 ], [ 6.43259155147608, 52.625642486131056 ], [ 6.433708499462278, 52.62437797564418 ], [ 6.433948319506154, 52.623758157727181 ], [ 6.435573671889415, 52.622029143870257 ], [ 6.435739025442212, 52.6215775757139 ], [ 6.43569670045121, 52.620816134999714 ], [ 6.435312423062037, 52.620454263069639 ], [ 6.434568900680463, 52.620405025117222 ], [ 6.434711347757448, 52.620162898021277 ], [ 6.434638109006789, 52.619862658643385 ], [ 6.435010949184747, 52.619351249000729 ], [ 6.435866269575751, 52.619306113413593 ], [ 6.436271818731099, 52.61897456948374 ], [ 6.436265607252242, 52.61850541486335 ], [ 6.436520038659532, 52.618160228557215 ], [ 6.437849017197802, 52.61775937899241 ], [ 6.438084073772137, 52.617347510999529 ], [ 6.440815251111324, 52.616175683293164 ], [ 6.441100234947413, 52.616307266220723 ], [ 6.441629707126096, 52.61623002221836 ], [ 6.441889023105571, 52.615737138498176 ], [ 6.442268801774184, 52.615869766348226 ], [ 6.442497597239625, 52.616154060629952 ], [ 6.443034162751902, 52.616295487949969 ], [ 6.443486069026096, 52.61620623684464 ], [ 6.443778985896532, 52.615936669601183 ], [ 6.445055515289577, 52.615766226397248 ], [ 6.445188623615276, 52.61547137543166 ], [ 6.445968498947277, 52.615192786214898 ], [ 6.446883969956298, 52.615183845329135 ], [ 6.448104326109842, 52.614891830563266 ], [ 6.449447427551685, 52.615071850595626 ], [ 6.449669363316799, 52.615318665780926 ], [ 6.450575296772233, 52.615314932223853 ], [ 6.45223369449136, 52.614405483388254 ], [ 6.453361285105347, 52.614045777496109 ], [ 6.453910943304495, 52.614543648831564 ], [ 6.453804796268559, 52.614706222245424 ], [ 6.453896897799499, 52.615112382847009 ], [ 6.454440545039457, 52.61526334901226 ], [ 6.454527471558843, 52.615020717786273 ], [ 6.45492179600791, 52.614971203823266 ], [ 6.454848626783997, 52.615213192824186 ], [ 6.4551095972399, 52.615536207713234 ], [ 6.457072977810621, 52.615912206015508 ], [ 6.457516268480801, 52.615859000274305 ], [ 6.45772633890139, 52.616143716502549 ], [ 6.459756921455353, 52.615855196217105 ], [ 6.460736550428439, 52.616336562439621 ], [ 6.460576960900565, 52.617544094882625 ], [ 6.460852566263116, 52.618091691019757 ], [ 6.461415869502067, 52.618537424020765 ], [ 6.461516131921554, 52.618948063194054 ], [ 6.461968359412167, 52.619186250329584 ], [ 6.461912140887979, 52.619480940819166 ], [ 6.462252209391207, 52.620068121786652 ], [ 6.462146298182951, 52.62052420824692 ], [ 6.462347916977186, 52.621014650271903 ], [ 6.463041913946367, 52.621205095960455 ], [ 6.463796581467593, 52.621695302866804 ], [ 6.463355240721987, 52.621825468874178 ], [ 6.463113902256773, 52.622124270130023 ], [ 6.463350027545999, 52.62265912301222 ], [ 6.463089870188039, 52.623245383348412 ], [ 6.4632198423521, 52.623589574479468 ], [ 6.463845124509637, 52.624001460432282 ], [ 6.464187791322487, 52.623895711076749 ], [ 6.465368941798603, 52.623983091122113 ], [ 6.467646136301616, 52.624579863718665 ], [ 6.468952959732897, 52.624684967704333 ], [ 6.470079693588051, 52.62510707336132 ], [ 6.472428156058007, 52.624659689969143 ], [ 6.472892867992526, 52.624083702017963 ], [ 6.472716579642348, 52.623647006732462 ], [ 6.473419861455784, 52.622959455789974 ], [ 6.473418845009795, 52.62256674061436 ], [ 6.473184564321303, 52.622173418171606 ], [ 6.472595021553289, 52.622228490882343 ], [ 6.473309871613133, 52.621822508383893 ], [ 6.473422720841803, 52.621572385827314 ], [ 6.473231908709614, 52.621296678295842 ], [ 6.47359217326879, 52.621283009683246 ], [ 6.474361628946556, 52.620833512802356 ], [ 6.475969616862586, 52.621364278929278 ], [ 6.476313093230599, 52.620960901492886 ], [ 6.47653941720449, 52.621050165075424 ], [ 6.476785517828372, 52.620873585672754 ], [ 6.476767107865874, 52.62048073875831 ], [ 6.476938543895002, 52.620174217456096 ], [ 6.476797875067961, 52.619763959381437 ], [ 6.477652301551619, 52.619191022443111 ], [ 6.477743489905312, 52.618868461953845 ], [ 6.478041121929687, 52.618728479062781 ], [ 6.47834500767891, 52.619102804807291 ], [ 6.479329078137416, 52.619103348485289 ], [ 6.479646474085672, 52.61885869887783 ], [ 6.480005447246072, 52.618883440684641 ], [ 6.480183696040948, 52.618391984534775 ], [ 6.480584457858455, 52.61825666238861 ], [ 6.48136014439007, 52.618439086730319 ], [ 6.481840002190503, 52.618362876491993 ], [ 6.48388471859208, 52.619175984257581 ], [ 6.488125214736796, 52.618928817575593 ], [ 6.491862825549088, 52.619243477130077 ], [ 6.492802310594574, 52.619037054128597 ], [ 6.494103407874862, 52.618368510671779 ], [ 6.494918298244925, 52.618130534374735 ], [ 6.499747770269665, 52.618103348836065 ], [ 6.50454117753615, 52.617153850584657 ], [ 6.50733347164731, 52.61561886298685 ], [ 6.509359160267369, 52.614883188194867 ], [ 6.511192394241379, 52.61445395541125 ], [ 6.512073499692416, 52.613751799736335 ], [ 6.518490091992055, 52.614177043333569 ], [ 6.513774489875542, 52.646343118699299 ], [ 6.546410926050877, 52.663623793123698 ], [ 6.552807828057114, 52.66569403817504 ], [ 6.614523729784315, 52.674149225004228 ], [ 6.629415743292332, 52.669803343724865 ], [ 6.631493804637602, 52.673485257881836 ], [ 6.631770964207059, 52.674333549663693 ], [ 6.631974297169041, 52.678564302241554 ], [ 6.632175962142509, 52.679894434759468 ], [ 6.632186315822722, 52.680862400937286 ], [ 6.631995245347795, 52.680966254041422 ], [ 6.63231166129761, 52.686718404936521 ], [ 6.63205870976474, 52.68756469731742 ], [ 6.63031937392764, 52.690538556859444 ], [ 6.630397679355096, 52.690687598498307 ], [ 6.629399480344928, 52.692479846335715 ], [ 6.628918291372383, 52.69642709843464 ], [ 6.628948325398786, 52.697829602930859 ], [ 6.628785485968762, 52.697931374455784 ], [ 6.629834444910461, 52.712614931649156 ], [ 6.624048509190781, 52.712322858123684 ], [ 6.612852506144809, 52.712543759972753 ], [ 6.610802980406961, 52.712734429464717 ], [ 6.61068664391313, 52.712565756167983 ], [ 6.604127864580142, 52.712680403048097 ], [ 6.604035209504735, 52.712787638985056 ], [ 6.595771535347651, 52.71312049457682 ], [ 6.596669112944574, 52.723442763307283 ], [ 6.576415272994995, 52.724166351020656 ], [ 6.576333909260621, 52.724318907632295 ], [ 6.575663854902125, 52.724410908183934 ], [ 6.575755981426687, 52.725636565862182 ], [ 6.576782630972147, 52.725657263512055 ], [ 6.612182204747714, 52.759397622858657 ], [ 6.613688195485721, 52.760546250596676 ], [ 6.61645352134102, 52.763307224043352 ], [ 6.660818836496223, 52.801312213584346 ], [ 6.667770156043194, 52.799799680772956 ], [ 6.675128567550297, 52.797236597770471 ], [ 6.677811278164553, 52.799071032435712 ], [ 6.675521496873227, 52.800358663256333 ], [ 6.676538062041085, 52.80190694438226 ], [ 6.677516743112884, 52.802752979037599 ], [ 6.678961696535758, 52.802870449499537 ], [ 6.68015507194214, 52.806597266652901 ], [ 6.681133071638939, 52.807818774437038 ], [ 6.690144261314524, 52.81022231884242 ], [ 6.694218111428711, 52.808824935673414 ], [ 6.694714923315727, 52.808867610923102 ], [ 6.694244317093645, 52.809890184348689 ], [ 6.691893054310164, 52.809921425462747 ], [ 6.692361105684126, 52.810920921445707 ], [ 6.691479576402801, 52.811317321348461 ], [ 6.693154435960172, 52.81415387979434 ], [ 6.693483816814145, 52.814542291074702 ], [ 6.693852959657667, 52.814586746912802 ], [ 6.690139663582027, 52.822585877530059 ], [ 6.688868943896826, 52.822938350399163 ], [ 6.689467029817725, 52.823989622252455 ], [ 6.689745418715829, 52.824060445575782 ], [ 6.689919932620455, 52.824694393027713 ], [ 6.689906530131618, 52.826005754622017 ], [ 6.69092225997756, 52.826003289190666 ], [ 6.694018883857573, 52.827933016652878 ], [ 6.695127562273162, 52.827092545948737 ], [ 6.696005298683891, 52.826727528588144 ], [ 6.700232689309304, 52.830160090515669 ], [ 6.70748839747662, 52.83643011596709 ], [ 6.706336011236701, 52.842379524275941 ], [ 6.704640467379208, 52.845834416370771 ], [ 6.704689395449046, 52.84614217265154 ], [ 6.704329627133549, 52.846290792098564 ], [ 6.704099694415281, 52.846690483005453 ], [ 6.70425611088357, 52.847090635011945 ], [ 6.719640509965673, 52.848926665469108 ], [ 6.728439479662551, 52.853973199382544 ], [ 6.727144380552186, 52.855565167599607 ], [ 6.726163109414096, 52.85641748428921 ], [ 6.725893140953055, 52.857238065878185 ], [ 6.719793056697791, 52.861495924875456 ], [ 6.721724025421987, 52.866248641478592 ], [ 6.716009151365695, 52.867681689410546 ], [ 6.715938879677661, 52.867811363425815 ], [ 6.725636982958522, 52.872647899091788 ], [ 6.725224835266401, 52.873215477124475 ], [ 6.725494520904863, 52.873576069093502 ], [ 6.736303629069717, 52.878785531979538 ], [ 6.736432023086736, 52.878722659413732 ], [ 6.737582103763952, 52.874954370797987 ], [ 6.740491210334119, 52.871094168212025 ], [ 6.745117725863776, 52.871949849833577 ], [ 6.747245488741555, 52.870456766593534 ], [ 6.753489053957213, 52.861630806946224 ], [ 6.752841914606448, 52.861206612464123 ], [ 6.753256232117529, 52.860413216548864 ], [ 6.75311528497183, 52.859100433722126 ], [ 6.754165509248965, 52.85860559639071 ], [ 6.754573084038006, 52.858836156459788 ], [ 6.755534540040735, 52.858414498415492 ], [ 6.756116083478508, 52.858015913042465 ], [ 6.771014479544383, 52.850887177113165 ], [ 6.770664891659078, 52.850569209178161 ], [ 6.769599220259144, 52.851066609850584 ], [ 6.769185484320084, 52.851076257095379 ], [ 6.766126115459888, 52.849786386428008 ], [ 6.816419172022105, 52.825772511928271 ], [ 6.823452536444877, 52.821398931854922 ], [ 6.823905937245794, 52.821766979180673 ], [ 6.834116780329414, 52.815412197486971 ], [ 6.834023436842432, 52.815192733149054 ], [ 6.839037486850835, 52.812055666596237 ], [ 6.840493839670132, 52.810155592311837 ], [ 6.844224077034391, 52.807877729756378 ], [ 6.84426177135988, 52.807679178433425 ], [ 6.84949268410092, 52.804572873660298 ], [ 6.849982686327571, 52.8048029131349 ], [ 6.851997319851512, 52.803606692626886 ], [ 6.854754899439762, 52.802916792447981 ], [ 6.850798608937053, 52.797620650867394 ], [ 6.84841998680107, 52.793476098807943 ], [ 6.847029626528752, 52.789617060605423 ], [ 6.846198817397445, 52.78522277085964 ], [ 6.84403036305546, 52.784544628964575 ], [ 6.842320817782345, 52.784326424256768 ], [ 6.838940833581047, 52.784966219558221 ], [ 6.836342059390936, 52.785119703446924 ], [ 6.834695608413277, 52.782497223091866 ], [ 6.833286095785063, 52.781074640185423 ], [ 6.831188736862511, 52.778272671731834 ], [ 6.831066534017865, 52.777647815773022 ], [ 6.831228074235723, 52.776649574197954 ], [ 6.831165628658366, 52.775791056485886 ], [ 6.832264271351614, 52.77454535656544 ], [ 6.832225092943988, 52.774397522338667 ], [ 6.824771591255362, 52.774288079671997 ], [ 6.822524990847618, 52.77395381074966 ], [ 6.819395991086901, 52.773063038881368 ], [ 6.820652176997256, 52.772296665347916 ], [ 6.820153929170336, 52.77189383734126 ], [ 6.81967852264412, 52.771743406419276 ], [ 6.820584678444414, 52.771064391675218 ], [ 6.8212746713058, 52.769910896363186 ], [ 6.821293679958076, 52.769527083319083 ], [ 6.823552641720237, 52.769377289312324 ], [ 6.824253948218, 52.769049629029858 ], [ 6.826156243178286, 52.76550718819847 ], [ 6.831241760184136, 52.7668622725934 ], [ 6.83302273663211, 52.765201769932816 ], [ 6.834040768292082, 52.76394627645368 ], [ 6.835955346692014, 52.762873024159568 ], [ 6.838385192716486, 52.762338064922019 ], [ 6.838957015492185, 52.762060330720026 ], [ 6.839350260407713, 52.76164855086494 ], [ 6.839741241623624, 52.761830946334136 ], [ 6.840151887721468, 52.7617257203311 ], [ 6.840533875486751, 52.761971179911626 ], [ 6.841536858313816, 52.762095924703921 ], [ 6.840457814742877, 52.76051366155032 ], [ 6.838360574344632, 52.758441339467659 ], [ 6.836805927661487, 52.757123449308473 ], [ 6.834455278364491, 52.75550804477394 ], [ 6.834958520175802, 52.755337293144258 ], [ 6.834991769327364, 52.755157638814651 ], [ 6.83370685377249, 52.75417947355254 ], [ 6.834250773773875, 52.7527603854547 ], [ 6.83392907905036, 52.751712239674589 ], [ 6.835162110430105, 52.748368893868708 ], [ 6.833655592922248, 52.747240493168427 ], [ 6.833275284808057, 52.745740601475205 ], [ 6.83185331232633, 52.745739148871486 ], [ 6.831254323264002, 52.745173588842704 ], [ 6.830130587038533, 52.745052161194486 ], [ 6.831133003744859, 52.744343258469748 ], [ 6.831539244765157, 52.743850223214224 ], [ 6.83030367754477, 52.742885837149537 ], [ 6.829897945480003, 52.742746333893606 ], [ 6.83061680883144, 52.742205057991832 ], [ 6.835874642284618, 52.737100671176641 ], [ 6.837436641475088, 52.734331318477736 ], [ 6.826494908334236, 52.730826699591624 ], [ 6.828499632885871, 52.726141442307963 ], [ 6.830004595947471, 52.726021031648415 ], [ 6.832834736164152, 52.719553745029131 ], [ 6.832547555539166, 52.719049870435953 ], [ 6.835959738649664, 52.711054924612533 ], [ 6.826914961422147, 52.709630762561275 ], [ 6.828443972171023, 52.705018698697558 ], [ 6.828705487713367, 52.70500147015332 ], [ 6.828734663981313, 52.704718082813343 ], [ 6.83878431619246, 52.704403922514899 ], [ 6.84093624653867, 52.699669566504049 ], [ 6.849617182934615, 52.699401639534877 ], [ 6.852220299149081, 52.687813252578195 ], [ 6.852723028694046, 52.688160341138726 ], [ 6.853038318117222, 52.687945425342399 ], [ 6.853805579061125, 52.684616552529754 ], [ 6.853106809799254, 52.68418390953893 ], [ 6.854742358439093, 52.676415571851173 ], [ 6.855715283812975, 52.672922411027713 ], [ 6.855589639746946, 52.672754576656914 ], [ 6.85588292257501, 52.672435084233882 ], [ 6.856340103724806, 52.671222092225065 ], [ 6.858535238945764, 52.66313617444375 ], [ 6.860637952644347, 52.654635352723027 ], [ 6.860378329722771, 52.654600114613956 ], [ 6.860166490367801, 52.65536092277123 ], [ 6.855592385820353, 52.65492922502154 ], [ 6.855953829129106, 52.652883955667541 ], [ 6.855747431161933, 52.652488490431246 ], [ 6.852448961334093, 52.651844066669149 ], [ 6.852844840255223, 52.649730048958048 ], [ 6.852909774644443, 52.649609831617397 ], [ 6.85393331348878, 52.649779334186682 ], [ 6.861846657512592, 52.649884747034498 ], [ 6.86196286112899, 52.649642710255762 ], [ 6.853801692817756, 52.649470360877068 ], [ 6.852979153012346, 52.649279517495586 ], [ 6.85167121717821, 52.648594219659522 ], [ 6.850831077832246, 52.648515457103528 ], [ 6.838943548644147, 52.651704429082741 ], [ 6.837465786800748, 52.651843492690269 ], [ 6.831805744402896, 52.651419711878098 ], [ 6.830382428861692, 52.650649455632191 ], [ 6.829363975092035, 52.649660166966129 ], [ 6.82753050778182, 52.648943048164725 ], [ 6.822289465330954, 52.647650215039583 ], [ 6.818712710257039, 52.647582489929903 ], [ 6.817997020772506, 52.647696706475237 ], [ 6.816740851025257, 52.648354664402724 ], [ 6.816077475271399, 52.648527112281755 ], [ 6.807888792721378, 52.649026542038563 ], [ 6.807057458826338, 52.649483967593014 ], [ 6.805767087396767, 52.651092217551643 ], [ 6.803309412987936, 52.651753605898207 ], [ 6.802296360853496, 52.651786087335005 ], [ 6.794282531675202, 52.650557242241547 ], [ 6.793358317987345, 52.650790610240634 ], [ 6.790779819659048, 52.652486483396984 ], [ 6.78974744515043, 52.652696880742873 ], [ 6.787450343333234, 52.652279783529856 ], [ 6.783659748820808, 52.652417753705507 ], [ 6.777454640100745, 52.651563411765842 ], [ 6.774204500923386, 52.650103623838952 ], [ 6.772134297573117, 52.649957449702292 ], [ 6.767895975735577, 52.646752487611103 ], [ 6.758861952939283, 52.648720110928728 ], [ 6.755620410248842, 52.647196446509518 ], [ 6.755618381919555, 52.646985767622709 ], [ 6.754943191242242, 52.646707936589259 ], [ 6.754600069994431, 52.646261682916865 ], [ 6.753447161987624, 52.645706364003644 ], [ 6.752456745310886, 52.646251865763489 ], [ 6.751811232906233, 52.647005311037852 ], [ 6.752132585872565, 52.647286281433047 ], [ 6.753560077548235, 52.647813122262193 ], [ 6.752787577415176, 52.648047616236795 ], [ 6.751212952395472, 52.647466344934891 ], [ 6.750638258577955, 52.647094455513567 ], [ 6.75051460234608, 52.646789700154244 ], [ 6.746096617410749, 52.646125033349811 ], [ 6.742029129203649, 52.645240356853549 ], [ 6.737012918698445, 52.641118974611999 ], [ 6.730753683117776, 52.637444737301905 ], [ 6.727379997630801, 52.634223876802025 ], [ 6.726438764236635, 52.633128992794767 ], [ 6.720813079039059, 52.631335816304812 ], [ 6.718294563089452, 52.631238658180706 ], [ 6.716515300770677, 52.630539203667489 ], [ 6.715069076663116, 52.630176834475641 ], [ 6.713300599986582, 52.629037702374703 ], [ 6.710162830995175, 52.627790443739954 ], [ 6.710205181853317, 52.627407589543736 ], [ 6.712020447254418, 52.626931073985936 ], [ 6.714261154136765, 52.626892038130507 ], [ 6.715076024549943, 52.625800981511354 ], [ 6.718324926009422, 52.623448721903742 ], [ 6.718704119048958, 52.622037843741637 ], [ 6.720476825490804, 52.621633479976197 ], [ 6.722138686786631, 52.620433469854639 ], [ 6.722969980251484, 52.62045189841173 ], [ 6.724957698348139, 52.61868844337986 ], [ 6.727385781802282, 52.614952165365175 ], [ 6.725176874425519, 52.610371682154003 ], [ 6.724857718427259, 52.609043587496437 ], [ 6.724450782719487, 52.608304385272405 ], [ 6.724554242800934, 52.607696541077317 ], [ 6.723847921616348, 52.604527136430221 ], [ 6.724030869645707, 52.604167791625734 ], [ 6.723847558225196, 52.603091753232718 ], [ 6.721750704193293, 52.599725295444095 ], [ 6.721068097154232, 52.598318831789307 ], [ 6.720816615064843, 52.596296644600571 ], [ 6.721672106318534, 52.594855578136723 ], [ 6.72003961476157, 52.593210894341631 ], [ 6.718887990027918, 52.588687986057764 ], [ 6.766706444906067, 52.563621240091415 ], [ 6.766791255979528, 52.561624530988304 ], [ 6.763959646295514, 52.561466832828629 ], [ 6.753929075104002, 52.55911396677763 ], [ 6.752266889322974, 52.5589390094961 ], [ 6.750509564656229, 52.559172603243866 ], [ 6.740086649868509, 52.561954814925421 ], [ 6.738461441907662, 52.562059773824416 ], [ 6.735312781333629, 52.561675709593352 ], [ 6.734193275632808, 52.561676114297128 ], [ 6.726017246194439, 52.563133069433448 ], [ 6.725698801174884, 52.562577709818534 ], [ 6.725507983486738, 52.561485943254482 ], [ 6.721041257866172, 52.552889530725722 ], [ 6.720634302010144, 52.552490613469189 ], [ 6.72024733985062, 52.552484238676008 ], [ 6.720297420129185, 52.552171099536743 ], [ 6.720005765956222, 52.551916864643339 ], [ 6.720041210116327, 52.551580513016766 ], [ 6.71820923547055, 52.550795451346879 ], [ 6.716329150528302, 52.550251784178805 ], [ 6.716338579549447, 52.549725147016964 ], [ 6.716057549734425, 52.549176324268174 ], [ 6.716360600955238, 52.548551349067296 ], [ 6.716270463387165, 52.548425011526867 ], [ 6.681104934084038, 52.553186091725607 ], [ 6.705429427007329, 52.52103207791248 ], [ 6.703150057653404, 52.511624074149402 ], [ 6.697613052729544, 52.486202366481713 ], [ 6.693462430646067, 52.486229772312775 ], [ 6.678165577105333, 52.491705326795049 ], [ 6.675756761377341, 52.490952678287528 ], [ 6.662204824356319, 52.490068963789689 ], [ 6.661647757404262, 52.490154790096327 ], [ 6.660184984526162, 52.490875302285566 ], [ 6.657459614408876, 52.489560667482067 ], [ 6.657907812683096, 52.488987330759784 ], [ 6.657700045994425, 52.48792943146092 ], [ 6.656485224501733, 52.487811786725267 ], [ 6.65387769240509, 52.487180514166951 ], [ 6.654645226297252, 52.482641022654782 ], [ 6.647626400202507, 52.478593597159737 ], [ 6.651194986389821, 52.475188737227882 ], [ 6.649606045329048, 52.473003539347566 ], [ 6.641542504551079, 52.471143862335573 ], [ 6.640531569215412, 52.472987624661762 ], [ 6.635613510652205, 52.471547481057335 ], [ 6.63118801834388, 52.47187682043451 ], [ 6.626827045437787, 52.473720025353209 ], [ 6.620981218175221, 52.470449670508138 ], [ 6.617710659552438, 52.46915646707933 ], [ 6.616609428975334, 52.469263913435128 ], [ 6.613024740760655, 52.465527260245437 ], [ 6.612097510416032, 52.465920941212616 ], [ 6.610264693404647, 52.467942728840519 ], [ 6.609677135407233, 52.468209294767277 ], [ 6.609781454302628, 52.468600041218458 ], [ 6.609621062450892, 52.468848779371925 ], [ 6.600794408957753, 52.47939154031927 ], [ 6.595022462385356, 52.480210961112761 ], [ 6.554514114685955, 52.487482624390857 ], [ 6.505548740136779, 52.490856897531181 ], [ 6.50477274833168, 52.487366733968372 ], [ 6.503807976565727, 52.481627938083747 ], [ 6.495033312631714, 52.480935426234346 ], [ 6.495077313799837, 52.480785310239469 ], [ 6.494778484035959, 52.480483673682926 ], [ 6.495674164370929, 52.48007773166939 ], [ 6.495938287973646, 52.479373313747217 ], [ 6.495843608741335, 52.479171985511087 ], [ 6.495027923696177, 52.479071956223656 ], [ 6.49322359804629, 52.4793445914841 ], [ 6.492537673818331, 52.47916441161874 ], [ 6.490995708287723, 52.478450595606198 ], [ 6.490538934008181, 52.477919372347031 ], [ 6.48926983504183, 52.477004724375355 ], [ 6.488589229641496, 52.476763093809936 ], [ 6.486893488468408, 52.476633264845361 ], [ 6.485726328371494, 52.476856536533028 ], [ 6.48413053193744, 52.47681201982347 ], [ 6.481174473069567, 52.47715583917833 ], [ 6.479696976060645, 52.477512787679601 ], [ 6.478412072452983, 52.477504698379889 ], [ 6.47599289337299, 52.477040826292217 ], [ 6.475272271698221, 52.476596982550866 ], [ 6.472464512499648, 52.475590791184722 ], [ 6.469431593357677, 52.475519517445569 ], [ 6.468204127182876, 52.475295237588838 ], [ 6.467045006646147, 52.47542249160967 ], [ 6.466244101625483, 52.47506158885605 ], [ 6.465471769718389, 52.475017031334971 ], [ 6.464311202724725, 52.474553671248131 ], [ 6.463176374717626, 52.473860885282186 ], [ 6.461695207683658, 52.473301160000815 ], [ 6.461698354510258, 52.472195036511721 ], [ 6.460739739240441, 52.472096519967849 ], [ 6.461558990243186, 52.471700371794142 ], [ 6.461524438928039, 52.471296616011976 ], [ 6.458640880658744, 52.469804489300351 ], [ 6.45714232574706, 52.469771098024303 ], [ 6.456954811359038, 52.469620918149467 ], [ 6.455478376694547, 52.469465760636318 ], [ 6.45515180655872, 52.469246991051811 ], [ 6.454910692103911, 52.469428256973949 ], [ 6.454764738026809, 52.469206910804665 ], [ 6.454443277053262, 52.469205162058408 ], [ 6.453314750478163, 52.469558761107898 ], [ 6.452913764524268, 52.469959128671235 ], [ 6.453628017856133, 52.471114852664599 ], [ 6.452589536048334, 52.470967188269626 ], [ 6.452201306439556, 52.47036068001011 ], [ 6.452718702479626, 52.46982887140441 ], [ 6.452767217509849, 52.469489765173108 ], [ 6.452236612848647, 52.469081611183974 ], [ 6.451024632695233, 52.468652136832944 ], [ 6.450796301754976, 52.468032813099605 ], [ 6.451801005700324, 52.467516846315682 ], [ 6.452904708593858, 52.467190393512531 ], [ 6.453264273707372, 52.46681230188787 ], [ 6.453341438723202, 52.466305432533204 ], [ 6.452642092946267, 52.464533081063493 ], [ 6.452007416446678, 52.464474689176654 ], [ 6.451280576145242, 52.464847395762291 ], [ 6.451013449191751, 52.465396591394175 ], [ 6.451132097877223, 52.465798988050629 ], [ 6.450966716172402, 52.466440899589131 ], [ 6.450620609077143, 52.466793461446187 ], [ 6.448417117765804, 52.46637775470878 ], [ 6.44755049598453, 52.465533107318173 ], [ 6.447814090583007, 52.464559131036737 ], [ 6.44977341706609, 52.462909764732174 ], [ 6.450137878516647, 52.461963730150977 ], [ 6.451378058436434, 52.461645535437015 ], [ 6.45152327872837, 52.461504751578886 ], [ 6.451480107838877, 52.461266763589308 ], [ 6.450666532952797, 52.461028385636432 ], [ 6.449251114036417, 52.461389809267473 ], [ 6.447435604749527, 52.461598439869917 ], [ 6.446456402548353, 52.461317516507251 ], [ 6.445699181087289, 52.460848256572085 ], [ 6.444901267668189, 52.459747373052991 ], [ 6.4447217077298, 52.458685780298687 ], [ 6.445141623822354, 52.458335382313194 ], [ 6.446184488513702, 52.457909059273177 ], [ 6.446209752787706, 52.457541681793089 ], [ 6.445516047328789, 52.457190544286917 ], [ 6.443663090161365, 52.45708193604559 ], [ 6.443000377627403, 52.456838088864778 ], [ 6.442256694855369, 52.456243310990629 ], [ 6.441832168681466, 52.455567953968988 ], [ 6.441863047605913, 52.455310254443141 ], [ 6.442207372361419, 52.455094737781927 ], [ 6.442835438234761, 52.454961179140511 ], [ 6.444213859012409, 52.455008360920893 ], [ 6.444495965702703, 52.454730311407282 ], [ 6.443175285774463, 52.452523442032401 ], [ 6.442604491529752, 52.450024561930526 ], [ 6.440717936496031, 52.448973174338931 ], [ 6.439681601265972, 52.448146370971834 ], [ 6.438329075339256, 52.448103666183904 ], [ 6.438866787629924, 52.44609075830283 ], [ 6.438694116874068, 52.445731577567685 ], [ 6.437650046750483, 52.444745396643945 ], [ 6.438566400445597, 52.444037773678701 ], [ 6.437195177605133, 52.44355164591876 ], [ 6.428814285071242, 52.438594597153461 ], [ 6.390511709955902, 52.428094278735593 ], [ 6.390332084182814, 52.428243071588213 ], [ 6.380560390253345, 52.429871838345782 ], [ 6.380129084279218, 52.428977445044822 ], [ 6.380277886331538, 52.427898740254214 ], [ 6.368324723774032, 52.4278516955047 ], [ 6.356244920350038, 52.429203914813058 ], [ 6.355581365313869, 52.426050509665409 ], [ 6.350212778176665, 52.426566689444712 ], [ 6.349814829273822, 52.426332576013749 ], [ 6.349499107678762, 52.425009175773177 ], [ 6.349328169330489, 52.424957428102857 ], [ 6.343572338569426, 52.425396411282918 ], [ 6.343581048409271, 52.425900619743331 ], [ 6.343247538145108, 52.426146875825637 ], [ 6.337068935488277, 52.427910100369857 ], [ 6.33570662045527, 52.426543460540238 ], [ 6.33427588204618, 52.424777732035523 ], [ 6.328399779109024, 52.428283476385054 ], [ 6.319025307587293, 52.432189647279515 ], [ 6.314310956598685, 52.433126026737959 ], [ 6.302271352524166, 52.431545561275769 ], [ 6.302058159655271, 52.435159321940837 ], [ 6.301863872657532, 52.435323951867623 ], [ 6.297391984904717, 52.435336682514261 ], [ 6.297302889961857, 52.435157646454641 ], [ 6.294639699992461, 52.435157576919345 ], [ 6.294576112089717, 52.434908403114861 ], [ 6.291905555441764, 52.434824240392004 ], [ 6.291664787176009, 52.435799563123801 ], [ 6.29223208535952, 52.435953621029604 ], [ 6.291721621263651, 52.437427753599238 ], [ 6.291862173421263, 52.4377451816815 ], [ 6.290145660300369, 52.441478911450169 ], [ 6.289412901249947, 52.443784101377389 ], [ 6.290013624650705, 52.446520154269017 ], [ 6.28618870476306, 52.4467873221082 ], [ 6.284520471734936, 52.44673340389064 ], [ 6.281467722585283, 52.447326571588484 ], [ 6.278698433708562, 52.447466566538758 ], [ 6.27854129567998, 52.453513406428257 ], [ 6.278265675029528, 52.457154667113343 ], [ 6.272825999448028, 52.458360181273456 ], [ 6.25360147101444, 52.463182206569719 ], [ 6.248005149572799, 52.463367043001597 ], [ 6.23901092014741, 52.465501890412099 ], [ 6.235760370318003, 52.46572583375611 ], [ 6.218719415361997, 52.464933209311127 ], [ 6.218634275050699, 52.464573395143887 ], [ 6.215955015067132, 52.464356617947928 ], [ 6.21425609483104, 52.464717416767392 ], [ 6.211445818287488, 52.464952392946444 ], [ 6.2059631540306, 52.467771487560071 ], [ 6.202587389374528, 52.468827595161017 ], [ 6.20126327036931, 52.468695021502448 ], [ 6.200128668131988, 52.468319327999154 ], [ 6.196875052796867, 52.468609567642702 ], [ 6.193995403257975, 52.468136373067772 ], [ 6.191060536924282, 52.46849712018453 ], [ 6.187111345433691, 52.468466354830746 ], [ 6.185912073700382, 52.468628016262194 ], [ 6.178530220197366, 52.47059758965937 ], [ 6.177579043587074, 52.470720075833931 ], [ 6.176908134270979, 52.470498706606314 ], [ 6.174687158528268, 52.4686529104793 ], [ 6.170237380253287, 52.469100078815117 ], [ 6.169240414139538, 52.469432745858157 ], [ 6.162712903569824, 52.474350018240358 ], [ 6.167445840631686, 52.475910186017003 ], [ 6.169188460217631, 52.476025406503013 ], [ 6.170046424846608, 52.475783529624771 ], [ 6.171277446700943, 52.477274226115057 ], [ 6.173430354789849, 52.47699507771987 ], [ 6.173432499699899, 52.476772572529775 ], [ 6.173654694746359, 52.476706737757922 ], [ 6.174754973430796, 52.478110888528185 ], [ 6.175318730166591, 52.47807497181261 ], [ 6.176136941604211, 52.477765815643394 ], [ 6.17769517959451, 52.47776242185958 ], [ 6.178047904484476, 52.478020962669362 ], [ 6.177100452977744, 52.479355820926422 ], [ 6.177564381357601, 52.479727952748341 ], [ 6.180484799339515, 52.479352087300242 ], [ 6.180714203293133, 52.479183687899663 ], [ 6.182093704821482, 52.478958594268825 ], [ 6.182881547801396, 52.479811508248225 ], [ 6.18303113573092, 52.480726405512868 ], [ 6.184437688610716, 52.480729619942274 ], [ 6.185120241587415, 52.480432308974173 ], [ 6.188765132890818, 52.480511696588366 ], [ 6.189583384877793, 52.480600242270349 ], [ 6.190552305495411, 52.481651452692105 ], [ 6.192586620956136, 52.481538244907931 ], [ 6.193322274311497, 52.4828040675431 ], [ 6.19383022470174, 52.482896487138433 ], [ 6.193006942301607, 52.484834633355362 ], [ 6.192456448028111, 52.485542083703486 ], [ 6.193381895502923, 52.486133409634512 ], [ 6.193756109873549, 52.486182501993362 ], [ 6.194708741270829, 52.48724138023033 ], [ 6.194595262232728, 52.487535269361061 ], [ 6.1957243224213, 52.488775770948642 ], [ 6.196902669349669, 52.489371201067463 ], [ 6.196702986765335, 52.489660201622122 ], [ 6.198483829148547, 52.490363134222903 ], [ 6.20109711839638, 52.4909597353153 ], [ 6.200973349242775, 52.491156256773259 ], [ 6.200209951219184, 52.490993528162065 ], [ 6.198908937264609, 52.49276224178729 ], [ 6.200040842043451, 52.49314582007198 ], [ 6.200180312507046, 52.493657168653392 ], [ 6.199729116829891, 52.49414297901837 ], [ 6.200029618235709, 52.494941306164534 ], [ 6.199772520840825, 52.495354318132449 ], [ 6.197969429587794, 52.495870644241194 ], [ 6.196919824769586, 52.495582283108199 ], [ 6.195128453263516, 52.496519557600031 ], [ 6.194852244360597, 52.496493386558214 ], [ 6.194551778441946, 52.49677100532061 ], [ 6.194016818325244, 52.496908122899526 ], [ 6.193257352201089, 52.497437000816483 ], [ 6.192592282329751, 52.497513141386349 ], [ 6.192083890374733, 52.498173292865438 ], [ 6.19120122981672, 52.498076075105942 ], [ 6.191092839103772, 52.498164054869328 ], [ 6.191164685094781, 52.498550822351554 ], [ 6.190974036630555, 52.498736049773918 ], [ 6.18981139777065, 52.499113838057006 ], [ 6.189322098506861, 52.498899896273187 ], [ 6.188901188119389, 52.499410457972346 ], [ 6.188218586221366, 52.499630931350445 ], [ 6.18777373123061, 52.500430213685853 ], [ 6.187883113186855, 52.500781282164816 ], [ 6.187762101353218, 52.501024950191031 ], [ 6.186704778621982, 52.501621234306228 ], [ 6.186857462119364, 52.502489668918713 ], [ 6.186504922907096, 52.503509269475373 ], [ 6.184049558289561, 52.505612303827931 ], [ 6.184408004926521, 52.505939423619715 ], [ 6.18458813656988, 52.506626234091172 ], [ 6.184205727544811, 52.507223047734421 ], [ 6.184315494117084, 52.507450806243618 ], [ 6.184149389865273, 52.507803129913903 ], [ 6.173507858080503, 52.518764101119672 ], [ 6.178661278252824, 52.519309226966399 ], [ 6.181968239658273, 52.519321285362871 ], [ 6.18250276069109, 52.519134535307963 ], [ 6.182986407943226, 52.519240972288792 ], [ 6.183056413192412, 52.51950480749894 ], [ 6.182697092378225, 52.519591558716421 ], [ 6.183191709790036, 52.520819995240771 ], [ 6.186199209720344, 52.522608698180726 ], [ 6.187929475118086, 52.523453026515497 ], [ 6.187549635049982, 52.5247561193979 ], [ 6.193149189002081, 52.53183354623895 ], [ 6.189755218640042, 52.536164639806024 ], [ 6.19221793225643, 52.539876331950403 ], [ 6.192825617449762, 52.540304785176346 ], [ 6.192878811059201, 52.540858327184388 ], [ 6.195225178514979, 52.544345774842128 ], [ 6.195484642982501, 52.544415431297239 ], [ 6.19655094268095, 52.545939561125188 ], [ 6.196476619618803, 52.546095498002586 ], [ 6.196234123978862, 52.545978877728238 ], [ 6.205235711500182, 52.55920435954144 ], [ 6.205095310060557, 52.559561548246613 ], [ 6.210697035564568, 52.567859032296575 ], [ 6.209552911543294, 52.568595943906409 ], [ 6.205540658914808, 52.575317806159923 ], [ 6.203773599872743, 52.581242197580757 ], [ 6.203517264374661, 52.581356511989803 ], [ 6.202274416780051, 52.584863857061301 ], [ 6.223859184824938, 52.587425615039727 ], [ 6.22473517499706, 52.588680601142521 ], [ 6.225097053084916, 52.587572188208192 ], [ 6.235676066336658, 52.588892040748576 ], [ 6.235823058490441, 52.588727953422996 ], [ 6.249693038494264, 52.590389604484493 ], [ 6.24987393256911, 52.590746905177703 ], [ 6.258341759263776, 52.591925389029321 ], [ 6.258865280647822, 52.593307843930859 ], [ 6.259152814934444, 52.593496184302467 ], [ 6.268136346679519, 52.594459635850662 ], [ 6.270092305239083, 52.59484912866472 ], [ 6.270662294393994, 52.594906835012402 ], [ 6.271493733457628, 52.594538849131659 ], [ 6.274689725853472, 52.594683466039235 ], [ 6.274900645844825, 52.593604819810643 ], [ 6.283892092203907, 52.594702970187598 ], [ 6.283961921579134, 52.594840785042251 ], [ 6.283506907761915, 52.59564803039563 ], [ 6.286280289208096, 52.596101682123809 ], [ 6.286960761222593, 52.59509177626871 ], [ 6.303095476658725, 52.597046336416149 ], [ 6.314328627775769, 52.626379766415553 ], [ 6.314754785714623, 52.627770731259822 ], [ 6.31466450123973, 52.627896810175407 ] ] ], [ [ [ 6.216704113704002, 52.464197365124861 ], [ 6.216817675702263, 52.46418437012818 ], [ 6.216824890798268, 52.464171688808989 ], [ 6.216704113704002, 52.464197365124861 ] ] ] ] } }
]
}
