{
"type": "FeatureCollection",
"name": "SWVPO2501",
"crs": { "type": "name", "properties": { "name": "urn:ogc:def:crs:OGC:1.3:CRS84" } },
"features": [
{ "type": "Feature", "properties": { "PO SWV": "PO2501", "strokeColor": "#A9A9A9", "strokeWidth": 2, "fillColor": "#ADD8E6" }, "geometry": { "type": "Polygon", "coordinates": [ [ [ 6.073775895810616, 52.330538828075667 ], [ 6.073127166613892, 52.328544473582461 ], [ 6.072338404234428, 52.3277239291779 ], [ 6.072270647555348, 52.326476098802694 ], [ 6.071645839977032, 52.325000934209626 ], [ 6.071841989148321, 52.324871727977062 ], [ 6.071151505942469, 52.32245843044457 ], [ 6.070867125725318, 52.322424437768177 ], [ 6.070662847613815, 52.321689393239794 ], [ 6.069392026452546, 52.321864064392358 ], [ 6.068815607884473, 52.32167237812736 ], [ 6.068623024952113, 52.321783551299994 ], [ 6.066983852397363, 52.321039128412174 ], [ 6.066194173391462, 52.32022575640859 ], [ 6.066503583672673, 52.319790302659385 ], [ 6.066278437864196, 52.319031992693297 ], [ 6.066588172503272, 52.31840343279071 ], [ 6.066623668202256, 52.317902324875973 ], [ 6.06806406407836, 52.317852645410881 ], [ 6.071837671903422, 52.317285638007391 ], [ 6.0737224295597, 52.317844174519649 ], [ 6.077527224900516, 52.31792363483256 ], [ 6.079889806536961, 52.3176675950386 ], [ 6.080170458074662, 52.317135703241512 ], [ 6.080004048617142, 52.316317207531533 ], [ 6.08006399285556, 52.315689499405948 ], [ 6.080418935828006, 52.315100509677308 ], [ 6.080410841133524, 52.314650634081261 ], [ 6.081069160410268, 52.312002289171183 ], [ 6.084877346411989, 52.311765550322136 ], [ 6.084504369362469, 52.311445413142252 ], [ 6.08366678414286, 52.309491878665604 ], [ 6.08302798598692, 52.307114976369803 ], [ 6.083083364568671, 52.305498987921212 ], [ 6.083546204876161, 52.303399305389128 ], [ 6.083982818631092, 52.303354245784746 ], [ 6.084298916894979, 52.302217225350724 ], [ 6.084058357941269, 52.302080033433661 ], [ 6.084185375113196, 52.301677913895901 ], [ 6.086255732930848, 52.301995469104931 ], [ 6.087984242457474, 52.300488054318734 ], [ 6.09092232926021, 52.300087568530465 ], [ 6.099036692811269, 52.300227591731534 ], [ 6.09870145843793, 52.301251504325911 ], [ 6.101394587417331, 52.301291802124723 ], [ 6.102129341842933, 52.29968686222329 ], [ 6.104215500282542, 52.297840360804244 ], [ 6.104997257707501, 52.296754315367735 ], [ 6.105093964036428, 52.296241342174248 ], [ 6.10487090136369, 52.294773579557024 ], [ 6.105212120349624, 52.293644414002841 ], [ 6.105940640970439, 52.292473202073815 ], [ 6.106951266391835, 52.291621128139724 ], [ 6.109785699212703, 52.289950599083696 ], [ 6.111004010265858, 52.288850300717343 ], [ 6.111411957616415, 52.288253699767068 ], [ 6.111843178221537, 52.286943070531912 ], [ 6.111830059874642, 52.28556435084954 ], [ 6.111351889148989, 52.281949817168027 ], [ 6.11136624304839, 52.280734545254454 ], [ 6.111778163196674, 52.279533435471144 ], [ 6.112706309860449, 52.277989082781062 ], [ 6.11470309963503, 52.276211378018324 ], [ 6.118308342994601, 52.274145520205217 ], [ 6.12118153331792, 52.27209475024835 ], [ 6.122303748653878, 52.270783107259028 ], [ 6.123072983309547, 52.269296839035491 ], [ 6.123346345618045, 52.267938184597377 ], [ 6.123542836484243, 52.265546264780646 ], [ 6.124501414552874, 52.263857913898512 ], [ 6.125327098325402, 52.263069970147008 ], [ 6.126878028405627, 52.262077882668748 ], [ 6.130160264720988, 52.260732469449955 ], [ 6.129739620333636, 52.260203539857649 ], [ 6.12968298857598, 52.259795866641063 ], [ 6.128217144136025, 52.258971766534422 ], [ 6.128422730853956, 52.258747927503158 ], [ 6.128299908260201, 52.258541284097852 ], [ 6.127586877921436, 52.258589934113964 ], [ 6.125808398279652, 52.257404181357082 ], [ 6.125234418032719, 52.256777794518925 ], [ 6.124590927855639, 52.255791498365099 ], [ 6.123751689050052, 52.253700759463875 ], [ 6.123656616641129, 52.252738000859011 ], [ 6.123949873929772, 52.251542660373168 ], [ 6.124790464785932, 52.251119266565063 ], [ 6.126478664129566, 52.250753241973548 ], [ 6.130975047896404, 52.250556487203433 ], [ 6.133755172842741, 52.249928205162675 ], [ 6.135437177466735, 52.249711525624171 ], [ 6.136935141717232, 52.249052572891138 ], [ 6.137671608691284, 52.248465509009918 ], [ 6.138806849600553, 52.24788919586652 ], [ 6.141628046531777, 52.247011349685941 ], [ 6.143339343764992, 52.24669246038934 ], [ 6.143490045593153, 52.246520040419369 ], [ 6.143904773332922, 52.246943017618193 ], [ 6.144480925168547, 52.247218036006316 ], [ 6.149354154231657, 52.247961141749144 ], [ 6.150019679518378, 52.248415930649799 ], [ 6.151959233186968, 52.247777753282627 ], [ 6.153813419894975, 52.246865524061938 ], [ 6.154300734116126, 52.245710250696867 ], [ 6.154017255809137, 52.24445044321358 ], [ 6.153664010302309, 52.243937909378097 ], [ 6.152545418251582, 52.243381282340792 ], [ 6.149791601178435, 52.241605462580523 ], [ 6.144388266662913, 52.239118382425701 ], [ 6.143012554816951, 52.238763844922104 ], [ 6.142353924680418, 52.238415902823107 ], [ 6.141736517863587, 52.23656795411798 ], [ 6.141818458873233, 52.234152406311203 ], [ 6.142036456366541, 52.233472481875573 ], [ 6.142407146862021, 52.232683062978417 ], [ 6.143754467250322, 52.23105288728636 ], [ 6.145833295053178, 52.229069565144982 ], [ 6.147714844578095, 52.227786451569351 ], [ 6.149606536105124, 52.227206191185104 ], [ 6.151527064223084, 52.2270479727324 ], [ 6.157222811399315, 52.225628165534303 ], [ 6.160168280488358, 52.225321992409526 ], [ 6.161430717522393, 52.224843390595431 ], [ 6.162367202032652, 52.224131155860562 ], [ 6.164028631939686, 52.221953447845834 ], [ 6.164019795987995, 52.221327999804913 ], [ 6.163605469093399, 52.220760034914633 ], [ 6.163397177274206, 52.219907289499645 ], [ 6.162851656052286, 52.218978408440854 ], [ 6.162728606117405, 52.21841604886216 ], [ 6.16370055615813, 52.218011755518084 ], [ 6.164085804958003, 52.217540593770991 ], [ 6.165348299323317, 52.217604705547863 ], [ 6.165902575207612, 52.2178385513865 ], [ 6.166647606720182, 52.218904900739318 ], [ 6.167560491499115, 52.218954155028612 ], [ 6.167436561082568, 52.220151041795738 ], [ 6.168473840902817, 52.220710054545236 ], [ 6.16570572277663, 52.222211768674882 ], [ 6.165400728802552, 52.222518558458979 ], [ 6.165064538787786, 52.223090336879061 ], [ 6.165557949954921, 52.223519930713721 ], [ 6.164431232056264, 52.22437251066598 ], [ 6.163811653217457, 52.225506286005832 ], [ 6.163983049714409, 52.225680286423341 ], [ 6.163805562008505, 52.226292732832647 ], [ 6.163525723405282, 52.226787807311183 ], [ 6.162963595996217, 52.227183635518713 ], [ 6.162408334617837, 52.227957804632133 ], [ 6.162641303163481, 52.228130582724511 ], [ 6.167716948204067, 52.226338410040348 ], [ 6.168299233116016, 52.227234598566262 ], [ 6.167297049978155, 52.227669811144587 ], [ 6.163637430312865, 52.228173948901897 ], [ 6.16297621309401, 52.228436560363008 ], [ 6.162952937567277, 52.228588161967082 ], [ 6.1662366822735, 52.231108462243355 ], [ 6.174686321855699, 52.232981471060235 ], [ 6.178658719452209, 52.233659825490655 ], [ 6.17885152790827, 52.233561615759335 ], [ 6.182522990209972, 52.233924712186138 ], [ 6.182915204093822, 52.233824543191709 ], [ 6.185044445114984, 52.232062304972658 ], [ 6.185002265192331, 52.23186646536093 ], [ 6.186442147398451, 52.231360166015619 ], [ 6.189151031304012, 52.229284501815719 ], [ 6.189471936130373, 52.22942922800268 ], [ 6.190435984293964, 52.229337995940035 ], [ 6.191497015281456, 52.229709894203843 ], [ 6.193352881181238, 52.229257820364204 ], [ 6.19568349394596, 52.229466516321217 ], [ 6.19657841679256, 52.229265194954877 ], [ 6.19860048825004, 52.229245724450294 ], [ 6.201956549182552, 52.229522331465347 ], [ 6.210906465974485, 52.228283660010362 ], [ 6.216995379913508, 52.226564750411313 ], [ 6.215384474833702, 52.229345625418418 ], [ 6.215563255042617, 52.229453604328711 ], [ 6.214428612202703, 52.231275387770992 ], [ 6.214452751245347, 52.23151475594306 ], [ 6.215455473922749, 52.231640900551653 ], [ 6.216300644663725, 52.231366959386989 ], [ 6.216300457867909, 52.231544633293623 ], [ 6.216510908368038, 52.231569906764669 ], [ 6.221003549907853, 52.229373541931352 ], [ 6.222499820237912, 52.228962783301185 ], [ 6.223215526859941, 52.229242568594337 ], [ 6.223981645114452, 52.229100539104564 ], [ 6.226392745273154, 52.229515489388291 ], [ 6.227022643011797, 52.2296880287211 ], [ 6.227171226947032, 52.229879855729827 ], [ 6.227936189526448, 52.229867296262874 ], [ 6.228497180465156, 52.229620088104255 ], [ 6.229053721605299, 52.229633048071605 ], [ 6.229444860578021, 52.229366519329631 ], [ 6.230000549673345, 52.229497558643608 ], [ 6.230123722165559, 52.229248025388976 ], [ 6.230484506506076, 52.229156368777659 ], [ 6.232191383209904, 52.229355721463548 ], [ 6.233532626825683, 52.228941511620214 ], [ 6.233967825164554, 52.229128934058913 ], [ 6.234522531665266, 52.228923667683027 ], [ 6.235223611741317, 52.228257131383174 ], [ 6.2360049591725, 52.228176756457209 ], [ 6.236660591139812, 52.228307395343016 ], [ 6.237519180465094, 52.228121109705796 ], [ 6.238069882912828, 52.22784949413154 ], [ 6.238151406890545, 52.227649234815843 ], [ 6.239073256788035, 52.227850958414187 ], [ 6.239514909100277, 52.227582729987851 ], [ 6.24007445998554, 52.22782786731679 ], [ 6.241855053271256, 52.227791568042626 ], [ 6.24291958482867, 52.228305862490451 ], [ 6.24371994122935, 52.228202582451509 ], [ 6.244685112796924, 52.22837124892439 ], [ 6.244968342636503, 52.22822514563186 ], [ 6.244887618117033, 52.227961173051888 ], [ 6.245193593873051, 52.227772265858697 ], [ 6.245138084363847, 52.227550711586041 ], [ 6.245693268034018, 52.22735820545396 ], [ 6.246851276251039, 52.227208385115404 ], [ 6.247465004162351, 52.227318345569159 ], [ 6.247618525082045, 52.22755034590724 ], [ 6.248057853665216, 52.227580012485674 ], [ 6.248237750129601, 52.227750382341895 ], [ 6.248635718791702, 52.227737166143804 ], [ 6.248851602498203, 52.22766087860888 ], [ 6.248837400639065, 52.227504899239136 ], [ 6.249205441854344, 52.227418513509022 ], [ 6.249932483064512, 52.227598281390073 ], [ 6.250436031448027, 52.22700663241001 ], [ 6.251199837312206, 52.22709891955882 ], [ 6.251280118093078, 52.227259991869211 ], [ 6.251975800026082, 52.227406159088403 ], [ 6.252614430723867, 52.22712950677542 ], [ 6.253093700165724, 52.227273095103669 ], [ 6.253210814863973, 52.227502008920624 ], [ 6.254454435112389, 52.227387249363041 ], [ 6.254586910049993, 52.227581706389927 ], [ 6.255021305527693, 52.227668890352795 ], [ 6.255446603304446, 52.227595581969673 ], [ 6.255843809595333, 52.227279642982253 ], [ 6.257272070932766, 52.227380362902515 ], [ 6.257646597033935, 52.22778165873919 ], [ 6.258586238859222, 52.227841078543726 ], [ 6.258767220264272, 52.22829165158592 ], [ 6.25946715323479, 52.228519132000706 ], [ 6.259467151501382, 52.228823466969232 ], [ 6.259827018149672, 52.228903809240997 ], [ 6.25990036817621, 52.229194517187771 ], [ 6.260062140475984, 52.22924210944884 ], [ 6.260399743299179, 52.229111669380728 ], [ 6.260934572517534, 52.229168958949352 ], [ 6.261303647064477, 52.228979806255253 ], [ 6.261241449805108, 52.22874190581657 ], [ 6.261658580113687, 52.228480949684148 ], [ 6.262297687256561, 52.228529573494271 ], [ 6.263085078809964, 52.228294000216991 ], [ 6.263631711450635, 52.2277963077373 ], [ 6.264606435420673, 52.227811493721177 ], [ 6.264821238398365, 52.227549950432341 ], [ 6.2647954931958, 52.227332388711332 ], [ 6.267727920862944, 52.227003094018642 ], [ 6.269412355879648, 52.226556700062147 ], [ 6.271191944437295, 52.226515454019278 ], [ 6.270862327284303, 52.227814156542401 ], [ 6.27098463384077, 52.228007411663739 ], [ 6.275370696662943, 52.227780218172498 ], [ 6.276101897212533, 52.227866731447762 ], [ 6.277148063023064, 52.228023957334912 ], [ 6.277099986494522, 52.228334221991027 ], [ 6.277529422356634, 52.2285302407413 ], [ 6.277961218100831, 52.228500892401428 ], [ 6.286310899945623, 52.230459508600852 ], [ 6.28682022746632, 52.229937302594045 ], [ 6.287243964137837, 52.229827198608845 ], [ 6.291787177585787, 52.230982227402073 ], [ 6.292742251884265, 52.230968868879621 ], [ 6.29294109739285, 52.230818662990153 ], [ 6.293063133689815, 52.22961160481988 ], [ 6.297024778138705, 52.229072233061288 ], [ 6.298013606804619, 52.225630225696385 ], [ 6.32042605834991, 52.225769067708804 ], [ 6.321097585774026, 52.22581741221925 ], [ 6.325424768113932, 52.227096206662594 ], [ 6.338555596006699, 52.227248982090352 ], [ 6.33807830777837, 52.228330490591354 ], [ 6.338592303490247, 52.230383879922549 ], [ 6.338588321438925, 52.231365516382255 ], [ 6.337946735800807, 52.234131859659598 ], [ 6.338048869375563, 52.234240501691829 ], [ 6.337950993492538, 52.236289852080141 ], [ 6.341128450122183, 52.236096310869968 ], [ 6.341889210490905, 52.236547032900191 ], [ 6.341710103810717, 52.237286986661012 ], [ 6.341130533570433, 52.237447832753723 ], [ 6.341159325800782, 52.237705956903987 ], [ 6.342851727060831, 52.23784902267171 ], [ 6.344922947691623, 52.23869012036652 ], [ 6.347119855009286, 52.239258505608326 ], [ 6.348713472392074, 52.238783306934621 ], [ 6.349434979920167, 52.238890392485118 ], [ 6.34909247970548, 52.240234466009191 ], [ 6.34956059641969, 52.24128279870208 ], [ 6.350879385075306, 52.241779303247966 ], [ 6.358886378740062, 52.241863602007619 ], [ 6.366838703663157, 52.241632868228365 ], [ 6.381850827256731, 52.246212804986428 ], [ 6.382400136446877, 52.245747775677835 ], [ 6.383462317739115, 52.244103226555666 ], [ 6.38598238859517, 52.243207393448593 ], [ 6.387748125169331, 52.24306550344135 ], [ 6.389873376434405, 52.242658721124904 ], [ 6.39086227723676, 52.242605133817193 ], [ 6.393395256069322, 52.242968946811381 ], [ 6.395177153461067, 52.242830736986804 ], [ 6.399003737213318, 52.243344999109894 ], [ 6.402623592851101, 52.243371598090008 ], [ 6.405975082826175, 52.243004716675507 ], [ 6.411056245304423, 52.243146266350053 ], [ 6.412318849577469, 52.242769846060916 ], [ 6.413834861985568, 52.242712661108406 ], [ 6.416662874588686, 52.242234081490388 ], [ 6.416413330251999, 52.238188229573261 ], [ 6.416685165128174, 52.238002577068286 ], [ 6.416892891646352, 52.23718381978513 ], [ 6.42321224813238, 52.232075365428237 ], [ 6.42486883445008, 52.229765184144092 ], [ 6.425917142904006, 52.227414668459957 ], [ 6.427575468867129, 52.225521640417135 ], [ 6.428540927892628, 52.223932072826486 ], [ 6.431999816470687, 52.221019976829865 ], [ 6.436635441094383, 52.218898607971205 ], [ 6.437771526897657, 52.218155860793466 ], [ 6.438321950000422, 52.218088079222497 ], [ 6.439639314173856, 52.217441395871191 ], [ 6.440114682957216, 52.217047704883285 ], [ 6.440541363003998, 52.216201662671899 ], [ 6.44186537751026, 52.21575667883846 ], [ 6.443722327127463, 52.214689085108084 ], [ 6.445694486796709, 52.213115737920674 ], [ 6.446536358971903, 52.212778307427705 ], [ 6.448046383753635, 52.211357695403962 ], [ 6.448986290411005, 52.21076351856879 ], [ 6.449283715693255, 52.210008291447664 ], [ 6.449954818723628, 52.209759984591578 ], [ 6.450754645331273, 52.208258326647019 ], [ 6.451246719874549, 52.20771498094927 ], [ 6.453286325831129, 52.206315936779724 ], [ 6.453809245434345, 52.205298816786438 ], [ 6.453504782183157, 52.204342493530895 ], [ 6.454358868110136, 52.203438478090128 ], [ 6.454938822619371, 52.202456015812054 ], [ 6.456599536641505, 52.20159660282755 ], [ 6.457298237575825, 52.201064566360039 ], [ 6.458456696872971, 52.201021994312931 ], [ 6.460755303860876, 52.200503502194955 ], [ 6.462075436837621, 52.200492860739281 ], [ 6.462432917512309, 52.200803658659787 ], [ 6.463056199641205, 52.200851074955409 ], [ 6.46517476367277, 52.200657652384997 ], [ 6.46622024895734, 52.200299186851666 ], [ 6.467485237368049, 52.200509504041058 ], [ 6.468651814478127, 52.200227817298682 ], [ 6.468864917193205, 52.199830618337003 ], [ 6.470359312017629, 52.199448748203075 ], [ 6.470337550829821, 52.199096759914603 ], [ 6.469565989346658, 52.198288701361101 ], [ 6.469865508553736, 52.196800997563059 ], [ 6.469627548605891, 52.195634315051606 ], [ 6.469795504211159, 52.195148318028721 ], [ 6.469418465404189, 52.194495218643773 ], [ 6.470080371465387, 52.192751252192458 ], [ 6.471241280090267, 52.191112722810445 ], [ 6.472322182326581, 52.190007129001081 ], [ 6.47304780623983, 52.188388114850447 ], [ 6.474284450236922, 52.187772907381145 ], [ 6.477634030522135, 52.185253518263785 ], [ 6.479248033129667, 52.182352748423234 ], [ 6.483275983891409, 52.18181760632568 ], [ 6.484893057474584, 52.181445645237673 ], [ 6.486406180558215, 52.180533244775759 ], [ 6.488591989224996, 52.18065040435603 ], [ 6.490872497821234, 52.179854195369622 ], [ 6.492504762221366, 52.178124413003545 ], [ 6.492504283889199, 52.17745717582639 ], [ 6.49331032559545, 52.177285284565635 ], [ 6.495648307391385, 52.17723890589064 ], [ 6.50068935133557, 52.178398441341798 ], [ 6.50451465780731, 52.179488673333012 ], [ 6.511586208266559, 52.181012688218324 ], [ 6.514159436818429, 52.181411272699982 ], [ 6.51768952767153, 52.181367360467256 ], [ 6.517896883015529, 52.181184912623884 ], [ 6.522395668111615, 52.180823202183554 ], [ 6.524368090670496, 52.180401017264195 ], [ 6.530236596749238, 52.180032616700494 ], [ 6.555344705062581, 52.177356291471312 ], [ 6.574642257954313, 52.179876608383495 ], [ 6.588459633818904, 52.182278281075824 ], [ 6.589472287651688, 52.182313920653314 ], [ 6.589939425371368, 52.182586811353616 ], [ 6.59042871789906, 52.182562585103788 ], [ 6.591665143873964, 52.18206406494317 ], [ 6.591646482643875, 52.181925190423293 ], [ 6.591356097623337, 52.181843287753033 ], [ 6.592194716717227, 52.181786700101576 ], [ 6.593511875546991, 52.180872399906043 ], [ 6.593647571041761, 52.180477117380185 ], [ 6.594250769448904, 52.180534063504979 ], [ 6.595405996964641, 52.180047157196654 ], [ 6.596170769586493, 52.179918379184436 ], [ 6.598790673524935, 52.177978131229011 ], [ 6.606391407091095, 52.173158800078376 ], [ 6.606269010819641, 52.172290345009721 ], [ 6.60473117114395, 52.171695772465334 ], [ 6.60431578862532, 52.171441285063153 ], [ 6.604357781707506, 52.171271725404061 ], [ 6.60383780919588, 52.170754555033724 ], [ 6.603558469998399, 52.170564766543421 ], [ 6.603268082285783, 52.17062941455373 ], [ 6.603099919129279, 52.169675590216002 ], [ 6.603525124859709, 52.169198571701529 ], [ 6.603059812571336, 52.169011430254209 ], [ 6.605138594357795, 52.166714299618377 ], [ 6.605059571293211, 52.166243597455114 ], [ 6.605544260552593, 52.16620224768311 ], [ 6.60738025891531, 52.164733340551656 ], [ 6.609296377069029, 52.165239843315341 ], [ 6.610702815391191, 52.164134374371301 ], [ 6.611288475977627, 52.163945570036866 ], [ 6.612150597985147, 52.163280982060918 ], [ 6.614039511777061, 52.164306525352927 ], [ 6.614679373290018, 52.164554092520163 ], [ 6.614846369890757, 52.164400312922879 ], [ 6.615456439065537, 52.164553442894928 ], [ 6.617158975892232, 52.165281551457028 ], [ 6.621649042243823, 52.168507280142222 ], [ 6.623609507933862, 52.168387731413475 ], [ 6.624866966073384, 52.168731893942962 ], [ 6.624940844881761, 52.169094168639162 ], [ 6.62579331616714, 52.169533951791884 ], [ 6.625700037711225, 52.169977153079245 ], [ 6.626236995721738, 52.170662261558768 ], [ 6.626454497936344, 52.171445377458227 ], [ 6.625109893146893, 52.172012397484124 ], [ 6.625090605096965, 52.17217946528622 ], [ 6.625845423056863, 52.172599091284539 ], [ 6.626751291182294, 52.172312372776275 ], [ 6.627040223133766, 52.172283086282299 ], [ 6.627415084462798, 52.17249442635859 ], [ 6.629070974613944, 52.172138306170091 ], [ 6.630400790421036, 52.172914093507714 ], [ 6.630227647870492, 52.173522971137011 ], [ 6.630526059771962, 52.173697683053717 ], [ 6.630714104241518, 52.173426847390658 ], [ 6.631221060923865, 52.173182068888721 ], [ 6.634914748049197, 52.172249391169579 ], [ 6.640242119870551, 52.167573506614985 ], [ 6.641765989146837, 52.170431934727652 ], [ 6.645070149040304, 52.174289821635298 ], [ 6.664625129765612, 52.168021945264584 ], [ 6.665628617984236, 52.167362689251618 ], [ 6.665243173925669, 52.167032091850743 ], [ 6.666891575499495, 52.166579721663851 ], [ 6.671375694507494, 52.165776183526724 ], [ 6.673489333773647, 52.163278935905325 ], [ 6.67290329450157, 52.161396960957212 ], [ 6.673087581051933, 52.161299601658122 ], [ 6.673415800731025, 52.161575809489733 ], [ 6.674151438661339, 52.161318191762525 ], [ 6.674142847065413, 52.161130924284322 ], [ 6.673691259926996, 52.16080869229161 ], [ 6.673672267210412, 52.160510077362744 ], [ 6.673264616760894, 52.160152854406512 ], [ 6.673724247802495, 52.159916715803938 ], [ 6.673943469525235, 52.158924458634239 ], [ 6.674354713590085, 52.158679640749305 ], [ 6.674371301866368, 52.158496830434217 ], [ 6.672854121228784, 52.158196795605313 ], [ 6.672807917536083, 52.158006421437804 ], [ 6.671685251708388, 52.157113161705105 ], [ 6.671390776349905, 52.156625220149749 ], [ 6.671388482871688, 52.156190003291599 ], [ 6.670855440182257, 52.156109749510158 ], [ 6.670496894908195, 52.156324203340013 ], [ 6.670692835861966, 52.155898810160444 ], [ 6.672594207574471, 52.15565846008645 ], [ 6.673566608406848, 52.154993954110985 ], [ 6.673171527033797, 52.154682233763225 ], [ 6.673366824356122, 52.154416550822383 ], [ 6.672932524258785, 52.154001473274178 ], [ 6.672562253752789, 52.153096033363944 ], [ 6.673030272808187, 52.152957313988288 ], [ 6.673063145076225, 52.152487346492812 ], [ 6.673912356042909, 52.152066781442159 ], [ 6.672805909064799, 52.150442375928506 ], [ 6.671528294285941, 52.150397886048758 ], [ 6.67384374404056, 52.148316233994358 ], [ 6.674494742746555, 52.142778297692132 ], [ 6.673974678307578, 52.141172604405931 ], [ 6.672672756582732, 52.139229765962 ], [ 6.671919818704779, 52.138673320779176 ], [ 6.670668502627633, 52.138152697223461 ], [ 6.668865725908629, 52.137032290582155 ], [ 6.667964311146716, 52.13585074182491 ], [ 6.662600540752179, 52.130215645839968 ], [ 6.677709971183777, 52.126057348876991 ], [ 6.697833748018748, 52.123650814969857 ], [ 6.703199913946211, 52.122339697238694 ], [ 6.707552318430697, 52.120876095342169 ], [ 6.711529552117709, 52.119740975364905 ], [ 6.713992426062308, 52.11935880524954 ], [ 6.7162927906386, 52.118370490345839 ], [ 6.730735898933699, 52.118517527217953 ], [ 6.73780150451373, 52.118297683543233 ], [ 6.737911203364734, 52.118171393963969 ], [ 6.739395789061464, 52.118203401301955 ], [ 6.739505163005168, 52.118656413555641 ], [ 6.760599850837847, 52.11887607310846 ], [ 6.759817888880756, 52.112943767325874 ], [ 6.759673206499211, 52.109288937802518 ], [ 6.759330565265983, 52.107509771849045 ], [ 6.758862075512285, 52.106545925586325 ], [ 6.758661715653809, 52.105271118035589 ], [ 6.758467811930993, 52.105205346389539 ], [ 6.758126128379581, 52.10394914485137 ], [ 6.757721674653123, 52.099257671410484 ], [ 6.756627264030689, 52.097916904685292 ], [ 6.755692815430704, 52.097177377059957 ], [ 6.756401685744906, 52.096904644703265 ], [ 6.755598508195582, 52.095970212050297 ], [ 6.755449564151508, 52.095384093784105 ], [ 6.755047054948009, 52.0947731882951 ], [ 6.753269987767439, 52.095780687273397 ], [ 6.750305737878835, 52.095680280934445 ], [ 6.748758904851508, 52.094741978963867 ], [ 6.746578354543243, 52.094276797511746 ], [ 6.745548830940248, 52.093086385817436 ], [ 6.74462640581983, 52.09302035129366 ], [ 6.74528369075641, 52.092116225352314 ], [ 6.744733099066965, 52.091763071358585 ], [ 6.74515478639242, 52.091212672803124 ], [ 6.745565917234634, 52.090142165673754 ], [ 6.750345489855866, 52.087566773499212 ], [ 6.751184295141952, 52.085499505738561 ], [ 6.751012906355732, 52.084991726864338 ], [ 6.747667822240998, 52.08184188936616 ], [ 6.745078147294096, 52.080829088197802 ], [ 6.744081050260833, 52.080252141241125 ], [ 6.735517169129151, 52.074545464611916 ], [ 6.713879493956869, 52.072802160695865 ], [ 6.69599302767036, 52.070044175043989 ], [ 6.6948216454666, 52.069738878113867 ], [ 6.695545639118415, 52.068659518380905 ], [ 6.696541729789941, 52.068358718888661 ], [ 6.69696579402569, 52.067363110442841 ], [ 6.695960304164537, 52.064214821638643 ], [ 6.695747830277067, 52.064077811720679 ], [ 6.695309732173564, 52.064112487253766 ], [ 6.691784007468708, 52.059090287179679 ], [ 6.691551827733385, 52.059046573823743 ], [ 6.689638344710058, 52.05637944197948 ], [ 6.687425844812647, 52.056295617003997 ], [ 6.686905633197099, 52.055492906830686 ], [ 6.686895960886543, 52.054257948381512 ], [ 6.687083522369329, 52.053146973418016 ], [ 6.686882758267861, 52.052622578356043 ], [ 6.688299137136484, 52.052356760441334 ], [ 6.688081134648596, 52.044362542701236 ], [ 6.684054961294502, 52.044928833775934 ], [ 6.678755146853033, 52.04739475304001 ], [ 6.674294600767128, 52.048783782473556 ], [ 6.672581319471696, 52.048912438734149 ], [ 6.671457203103542, 52.04933830516562 ], [ 6.670221901752479, 52.049530140843025 ], [ 6.670096232859528, 52.049694875705512 ], [ 6.666780779980033, 52.050412668316213 ], [ 6.66560673806481, 52.050222207142468 ], [ 6.661877820389869, 52.051672101899477 ], [ 6.66188942426205, 52.052179170436226 ], [ 6.664023050783747, 52.05441306547192 ], [ 6.663906311119471, 52.057724394911176 ], [ 6.663078706296622, 52.059284764371391 ], [ 6.661501320287416, 52.060125052774922 ], [ 6.66056255244092, 52.061256364231632 ], [ 6.659979483483713, 52.061634799748632 ], [ 6.658998903095045, 52.063137219576426 ], [ 6.656047966504101, 52.063203218832129 ], [ 6.652485473064413, 52.063713125413479 ], [ 6.651158997203533, 52.063697085134471 ], [ 6.646810599317863, 52.06550663474421 ], [ 6.643158083128586, 52.060308890094902 ], [ 6.638525186850063, 52.060580493928526 ], [ 6.635850395505198, 52.055720276858018 ], [ 6.635169890133881, 52.05595189826078 ], [ 6.634798552340831, 52.056268348216271 ], [ 6.629198981052601, 52.057563789458577 ], [ 6.630716407105189, 52.060226765034621 ], [ 6.63110649444898, 52.061084057448674 ], [ 6.631063602819827, 52.061311484581111 ], [ 6.631809539781987, 52.06269705944969 ], [ 6.632004625377017, 52.063515541295644 ], [ 6.628841778940719, 52.063671972107883 ], [ 6.629172299878237, 52.064238819971443 ], [ 6.628764197396506, 52.064361840839325 ], [ 6.623764358948343, 52.063720113570156 ], [ 6.621408109265378, 52.065668700185384 ], [ 6.615727132348806, 52.067199564079566 ], [ 6.613073770836966, 52.068139604058672 ], [ 6.606027888087793, 52.065159020915658 ], [ 6.60631471936937, 52.060426007834145 ], [ 6.604170511277868, 52.055622262229292 ], [ 6.605316363656645, 52.051846827266907 ], [ 6.603512067496811, 52.050958912165015 ], [ 6.602949709694138, 52.050291322905828 ], [ 6.601422303440872, 52.050374926000245 ], [ 6.601013477008144, 52.049938878625454 ], [ 6.598717367524483, 52.049251185036084 ], [ 6.597359518818132, 52.047879598879867 ], [ 6.596514785331215, 52.047316942497133 ], [ 6.595810219862498, 52.046226590901739 ], [ 6.596356115562385, 52.044157989129701 ], [ 6.596015079092467, 52.044095787574371 ], [ 6.595455700135608, 52.04346309283568 ], [ 6.595841067117671, 52.043264322286802 ], [ 6.59608019446957, 52.042867398219911 ], [ 6.590684674629783, 52.041655818702935 ], [ 6.590749231863175, 52.041369554512762 ], [ 6.59003714456679, 52.040877685901393 ], [ 6.590065776630682, 52.040702524739167 ], [ 6.590419746085463, 52.04054261688249 ], [ 6.590208079862969, 52.040050943463001 ], [ 6.59022520667749, 52.039590507899625 ], [ 6.589697986037729, 52.039410339725933 ], [ 6.589861970112036, 52.039122588703599 ], [ 6.588761140264626, 52.038903047540494 ], [ 6.586846966186414, 52.038083805711082 ], [ 6.574281933172643, 52.032028966769801 ], [ 6.571530697492632, 52.031491384788637 ], [ 6.571422457267436, 52.030968452690232 ], [ 6.571603286488739, 52.030513408278601 ], [ 6.570028425642939, 52.030261160405082 ], [ 6.56926656732503, 52.031056609003812 ], [ 6.552474975168378, 52.027881839564067 ], [ 6.547602469473661, 52.030529009393874 ], [ 6.539015182478514, 52.025304499523408 ], [ 6.524256874939802, 52.037152827949974 ], [ 6.522819000879724, 52.03828719947299 ], [ 6.522674516376478, 52.038246366007073 ], [ 6.517342444304187, 52.042498192445251 ], [ 6.514821931331117, 52.040615013933397 ], [ 6.508702646389692, 52.044366180530453 ], [ 6.49957400600563, 52.035935158191052 ], [ 6.494285139361207, 52.037950575268752 ], [ 6.492773453496932, 52.03600972195904 ], [ 6.491605512171875, 52.036458361868405 ], [ 6.490575798881452, 52.035687499358346 ], [ 6.490945512921137, 52.03522506933048 ], [ 6.489694089249361, 52.034204141741213 ], [ 6.489797905670398, 52.033934872073026 ], [ 6.487927064673899, 52.032448225340104 ], [ 6.486789853076847, 52.033888604619214 ], [ 6.485905642509973, 52.033464301930614 ], [ 6.483372851038159, 52.031464282014888 ], [ 6.480022145868897, 52.033035313043847 ], [ 6.477438773294628, 52.03122053243321 ], [ 6.477229128130475, 52.031250050139683 ], [ 6.475813941443095, 52.03010978599788 ], [ 6.464927871869562, 52.020717111142964 ], [ 6.463273750642323, 52.021401465423651 ], [ 6.46324209614239, 52.021654995341571 ], [ 6.438560031673982, 52.025108261438035 ], [ 6.437193274368858, 52.025678357473595 ], [ 6.438232531137415, 52.025928608021218 ], [ 6.437927398982677, 52.026532951920665 ], [ 6.440060174550313, 52.02705359236996 ], [ 6.440111767012989, 52.027200885837566 ], [ 6.436252349877773, 52.030759022805569 ], [ 6.435459592881943, 52.030505206063481 ], [ 6.432638146991229, 52.034951310448925 ], [ 6.435042449809253, 52.034738162585647 ], [ 6.433416543530617, 52.037041632313304 ], [ 6.433838268424068, 52.038001094557401 ], [ 6.430972985950107, 52.038657275700132 ], [ 6.431715184724652, 52.039279527677742 ], [ 6.432759202314201, 52.040621326671186 ], [ 6.430039312563196, 52.041143830261994 ], [ 6.428666295054366, 52.041213443442544 ], [ 6.42752844292973, 52.042928826147573 ], [ 6.425041777266989, 52.041684004598515 ], [ 6.423248527859397, 52.041043445681062 ], [ 6.422421156642128, 52.042116851398312 ], [ 6.424601315258796, 52.042371368187858 ], [ 6.423866656557587, 52.043963317805833 ], [ 6.425757844514362, 52.044702817081756 ], [ 6.425792281626342, 52.044852386311774 ], [ 6.423267277793574, 52.047576558521946 ], [ 6.420375215767367, 52.046570626052478 ], [ 6.418937844827027, 52.04753791551807 ], [ 6.41934011649903, 52.047796097644152 ], [ 6.419049214199563, 52.048101929767554 ], [ 6.419152237261663, 52.048328905970571 ], [ 6.418449158946015, 52.048803425814995 ], [ 6.418220785631453, 52.048731606490797 ], [ 6.416423409511235, 52.050564543463537 ], [ 6.415890147097683, 52.050362965357252 ], [ 6.415654359212493, 52.050698792991554 ], [ 6.415011148338697, 52.051760084163888 ], [ 6.413392249286221, 52.055451821125537 ], [ 6.4134896622584, 52.056590395994043 ], [ 6.414199711917581, 52.057750073252571 ], [ 6.41372884675551, 52.05791653073031 ], [ 6.413320655607925, 52.06263982669595 ], [ 6.411597658929101, 52.064785315376881 ], [ 6.410843354599698, 52.064482695614934 ], [ 6.406856507968315, 52.065125213986114 ], [ 6.405771530969708, 52.066168310716918 ], [ 6.397491935786586, 52.066849305537744 ], [ 6.393214751689116, 52.068763092301921 ], [ 6.394930219136299, 52.070595641801063 ], [ 6.395633407522151, 52.072774407064678 ], [ 6.395582797683538, 52.073087886204291 ], [ 6.385455437913119, 52.071543127413577 ], [ 6.381872244668648, 52.070203270199016 ], [ 6.380270854229014, 52.0730694174514 ], [ 6.375497209795746, 52.073726074184933 ], [ 6.372342203765136, 52.072771056364751 ], [ 6.371741448624991, 52.073695253305893 ], [ 6.371794738178888, 52.074075576775947 ], [ 6.365540381955403, 52.074588015259451 ], [ 6.365984051937406, 52.074612837391179 ], [ 6.366047486746017, 52.074741753264668 ], [ 6.364497669693143, 52.075116199862336 ], [ 6.360237366565274, 52.074951852137694 ], [ 6.355033904213895, 52.073756046166537 ], [ 6.354323085183619, 52.075094330051151 ], [ 6.353956711656281, 52.076717740324455 ], [ 6.353779890792699, 52.076820474871184 ], [ 6.3533805952353, 52.076730990964862 ], [ 6.353250015537488, 52.075187326706718 ], [ 6.352984757069255, 52.074938068465542 ], [ 6.352084476767279, 52.074681287650535 ], [ 6.351838330409284, 52.074285766490426 ], [ 6.351759240648553, 52.074015882477774 ], [ 6.351890457652736, 52.073654112996984 ], [ 6.352505225530837, 52.072979626159437 ], [ 6.352589197851906, 52.072661079787892 ], [ 6.351301147847476, 52.071791934195709 ], [ 6.351172328750851, 52.071378055064763 ], [ 6.351818347511991, 52.07075666423394 ], [ 6.351343869815197, 52.070461535617305 ], [ 6.339999095235281, 52.070838456630014 ], [ 6.340512786077864, 52.072800512578894 ], [ 6.340411515709465, 52.072918434374451 ], [ 6.33977024520063, 52.070873288601952 ], [ 6.333411450971148, 52.071209993359425 ], [ 6.331930872024073, 52.073385892376372 ], [ 6.329767356009783, 52.073527839257736 ], [ 6.331879621249741, 52.076623918975798 ], [ 6.332060693127599, 52.077189419113459 ], [ 6.324192269067029, 52.077489111901961 ], [ 6.321646904264705, 52.078911959701628 ], [ 6.320797626803278, 52.080031941291303 ], [ 6.316778915592447, 52.077699554199739 ], [ 6.3160875636759, 52.078029219926641 ], [ 6.315272028401697, 52.078156599768263 ], [ 6.313709440146632, 52.074337322760776 ], [ 6.308342202189848, 52.075385122562338 ], [ 6.306934327476099, 52.076471341898682 ], [ 6.303777882496644, 52.075397132144388 ], [ 6.301331434401267, 52.073823290303132 ], [ 6.296970026761319, 52.07384223392701 ], [ 6.293474907548424, 52.074270956053098 ], [ 6.292160972070907, 52.074251482001912 ], [ 6.291510266933794, 52.074189692202914 ], [ 6.291137531050579, 52.073947208510134 ], [ 6.287504037639605, 52.073422589860094 ], [ 6.286186364323426, 52.073906934411326 ], [ 6.282375023389257, 52.071504836144882 ], [ 6.27899397951114, 52.072923766295823 ], [ 6.277436724263231, 52.073269042047983 ], [ 6.272743855623022, 52.073478767378518 ], [ 6.271763666867367, 52.072403261354722 ], [ 6.270661962549163, 52.072412347922651 ], [ 6.269155943236395, 52.073671529207196 ], [ 6.266712592876329, 52.073974146501051 ], [ 6.263801840830133, 52.074014484093937 ], [ 6.262639023889457, 52.074964270642461 ], [ 6.258060166512195, 52.076797024486467 ], [ 6.257746834960425, 52.07809810512682 ], [ 6.256423205664954, 52.080101885393425 ], [ 6.254222101696118, 52.081843005976012 ], [ 6.253573540413111, 52.082190884856622 ], [ 6.253585277669976, 52.084032126522558 ], [ 6.253118523021097, 52.084824844962675 ], [ 6.251177023142053, 52.086638069718113 ], [ 6.252760349414541, 52.087250839766362 ], [ 6.252171458772358, 52.087959244763304 ], [ 6.242690597325373, 52.088527217391253 ], [ 6.237015963723112, 52.089099776086506 ], [ 6.232201732964203, 52.089860218949944 ], [ 6.222476437157233, 52.088850773382809 ], [ 6.220735505049289, 52.089085266076466 ], [ 6.220224882342675, 52.089704724960747 ], [ 6.219529692668588, 52.088847537484263 ], [ 6.219364898725869, 52.0888673415581 ], [ 6.218919632259613, 52.089368812145921 ], [ 6.218260587778956, 52.08961634134775 ], [ 6.21847642803411, 52.08996665764392 ], [ 6.218185567888604, 52.090275393122532 ], [ 6.218644454776793, 52.090695458199697 ], [ 6.218952533653148, 52.091808162220865 ], [ 6.218823491429898, 52.092563792798522 ], [ 6.218520520851762, 52.092823511583177 ], [ 6.216860672002414, 52.093332312950047 ], [ 6.217027162512595, 52.093772262088962 ], [ 6.216966859187773, 52.094441860663672 ], [ 6.218305048312823, 52.094962770237231 ], [ 6.218692584260098, 52.09564820025011 ], [ 6.219291239416639, 52.096214371705727 ], [ 6.21857210456535, 52.097847145386467 ], [ 6.217895096912655, 52.097981231661308 ], [ 6.216944681648084, 52.096576475317413 ], [ 6.215261901370897, 52.094966698658965 ], [ 6.211854625276312, 52.092995600499286 ], [ 6.210511681038756, 52.09254969937929 ], [ 6.209184893759658, 52.092372224095712 ], [ 6.206846159169594, 52.092519342928043 ], [ 6.203063314036465, 52.093686661477918 ], [ 6.20145643387244, 52.093895585728546 ], [ 6.199728954868448, 52.093898553683012 ], [ 6.197789007884826, 52.093609518827741 ], [ 6.192415469110355, 52.091906894395763 ], [ 6.189803721014526, 52.091438720968171 ], [ 6.185615514394931, 52.091207499291293 ], [ 6.180125807236945, 52.091628368794737 ], [ 6.177931399043249, 52.091318546371248 ], [ 6.176250919362376, 52.090707723834782 ], [ 6.174826380581273, 52.089735087586504 ], [ 6.173439718486313, 52.087741022621337 ], [ 6.172593668961411, 52.085699786974324 ], [ 6.171285016980646, 52.080090741489848 ], [ 6.170637946044884, 52.078961929492408 ], [ 6.168270353728789, 52.076416362691667 ], [ 6.166130079661252, 52.075247564223893 ], [ 6.161750718650318, 52.073890390924902 ], [ 6.159545960886747, 52.072835873572451 ], [ 6.156674206597434, 52.070597838195646 ], [ 6.154840387148738, 52.069607574991025 ], [ 6.151171279397363, 52.068027344804179 ], [ 6.15031994330599, 52.06728683732711 ], [ 6.148890533355467, 52.065541226556427 ], [ 6.14783631121623, 52.064774236891331 ], [ 6.14572485401941, 52.063868313997055 ], [ 6.141117472345683, 52.062407213791388 ], [ 6.139710648217718, 52.061638317602217 ], [ 6.138726118983799, 52.060796629927012 ], [ 6.137442169691083, 52.059294729000165 ], [ 6.135579149592144, 52.059755512243882 ], [ 6.136524861281752, 52.06038600951738 ], [ 6.135798297508021, 52.062146708856304 ], [ 6.132608307210168, 52.061958892489173 ], [ 6.132252160557708, 52.0628401477721 ], [ 6.128896847401202, 52.062882519534924 ], [ 6.12927771313167, 52.063408872559151 ], [ 6.129294188407997, 52.063982852664068 ], [ 6.128743099491066, 52.064374856078032 ], [ 6.127352685515104, 52.064409591049596 ], [ 6.124896236075675, 52.063879035850583 ], [ 6.124502704503777, 52.063544682800753 ], [ 6.124210495435178, 52.063678455305002 ], [ 6.122833654594118, 52.063348418341363 ], [ 6.122731408999692, 52.063602356155677 ], [ 6.121759290788005, 52.064332289714649 ], [ 6.121578977876038, 52.06526749349576 ], [ 6.120681188561464, 52.06581997712329 ], [ 6.120036722415874, 52.06681695255638 ], [ 6.120003698874954, 52.06737192099758 ], [ 6.120751061764228, 52.067956555638183 ], [ 6.121081220759923, 52.068655317874075 ], [ 6.120443757379204, 52.068854068920587 ], [ 6.115755765541095, 52.068338105496274 ], [ 6.114328074737019, 52.071282905355183 ], [ 6.113739523863915, 52.072048125610628 ], [ 6.111481054769597, 52.072730192964173 ], [ 6.109169168270908, 52.075025002577412 ], [ 6.103115145384721, 52.077610766365673 ], [ 6.103511129426111, 52.078095784328163 ], [ 6.103461118062928, 52.07823617036069 ], [ 6.085381313508374, 52.081631637006865 ], [ 6.085338944846045, 52.080863811994369 ], [ 6.08693161538682, 52.076142552817913 ], [ 6.086897946139654, 52.076138002356473 ], [ 6.086674628118602, 52.076865069939188 ], [ 6.08617308294, 52.076913174034004 ], [ 6.084645177384193, 52.081767210256515 ], [ 6.081406554093802, 52.082388469810418 ], [ 6.080776511728692, 52.083929563181748 ], [ 6.077730767005571, 52.083629682156349 ], [ 6.077196768926123, 52.083882240987343 ], [ 6.076074568647083, 52.087586922803645 ], [ 6.068281297979875, 52.088345970714869 ], [ 6.065947883574422, 52.087914423270533 ], [ 6.058459280177559, 52.085414839122066 ], [ 6.055275531395959, 52.08363521813817 ], [ 6.050996771516481, 52.081621597916374 ], [ 6.044879659800864, 52.079729985079652 ], [ 6.038364167782182, 52.075104627331179 ], [ 6.030941551377023, 52.07126928125912 ], [ 6.027977005494714, 52.069108084710869 ], [ 6.023714225930039, 52.067380752390761 ], [ 6.009644231407344, 52.066102216448485 ], [ 6.006027754398264, 52.066431012858658 ], [ 6.006099939636981, 52.063224961166185 ], [ 6.005974609656532, 52.062059265973105 ], [ 6.012421779658908, 52.058699265646325 ], [ 6.016096207817134, 52.057242161867919 ], [ 6.017240215282176, 52.055903162707622 ], [ 6.02609531857299, 52.05677227356729 ], [ 6.028454097555586, 52.051499880044972 ], [ 6.026314350577191, 52.050651654454434 ], [ 6.025390937295811, 52.05091660312025 ], [ 6.025184989513112, 52.050849633469042 ], [ 6.024957457702192, 52.050052451111206 ], [ 6.024866873798373, 52.048789155974646 ], [ 6.025617722398021, 52.047434357569507 ], [ 6.025218218582994, 52.046882304915087 ], [ 6.026120263433948, 52.046455358190855 ], [ 6.025517160841344, 52.046225010510163 ], [ 6.024865748091572, 52.045540324703452 ], [ 6.024685073153913, 52.044765092664342 ], [ 6.024116139121197, 52.045537072175058 ], [ 6.023950256116625, 52.045552672033438 ], [ 6.023542410641578, 52.044057223976615 ], [ 6.023294740133817, 52.043772509532161 ], [ 6.021419365267277, 52.042932777395642 ], [ 6.021017256353655, 52.042573531382544 ], [ 6.020182379025048, 52.042457721306114 ], [ 6.019408139619387, 52.042020036873353 ], [ 6.018231628278746, 52.04166328281989 ], [ 6.017252189898844, 52.040815377885473 ], [ 6.014859136779393, 52.039211624279993 ], [ 6.014566522113863, 52.038849479739078 ], [ 6.014349730000195, 52.037936780534011 ], [ 6.014660295389367, 52.037034621793623 ], [ 6.013692699836619, 52.03645756900562 ], [ 6.013360187048765, 52.036078344326818 ], [ 6.013198075004761, 52.035733161611837 ], [ 6.013480306923913, 52.035515134229136 ], [ 6.013081568005373, 52.035359883454355 ], [ 6.013152875124549, 52.034853608316659 ], [ 6.010907266234887, 52.034526921058742 ], [ 6.009991037016276, 52.034218642982104 ], [ 6.009701647306421, 52.033911096323067 ], [ 6.008485477927652, 52.034303053201683 ], [ 6.008140653025342, 52.034577996830855 ], [ 6.003588746027686, 52.034190354392862 ], [ 6.003578080651471, 52.034003700369617 ], [ 6.005512354952693, 52.031343324040364 ], [ 6.00380863539718, 52.031682148871113 ], [ 6.001327329419899, 52.03176004304391 ], [ 5.999907246630909, 52.030986460190285 ], [ 5.998134685239727, 52.030412711635556 ], [ 5.997064530726519, 52.031201887430015 ], [ 5.996707362960412, 52.031007625977864 ], [ 5.996371653759728, 52.03045596904122 ], [ 5.994326743782458, 52.029589317739031 ], [ 5.994299203434288, 52.02935757007446 ], [ 5.994881076049038, 52.02857995425741 ], [ 5.994675643325724, 52.028154187615158 ], [ 5.991395349660057, 52.033366606136042 ], [ 5.991241702595183, 52.033410013432409 ], [ 5.988889459037375, 52.033140304557811 ], [ 5.984823012820749, 52.032374169442278 ], [ 5.98207426421685, 52.029844508356604 ], [ 5.981558549130672, 52.028956905897708 ], [ 5.980609577087299, 52.028730552510972 ], [ 5.97973087843588, 52.029453878247622 ], [ 5.978080148897388, 52.028992086617642 ], [ 5.977901888817859, 52.029151353353271 ], [ 5.978027373611342, 52.029456528217771 ], [ 5.97908916753478, 52.030008471073174 ], [ 5.977822233541602, 52.031193982764322 ], [ 5.978309543584076, 52.031542035333331 ], [ 5.978034738558887, 52.032067829757658 ], [ 5.978113462557422, 52.032647922061443 ], [ 5.980582930696184, 52.035606726574841 ], [ 5.981207291946773, 52.037386562707361 ], [ 5.981275195931654, 52.038082291309152 ], [ 5.982506103344645, 52.03989671672413 ], [ 5.987731948103623, 52.040135627789574 ], [ 5.987140512652568, 52.041271926837325 ], [ 5.982489393230759, 52.047165234425385 ], [ 5.982065794007489, 52.047419351031508 ], [ 5.978365301896219, 52.053904586165402 ], [ 5.977838320895863, 52.054595383951067 ], [ 5.978381294890281, 52.060963802589619 ], [ 5.980249304932983, 52.064657429158885 ], [ 5.97975221323925, 52.068826213274377 ], [ 5.979321388776573, 52.069266415593141 ], [ 5.979526117660472, 52.070171989831735 ], [ 5.979141472208049, 52.070914443899156 ], [ 5.979499486135134, 52.071176351793554 ], [ 5.979260181364838, 52.071402938888681 ], [ 5.979422691907154, 52.072039564013011 ], [ 5.979212642090568, 52.072255862766376 ], [ 5.978898892977108, 52.07426895414288 ], [ 5.981252923230677, 52.078164640562861 ], [ 5.981801311074551, 52.078663973453978 ], [ 5.982947097670287, 52.078784991388979 ], [ 5.990467830879412, 52.079063647331232 ], [ 5.993860568675757, 52.078319593599694 ], [ 5.994239518881963, 52.078087942789587 ], [ 5.998206310639931, 52.076933792716225 ], [ 6.000981255404308, 52.080013256430462 ], [ 6.001286568069253, 52.08647809677506 ], [ 6.001463240142913, 52.086690706917729 ], [ 6.007238061214093, 52.08823490210505 ], [ 6.007854470338884, 52.08818962131668 ], [ 6.008151810273493, 52.087603598206094 ], [ 6.009897435245593, 52.086727409870797 ], [ 6.014709651276704, 52.086089947003146 ], [ 6.015675010682706, 52.086370011951182 ], [ 6.017474564183719, 52.087570108492613 ], [ 6.017684011267465, 52.088327979022033 ], [ 6.020367706422834, 52.090853821774964 ], [ 6.022479886700208, 52.089826391634645 ], [ 6.023250884227297, 52.089838209844814 ], [ 6.024662959773513, 52.089237932183451 ], [ 6.029181747164484, 52.092706239307063 ], [ 6.031640778360775, 52.095507583150187 ], [ 6.03413802846364, 52.095670820049271 ], [ 6.034355961564208, 52.098368638195197 ], [ 6.032518891041328, 52.101417329029942 ], [ 6.034918727571889, 52.102864180225708 ], [ 6.034012456912665, 52.104225513648409 ], [ 6.034115591569489, 52.105486959210268 ], [ 6.034294581745328, 52.106064332477921 ], [ 6.035325850494605, 52.10713980749366 ], [ 6.035624158042109, 52.107848125527887 ], [ 6.035581671267019, 52.108343887664915 ], [ 6.035903379395766, 52.109398973973541 ], [ 6.041214527340388, 52.112318047355444 ], [ 6.040691260106791, 52.114533150525332 ], [ 6.043229670576313, 52.116825488379568 ], [ 6.047711357872465, 52.119118877546008 ], [ 6.051190955226351, 52.12413295417241 ], [ 6.063050991052499, 52.129057704890954 ], [ 6.06967052507544, 52.131217397392135 ], [ 6.071467314453469, 52.134500963897679 ], [ 6.078578742323086, 52.138845823605031 ], [ 6.076111202444633, 52.143848259641487 ], [ 6.07525537253751, 52.146575985710207 ], [ 6.074464300100557, 52.14733348868964 ], [ 6.074477126002836, 52.14778231035082 ], [ 6.074803592122914, 52.148225485608855 ], [ 6.072392911782392, 52.150466819815307 ], [ 6.069421089702609, 52.152727333066309 ], [ 6.067528560687006, 52.153907832282144 ], [ 6.064461663087022, 52.157031427606555 ], [ 6.064333915742814, 52.15759980770649 ], [ 6.064408321339243, 52.158299983932451 ], [ 6.064842973755423, 52.158582458562101 ], [ 6.065787980067069, 52.159839063485627 ], [ 6.066520959857232, 52.161506499785936 ], [ 6.065792208165446, 52.165240706850824 ], [ 6.061877586710358, 52.17330578071342 ], [ 6.060755103746811, 52.175210283333833 ], [ 6.059867950417965, 52.176288290462082 ], [ 6.058511346700147, 52.177520636347616 ], [ 6.057116967526371, 52.17833900838086 ], [ 6.056290856810878, 52.17916031745844 ], [ 6.055393278580868, 52.179585237215406 ], [ 6.054990321105366, 52.180272870285968 ], [ 6.053868313665702, 52.181430937434719 ], [ 6.052462048207707, 52.181805036382116 ], [ 6.051445908041851, 52.182374250465507 ], [ 6.050299470773026, 52.183224750906696 ], [ 6.049633559552175, 52.18432171407413 ], [ 6.049470174051926, 52.184947332393151 ], [ 6.049556907730679, 52.185408452791791 ], [ 6.051034106906848, 52.187150483229502 ], [ 6.051353918964583, 52.188635930435836 ], [ 6.051230753685608, 52.188759339165152 ], [ 6.05377700409453, 52.193527484546294 ], [ 6.053958849407119, 52.19494596501081 ], [ 6.056080060360456, 52.195939686822612 ], [ 6.058244976930025, 52.195835172092472 ], [ 6.058350788289911, 52.196175923879267 ], [ 6.057392661879756, 52.196672796413253 ], [ 6.057341727186799, 52.196888148164248 ], [ 6.056958300248193, 52.196951507811903 ], [ 6.056946184169891, 52.19723422928169 ], [ 6.056334585345669, 52.19791213317562 ], [ 6.056184909929261, 52.198307392751133 ], [ 6.054541239186672, 52.199789791030852 ], [ 6.054304332477478, 52.200439943474976 ], [ 6.053557388804112, 52.201273079552344 ], [ 6.053539539467496, 52.20256072408435 ], [ 6.052704062095002, 52.203204856226002 ], [ 6.052093402447404, 52.204367743434716 ], [ 6.052354343588276, 52.204646266196463 ], [ 6.052335235752944, 52.205154785548949 ], [ 6.050907046874229, 52.207975723757706 ], [ 6.05033207520258, 52.21006651547652 ], [ 6.049061524946304, 52.21187652389419 ], [ 6.048609880288008, 52.212169483822407 ], [ 6.048016484732132, 52.213024122942016 ], [ 6.04859434817797, 52.214817194966315 ], [ 6.04838832538553, 52.216362102854134 ], [ 6.048009951185061, 52.217101627976284 ], [ 6.047974282346382, 52.217606671933332 ], [ 6.047310904294129, 52.21947084943141 ], [ 6.046904445778463, 52.220139283161693 ], [ 6.047081910480498, 52.220420002096155 ], [ 6.047093766362657, 52.221264945909056 ], [ 6.046933955854863, 52.221464607445306 ], [ 6.042444725511479, 52.222572581370265 ], [ 6.040898944513466, 52.224257102817724 ], [ 6.035373611129069, 52.224614169205502 ], [ 6.033572083814581, 52.224237600164521 ], [ 6.034632067911332, 52.228177774879008 ], [ 6.034306937843931, 52.231353088356748 ], [ 6.035008280625784, 52.231296873546427 ], [ 6.035924040807946, 52.231694023052988 ], [ 6.036146331369463, 52.232026252961631 ], [ 6.034035775584728, 52.234978171726169 ], [ 6.032427958942144, 52.235677571504311 ], [ 6.030545539336117, 52.237557633341993 ], [ 6.028571710918952, 52.239093268943208 ], [ 6.028395826874442, 52.241826560952482 ], [ 6.026692661618219, 52.242909800864162 ], [ 6.029020925955085, 52.244425472654399 ], [ 6.028064488303956, 52.244898052813539 ], [ 6.028475637820987, 52.245452500534206 ], [ 6.027182115743927, 52.246109047081731 ], [ 6.024900626640674, 52.248956477153655 ], [ 6.024931431088064, 52.249131691544612 ], [ 6.028531905773959, 52.24858275841251 ], [ 6.030677697209254, 52.25130758551375 ], [ 6.031034892581479, 52.252184448753134 ], [ 6.03139026746978, 52.253626356627038 ], [ 6.031346326497485, 52.255341453898602 ], [ 6.032061612389993, 52.255856861891729 ], [ 6.031516407061962, 52.256403706510433 ], [ 6.032014659669687, 52.257539330315431 ], [ 6.031881787773107, 52.258481646623096 ], [ 6.034277638939529, 52.257998260859956 ], [ 6.035115190728902, 52.258189730407842 ], [ 6.035390713624657, 52.258421714921838 ], [ 6.035478650980113, 52.258874771459432 ], [ 6.035852869635781, 52.25941152282347 ], [ 6.036566898744674, 52.259410476602454 ], [ 6.03718517686091, 52.260580756479492 ], [ 6.037580125011308, 52.260870566680985 ], [ 6.037769745314089, 52.263658183808701 ], [ 6.034933118519194, 52.265361997647609 ], [ 6.035029280262835, 52.266191280158367 ], [ 6.035650503604305, 52.267426691176276 ], [ 6.036463918658209, 52.268456310420667 ], [ 6.041620141783793, 52.269371319966019 ], [ 6.043154050471662, 52.269388102798068 ], [ 6.049271835391033, 52.270102580667867 ], [ 6.048322806135273, 52.273832803903694 ], [ 6.04756629297615, 52.273914473741478 ], [ 6.04704170092023, 52.275867029238952 ], [ 6.043558085718069, 52.275708014204859 ], [ 6.043415090429086, 52.278821196783909 ], [ 6.041907999146257, 52.280629485104207 ], [ 6.040670217887567, 52.283275035836461 ], [ 6.035185929332348, 52.291941961652235 ], [ 6.034903234788734, 52.292643183663742 ], [ 6.034730157255626, 52.293914737114491 ], [ 6.03492909949571, 52.294925250157263 ], [ 6.040298371371003, 52.304301364340716 ], [ 6.045494821463877, 52.313600771535107 ], [ 6.045455408642719, 52.313739522349103 ], [ 6.047434018200891, 52.316898034254748 ], [ 6.047968154102277, 52.318279409979425 ], [ 6.049611289567158, 52.321260144670795 ], [ 6.050395125888604, 52.322569763646122 ], [ 6.052801567017729, 52.325772672254239 ], [ 6.053044362340032, 52.330805140647428 ], [ 6.073775895810616, 52.330538828075667 ] ] ] } }
]
}
