{
"type": "FeatureCollection",
"name": "SWVPO3006",
"crs": { "type": "name", "properties": { "name": "urn:ogc:def:crs:OGC:1.3:CRS84" } },
"features": [
{ "type": "Feature", "properties": { "PO SWV": "PO3006", "strokeColor": "#A9A9A9", "strokeWidth": 2, "fillColor": "#ADD8E6" }, "geometry": { "type": "Polygon", "coordinates": [ [ [ 5.363835191328622, 51.751379589345895 ], [ 5.361219675042852, 51.751121543090086 ], [ 5.355868891578201, 51.751341642507718 ], [ 5.355700073664237, 51.753088582088665 ], [ 5.355315055867415, 51.753486206748789 ], [ 5.354712946677643, 51.753546112278507 ], [ 5.35463834611304, 51.753887517471526 ], [ 5.353414402131031, 51.755480062587978 ], [ 5.355290388912223, 51.756395510615611 ], [ 5.357502557663063, 51.75796597263642 ], [ 5.359211896608933, 51.759750305328829 ], [ 5.359839809642608, 51.760636787683346 ], [ 5.360223381940477, 51.761519649224589 ], [ 5.360564720139267, 51.763291304108243 ], [ 5.360329607819284, 51.768678701121537 ], [ 5.360661995016327, 51.773190350188742 ], [ 5.361227656414454, 51.775895881243464 ], [ 5.362097335408426, 51.77859815348333 ], [ 5.364174958859886, 51.783109562113687 ], [ 5.367105273930084, 51.787611965020325 ], [ 5.369330228868396, 51.790319291941643 ], [ 5.371941174740505, 51.79301913749547 ], [ 5.375940886438316, 51.796614926443162 ], [ 5.383420380342087, 51.804704971101835 ], [ 5.386705989152347, 51.807409309636235 ], [ 5.394345287162892, 51.812799867218409 ], [ 5.397059184616234, 51.815483200460065 ], [ 5.399607605832268, 51.819071489605676 ], [ 5.400439109074433, 51.81999078457816 ], [ 5.401661943914388, 51.820982400956105 ], [ 5.403112607477158, 51.82170127971257 ], [ 5.404585292569491, 51.822185327562515 ], [ 5.407497066893707, 51.822690047160378 ], [ 5.410415229722282, 51.822645091219286 ], [ 5.413334863615655, 51.822048316611358 ], [ 5.414798172518594, 51.821450383383159 ], [ 5.415829575666515, 51.820893249386721 ], [ 5.417019062949143, 51.819981979169533 ], [ 5.420353519810479, 51.8163845787413 ], [ 5.422068071071251, 51.814829083862605 ], [ 5.424950422817523, 51.813085593710028 ], [ 5.427837458999115, 51.811894196535427 ], [ 5.43217618011392, 51.810726981283665 ], [ 5.435067475289098, 51.810223942611735 ], [ 5.439410460369028, 51.809809284481936 ], [ 5.443755465250801, 51.809654649691552 ], [ 5.449548380868215, 51.809777382633662 ], [ 5.459694218394233, 51.810597963743334 ], [ 5.466935144855883, 51.811759730746452 ], [ 5.471271069788246, 51.813162185734193 ], [ 5.474157974376501, 51.814724032687415 ], [ 5.476074849452571, 51.816354652866217 ], [ 5.476850752096193, 51.817242560354238 ], [ 5.477873528012585, 51.819021164330884 ], [ 5.479580719194262, 51.824410465982396 ], [ 5.480134296848403, 51.825333683285834 ], [ 5.48177819040994, 51.827145148164277 ], [ 5.482937681273079, 51.828050881809943 ], [ 5.484491803009915, 51.828948436987936 ], [ 5.487268228830011, 51.829996853500106 ], [ 5.490186177615589, 51.830609402558757 ], [ 5.493100318787872, 51.83085083923055 ], [ 5.4960150094561, 51.830704103727683 ], [ 5.498931181824904, 51.830195304779942 ], [ 5.501839186640646, 51.829371922293625 ], [ 5.50509330974899, 51.828035149899883 ], [ 5.508132358031109, 51.826227857811034 ], [ 5.509298177153974, 51.825322335489119 ], [ 5.513018320640696, 51.821721516781011 ], [ 5.514267790980012, 51.820828373249391 ], [ 5.516320814727689, 51.819837555552851 ], [ 5.517760100826744, 51.81938063127285 ], [ 5.520642511189388, 51.818876975636535 ], [ 5.526443058148588, 51.818708383279663 ], [ 5.529349281513008, 51.818353542513641 ], [ 5.535153222575151, 51.816763020424737 ], [ 5.538035405148605, 51.816357311318008 ], [ 5.540918843724777, 51.816407123865929 ], [ 5.542361250848204, 51.81663752753407 ], [ 5.545243539156728, 51.817525771426332 ], [ 5.546684284284028, 51.818281389392027 ], [ 5.548552287134871, 51.819867962827303 ], [ 5.550604234484878, 51.823451679097026 ], [ 5.551746528746358, 51.824754338160609 ], [ 5.553906697548813, 51.826240712630835 ], [ 5.556648808524264, 51.827291083029571 ], [ 5.558609888219081, 51.827699802620778 ], [ 5.561019102629704, 51.827920087682678 ], [ 5.571430703856492, 51.827850800258247 ], [ 5.57432633781191, 51.827980753967154 ], [ 5.578671811370092, 51.828529931156758 ], [ 5.584482430830591, 51.829536512515325 ], [ 5.587397881153533, 51.829802058024249 ], [ 5.591766439137145, 51.829532277737847 ], [ 5.596118463770368, 51.828642920359009 ], [ 5.600473109899522, 51.82743737202037 ], [ 5.607720570409161, 51.824805745850142 ], [ 5.61640433456783, 51.820698852067437 ], [ 5.619283887840222, 51.819727791117877 ], [ 5.623612308423143, 51.819241445968963 ], [ 5.630861175787238, 51.819733654274813 ], [ 5.633773214114686, 51.819763245612819 ], [ 5.636684099763372, 51.819422810316716 ], [ 5.639588698342206, 51.818695555897918 ], [ 5.641052128563762, 51.818128788656317 ], [ 5.643083578238764, 51.8170238238271 ], [ 5.645236712200971, 51.815208497034206 ], [ 5.646524607180475, 51.813377304892498 ], [ 5.649987408105742, 51.806187755281037 ], [ 5.651818074379794, 51.803500508280969 ], [ 5.655353200781628, 51.799907423097231 ], [ 5.657553377882956, 51.798110470989883 ], [ 5.660259538459496, 51.796312025089506 ], [ 5.664106024097112, 51.794277530455282 ], [ 5.666983340306018, 51.793314201219673 ], [ 5.66986624650328, 51.792815173112096 ], [ 5.680003523100584, 51.792188455282322 ], [ 5.682907735659199, 51.791865887045134 ], [ 5.685816876145258, 51.791289390248004 ], [ 5.69016492430808, 51.78981891690696 ], [ 5.693303296668353, 51.788137994702524 ], [ 5.695769122217625, 51.786322289982429 ], [ 5.697417181030118, 51.784511141559278 ], [ 5.700284371590199, 51.7801817947107 ], [ 5.701268416954315, 51.77911855724836 ], [ 5.702368874808723, 51.778224069749903 ], [ 5.704574587200592, 51.776960742531806 ], [ 5.706011435597712, 51.776348929427336 ], [ 5.708890109861178, 51.775526954181927 ], [ 5.711314466447782, 51.775087306742819 ], [ 5.708215003778382, 51.77246043456072 ], [ 5.702934781555692, 51.769918863833013 ], [ 5.701112203327762, 51.768670392130787 ], [ 5.699082672183141, 51.76643237006266 ], [ 5.69609520383659, 51.761259257452728 ], [ 5.694646230498382, 51.760707410110079 ], [ 5.692329179704253, 51.759391596789825 ], [ 5.691000236261623, 51.759062763215603 ], [ 5.691157862416816, 51.758724849639101 ], [ 5.694283236055623, 51.755587515471419 ], [ 5.699663033138144, 51.75532389073522 ], [ 5.702016722531343, 51.755566042033763 ], [ 5.700058037866988, 51.750568826480645 ], [ 5.703493200924942, 51.750572790473342 ], [ 5.703591633618352, 51.750454527550957 ], [ 5.701488220136508, 51.74447530133024 ], [ 5.701151792571941, 51.742095670961113 ], [ 5.699972523678135, 51.74181757477178 ], [ 5.698263300361071, 51.738575528984747 ], [ 5.702497037469763, 51.737529862193419 ], [ 5.707972906585548, 51.736661206506263 ], [ 5.70626240823548, 51.732266773307629 ], [ 5.707954374941155, 51.732077176919894 ], [ 5.709658417365072, 51.732323926855017 ], [ 5.709697025080124, 51.731925403631728 ], [ 5.709861786164851, 51.731908463939824 ], [ 5.718909797393455, 51.73294524096255 ], [ 5.71843401697867, 51.730882514854116 ], [ 5.718171091698862, 51.730814196961937 ], [ 5.718022391973439, 51.730986834477669 ], [ 5.715064501372242, 51.730090337852488 ], [ 5.711395924973703, 51.7294269725787 ], [ 5.709650397482515, 51.728574062371159 ], [ 5.711926886702332, 51.727745871935483 ], [ 5.713233513647973, 51.726765897438348 ], [ 5.713309514435145, 51.726424419262294 ], [ 5.712716131512292, 51.726192547797538 ], [ 5.709928992240488, 51.725902058495883 ], [ 5.708644325102448, 51.724398992653882 ], [ 5.707866596786127, 51.723746507974973 ], [ 5.707714954002021, 51.723298366658135 ], [ 5.705518288249245, 51.722391261335517 ], [ 5.705234570302154, 51.72208859214696 ], [ 5.705026868001874, 51.721830860046836 ], [ 5.705087556671868, 51.721565081462458 ], [ 5.704386871927149, 51.719788261242464 ], [ 5.703894233648345, 51.71951143371929 ], [ 5.700080589302671, 51.711473384085956 ], [ 5.73444711604794, 51.677669486196187 ], [ 5.739237166807978, 51.661601402943916 ], [ 5.738652874784555, 51.661359140305684 ], [ 5.738232608826296, 51.661626421758818 ], [ 5.737837633196495, 51.66138439946829 ], [ 5.739718465252945, 51.658181984900715 ], [ 5.740410320520701, 51.656425012459984 ], [ 5.746214646826775, 51.636679636485958 ], [ 5.746547568583103, 51.635651490519166 ], [ 5.746852461788714, 51.635536201615352 ], [ 5.747485867910852, 51.633663347211943 ], [ 5.747362676317368, 51.633451373449759 ], [ 5.748385422450914, 51.631151143565205 ], [ 5.748773803778393, 51.629687917538057 ], [ 5.748981698904161, 51.629547712423431 ], [ 5.749493562863553, 51.627713944868603 ], [ 5.749224500067567, 51.627530085720963 ], [ 5.750130128692293, 51.624312780923802 ], [ 5.750574605813546, 51.622710102905479 ], [ 5.740063664429806, 51.622596450910628 ], [ 5.686665151986819, 51.628222424537249 ], [ 5.681860793310021, 51.627922426434893 ], [ 5.681524419341807, 51.629160924393055 ], [ 5.680063725620527, 51.628477709056128 ], [ 5.674279158453331, 51.628255206862164 ], [ 5.674237128567557, 51.62751411536965 ], [ 5.672830365779767, 51.627460714394203 ], [ 5.672623654154894, 51.628787438440895 ], [ 5.664982206299479, 51.628442786751314 ], [ 5.66469673916562, 51.629085757089015 ], [ 5.658114298975785, 51.628121900499224 ], [ 5.658091994151226, 51.62773581505644 ], [ 5.653500524851376, 51.6269350309503 ], [ 5.651316726454058, 51.626791904149378 ], [ 5.650958547840883, 51.625811017078846 ], [ 5.642941307374396, 51.625736972218732 ], [ 5.640813160066044, 51.625506379558097 ], [ 5.635564961341993, 51.625463269044417 ], [ 5.634386530566585, 51.625278206043717 ], [ 5.633449856980253, 51.624782998311126 ], [ 5.629317632265454, 51.623935701087518 ], [ 5.628043412001268, 51.623282164080884 ], [ 5.627562434045494, 51.623504914085835 ], [ 5.626528566086556, 51.623492670135505 ], [ 5.626484870416173, 51.623346161719645 ], [ 5.62736094791086, 51.622218370545404 ], [ 5.628523316365832, 51.621257425996426 ], [ 5.629929618205797, 51.619133378182333 ], [ 5.630378313794088, 51.619058954586613 ], [ 5.633603642278557, 51.615353754940358 ], [ 5.642844320927864, 51.606152729814234 ], [ 5.648426517074191, 51.593606216732432 ], [ 5.649261099176612, 51.589994142818284 ], [ 5.64955637309392, 51.58947518961569 ], [ 5.649408524066319, 51.5891807213101 ], [ 5.650585595050897, 51.587154880548695 ], [ 5.650270090284824, 51.58472858439535 ], [ 5.651261096098202, 51.582331607451927 ], [ 5.651713886748902, 51.579906791538825 ], [ 5.652520710809943, 51.578368089644641 ], [ 5.654019606061802, 51.5763153971007 ], [ 5.654601976124666, 51.575859155167855 ], [ 5.656108205048632, 51.575104646656214 ], [ 5.656424530863591, 51.5747552714543 ], [ 5.656420461246482, 51.574358761747909 ], [ 5.655129784993468, 51.572169088849257 ], [ 5.653555228245597, 51.570444364590976 ], [ 5.651348970911474, 51.569172732991703 ], [ 5.646604560593546, 51.56733867133245 ], [ 5.645057215917379, 51.565897904378794 ], [ 5.643338252284288, 51.565765350835029 ], [ 5.641846277593731, 51.565294559517142 ], [ 5.64095058647233, 51.564727784093449 ], [ 5.640072267172146, 51.564429653936877 ], [ 5.639225958355699, 51.563619126067948 ], [ 5.637888250234413, 51.563059815869892 ], [ 5.637445616016809, 51.562522944884051 ], [ 5.636567903292142, 51.562320510142847 ], [ 5.6357632345519, 51.561558899174535 ], [ 5.634804649303001, 51.561383356115236 ], [ 5.634571316899063, 51.561025843160472 ], [ 5.633436338126025, 51.560682545218519 ], [ 5.632883167485287, 51.559879720215399 ], [ 5.632060989580417, 51.559631999139548 ], [ 5.631507271246757, 51.559084585941235 ], [ 5.630920484888416, 51.558926664122616 ], [ 5.630250557286701, 51.55841061484572 ], [ 5.630113009278583, 51.557981716533604 ], [ 5.629483738930022, 51.557773945927686 ], [ 5.628726202063559, 51.556911792886297 ], [ 5.627873396696907, 51.557321186394539 ], [ 5.627516795518195, 51.557038120424494 ], [ 5.626554549500866, 51.55729286063783 ], [ 5.626206254910528, 51.557242807247178 ], [ 5.626012198683187, 51.557489060749987 ], [ 5.625093043842968, 51.55728632394473 ], [ 5.625119828892615, 51.556997224597417 ], [ 5.623015629424512, 51.556719514032679 ], [ 5.621645758440613, 51.556300536772483 ], [ 5.621617754257801, 51.556112041887623 ], [ 5.620687169386107, 51.555926970637323 ], [ 5.620306665553618, 51.556619717458794 ], [ 5.618094926891301, 51.556146871722127 ], [ 5.618082064846731, 51.555880226579099 ], [ 5.61416946743036, 51.554777543609823 ], [ 5.613163606760885, 51.55559427238078 ], [ 5.61342235403631, 51.555640355638701 ], [ 5.61342008089994, 51.555795006467022 ], [ 5.611030224954644, 51.557347850644298 ], [ 5.608299289212837, 51.559676434013092 ], [ 5.584340340058764, 51.562831487371014 ], [ 5.553446858528764, 51.558404462241235 ], [ 5.533052229201147, 51.557898774562091 ], [ 5.533002944974211, 51.557743783501408 ], [ 5.544933397358426, 51.541784763789046 ], [ 5.544915386474107, 51.541586627856638 ], [ 5.542934904956867, 51.539954951052295 ], [ 5.547268256409954, 51.537706783494912 ], [ 5.53084477745182, 51.525159915980481 ], [ 5.526262020989266, 51.523026439134682 ], [ 5.525039766153054, 51.521993227778339 ], [ 5.52263215072653, 51.523529077255773 ], [ 5.521600362699229, 51.522585189402392 ], [ 5.521130240555904, 51.522962786880512 ], [ 5.518876391441892, 51.522227878791249 ], [ 5.514593767963825, 51.523288245924675 ], [ 5.512870309033898, 51.52433349610002 ], [ 5.511016025129258, 51.523346436732162 ], [ 5.508980850446837, 51.52280195673373 ], [ 5.508311050766099, 51.523923103776326 ], [ 5.506469164204708, 51.523100299236468 ], [ 5.506540366853234, 51.52252355551142 ], [ 5.505270087657331, 51.522133459517967 ], [ 5.505315837238065, 51.521744551525806 ], [ 5.503056823241403, 51.521396243807708 ], [ 5.500279472490105, 51.521496647916152 ], [ 5.500377853830464, 51.521842304993271 ], [ 5.499928208487073, 51.522850494346386 ], [ 5.500359034569066, 51.523995142469893 ], [ 5.500026529751445, 51.525210500880569 ], [ 5.501149583258257, 51.525199980748269 ], [ 5.50315174887809, 51.525612074156733 ], [ 5.503750863262749, 51.526001514562068 ], [ 5.503808849852727, 51.526551170166741 ], [ 5.502582779480394, 51.527392543350786 ], [ 5.501844290146951, 51.526834744209864 ], [ 5.501657399537078, 51.526887424792022 ], [ 5.502073517540483, 51.527362299093227 ], [ 5.502040073334572, 51.527497177106184 ], [ 5.498271686329334, 51.528629645352709 ], [ 5.496422678712407, 51.527153372667463 ], [ 5.494256038757011, 51.527308520967075 ], [ 5.493853747000806, 51.527181433221031 ], [ 5.493473298467094, 51.526832010136758 ], [ 5.490815401345854, 51.530912770646957 ], [ 5.488906808976361, 51.53334580821182 ], [ 5.488678148861591, 51.534739894203355 ], [ 5.488577804757201, 51.537454496922066 ], [ 5.488105681116019, 51.538979332823317 ], [ 5.48833490526018, 51.539698514713514 ], [ 5.488340829987718, 51.5403462046607 ], [ 5.488022859578746, 51.541424868009067 ], [ 5.487741655108697, 51.541446688774769 ], [ 5.487158196574825, 51.541947590797861 ], [ 5.473372732289985, 51.540948573072384 ], [ 5.46824257845419, 51.540772050617868 ], [ 5.465667875580497, 51.539895703502488 ], [ 5.437404654239875, 51.53407324253147 ], [ 5.435639287763973, 51.534151259539797 ], [ 5.434590849363315, 51.534510188819425 ], [ 5.433387324863878, 51.533943881775272 ], [ 5.431599082045208, 51.533457711322178 ], [ 5.429851279123739, 51.535068769680699 ], [ 5.425717727725926, 51.534573541333003 ], [ 5.422631057874396, 51.535791568377604 ], [ 5.422436898167776, 51.536705565293701 ], [ 5.422071822733802, 51.537346669377406 ], [ 5.419992357698018, 51.538966312109736 ], [ 5.417901795408027, 51.539780596794714 ], [ 5.416408547365474, 51.540721708438049 ], [ 5.415288813192597, 51.540626013186589 ], [ 5.414629012147465, 51.540754624082318 ], [ 5.412078962492334, 51.542794025962799 ], [ 5.410963193165327, 51.542387023372648 ], [ 5.405427375144504, 51.548427428592277 ], [ 5.404321631080632, 51.548396646908067 ], [ 5.404128132174528, 51.550034591442376 ], [ 5.404487821077927, 51.550116590630374 ], [ 5.404581055175463, 51.551586989287976 ], [ 5.401533167815665, 51.551011580437461 ], [ 5.40151710431665, 51.550820132003047 ], [ 5.397926411066627, 51.552224494869279 ], [ 5.39827734619519, 51.553522218038374 ], [ 5.399196637935566, 51.553754010138633 ], [ 5.399202222703862, 51.554040022424104 ], [ 5.401215481605957, 51.554217328301853 ], [ 5.403922935494903, 51.555020725751014 ], [ 5.402711254557699, 51.55779077873229 ], [ 5.405026858533689, 51.561921553044364 ], [ 5.401598745315913, 51.561815088351906 ], [ 5.40003610558835, 51.562315253148824 ], [ 5.399040871474262, 51.563231313312052 ], [ 5.39797855262094, 51.565663077387988 ], [ 5.397709629759982, 51.565889707877382 ], [ 5.398417194914452, 51.566147217548803 ], [ 5.399330869391814, 51.566173515632919 ], [ 5.398581722801786, 51.567753673412625 ], [ 5.399475687253145, 51.568960993312999 ], [ 5.399235628027043, 51.569150354795234 ], [ 5.399096252959017, 51.569847283713919 ], [ 5.399274522225443, 51.570734278295411 ], [ 5.398832598205717, 51.571286120307633 ], [ 5.399260985289089, 51.572250831067528 ], [ 5.399811906233223, 51.572453564515683 ], [ 5.401029008806972, 51.571936182144228 ], [ 5.401297583213524, 51.572040468814855 ], [ 5.402296091996655, 51.571853652727661 ], [ 5.40192165833612, 51.57387769041155 ], [ 5.402856251061543, 51.575021660074924 ], [ 5.403771424494741, 51.575814423039951 ], [ 5.402106422955345, 51.575919125103461 ], [ 5.401114805433878, 51.575555508446129 ], [ 5.400338013710973, 51.575542394852619 ], [ 5.398266312248853, 51.576193331212203 ], [ 5.396303568349161, 51.576516936197088 ], [ 5.395583362172107, 51.576476532335846 ], [ 5.394684525224582, 51.575913685314688 ], [ 5.392820795615826, 51.575300634452027 ], [ 5.391527961009031, 51.575820561357119 ], [ 5.391344350149029, 51.576039451884952 ], [ 5.39140149371664, 51.576323488774491 ], [ 5.392562003702473, 51.577629518563285 ], [ 5.393024247840897, 51.579025785692657 ], [ 5.393558345895873, 51.579935149929476 ], [ 5.392577290810568, 51.580048779241487 ], [ 5.390738358989075, 51.581251237166299 ], [ 5.389857463230253, 51.581605124482223 ], [ 5.38940769291209, 51.581554669376743 ], [ 5.38920804732007, 51.581152954792557 ], [ 5.389680968769083, 51.580959761762365 ], [ 5.389723519815025, 51.580768201923362 ], [ 5.388893478284372, 51.580743941693264 ], [ 5.387729144823285, 51.582480119793388 ], [ 5.389104097604679, 51.582773275401131 ], [ 5.389591670109168, 51.583412340804635 ], [ 5.38788320025957, 51.58436398774743 ], [ 5.385808120941048, 51.585743414173336 ], [ 5.385671895794665, 51.585972597635404 ], [ 5.3826909004538, 51.587260671154212 ], [ 5.380762048306184, 51.587634106633914 ], [ 5.380810809118616, 51.587793109708961 ], [ 5.388315456277684, 51.590062106120342 ], [ 5.387358154438829, 51.590425152488251 ], [ 5.387080140539856, 51.591101409247244 ], [ 5.386938740964913, 51.590799326557047 ], [ 5.386088568795727, 51.590541815906647 ], [ 5.38438160480098, 51.593612513768953 ], [ 5.381345254622778, 51.596183941624552 ], [ 5.38223321535362, 51.596667171335049 ], [ 5.383588594954187, 51.597062718952699 ], [ 5.383116203720713, 51.597191848909468 ], [ 5.383065733493757, 51.597505605325047 ], [ 5.384497069353811, 51.599697490878732 ], [ 5.385996309459057, 51.600832325085456 ], [ 5.38097807318177, 51.602681487364606 ], [ 5.380886320750176, 51.602888910914096 ], [ 5.385443412470552, 51.603856244716475 ], [ 5.388861791540303, 51.60512708604692 ], [ 5.39047697270496, 51.605371518230214 ], [ 5.391026744431498, 51.603929715017621 ], [ 5.390965752227891, 51.603150260731887 ], [ 5.389937093773842, 51.601931385152504 ], [ 5.389900412847169, 51.60085955911957 ], [ 5.391248403263846, 51.600955803747595 ], [ 5.39342859126403, 51.601546060671225 ], [ 5.394375333573652, 51.60077012450958 ], [ 5.394518223570749, 51.59983169231672 ], [ 5.394815970019952, 51.599591883572749 ], [ 5.394818274569407, 51.599231898455933 ], [ 5.395205705271907, 51.599059217221509 ], [ 5.397300256178993, 51.599270292958472 ], [ 5.400865534420393, 51.598729094962863 ], [ 5.403073780544045, 51.598794875774296 ], [ 5.404420764100181, 51.598325107177381 ], [ 5.404934437303772, 51.59782779719793 ], [ 5.405392204249862, 51.597650069275403 ], [ 5.40865040999903, 51.597864718174655 ], [ 5.409079780924849, 51.596270316839764 ], [ 5.410572339520571, 51.596685114999488 ], [ 5.412995976695898, 51.593514526398451 ], [ 5.412942518428788, 51.593366917305978 ], [ 5.411296659385303, 51.592998477994115 ], [ 5.414854854863274, 51.588231614350633 ], [ 5.416222598021466, 51.586938557624414 ], [ 5.416688790885178, 51.58625397181099 ], [ 5.4165233056917, 51.585838991945508 ], [ 5.419101932478556, 51.586510800742651 ], [ 5.419531061591346, 51.586220751363101 ], [ 5.431085946785743, 51.589169909586168 ], [ 5.429802524970332, 51.592245930532805 ], [ 5.429860275391516, 51.592378282763221 ], [ 5.468511722780852, 51.602293346794063 ], [ 5.486034521350779, 51.591208730833181 ], [ 5.486825760454599, 51.590845385610315 ], [ 5.48804492999892, 51.591575374239888 ], [ 5.487654492391598, 51.592799596535741 ], [ 5.488324803209067, 51.593251689332007 ], [ 5.487954749439089, 51.593607423215687 ], [ 5.490125158825999, 51.594947733448258 ], [ 5.487947103217964, 51.602532463605741 ], [ 5.485082576045711, 51.606009618273838 ], [ 5.485184808838844, 51.606236176638561 ], [ 5.485999666973528, 51.606442923423671 ], [ 5.486269387378051, 51.607217088237306 ], [ 5.48651435922189, 51.607463746365546 ], [ 5.48623694677125, 51.607895776184208 ], [ 5.48651337709463, 51.608045248933777 ], [ 5.485693485571127, 51.609160105226877 ], [ 5.49175117854888, 51.609518810952515 ], [ 5.495081447792998, 51.610094594275672 ], [ 5.495645704993144, 51.610914249834387 ], [ 5.495695760801846, 51.611607866396533 ], [ 5.497556628722001, 51.612672158260089 ], [ 5.499567869486902, 51.613436468698652 ], [ 5.499211217451013, 51.613445358523933 ], [ 5.498518021507757, 51.613811924519936 ], [ 5.499338752169378, 51.615569911596509 ], [ 5.500271015102251, 51.615408214335666 ], [ 5.502030074384943, 51.615476275599917 ], [ 5.501614432138683, 51.617655684050618 ], [ 5.501771842981576, 51.620070321231346 ], [ 5.502450659192967, 51.622158597448056 ], [ 5.503392054256176, 51.624012366793174 ], [ 5.501688878368124, 51.624999613439954 ], [ 5.501441282855197, 51.62496356472905 ], [ 5.501377075046126, 51.625167341991201 ], [ 5.500555411651979, 51.625609196177585 ], [ 5.499546008204576, 51.625943319620511 ], [ 5.49950078978362, 51.626162446494334 ], [ 5.496939494349898, 51.627327358876066 ], [ 5.489884353141659, 51.632077897716535 ], [ 5.487281613579442, 51.633244818261844 ], [ 5.487295013121407, 51.633417145004771 ], [ 5.487583967702934, 51.633405396092321 ], [ 5.490354066398177, 51.632480043038697 ], [ 5.490504039269021, 51.632671620590976 ], [ 5.490551181037012, 51.633034618660844 ], [ 5.490318059340216, 51.633517918514237 ], [ 5.489237174961896, 51.634726955142675 ], [ 5.488809147288465, 51.635701308848894 ], [ 5.488557756573414, 51.635806466475799 ], [ 5.487178426901215, 51.635648666079192 ], [ 5.486668565137122, 51.635252943708878 ], [ 5.48450272896327, 51.634614431632848 ], [ 5.469951085921998, 51.642059600221529 ], [ 5.468540117045098, 51.642392916306619 ], [ 5.466311003714618, 51.643286656449845 ], [ 5.465862895093904, 51.642815412453366 ], [ 5.423290832390181, 51.653797474250624 ], [ 5.427601312517496, 51.655931308850107 ], [ 5.428346753388945, 51.656535665524771 ], [ 5.429791675134595, 51.659279348100057 ], [ 5.431118256405214, 51.660373694857732 ], [ 5.431573961024938, 51.660939606795601 ], [ 5.431730191834197, 51.661552984826287 ], [ 5.431422712420114, 51.662675622401117 ], [ 5.43149645850544, 51.663212318061341 ], [ 5.431901776135496, 51.663828826151082 ], [ 5.432463081900763, 51.664218521244585 ], [ 5.433659591838513, 51.664590461311221 ], [ 5.439411542171227, 51.664974379355549 ], [ 5.442392808283318, 51.66479959447031 ], [ 5.44495858606879, 51.664362149578771 ], [ 5.44554775878717, 51.666471843064791 ], [ 5.448767753942819, 51.669666042433299 ], [ 5.458708910463203, 51.692109754365163 ], [ 5.459224496427775, 51.691977052907035 ], [ 5.459809751720941, 51.691545186163268 ], [ 5.460406203793836, 51.689748025835485 ], [ 5.462206621282642, 51.689597366766868 ], [ 5.469712360093769, 51.689243222629649 ], [ 5.469301428056336, 51.691265159757471 ], [ 5.469650251100933, 51.691474261306411 ], [ 5.473764319879108, 51.690792351971083 ], [ 5.477152894526462, 51.691099499797673 ], [ 5.481038123440736, 51.690348025880887 ], [ 5.484550688974695, 51.694852163613817 ], [ 5.48729777077524, 51.698073655393003 ], [ 5.488733509758704, 51.699292021714371 ], [ 5.490338129073614, 51.69905482238422 ], [ 5.49167641345711, 51.70015865064903 ], [ 5.491111808366496, 51.700314967987595 ], [ 5.491056114354232, 51.700473044371222 ], [ 5.493051890116774, 51.702173999814498 ], [ 5.492565867374926, 51.702572699682889 ], [ 5.494173110999364, 51.705651874435972 ], [ 5.49261252260459, 51.705979256540218 ], [ 5.492545013515308, 51.706174693236186 ], [ 5.498968315005306, 51.707081748296886 ], [ 5.499369540037143, 51.708540171659415 ], [ 5.500438260463191, 51.708694814776329 ], [ 5.500732761827583, 51.708903429677321 ], [ 5.501783369816057, 51.71078328697822 ], [ 5.502085761185311, 51.712269776727645 ], [ 5.500900569074478, 51.712505045176869 ], [ 5.501155219035553, 51.713475225936619 ], [ 5.496072791737883, 51.713343144016648 ], [ 5.492844981375994, 51.715102824845737 ], [ 5.484876050072859, 51.71522629714871 ], [ 5.483893294925406, 51.717703514208019 ], [ 5.483932592715334, 51.719337240078396 ], [ 5.480759591258615, 51.72028117657117 ], [ 5.478607360201303, 51.723852468583132 ], [ 5.47879054957859, 51.724250984895043 ], [ 5.479983099204509, 51.72445188274537 ], [ 5.475129073954017, 51.727892139871543 ], [ 5.474176309552974, 51.728888038139374 ], [ 5.46685810008258, 51.726920532219523 ], [ 5.466607591957215, 51.72657241859573 ], [ 5.466345900257815, 51.726483045937727 ], [ 5.466087419872668, 51.726704550064341 ], [ 5.465411769757301, 51.726621308537204 ], [ 5.464887022247215, 51.726204871348344 ], [ 5.463199539544965, 51.725662701796765 ], [ 5.46253593646279, 51.728083214631212 ], [ 5.460047901363678, 51.730592751777671 ], [ 5.457824584592954, 51.729876597151907 ], [ 5.454669112967394, 51.732776785927882 ], [ 5.45307026194561, 51.732321152466056 ], [ 5.45183514237442, 51.734033893016907 ], [ 5.453138297276738, 51.735045946411226 ], [ 5.454040180736041, 51.735500244696681 ], [ 5.452317716172792, 51.737360536203774 ], [ 5.451923018102941, 51.737287720027695 ], [ 5.450457015688831, 51.739319165566087 ], [ 5.45114105824448, 51.739848206670786 ], [ 5.450448473753325, 51.740553945577147 ], [ 5.448048577821173, 51.743992231007525 ], [ 5.447301052065816, 51.745313617243042 ], [ 5.443556009831143, 51.750738450597609 ], [ 5.443432874426622, 51.751230396932257 ], [ 5.443952489323379, 51.75289894983198 ], [ 5.443930443352815, 51.753283211346925 ], [ 5.443256397927124, 51.754347554496512 ], [ 5.441018996451163, 51.759467815619502 ], [ 5.441139995855999, 51.759615857491063 ], [ 5.438756995295272, 51.764906087767962 ], [ 5.433145223877098, 51.76431137154534 ], [ 5.433116743599934, 51.767511222311512 ], [ 5.436178437731074, 51.772338841343185 ], [ 5.427672243170471, 51.77451824351354 ], [ 5.423287326560414, 51.774748233776798 ], [ 5.423994570521548, 51.772944358156046 ], [ 5.423148374833191, 51.767643680964149 ], [ 5.423590467255041, 51.767624554558594 ], [ 5.423687713835609, 51.767354588852925 ], [ 5.423127895629734, 51.763998226461908 ], [ 5.423313412359261, 51.763171415530103 ], [ 5.41190593518212, 51.762077927789605 ], [ 5.412563093795671, 51.758925039435276 ], [ 5.401606181257145, 51.757878896383197 ], [ 5.392628951232079, 51.75663007961019 ], [ 5.390372070207983, 51.756026303012575 ], [ 5.38220033023175, 51.75290658426831 ], [ 5.380199773946718, 51.755654198828964 ], [ 5.374062362975434, 51.753149020990975 ], [ 5.363835191328622, 51.751379589345895 ] ] ] } }
]
}
