{
"type": "FeatureCollection",
"name": "SWVPO3105",
"crs": { "type": "name", "properties": { "name": "urn:ogc:def:crs:OGC:1.3:CRS84" } },
"features": [
{ "type": "Feature", "properties": { "PO SWV": "PO3105", "strokeColor": "#A9A9A9", "strokeWidth": 2, "fillColor": "#ADD8E6" }, "geometry": { "type": "Polygon", "coordinates": [ [ [ 5.638777574545673, 50.847617938469284 ], [ 5.638853782464583, 50.847773726213006 ], [ 5.640635281152437, 50.847797370673 ], [ 5.640211826675197, 50.849531613151072 ], [ 5.642536221386561, 50.850137049209913 ], [ 5.64179051551886, 50.851124953200618 ], [ 5.641617092356619, 50.852476787340208 ], [ 5.640226342913242, 50.853733984891271 ], [ 5.643335621716253, 50.856750286026958 ], [ 5.641586279867102, 50.857567305357243 ], [ 5.643522319822223, 50.858824859389685 ], [ 5.641702307954949, 50.859258500013262 ], [ 5.64190822160386, 50.859596464690298 ], [ 5.643430569064836, 50.860489928691216 ], [ 5.642180392528072, 50.861426156709719 ], [ 5.642932141136128, 50.861968268715998 ], [ 5.643073272576665, 50.862307048523789 ], [ 5.643819600084308, 50.862907592236617 ], [ 5.641577452135285, 50.864210523679603 ], [ 5.644850078179519, 50.865947011236685 ], [ 5.647250271368266, 50.867018223580715 ], [ 5.649283360413142, 50.868356131326749 ], [ 5.647731902649493, 50.868991060860473 ], [ 5.645596950362366, 50.870557693145656 ], [ 5.644101616805201, 50.871268113610093 ], [ 5.644096204819747, 50.871427498356184 ], [ 5.647841133306745, 50.873796365886612 ], [ 5.648543807933347, 50.873441859402 ], [ 5.651296196278293, 50.875187963617144 ], [ 5.653329260426261, 50.874097064608087 ], [ 5.656400002118684, 50.87665921693079 ], [ 5.6567085978227, 50.87649522712757 ], [ 5.65702312137123, 50.876643448685513 ], [ 5.657292485519421, 50.876433555241114 ], [ 5.657927144206226, 50.876760067441552 ], [ 5.658604161277958, 50.876300875981755 ], [ 5.660832564677972, 50.877428872918962 ], [ 5.660574160705942, 50.877780137364411 ], [ 5.661459260448213, 50.878267788444987 ], [ 5.661635024738833, 50.878755521749284 ], [ 5.663888532956107, 50.879115464818021 ], [ 5.667316538672974, 50.880407410974591 ], [ 5.668857167300323, 50.881203529794291 ], [ 5.669601411138065, 50.881917975432316 ], [ 5.671992248623069, 50.881210746000882 ], [ 5.67642200420561, 50.880976759512727 ], [ 5.676793578454442, 50.880635645465851 ], [ 5.679206455488854, 50.88059203753852 ], [ 5.678850237589403, 50.881630127797123 ], [ 5.67879540549027, 50.882576707947855 ], [ 5.679011658802167, 50.883501925576361 ], [ 5.682441020866269, 50.888590927882156 ], [ 5.683529872929916, 50.88923712963112 ], [ 5.685227240220981, 50.890685334050517 ], [ 5.686295762951631, 50.891280403230702 ], [ 5.691216683185718, 50.893209316342386 ], [ 5.692281151306998, 50.893788570856408 ], [ 5.695662010660948, 50.897802980056049 ], [ 5.696147601501286, 50.898625532888019 ], [ 5.696203087283509, 50.89958879806931 ], [ 5.696779312406483, 50.900434079713939 ], [ 5.697078495119833, 50.902243133765978 ], [ 5.696639342527666, 50.903150383524931 ], [ 5.696732575049205, 50.9040511578267 ], [ 5.696479079467751, 50.904919378978491 ], [ 5.695683044902137, 50.905786039456622 ], [ 5.696233719189985, 50.906803939155232 ], [ 5.696159100125294, 50.907742515281448 ], [ 5.696451176190713, 50.90866472648446 ], [ 5.697310633820802, 50.909553393129229 ], [ 5.698210812114139, 50.910239355928354 ], [ 5.69942015131301, 50.910851675798824 ], [ 5.700933705495772, 50.911085213085848 ], [ 5.703402988937293, 50.911812699957686 ], [ 5.706437962941567, 50.91210222274438 ], [ 5.709308737112858, 50.911685531424638 ], [ 5.710609313300616, 50.911137146588786 ], [ 5.71249435947209, 50.909803392224404 ], [ 5.714713393391763, 50.908587555849607 ], [ 5.716041722134712, 50.908325353893538 ], [ 5.718925159716659, 50.907913954885402 ], [ 5.720342430508454, 50.908165466464524 ], [ 5.721397347904779, 50.908891409191341 ], [ 5.722731765594503, 50.90925419309611 ], [ 5.72445858238896, 50.910677570593322 ], [ 5.726551635623747, 50.913115377353208 ], [ 5.727156930916656, 50.915799797502366 ], [ 5.726452733169059, 50.918486933679468 ], [ 5.726418924489981, 50.919307108088496 ], [ 5.725999739891324, 50.920209554275914 ], [ 5.725807475499617, 50.921206247664756 ], [ 5.726840395883775, 50.92388496255461 ], [ 5.728006240380547, 50.925642024132173 ], [ 5.728971597872317, 50.926376908091633 ], [ 5.730220920735348, 50.927963239025203 ], [ 5.731464133833317, 50.928535550904783 ], [ 5.732486647049443, 50.930303289980102 ], [ 5.736491464817222, 50.932935663257801 ], [ 5.737835237767703, 50.933370894689737 ], [ 5.739644595785724, 50.934680628468008 ], [ 5.74081241847091, 50.935302425108816 ], [ 5.742632079636289, 50.937718717278678 ], [ 5.743495358503103, 50.938419341664186 ], [ 5.743921935925599, 50.939280130306699 ], [ 5.74412977762029, 50.941216609013424 ], [ 5.744596181499349, 50.942079174694214 ], [ 5.746015209021161, 50.943508430775104 ], [ 5.746597634044488, 50.943105105388078 ], [ 5.746748431198886, 50.943231200404895 ], [ 5.748192829384745, 50.942107975927378 ], [ 5.748191056576958, 50.941953220859105 ], [ 5.748855167203153, 50.941384067494127 ], [ 5.749000369883741, 50.940567630907708 ], [ 5.749143354333531, 50.940453884986347 ], [ 5.748994296701841, 50.939909347502272 ], [ 5.748488776278918, 50.939111617223574 ], [ 5.750214201418123, 50.939235767690853 ], [ 5.748698295179942, 50.93596854271761 ], [ 5.752540884398349, 50.934278416298262 ], [ 5.752865743542839, 50.934294492675249 ], [ 5.753900695854308, 50.933850155227681 ], [ 5.754867024164335, 50.932908890426305 ], [ 5.754954095716702, 50.932291666539186 ], [ 5.755501834300567, 50.931842284878748 ], [ 5.757017652899187, 50.931565092142726 ], [ 5.75746809260742, 50.932401870843378 ], [ 5.761555839227969, 50.931272876487242 ], [ 5.761621069978333, 50.93114065484972 ], [ 5.761269347054119, 50.930519815060933 ], [ 5.768499411826872, 50.928307639327016 ], [ 5.769048361385456, 50.92892703956489 ], [ 5.771065057649286, 50.92797866264889 ], [ 5.771139352489995, 50.927804718902472 ], [ 5.77254124255019, 50.927340350594051 ], [ 5.773555457182711, 50.92642910857321 ], [ 5.775347512491513, 50.925876270282878 ], [ 5.770684410523653, 50.918306744866186 ], [ 5.769505626938751, 50.917064146875902 ], [ 5.768535480966627, 50.916410573383878 ], [ 5.768613578463094, 50.916197965332508 ], [ 5.768330349058329, 50.916171962328171 ], [ 5.76817929842972, 50.915814932286892 ], [ 5.76712420479437, 50.914932720463135 ], [ 5.765926880389702, 50.914726321205819 ], [ 5.76246661083768, 50.910901230910056 ], [ 5.758913868027103, 50.906434123021818 ], [ 5.758509898065645, 50.905750466241628 ], [ 5.759017392375229, 50.905332173967913 ], [ 5.757778125690413, 50.902648925869883 ], [ 5.756448822679936, 50.900468612011728 ], [ 5.755603985817829, 50.899564862008496 ], [ 5.757990698187939, 50.898636207273739 ], [ 5.758580426754875, 50.898610999466513 ], [ 5.759067849193136, 50.898793897465367 ], [ 5.760503011674242, 50.899878355420455 ], [ 5.76336551134747, 50.902650834274546 ], [ 5.764484901499582, 50.903272680794281 ], [ 5.767013584636186, 50.905736451576637 ], [ 5.768417047497829, 50.906504710860631 ], [ 5.773688721976345, 50.910597228270525 ], [ 5.773866000377414, 50.910605087684146 ], [ 5.774646166623399, 50.911379266773878 ], [ 5.775952573677674, 50.911677714892157 ], [ 5.77770711511727, 50.910946564676664 ], [ 5.78668291805169, 50.911977099358509 ], [ 5.787896921330131, 50.911926481095612 ], [ 5.78964371127245, 50.911149721843955 ], [ 5.790655883287468, 50.91023655623124 ], [ 5.792667121031797, 50.910656734152944 ], [ 5.800633504218611, 50.914754810831369 ], [ 5.80173093089935, 50.914232649476396 ], [ 5.801646885380288, 50.914056471629607 ], [ 5.802260346110916, 50.913754974086899 ], [ 5.801425825704812, 50.912716365643703 ], [ 5.800860211116897, 50.912649556239401 ], [ 5.800495894228484, 50.912002007194197 ], [ 5.800329224936291, 50.910364027422773 ], [ 5.800871425922415, 50.90882625475092 ], [ 5.798466461753808, 50.908237472786759 ], [ 5.798442950528288, 50.908062053705244 ], [ 5.799087344229047, 50.907774545516794 ], [ 5.80169615069937, 50.907343265432402 ], [ 5.80885652544598, 50.907463174678369 ], [ 5.812288818514601, 50.907710434446571 ], [ 5.813344284063412, 50.906061249372641 ], [ 5.810487929801564, 50.904421149895278 ], [ 5.806264190893032, 50.903632812990502 ], [ 5.804849830590052, 50.903104679262299 ], [ 5.801336645785895, 50.902257511508992 ], [ 5.798686713971623, 50.901161166108494 ], [ 5.797606263683531, 50.901076961233173 ], [ 5.794816929206096, 50.90153376579741 ], [ 5.792482962567614, 50.899589870887489 ], [ 5.789440875271257, 50.900796938951437 ], [ 5.787525201019218, 50.900650878747641 ], [ 5.785166655956041, 50.900023262970599 ], [ 5.785347718979166, 50.899599094281839 ], [ 5.786602493024096, 50.898983391156776 ], [ 5.786778625736916, 50.898049893788603 ], [ 5.78779890364203, 50.896965627636106 ], [ 5.787674553525283, 50.896390369669234 ], [ 5.787862516625738, 50.896161125688231 ], [ 5.789215072808593, 50.89526359887779 ], [ 5.790558182909941, 50.895024040258292 ], [ 5.790880254296761, 50.894816717567025 ], [ 5.79224785137666, 50.893005551053697 ], [ 5.791910323111579, 50.892777965990696 ], [ 5.791954275423556, 50.892622443275627 ], [ 5.79256760361782, 50.892818389952438 ], [ 5.792572293542849, 50.893259385475304 ], [ 5.794021612935701, 50.894033104290692 ], [ 5.796491266535748, 50.894925067189867 ], [ 5.797512381714355, 50.895058233142969 ], [ 5.797010761794544, 50.893283104139599 ], [ 5.796648411291559, 50.892582761351917 ], [ 5.796675003627206, 50.891727981836091 ], [ 5.796967716436372, 50.890653964477714 ], [ 5.797263537146693, 50.890244687676272 ], [ 5.797123578179975, 50.889881015459792 ], [ 5.797833824381642, 50.888354742641191 ], [ 5.798371933192449, 50.887827354455105 ], [ 5.799669756348043, 50.885656172552984 ], [ 5.799887749482254, 50.885583923170792 ], [ 5.80239054930542, 50.886981512840308 ], [ 5.807037052523871, 50.887337567721048 ], [ 5.808939223099751, 50.88774627464371 ], [ 5.809855765960327, 50.887747422799904 ], [ 5.812122918455863, 50.886916253680539 ], [ 5.814051427298601, 50.885978024609955 ], [ 5.814736576923543, 50.88621899620567 ], [ 5.814944058050748, 50.886148821727431 ], [ 5.816999155370811, 50.884865126233102 ], [ 5.817346527112442, 50.884394684890388 ], [ 5.819223691039335, 50.883744551755683 ], [ 5.819460276847706, 50.884195293880602 ], [ 5.819358412331246, 50.884340293301499 ], [ 5.820278198505763, 50.88534613937864 ], [ 5.821247992898058, 50.885997376371819 ], [ 5.822497131915604, 50.88650435339931 ], [ 5.824478400916503, 50.887002576609746 ], [ 5.82547935979581, 50.887851569815801 ], [ 5.825753751957189, 50.887779428023023 ], [ 5.82622639653076, 50.888027954114158 ], [ 5.827174355703423, 50.889065313347778 ], [ 5.827806495497859, 50.889452544936276 ], [ 5.828992232676123, 50.889871804193746 ], [ 5.830606889852818, 50.890976376829606 ], [ 5.833157326599418, 50.892118788525195 ], [ 5.836506054304119, 50.89152445380504 ], [ 5.836117547703695, 50.89071910241131 ], [ 5.833692067530795, 50.887694963589652 ], [ 5.832617682571381, 50.885787540462438 ], [ 5.832581253292371, 50.885126135753573 ], [ 5.832819248180698, 50.884329624316031 ], [ 5.832875041521469, 50.883377822387324 ], [ 5.833635274045148, 50.882300839315278 ], [ 5.834185905698289, 50.881860626481597 ], [ 5.834797079412885, 50.881719207230546 ], [ 5.834524515154252, 50.881123938242666 ], [ 5.83462513528954, 50.880549656821216 ], [ 5.835332692636529, 50.880830025983862 ], [ 5.835407729827708, 50.88123431990477 ], [ 5.835805011635191, 50.881396062606747 ], [ 5.842550484463732, 50.882406492126371 ], [ 5.845295338890136, 50.882666100419961 ], [ 5.84915357713002, 50.883631145799988 ], [ 5.850104604048494, 50.883568629157189 ], [ 5.850458343873, 50.883154317050334 ], [ 5.850186513199056, 50.882162401447125 ], [ 5.851689356895855, 50.881862994829895 ], [ 5.851783239120595, 50.882087511547986 ], [ 5.85550037703779, 50.881821402577096 ], [ 5.857635830116127, 50.881845911116685 ], [ 5.861796059216621, 50.882342216277948 ], [ 5.862804724759613, 50.879949074063404 ], [ 5.862765254255719, 50.879190202621245 ], [ 5.863424989977071, 50.878534134403402 ], [ 5.863910251350799, 50.877014794198971 ], [ 5.865296665700912, 50.875755476897488 ], [ 5.869896774499637, 50.873003114138115 ], [ 5.869026632369938, 50.872175987135186 ], [ 5.870537970316271, 50.870751847106135 ], [ 5.869116521919628, 50.869077611849619 ], [ 5.868945673174315, 50.868665813477314 ], [ 5.869225139057131, 50.868399943287791 ], [ 5.870064929460647, 50.868544368618018 ], [ 5.870361788118154, 50.867623854107173 ], [ 5.871282162541754, 50.867704505878677 ], [ 5.872757031891008, 50.865425966144869 ], [ 5.87239597765275, 50.865206895539906 ], [ 5.873208078634332, 50.864489472416722 ], [ 5.872596283043691, 50.864194691585915 ], [ 5.871314264711677, 50.863040988725025 ], [ 5.871086665237851, 50.861141932325665 ], [ 5.871288042234962, 50.860988283824064 ], [ 5.870565398592804, 50.860380026367885 ], [ 5.8709194505429, 50.860137535918724 ], [ 5.869752655275515, 50.859319919795219 ], [ 5.869451945810281, 50.858663457334131 ], [ 5.86907347055014, 50.859334478740585 ], [ 5.868837864156887, 50.859328267790119 ], [ 5.86838166177818, 50.858473144279429 ], [ 5.867969140283112, 50.856535240452942 ], [ 5.870083719673001, 50.856178278517824 ], [ 5.872409354731696, 50.856222764694564 ], [ 5.874499838640536, 50.856685776278674 ], [ 5.874329057052755, 50.857132482574706 ], [ 5.875894685360713, 50.856881067441023 ], [ 5.876485481856512, 50.856558006785981 ], [ 5.87574280477314, 50.855754387371555 ], [ 5.875597208315331, 50.855340478403555 ], [ 5.876427640924258, 50.855122238332989 ], [ 5.876986702999404, 50.854676761474707 ], [ 5.879567321990367, 50.853707218289749 ], [ 5.879814130443289, 50.853786729486146 ], [ 5.880986353554559, 50.853239326063196 ], [ 5.884476836465346, 50.850925908804157 ], [ 5.886102345862995, 50.849410523326199 ], [ 5.891205705504114, 50.842654619726929 ], [ 5.892700116100745, 50.842977999134639 ], [ 5.898793076705464, 50.843253216747563 ], [ 5.903515956943253, 50.845576311987259 ], [ 5.904521697896087, 50.845841672055002 ], [ 5.911031944189217, 50.846590828231861 ], [ 5.911131146468827, 50.846754774954803 ], [ 5.910675862207889, 50.847402380351689 ], [ 5.916138963926227, 50.848632859370483 ], [ 5.918162499249298, 50.848682425017003 ], [ 5.920310624480206, 50.848481959862376 ], [ 5.921834171368951, 50.848718123746117 ], [ 5.924968421881104, 50.848679071778569 ], [ 5.926301265174147, 50.846191979537728 ], [ 5.928035369203861, 50.844557626927326 ], [ 5.929021356966765, 50.842993201867017 ], [ 5.929896647806481, 50.840970175079782 ], [ 5.929832995610438, 50.840564358860092 ], [ 5.929452965349931, 50.840165649398514 ], [ 5.930711208497119, 50.8397467937911 ], [ 5.932344757806898, 50.83968245713131 ], [ 5.933117503598138, 50.839463248231112 ], [ 5.936138571682347, 50.840067468564136 ], [ 5.939468217622484, 50.840981145271883 ], [ 5.942322363854197, 50.842187249899283 ], [ 5.946789152934865, 50.844560217164265 ], [ 5.947979355477303, 50.844766425298083 ], [ 5.951071729701502, 50.844489701103875 ], [ 5.9547488941736, 50.845814120826347 ], [ 5.956043976594422, 50.842219398795123 ], [ 5.956015085021057, 50.840878284389156 ], [ 5.955647096319217, 50.839304441045115 ], [ 5.956794350154805, 50.835949353004963 ], [ 5.955839547036279, 50.835874791552193 ], [ 5.955473229275881, 50.835494024959416 ], [ 5.955456958059179, 50.83527161139596 ], [ 5.956927864804837, 50.832943682586617 ], [ 5.957375761957329, 50.83173032266621 ], [ 5.958198951610013, 50.830181639356809 ], [ 5.959400950562218, 50.828429205235807 ], [ 5.959374456269449, 50.828019431277298 ], [ 5.9600517360589, 50.828009143433405 ], [ 5.962134668684739, 50.826727537040725 ], [ 5.95058971622847, 50.82285940943153 ], [ 5.950944170401377, 50.821748832640807 ], [ 5.952021965534072, 50.820439521213956 ], [ 5.953306021053538, 50.819693220837465 ], [ 5.954111253975523, 50.818922662442425 ], [ 5.956614219295308, 50.819325888432921 ], [ 5.962731869134861, 50.819775459747135 ], [ 5.964482713196928, 50.820141347948947 ], [ 5.966269347687504, 50.819207285776351 ], [ 5.969107217042329, 50.817209797241127 ], [ 5.969306243563204, 50.816854208226211 ], [ 5.96928121325073, 50.816552616560465 ], [ 5.979460688107602, 50.814494332125591 ], [ 5.98035862229186, 50.813121978118858 ], [ 5.978888314444499, 50.812679441859615 ], [ 5.977910676691185, 50.812601291123052 ], [ 5.97703904908511, 50.812049306814295 ], [ 5.974829459285026, 50.811325787181332 ], [ 5.973647243230893, 50.810268307640605 ], [ 5.972623028568739, 50.809872954020484 ], [ 5.973153335970424, 50.808689064092299 ], [ 5.972651780230641, 50.808357479970226 ], [ 5.972678915322924, 50.808189533596739 ], [ 5.973993528666321, 50.808230713369205 ], [ 5.980129011866016, 50.805598991632188 ], [ 5.97873236800838, 50.804575484227925 ], [ 5.977934173455385, 50.804939879625948 ], [ 5.976940122707853, 50.80346375464498 ], [ 5.97583413383498, 50.80230916589224 ], [ 5.97574367082124, 50.801128922421626 ], [ 5.975051702029634, 50.798073584075887 ], [ 5.975962199047837, 50.797776980197881 ], [ 5.976979359418878, 50.797156184842365 ], [ 5.977223778524565, 50.796788519986208 ], [ 5.977761184936679, 50.796979023420484 ], [ 5.978287532447347, 50.796588141299281 ], [ 5.979169739475892, 50.796419952665282 ], [ 5.979178647915413, 50.796127138697329 ], [ 5.979434701055252, 50.796062219715907 ], [ 5.979621689547686, 50.795683859100997 ], [ 5.979875259980219, 50.795695556391749 ], [ 5.980137510255969, 50.795396346169369 ], [ 5.980107528008261, 50.795220868271898 ], [ 5.981393890687506, 50.795108942665166 ], [ 5.981640638187605, 50.795296916349095 ], [ 5.981858809562831, 50.795169476160218 ], [ 5.982069703119225, 50.795331275347706 ], [ 5.98262077126352, 50.795326711749155 ], [ 5.983571534812585, 50.79495284554131 ], [ 5.984095485650186, 50.794871015657584 ], [ 5.984302109384796, 50.795082692850087 ], [ 5.984566167288994, 50.79491685461231 ], [ 5.985027849008722, 50.794924985752374 ], [ 5.985213461784084, 50.794813293519155 ], [ 5.985260900306938, 50.794460933609528 ], [ 5.985472740175074, 50.794499263207776 ], [ 5.985819091108891, 50.794130147915766 ], [ 5.985814492968777, 50.793935631986834 ], [ 5.986461249818916, 50.79402025056666 ], [ 5.986742064740818, 50.793888073870072 ], [ 5.987326214568595, 50.79417261038801 ], [ 5.988314939287092, 50.794138884150527 ], [ 5.994817267616799, 50.790508423650351 ], [ 5.995970057240237, 50.790125745590153 ], [ 5.995857488214499, 50.787568737557407 ], [ 5.996132853046978, 50.787378375193143 ], [ 5.997033289150433, 50.787124587564954 ], [ 5.997466505938784, 50.786685845041482 ], [ 5.998556693849828, 50.78707089752249 ], [ 5.999064757999821, 50.786798729149126 ], [ 5.999119063160855, 50.786574350945152 ], [ 5.999486473018085, 50.786449605980756 ], [ 5.999503828774928, 50.786186235436162 ], [ 5.999959491157571, 50.785714702246466 ], [ 6.000926709722521, 50.785254482900008 ], [ 6.001344972081093, 50.784836895490159 ], [ 6.001844596098191, 50.784764843418117 ], [ 6.002202354015608, 50.784265903466057 ], [ 6.00405713170389, 50.784017951382324 ], [ 6.004992916778296, 50.783525431020621 ], [ 6.005525948243037, 50.783485438754461 ], [ 6.005671041692332, 50.783194727424934 ], [ 6.006240450586707, 50.782796170499147 ], [ 6.006417128193605, 50.782428369230885 ], [ 6.006709682840682, 50.782334133169556 ], [ 6.006659484004146, 50.781968327016479 ], [ 6.006997099997966, 50.782002117335431 ], [ 6.007422088151692, 50.781676973774367 ], [ 6.009584859623991, 50.781058821936313 ], [ 6.010056514118033, 50.780533492663139 ], [ 6.010540786704451, 50.780546608464022 ], [ 6.01079845152893, 50.780274602469994 ], [ 6.011346417792501, 50.780392741932005 ], [ 6.011604478051495, 50.780232578737326 ], [ 6.012077940228642, 50.780309392649293 ], [ 6.013337451167668, 50.779941539774313 ], [ 6.013492601616538, 50.779580996256414 ], [ 6.014484960257925, 50.779663528559702 ], [ 6.014720681749237, 50.779359223324185 ], [ 6.015585701189975, 50.778917974096828 ], [ 6.016586056265148, 50.778688703888662 ], [ 6.017418516636834, 50.778684441846266 ], [ 6.017756720548097, 50.778067806312173 ], [ 6.01894758445674, 50.777782907292625 ], [ 6.019184185046104, 50.777501642682978 ], [ 6.020291348567682, 50.777181937997554 ], [ 6.02063518660369, 50.776879328350816 ], [ 6.02041772311736, 50.776568292100357 ], [ 6.021179549923566, 50.776356660849274 ], [ 6.0215184728324, 50.776455450591342 ], [ 6.022221370927536, 50.77613717475851 ], [ 6.024095060261724, 50.776142250394237 ], [ 6.024795333836884, 50.775726303538534 ], [ 6.026152611246844, 50.775623758274634 ], [ 6.026339955030791, 50.775319227421505 ], [ 6.026981611682818, 50.774919473678501 ], [ 6.02707405389049, 50.774313725067067 ], [ 6.02771925589227, 50.774248829390736 ], [ 6.028028501476101, 50.773485246273076 ], [ 6.026405637121734, 50.772413296041762 ], [ 6.023542524678191, 50.76923529813601 ], [ 6.023203965602953, 50.76854540918599 ], [ 6.022785959567714, 50.768368379021602 ], [ 6.021482248218977, 50.766168573825567 ], [ 6.020426734718221, 50.765229201740496 ], [ 6.019248832358073, 50.764448938387709 ], [ 6.018470005939614, 50.763333279849078 ], [ 6.019768188271621, 50.758389742721228 ], [ 6.020691025363891, 50.755863000533402 ], [ 6.021032199467843, 50.754190451954521 ], [ 6.019811223250945, 50.754576138579992 ], [ 6.017459586593716, 50.754904767492732 ], [ 6.016619920131354, 50.75476608374116 ], [ 6.013419445003843, 50.754969081679924 ], [ 6.010436452045118, 50.754371790382194 ], [ 6.007641758650559, 50.754200957153031 ], [ 6.004527360705666, 50.75369927135575 ], [ 6.004024528941078, 50.753888947199606 ], [ 6.00337149238363, 50.753726917411939 ], [ 6.003183140919779, 50.753927633816573 ], [ 6.002512774972454, 50.754012157676151 ], [ 6.001539333091359, 50.753491718400632 ], [ 6.001270442908702, 50.753548589540102 ], [ 5.999288329318862, 50.752926439341607 ], [ 5.997206492450786, 50.753763844514189 ], [ 5.996560195492044, 50.753707663953335 ], [ 5.996048018082106, 50.753428054823267 ], [ 5.995491502534896, 50.753389398201215 ], [ 5.993378444020409, 50.752660201775115 ], [ 5.99271245420791, 50.752901668219046 ], [ 5.990830008779615, 50.752762461577198 ], [ 5.984553614360624, 50.753292658591143 ], [ 5.983175596286519, 50.752720944248082 ], [ 5.98231912451593, 50.753236475611821 ], [ 5.979313941911358, 50.754533708827353 ], [ 5.977247623653796, 50.754473440590544 ], [ 5.976462324286286, 50.754236048516539 ], [ 5.974081542999765, 50.755131183733063 ], [ 5.975016442007872, 50.7578378561563 ], [ 5.972776570033107, 50.759557951506871 ], [ 5.9691887899542, 50.76050246874631 ], [ 5.962751477619368, 50.761407154480743 ], [ 5.960899807158356, 50.761441113231747 ], [ 5.960619367202326, 50.762351383239277 ], [ 5.959794880973646, 50.762150546472625 ], [ 5.959011355937974, 50.762264792884281 ], [ 5.958001245795234, 50.762016829126701 ], [ 5.955247265397442, 50.760624986477261 ], [ 5.954399879803857, 50.760282404425752 ], [ 5.954031498693665, 50.760352277760489 ], [ 5.953607456441401, 50.760044566537424 ], [ 5.953186043876032, 50.759984095898375 ], [ 5.952337409887336, 50.760373060542626 ], [ 5.951701113290305, 50.760445039367575 ], [ 5.949274143520024, 50.759887924682062 ], [ 5.948347951422202, 50.75989057529641 ], [ 5.947967077235676, 50.759687632569396 ], [ 5.94734964172215, 50.759800249352871 ], [ 5.946997940194181, 50.759661433908121 ], [ 5.946507159537245, 50.75971590521219 ], [ 5.945701111908296, 50.758971211725807 ], [ 5.944274201336462, 50.758376376211579 ], [ 5.943589469012347, 50.758215401273461 ], [ 5.94310266691347, 50.75827407612767 ], [ 5.941616145704775, 50.757821093627058 ], [ 5.940493384644697, 50.757686333514741 ], [ 5.938982464871514, 50.757836125651032 ], [ 5.936191031146388, 50.756688193701542 ], [ 5.935789961531348, 50.756862577698989 ], [ 5.935391145421417, 50.756697536478583 ], [ 5.93318570424629, 50.756453880925612 ], [ 5.931080124060341, 50.756842413316868 ], [ 5.921489875639995, 50.751265682788478 ], [ 5.920465723237777, 50.751397696804602 ], [ 5.916819840496784, 50.750450502921154 ], [ 5.915077135610375, 50.75026756570476 ], [ 5.914715899008478, 50.752058055501877 ], [ 5.915287334101861, 50.754598989615438 ], [ 5.91392582194073, 50.754240566230685 ], [ 5.913445721200993, 50.755317961011365 ], [ 5.913561692155739, 50.755646770944495 ], [ 5.912566146672072, 50.755576795434308 ], [ 5.911305386556591, 50.755130260875539 ], [ 5.91069184200431, 50.7551309104418 ], [ 5.90901526180523, 50.754118936750515 ], [ 5.90849632722617, 50.754532422479912 ], [ 5.908155140092612, 50.755552889413437 ], [ 5.907085041447855, 50.755016375321233 ], [ 5.90599178166797, 50.755405719426932 ], [ 5.904878986553739, 50.755127690688134 ], [ 5.903487197719725, 50.754094546994601 ], [ 5.903187768089362, 50.753736550226456 ], [ 5.903618813699833, 50.753409184108982 ], [ 5.901628401098264, 50.751300530476392 ], [ 5.897518591060986, 50.752580062695557 ], [ 5.896112857457715, 50.753646800517146 ], [ 5.894422855662339, 50.754390647615814 ], [ 5.892410434009063, 50.75494305534675 ], [ 5.889855999010537, 50.756115463387445 ], [ 5.889156057445495, 50.757183244103196 ], [ 5.889088727183389, 50.757539667632017 ], [ 5.890114214302818, 50.76014739958373 ], [ 5.890058131627706, 50.761983410758283 ], [ 5.889575662991993, 50.764194307106422 ], [ 5.889261453360459, 50.765459447675461 ], [ 5.88856945367186, 50.766683682425928 ], [ 5.887028050117175, 50.768817704375422 ], [ 5.886433601640723, 50.770028350797133 ], [ 5.876260099639209, 50.765521536346135 ], [ 5.875070722466137, 50.765242548228827 ], [ 5.873119861411131, 50.765236972387285 ], [ 5.870789748055886, 50.764783849921578 ], [ 5.869967019855986, 50.764942413059813 ], [ 5.868993791444881, 50.764842278402242 ], [ 5.868039160180349, 50.76449059500689 ], [ 5.866303459380185, 50.764189410199656 ], [ 5.864917560395399, 50.763569471157645 ], [ 5.863175821891185, 50.763285010525259 ], [ 5.862242973728951, 50.762691514862489 ], [ 5.860028809177805, 50.761762236785053 ], [ 5.853020984624858, 50.757631908768374 ], [ 5.851978435509897, 50.75677877784819 ], [ 5.848937892270539, 50.753309402634429 ], [ 5.848045948551547, 50.755253498417346 ], [ 5.847738223723303, 50.757819644180884 ], [ 5.845976543550463, 50.761897256271872 ], [ 5.844975673702105, 50.765251977190829 ], [ 5.839593562213972, 50.763815395047466 ], [ 5.838180844754215, 50.763253377058959 ], [ 5.833264737171275, 50.760470174532983 ], [ 5.830783635891559, 50.758462257881256 ], [ 5.826355374968728, 50.758843907743532 ], [ 5.822444824358135, 50.758696821771977 ], [ 5.820624236440598, 50.758291461498693 ], [ 5.81693767963751, 50.756796447360102 ], [ 5.814436792635036, 50.756065164835206 ], [ 5.809759235890833, 50.755791525366028 ], [ 5.807596540308783, 50.755957410570034 ], [ 5.80725760194881, 50.756105780739631 ], [ 5.793197573564663, 50.770082356865707 ], [ 5.788321710706878, 50.767918704345391 ], [ 5.784437666759784, 50.767093162102626 ], [ 5.781833254253458, 50.771305235419575 ], [ 5.78126649090484, 50.771285208012927 ], [ 5.78018189432628, 50.7735161817887 ], [ 5.779593353429725, 50.774297934221117 ], [ 5.778021151652752, 50.779407053000917 ], [ 5.776551577894081, 50.782219187950425 ], [ 5.776968793602529, 50.782885675448121 ], [ 5.773585440349815, 50.78314412115639 ], [ 5.772575338824247, 50.782935162601838 ], [ 5.765847868558614, 50.7824488765688 ], [ 5.760890599347034, 50.778783946954341 ], [ 5.760160032627216, 50.778425192904855 ], [ 5.759618938581168, 50.777873801530411 ], [ 5.758846558108706, 50.778088570131317 ], [ 5.755829300889234, 50.774934164384163 ], [ 5.754583232214276, 50.775082990587833 ], [ 5.752392462856726, 50.77334052334902 ], [ 5.751893292510959, 50.773553819378414 ], [ 5.751224939000358, 50.772760640248848 ], [ 5.750079986874713, 50.771821278089213 ], [ 5.748811712903271, 50.771399872527894 ], [ 5.747149386999196, 50.770404991110894 ], [ 5.746228773162562, 50.769569919933915 ], [ 5.746403857986205, 50.769304442964035 ], [ 5.74507179242713, 50.768775008101549 ], [ 5.745336727107188, 50.768325388017352 ], [ 5.744420024075499, 50.767925850938802 ], [ 5.743337337542049, 50.766938091249585 ], [ 5.741971262670702, 50.764636628121366 ], [ 5.741676868127499, 50.764637526014347 ], [ 5.740755707787378, 50.763186471643607 ], [ 5.741225929692198, 50.763076480867404 ], [ 5.741329956884397, 50.762852098177348 ], [ 5.741228187579079, 50.762663042868581 ], [ 5.741536952501134, 50.762276927015201 ], [ 5.741373665154256, 50.761993387655977 ], [ 5.740624015354422, 50.761477669812393 ], [ 5.74166910969072, 50.761139891490707 ], [ 5.740933667961991, 50.760141946177505 ], [ 5.740938320790054, 50.759934381963262 ], [ 5.739213973730508, 50.756980161323597 ], [ 5.735158109212553, 50.757381071276725 ], [ 5.732750231031287, 50.757198594921746 ], [ 5.730347988380877, 50.757324204821387 ], [ 5.73015157759738, 50.758185815502728 ], [ 5.726369715422163, 50.759320951385774 ], [ 5.7239549197716, 50.760823963965947 ], [ 5.72393566153491, 50.760970195246941 ], [ 5.724428600673389, 50.761369048686866 ], [ 5.724239909462674, 50.761411030372329 ], [ 5.724307478123408, 50.761574920102191 ], [ 5.723542039281946, 50.761907184160961 ], [ 5.723710231576443, 50.762197985669772 ], [ 5.722228468843253, 50.76273632159657 ], [ 5.72259073940098, 50.763113577161967 ], [ 5.721930164843061, 50.76352873462114 ], [ 5.72258980707541, 50.763795208647274 ], [ 5.720313803259589, 50.764595112880109 ], [ 5.719477045797883, 50.763224459181806 ], [ 5.717390385714038, 50.761177944431999 ], [ 5.716079792756505, 50.760252704514585 ], [ 5.715657330610772, 50.759781118611869 ], [ 5.713529424045237, 50.760057145769409 ], [ 5.713549563400727, 50.760600063773559 ], [ 5.712367388751509, 50.76085737448647 ], [ 5.712167247117613, 50.76038029738006 ], [ 5.711559833583729, 50.760376588714919 ], [ 5.71068062178852, 50.760651081861553 ], [ 5.710264692215526, 50.759716087177239 ], [ 5.708968971389205, 50.759827947580035 ], [ 5.708743643795399, 50.75893497558944 ], [ 5.707468107048483, 50.758912329242712 ], [ 5.707068509192011, 50.758189758601482 ], [ 5.705283837310531, 50.758240206567407 ], [ 5.702603141692423, 50.758797550997222 ], [ 5.7014654735036, 50.756961265426682 ], [ 5.699467770623057, 50.755328575429836 ], [ 5.699043308478908, 50.755176040937165 ], [ 5.697890754243158, 50.755244881536605 ], [ 5.694784707705244, 50.754676854941451 ], [ 5.68846081502423, 50.755614670387232 ], [ 5.687855167377251, 50.756119998764341 ], [ 5.687957304538902, 50.757426754538386 ], [ 5.687782445874632, 50.75758873317475 ], [ 5.686278547075979, 50.757442185979421 ], [ 5.685006979162176, 50.757579481499981 ], [ 5.684088942840268, 50.75739104971764 ], [ 5.682004207346845, 50.757454740437652 ], [ 5.681872164908822, 50.758861104730329 ], [ 5.682088794424047, 50.760009751150029 ], [ 5.682752258565179, 50.761319450781862 ], [ 5.684962411599278, 50.763673542315658 ], [ 5.68981403802712, 50.767348995972803 ], [ 5.695135182583969, 50.772568852285723 ], [ 5.697282307283039, 50.775363038084315 ], [ 5.698189701409056, 50.777505247358974 ], [ 5.698646392952519, 50.779632836353933 ], [ 5.698725540954036, 50.781650935632165 ], [ 5.698609057346703, 50.783135708852058 ], [ 5.698189546397346, 50.785141155789638 ], [ 5.697585950894167, 50.787012292192429 ], [ 5.695598113816067, 50.791311441032079 ], [ 5.694503959015441, 50.794108586999066 ], [ 5.693879208936128, 50.796622706362093 ], [ 5.693446496740791, 50.800118081808932 ], [ 5.693753080816732, 50.811440811665499 ], [ 5.691692062052678, 50.812014899017733 ], [ 5.691189747706416, 50.811743236953951 ], [ 5.688752300416701, 50.811528876299398 ], [ 5.688557868121636, 50.811773687149184 ], [ 5.686852058149297, 50.811975574663087 ], [ 5.686803575232876, 50.812210422470031 ], [ 5.685958450920395, 50.812130491748185 ], [ 5.685843777336935, 50.812409015831001 ], [ 5.684462653436106, 50.812747695334053 ], [ 5.684182116070278, 50.813043805252143 ], [ 5.684192910137791, 50.813304812997607 ], [ 5.682975610001021, 50.813039943500407 ], [ 5.682278201350933, 50.812342198826144 ], [ 5.681717387277332, 50.812045914620889 ], [ 5.680576350931354, 50.811935124381066 ], [ 5.679810678381974, 50.812653616700871 ], [ 5.679491594405633, 50.813540285077622 ], [ 5.679520129985339, 50.814091554869464 ], [ 5.679329493209198, 50.814667358500735 ], [ 5.678365829052942, 50.815022209276727 ], [ 5.678198751662815, 50.816361137350214 ], [ 5.67316121816834, 50.815896237937004 ], [ 5.672841257530571, 50.816257216621416 ], [ 5.672671187559176, 50.816851080699344 ], [ 5.669642980099619, 50.817150504268668 ], [ 5.669576613373575, 50.817276948040394 ], [ 5.669729020752214, 50.817378260173484 ], [ 5.669409250341772, 50.81773688181061 ], [ 5.668146603695287, 50.81763278042537 ], [ 5.668037746492369, 50.816741009433017 ], [ 5.667630785471157, 50.81644595350447 ], [ 5.666346714129787, 50.816743518362564 ], [ 5.666281162379923, 50.816979780517087 ], [ 5.66648814507354, 50.817172569920601 ], [ 5.6653709348341, 50.817108572075682 ], [ 5.665195251216221, 50.816938256888072 ], [ 5.664247348537366, 50.817090226702319 ], [ 5.663667040783767, 50.817731035490169 ], [ 5.663153059595563, 50.817970315150852 ], [ 5.658992681790582, 50.818383113609094 ], [ 5.656942967811481, 50.819137068396962 ], [ 5.6556927199344, 50.819300736260345 ], [ 5.653936250194338, 50.819998432524116 ], [ 5.653969630725769, 50.820198147095631 ], [ 5.65500183442058, 50.820915174799985 ], [ 5.654290126700433, 50.821181427740513 ], [ 5.654258820796342, 50.82132807675471 ], [ 5.656294690383982, 50.823145713363928 ], [ 5.655408642066331, 50.823775347524865 ], [ 5.656005648017324, 50.824287326508696 ], [ 5.651838153624118, 50.827387282958171 ], [ 5.649295213666647, 50.826262729502453 ], [ 5.648812653986012, 50.826647699722493 ], [ 5.648765553534885, 50.826962218959622 ], [ 5.649898155971651, 50.828400450534218 ], [ 5.650224284058174, 50.829178887809491 ], [ 5.650203014683751, 50.82999199418375 ], [ 5.651001852855233, 50.831019625907139 ], [ 5.651271994584049, 50.831981219090565 ], [ 5.650852254897798, 50.832762926513205 ], [ 5.649974602354997, 50.833767733041569 ], [ 5.648275632954138, 50.833137137036452 ], [ 5.647863537679133, 50.834963189404554 ], [ 5.647127488549059, 50.835772578272937 ], [ 5.647224441454179, 50.835944869466211 ], [ 5.643656439638439, 50.837870119150864 ], [ 5.645154690644659, 50.839356637965643 ], [ 5.641776567153505, 50.840729525472213 ], [ 5.642633848815664, 50.841476197735027 ], [ 5.641119269397546, 50.842904938317318 ], [ 5.642080821965976, 50.84315331886593 ], [ 5.639087461222694, 50.846256908498731 ], [ 5.638777574545673, 50.847617938469284 ] ] ] } }
]
}
