{
"type": "FeatureCollection",
"name": "SWVPO3002",
"crs": { "type": "name", "properties": { "name": "urn:ogc:def:crs:OGC:1.3:CRS84" } },
"features": [
{ "type": "Feature", "properties": { "PO SWV": "PO3002", "strokeColor": "#A9A9A9", "strokeWidth": 2, "fillColor": "#ADD8E6" }, "geometry": { "type": "Polygon", "coordinates": [ [ [ 4.31660299871987, 51.546508962358978 ], [ 4.318030869714995, 51.550291916450313 ], [ 4.318090838, 51.550720676474107 ], [ 4.317877769584266, 51.551210069570118 ], [ 4.317979125677621, 51.551315742423341 ], [ 4.354461242958838, 51.547091995082916 ], [ 4.356527667681312, 51.546776819722574 ], [ 4.357831388400016, 51.545566150450625 ], [ 4.359618431850477, 51.546314904291563 ], [ 4.375358844869022, 51.543823067226754 ], [ 4.411449563428, 51.551697400452589 ], [ 4.426838875771478, 51.552480851075416 ], [ 4.428126016401356, 51.553661115734094 ], [ 4.428739532631087, 51.554696281440989 ], [ 4.428989885030494, 51.555791821061334 ], [ 4.438355946838214, 51.556491330243674 ], [ 4.438542668544478, 51.556592550874427 ], [ 4.439140775498339, 51.558169717211314 ], [ 4.440989491122584, 51.558581840238858 ], [ 4.44104554977053, 51.559001619903569 ], [ 4.440804253283454, 51.560136378637907 ], [ 4.441081480570847, 51.562523607398717 ], [ 4.441527117743745, 51.564204821429222 ], [ 4.441471977348522, 51.565093840966426 ], [ 4.44182026922127, 51.566197832463288 ], [ 4.441858021662348, 51.567413402507491 ], [ 4.442485215200107, 51.568445717996333 ], [ 4.443812701939957, 51.56913739475889 ], [ 4.441498368545294, 51.571732054657041 ], [ 4.43804013804066, 51.576894447348636 ], [ 4.434090527529675, 51.581090419988151 ], [ 4.432541269851098, 51.583206503876511 ], [ 4.431611179683996, 51.584837781017249 ], [ 4.430775624697034, 51.586810628378061 ], [ 4.430134894356722, 51.588924514097833 ], [ 4.429477262676689, 51.591981456951466 ], [ 4.429455542668859, 51.592561553120703 ], [ 4.430868539733196, 51.592756548480196 ], [ 4.432223651397265, 51.593998312118579 ], [ 4.433313210657866, 51.594196402236825 ], [ 4.433318043195672, 51.594532522144405 ], [ 4.432166282060249, 51.597713320495259 ], [ 4.43175599204634, 51.597701132337178 ], [ 4.431320531075955, 51.598272746032812 ], [ 4.429532896875104, 51.598267993679201 ], [ 4.429350630535377, 51.599516944535232 ], [ 4.428577821076414, 51.6001242924156 ], [ 4.428002215633694, 51.604917731622081 ], [ 4.426578477771828, 51.611767071792599 ], [ 4.430919753535271, 51.610898200304085 ], [ 4.430817036139475, 51.611097290110003 ], [ 4.43096338576329, 51.611285579738613 ], [ 4.431324902635122, 51.611327633091548 ], [ 4.431408016782378, 51.611543996936497 ], [ 4.431272932573237, 51.611721396892122 ], [ 4.431642424141328, 51.612326645064414 ], [ 4.431795235572269, 51.614079902792376 ], [ 4.433695271783376, 51.616010670251079 ], [ 4.435657745765837, 51.615267417042865 ], [ 4.436128438405256, 51.615687573182846 ], [ 4.436501347409301, 51.61556431762768 ], [ 4.437284826858913, 51.616286520716528 ], [ 4.437355420862986, 51.616911950426854 ], [ 4.437614480608949, 51.617102000564451 ], [ 4.433508563730446, 51.619625846511958 ], [ 4.42985489212596, 51.622211756554606 ], [ 4.428730954723496, 51.623218061911857 ], [ 4.430426286054329, 51.628631389670232 ], [ 4.427901477866309, 51.628813933438707 ], [ 4.425736714612271, 51.630351886382073 ], [ 4.424257753086136, 51.629921082610366 ], [ 4.423330260851793, 51.630340662495897 ], [ 4.420776917451645, 51.630784665501601 ], [ 4.413477454832586, 51.631065244060885 ], [ 4.412103420536067, 51.631383936621155 ], [ 4.408852623881033, 51.632731150056991 ], [ 4.4068949622429, 51.633965049524292 ], [ 4.404043174830755, 51.636075592364605 ], [ 4.402369252006745, 51.636996971105248 ], [ 4.39984004295981, 51.638728808727237 ], [ 4.399262308282765, 51.63929905666852 ], [ 4.397639901721213, 51.641904970093904 ], [ 4.397311725866291, 51.642734620504207 ], [ 4.396085217274549, 51.643630042042318 ], [ 4.394859151642366, 51.644164339636845 ], [ 4.391131232216428, 51.645014170117143 ], [ 4.388361761168937, 51.645363806701383 ], [ 4.386899246596229, 51.645931606191645 ], [ 4.385071701910776, 51.647158353014468 ], [ 4.383761005977562, 51.648564039259682 ], [ 4.381395071943185, 51.650108689456346 ], [ 4.380135332596198, 51.650695746354366 ], [ 4.380085303010432, 51.652064797958296 ], [ 4.376534951790067, 51.652794289859393 ], [ 4.376527641930581, 51.653281367780494 ], [ 4.377519297441275, 51.652878471090951 ], [ 4.37782065263223, 51.65305401703673 ], [ 4.377168624286307, 51.653786294857426 ], [ 4.376510609557285, 51.654178550093015 ], [ 4.376502190375771, 51.654340947318701 ], [ 4.374918479171141, 51.655354291661602 ], [ 4.374691550195327, 51.655348325996776 ], [ 4.372996897447562, 51.656511268309821 ], [ 4.372755623715186, 51.656859659898529 ], [ 4.37316693603764, 51.657248648523172 ], [ 4.373169743319041, 51.65742611692778 ], [ 4.373761842298324, 51.657365270962949 ], [ 4.373775812119288, 51.657531217930838 ], [ 4.377057672529345, 51.659198181569813 ], [ 4.375541734603384, 51.660528482418187 ], [ 4.374925727681711, 51.660577404305286 ], [ 4.37194264524911, 51.659180775559967 ], [ 4.371226082893195, 51.658981235115739 ], [ 4.369610530004755, 51.658864084012748 ], [ 4.369379607233032, 51.659051860162919 ], [ 4.36958332979406, 51.659336047472635 ], [ 4.371512734743646, 51.659657274004914 ], [ 4.374658492539966, 51.661123353313656 ], [ 4.375519900206609, 51.66115058053915 ], [ 4.376208097085403, 51.660783771595348 ], [ 4.377847437291462, 51.661255673476262 ], [ 4.379570243191179, 51.662409400781527 ], [ 4.379466752085431, 51.662632916118177 ], [ 4.379774960900254, 51.662871704577285 ], [ 4.378808888023521, 51.663430909645619 ], [ 4.378822531941189, 51.663652767723953 ], [ 4.379941325847917, 51.663124343621909 ], [ 4.380219659561362, 51.663179862627445 ], [ 4.382488805419541, 51.664997212073047 ], [ 4.382742156821962, 51.664945443081059 ], [ 4.383245444616873, 51.665461242189217 ], [ 4.383692174509095, 51.665525258474098 ], [ 4.383807456737699, 51.665797302470239 ], [ 4.383468773978175, 51.66565779718789 ], [ 4.38333126531538, 51.66583285057996 ], [ 4.385379097302195, 51.668369040105482 ], [ 4.385792418150812, 51.668655823170958 ], [ 4.385957824972337, 51.668591336283114 ], [ 4.38587979592883, 51.668424859633049 ], [ 4.386622066378665, 51.668417481761921 ], [ 4.387198921269319, 51.668803599608431 ], [ 4.387729278465766, 51.66892397812844 ], [ 4.39163447651391, 51.674773868548179 ], [ 4.391745251964814, 51.675304035155165 ], [ 4.393427258190175, 51.677837605542805 ], [ 4.392856821489391, 51.67847544194079 ], [ 4.392158702229771, 51.678642967483356 ], [ 4.3924576882279, 51.679448679507679 ], [ 4.392385932556391, 51.679710338967915 ], [ 4.392064629808337, 51.679936171893452 ], [ 4.39210765722847, 51.680149174657537 ], [ 4.393659982833051, 51.680441278956039 ], [ 4.40135188845354, 51.684584675615596 ], [ 4.4021231000136, 51.684627129571027 ], [ 4.402808856955001, 51.685005592540435 ], [ 4.402979796413478, 51.685468372893908 ], [ 4.406420310902612, 51.687359501421895 ], [ 4.407047440566892, 51.687894723115043 ], [ 4.406820508789578, 51.688170397715616 ], [ 4.407504312451596, 51.688557983204227 ], [ 4.40725355978797, 51.688534328893255 ], [ 4.406767851504289, 51.688861184948969 ], [ 4.406741139064309, 51.689093959885611 ], [ 4.405984279334834, 51.688696495817268 ], [ 4.405473191085332, 51.689048029042716 ], [ 4.406010140566869, 51.689607297837888 ], [ 4.405178258744547, 51.689267283160198 ], [ 4.404909167701856, 51.68942726230172 ], [ 4.404404794050289, 51.68926809355083 ], [ 4.398447066548059, 51.686081573752141 ], [ 4.397907340584752, 51.68589593449083 ], [ 4.396787509272775, 51.685845194581539 ], [ 4.391709573176645, 51.683135788944718 ], [ 4.39095846134748, 51.682609637228545 ], [ 4.390306325860286, 51.681430559577983 ], [ 4.38986921754333, 51.681392231644828 ], [ 4.389559315462277, 51.681617066269581 ], [ 4.38969347012773, 51.682327433854887 ], [ 4.390188668480464, 51.683118341340545 ], [ 4.390846632018881, 51.683868818567603 ], [ 4.391487257238142, 51.684327010804516 ], [ 4.395612727189194, 51.686629821060102 ], [ 4.398263007609317, 51.687289787967252 ], [ 4.401528914566035, 51.688978695193576 ], [ 4.401144155166823, 51.689217294959228 ], [ 4.401422320518979, 51.689468605272239 ], [ 4.40130078117806, 51.690028173425809 ], [ 4.402536296320361, 51.691024990998208 ], [ 4.402505784046983, 51.691464922064341 ], [ 4.403097899237173, 51.691865781593322 ], [ 4.401860600221505, 51.692752020292367 ], [ 4.401059058578759, 51.692385287590554 ], [ 4.400283308301909, 51.692499758813 ], [ 4.395038687920854, 51.690384998730387 ], [ 4.392593682990612, 51.690330852589284 ], [ 4.391804867460131, 51.690502787332782 ], [ 4.391680981303416, 51.690811182013171 ], [ 4.392091837030669, 51.691028409356797 ], [ 4.393864851700428, 51.690743748381344 ], [ 4.395049304936421, 51.690872382889289 ], [ 4.399266533461058, 51.692598729593371 ], [ 4.399797029251502, 51.692978616767199 ], [ 4.39962501655927, 51.693169850255138 ], [ 4.39984745242803, 51.693379195609978 ], [ 4.399473782533693, 51.693224099656057 ], [ 4.399234702984434, 51.693352809189989 ], [ 4.398740746238175, 51.693294898955948 ], [ 4.397502536087942, 51.694119378231072 ], [ 4.397098610390518, 51.694198355218319 ], [ 4.394372024275497, 51.692814407680338 ], [ 4.393904241729052, 51.691958445300237 ], [ 4.39343255033786, 51.691901935758004 ], [ 4.393152763007039, 51.692185346534799 ], [ 4.393306309469703, 51.692752026232739 ], [ 4.39431676066726, 51.693354793880488 ], [ 4.394432224817331, 51.693848114986565 ], [ 4.403608407971038, 51.698808644100659 ], [ 4.403976805404522, 51.698622175501448 ], [ 4.405034045132894, 51.6988315743911 ], [ 4.405373893187444, 51.698544996172792 ], [ 4.405116217552216, 51.698285580044022 ], [ 4.404165255720831, 51.698142701769179 ], [ 4.401106151131318, 51.696459339027491 ], [ 4.401091100411874, 51.696258339750116 ], [ 4.402354531047115, 51.695330894911102 ], [ 4.402312986413584, 51.695068052305693 ], [ 4.402472446592, 51.694892116753124 ], [ 4.402231699455911, 51.694670451729031 ], [ 4.403504974070195, 51.694912738990674 ], [ 4.406582854338615, 51.697025416005907 ], [ 4.407045826031412, 51.697771320318246 ], [ 4.407062870117082, 51.69867973650581 ], [ 4.407494276119799, 51.698749734748382 ], [ 4.407696966582754, 51.69839502655374 ], [ 4.407400939439183, 51.697380923296812 ], [ 4.406950683395634, 51.696724842653417 ], [ 4.403073688388663, 51.693909931068028 ], [ 4.403178540407514, 51.693623336867574 ], [ 4.402486633062563, 51.693063799311872 ], [ 4.403687654809661, 51.692194299099086 ], [ 4.404702219216684, 51.692581538235423 ], [ 4.405119163938739, 51.692448336843484 ], [ 4.409886327763087, 51.694334305576525 ], [ 4.411854243035025, 51.694761876763344 ], [ 4.412351475025052, 51.695129472286801 ], [ 4.413131295437943, 51.695194241432297 ], [ 4.421648113573671, 51.699787867129501 ], [ 4.423129463387552, 51.700409595798988 ], [ 4.425202152067722, 51.700832686086265 ], [ 4.429388051667885, 51.700930701406719 ], [ 4.429627799782214, 51.700813655886954 ], [ 4.429588174046227, 51.700614798988248 ], [ 4.429293096808348, 51.700538321514578 ], [ 4.425750020944144, 51.700350635059699 ], [ 4.423566651609216, 51.699695418353393 ], [ 4.411266102929339, 51.693074616157453 ], [ 4.410559091145937, 51.692487119560546 ], [ 4.410762498997588, 51.692172330628942 ], [ 4.406605357287945, 51.689915434145661 ], [ 4.410910061718001, 51.692190646194334 ], [ 4.411475413198266, 51.691815171019648 ], [ 4.411460198873061, 51.691648127333764 ], [ 4.407322598663733, 51.689403765219481 ], [ 4.411620310128491, 51.691663363442515 ], [ 4.412189853551036, 51.691179351095741 ], [ 4.408072237715057, 51.688868964385819 ], [ 4.412307525023142, 51.691170052388948 ], [ 4.412628701474923, 51.691004669082496 ], [ 4.413695323534304, 51.691373825884277 ], [ 4.419828101007557, 51.694741419655564 ], [ 4.420827047525293, 51.694676147001779 ], [ 4.42539199882551, 51.69700868457501 ], [ 4.426316161761409, 51.697214024416546 ], [ 4.42740378645425, 51.697220425861055 ], [ 4.429146059227752, 51.696862604051354 ], [ 4.431351008969622, 51.696728044465388 ], [ 4.432330366302096, 51.697035115248006 ], [ 4.433520376181703, 51.696926973390632 ], [ 4.434234188067983, 51.697322135118618 ], [ 4.436727626925242, 51.697683034672011 ], [ 4.437454789396541, 51.697467448369295 ], [ 4.437496046066761, 51.697275587456758 ], [ 4.437246140301347, 51.697147712098214 ], [ 4.436315999944953, 51.697212895848409 ], [ 4.435487000277545, 51.696981729714736 ], [ 4.435222214631525, 51.697055312797353 ], [ 4.435193573124346, 51.696708089382206 ], [ 4.436751997183532, 51.696163375698482 ], [ 4.439201831191418, 51.696667580875712 ], [ 4.438600691582743, 51.696846007660938 ], [ 4.438567379492522, 51.69699344490089 ], [ 4.438732048359169, 51.697077522048048 ], [ 4.442691103331373, 51.696321289802967 ], [ 4.443654852564897, 51.696292474651379 ], [ 4.443779355201563, 51.69602708776376 ], [ 4.442614296646399, 51.695670295906886 ], [ 4.443715096646565, 51.695811345386851 ], [ 4.443787187353796, 51.695636150082059 ], [ 4.443496718418428, 51.69555801082565 ], [ 4.443678080434612, 51.695375060210601 ], [ 4.446112208556738, 51.694622364219789 ], [ 4.447038838692246, 51.693989513380849 ], [ 4.451224543760679, 51.691953060289748 ], [ 4.45280370219756, 51.69152493315589 ], [ 4.45447052948347, 51.691323050389805 ], [ 4.456025044437348, 51.690690100786341 ], [ 4.457469527238962, 51.69042625440553 ], [ 4.457601272035829, 51.690310522612982 ], [ 4.457482811272156, 51.690181761992577 ], [ 4.45595025748978, 51.690459771804214 ], [ 4.45645495897052, 51.690197380269666 ], [ 4.456986541089146, 51.690220619417687 ], [ 4.457512114149512, 51.689840954646264 ], [ 4.45776827730804, 51.689996909061215 ], [ 4.458588554976086, 51.689851826467411 ], [ 4.459430858463271, 51.689225513362743 ], [ 4.459642130205921, 51.689558843206584 ], [ 4.459393028331727, 51.68974871058883 ], [ 4.459576077719232, 51.68985330362559 ], [ 4.460151604538341, 51.689520078717614 ], [ 4.46015478988095, 51.689270015030495 ], [ 4.462318870064439, 51.688512801324954 ], [ 4.462681573113928, 51.688690467358249 ], [ 4.462828592917346, 51.689006798239866 ], [ 4.463820097483367, 51.688824271963014 ], [ 4.463976670051086, 51.68862830553276 ], [ 4.463656266189073, 51.688028457289626 ], [ 4.463641300080056, 51.687885724006513 ], [ 4.463994578616599, 51.688287183495653 ], [ 4.465018239727454, 51.688135415859577 ], [ 4.466272711925246, 51.687646375866343 ], [ 4.46869479150496, 51.687061622325579 ], [ 4.469080075090439, 51.686825725563736 ], [ 4.469906579062447, 51.686928450192873 ], [ 4.470461821164326, 51.686738903059457 ], [ 4.470833983258876, 51.686878963684158 ], [ 4.471428069238634, 51.686617411514781 ], [ 4.472077692148795, 51.686787323487415 ], [ 4.472794016697871, 51.686446720945213 ], [ 4.473032015144009, 51.686631635328197 ], [ 4.473462175098717, 51.6866580718766 ], [ 4.473998393432737, 51.686495418849773 ], [ 4.474364442917761, 51.686000774430369 ], [ 4.474759793287684, 51.686232094168254 ], [ 4.475295377956517, 51.68604812948616 ], [ 4.47605505945763, 51.686051291475167 ], [ 4.476436679927636, 51.685779656280182 ], [ 4.477117664707763, 51.685815838307619 ], [ 4.478193436536516, 51.685423971514098 ], [ 4.479474853365814, 51.685550130159896 ], [ 4.479972745296978, 51.685376971592177 ], [ 4.480215422570024, 51.685060237535787 ], [ 4.480676409934389, 51.68547949514624 ], [ 4.481105814879604, 51.68549696732866 ], [ 4.482345929412353, 51.684984427952365 ], [ 4.483112414748818, 51.68484006281296 ], [ 4.483063305744386, 51.684629388338223 ], [ 4.482579010781277, 51.684691487459951 ], [ 4.483462820135877, 51.68432703403537 ], [ 4.48383652522616, 51.684441410532763 ], [ 4.48556678067358, 51.684063947184725 ], [ 4.486121731399837, 51.684115934370226 ], [ 4.486581143894329, 51.683776585846587 ], [ 4.487083569384487, 51.683957293369673 ], [ 4.487295838884494, 51.683762868866673 ], [ 4.487628787846537, 51.68389400675143 ], [ 4.488123380484294, 51.683630672124679 ], [ 4.488808985597363, 51.68367125061679 ], [ 4.488965559936004, 51.683394785767256 ], [ 4.489415213711314, 51.683390963091412 ], [ 4.49000845412448, 51.68307535303903 ], [ 4.491158533438674, 51.683293849403562 ], [ 4.491438644346951, 51.683069085687634 ], [ 4.491756385544228, 51.683061833142986 ], [ 4.491976267896402, 51.683165422984544 ], [ 4.491930111489546, 51.683388409993633 ], [ 4.492279455424913, 51.683370823717667 ], [ 4.49246826863171, 51.683248586211022 ], [ 4.492551422281835, 51.68290779694226 ], [ 4.49247906401904, 51.68032362283094 ], [ 4.492176797993123, 51.67939173960449 ], [ 4.49233781595708, 51.67916536365 ], [ 4.492566714854254, 51.680398905860834 ], [ 4.492639715131745, 51.681756161342314 ], [ 4.492909526186964, 51.682036030732036 ], [ 4.492955211523873, 51.683355308180047 ], [ 4.49315243856836, 51.683765598269005 ], [ 4.494275997272897, 51.683657223267055 ], [ 4.494296658977347, 51.683412399949582 ], [ 4.494559090532285, 51.683240359015265 ], [ 4.495876682429421, 51.683177137646773 ], [ 4.496498531185458, 51.682921972513547 ], [ 4.497191468698807, 51.683062342778101 ], [ 4.503220716574047, 51.682549983879447 ], [ 4.505595257234965, 51.682890622539716 ], [ 4.507542843452353, 51.682943158442946 ], [ 4.508203822311975, 51.683221433640867 ], [ 4.50937233280832, 51.683327958353317 ], [ 4.511079482649883, 51.683229220111976 ], [ 4.513236853082257, 51.683472829808949 ], [ 4.520129937266204, 51.683802113458967 ], [ 4.524580845407069, 51.684598478502053 ], [ 4.524778246406786, 51.685004217671121 ], [ 4.525904567834057, 51.685431820119547 ], [ 4.526057263486249, 51.68555252915867 ], [ 4.526045074564518, 51.685836804620656 ], [ 4.526219938282306, 51.685914014990303 ], [ 4.526468449742392, 51.685640286953387 ], [ 4.527217107273128, 51.683213076394125 ], [ 4.527096345809846, 51.682606240160737 ], [ 4.526208723407318, 51.681165757277434 ], [ 4.526087643507593, 51.680401695480271 ], [ 4.526258758794878, 51.680414856509245 ], [ 4.52631635676981, 51.681091846914853 ], [ 4.527028744807855, 51.681004650232659 ], [ 4.52688253025127, 51.681154236219022 ], [ 4.526932000504931, 51.681505817481053 ], [ 4.527572149154448, 51.682896784553876 ], [ 4.527454178765186, 51.683987249787847 ], [ 4.526977638011451, 51.68509048867444 ], [ 4.527202874603234, 51.685163879094624 ], [ 4.527913420087325, 51.684944501285379 ], [ 4.528088716221728, 51.684564948031145 ], [ 4.528364216235492, 51.684552757832698 ], [ 4.52850724521054, 51.684909821267432 ], [ 4.529933432216819, 51.684788709858829 ], [ 4.528439473581825, 51.685036186494493 ], [ 4.52832955474692, 51.685169354099493 ], [ 4.528487829864478, 51.685285286188979 ], [ 4.529816739472576, 51.685166500480172 ], [ 4.530005616548, 51.685986790827421 ], [ 4.52722248359538, 51.686222983594924 ], [ 4.52704260180819, 51.685360800796275 ], [ 4.526871472875748, 51.685298037963079 ], [ 4.526413298117173, 51.686475431042723 ], [ 4.526512158203814, 51.68662483223045 ], [ 4.53145482978604, 51.686138972598286 ], [ 4.532387143146154, 51.686245318221168 ], [ 4.532558668455266, 51.68614008759841 ], [ 4.532755011482601, 51.685351665521353 ], [ 4.533583166395174, 51.685361898452705 ], [ 4.534520726517486, 51.68487861664844 ], [ 4.53488477579021, 51.685206734962357 ], [ 4.535503473455845, 51.685175586351093 ], [ 4.536329168497032, 51.685423033195327 ], [ 4.537274805885628, 51.685189376705331 ], [ 4.537537072133391, 51.685323262154981 ], [ 4.537527035223027, 51.687219322057004 ], [ 4.545316259601423, 51.687976318182635 ], [ 4.549295092150565, 51.688677528194113 ], [ 4.54994028495129, 51.688002207505065 ], [ 4.550006430755998, 51.688801642921227 ], [ 4.556031472341654, 51.689851633132456 ], [ 4.556053073998907, 51.690087134327264 ], [ 4.557473814849847, 51.690324378125368 ], [ 4.557647470818974, 51.690126805761409 ], [ 4.558746716841811, 51.690341442310341 ], [ 4.559184937447551, 51.689476882028487 ], [ 4.559345133780169, 51.689504981154904 ], [ 4.559059505764024, 51.6903729037356 ], [ 4.56223677889256, 51.690941878914323 ], [ 4.562001419099388, 51.691702077962496 ], [ 4.560939010177993, 51.691522507561245 ], [ 4.560782728334039, 51.691702856525836 ], [ 4.560864327450867, 51.691845883462861 ], [ 4.563312235858668, 51.692269404049327 ], [ 4.563386928954895, 51.691956987029627 ], [ 4.562378229556842, 51.691768123396351 ], [ 4.562618307827039, 51.691243752511433 ], [ 4.564175355951492, 51.691516869332283 ], [ 4.564392723605623, 51.691317381856535 ], [ 4.56603178012182, 51.691597650609829 ], [ 4.56605470357426, 51.691874593616895 ], [ 4.566882037312651, 51.691997987568996 ], [ 4.567021510811594, 51.691766225205768 ], [ 4.56748180678917, 51.691844374108655 ], [ 4.567499447388779, 51.692113639927442 ], [ 4.568750995631938, 51.692330042469131 ], [ 4.568918003668532, 51.692102132326553 ], [ 4.570547791978838, 51.692383509907607 ], [ 4.570992334450868, 51.691533624519174 ], [ 4.57414426828821, 51.692005607402017 ], [ 4.57402698283671, 51.692408962149422 ], [ 4.574738361556173, 51.692627192081758 ], [ 4.586504224872062, 51.694572867345421 ], [ 4.587502851125265, 51.694305773588361 ], [ 4.590783870559891, 51.694746568185487 ], [ 4.591375017600141, 51.695391699383308 ], [ 4.601625994168165, 51.697043587951221 ], [ 4.606241102347884, 51.699498734779851 ], [ 4.607353740681021, 51.699375843467919 ], [ 4.609975093010269, 51.7007219022844 ], [ 4.610268805543893, 51.701374690476698 ], [ 4.61367774699027, 51.70298899168322 ], [ 4.614975476827195, 51.70301260177974 ], [ 4.615304099741673, 51.703329997591545 ], [ 4.614955492571622, 51.703397197147964 ], [ 4.614993841249644, 51.703642219604404 ], [ 4.615982733153658, 51.703966534972551 ], [ 4.616002760689303, 51.704167518096689 ], [ 4.618721633591139, 51.705418787283406 ], [ 4.618296131423419, 51.705753426667414 ], [ 4.618343039797271, 51.705945433989683 ], [ 4.62091319714288, 51.705085849508919 ], [ 4.622886470062022, 51.704019848921746 ], [ 4.6231196848236, 51.704230504912999 ], [ 4.622241653028142, 51.704962810621311 ], [ 4.620626342497243, 51.70583815024569 ], [ 4.619437869376476, 51.706020872390624 ], [ 4.618996160425768, 51.706306848428518 ], [ 4.619894167706413, 51.706657804565232 ], [ 4.620859432958985, 51.706680650196972 ], [ 4.621749266147019, 51.707009540891939 ], [ 4.621779951434204, 51.707144355743132 ], [ 4.623449536710376, 51.708021847896234 ], [ 4.623728522314988, 51.707884506682781 ], [ 4.625275698479165, 51.708553190925912 ], [ 4.625346056161479, 51.708743611356581 ], [ 4.62572722262768, 51.708648782154917 ], [ 4.625682713223584, 51.708925331775305 ], [ 4.626410001832895, 51.709110252972302 ], [ 4.625784149868578, 51.709764473040323 ], [ 4.625832968707412, 51.709949866963321 ], [ 4.626870397220155, 51.709216070682281 ], [ 4.627141175201081, 51.709398708797558 ], [ 4.627545919380418, 51.709361853190472 ], [ 4.628606722168068, 51.709870332536944 ], [ 4.630414159887989, 51.710320393396351 ], [ 4.630013064815553, 51.710935279743389 ], [ 4.630092600422, 51.711129222405468 ], [ 4.630899103021443, 51.710462969071415 ], [ 4.6343112083585, 51.71136809815021 ], [ 4.63395197172775, 51.711853818751869 ], [ 4.634068338975872, 51.712046777578564 ], [ 4.634627107379635, 51.711446781109515 ], [ 4.638527840953794, 51.712421257883236 ], [ 4.638246577465365, 51.713079687478803 ], [ 4.638792220781291, 51.713309900051257 ], [ 4.636345266995935, 51.71729821124022 ], [ 4.636401454679592, 51.717446194287128 ], [ 4.636927031258329, 51.717503848065526 ], [ 4.63939847769144, 51.713480938253085 ], [ 4.639983825527585, 51.713530487490722 ], [ 4.640446265463904, 51.712915635637025 ], [ 4.643354126774412, 51.713459003312693 ], [ 4.643252936749694, 51.713668810766002 ], [ 4.643482837610132, 51.713767074325766 ], [ 4.64375940718514, 51.713547179296327 ], [ 4.643676820818428, 51.713261715880805 ], [ 4.644433335060038, 51.713123559330896 ], [ 4.645219897050947, 51.713266841956518 ], [ 4.64621265361288, 51.713016212926746 ], [ 4.647245834817122, 51.712979810367045 ], [ 4.646772850053438, 51.713705038600729 ], [ 4.64658215192565, 51.713470431734159 ], [ 4.64635510179344, 51.7134793656098 ], [ 4.646797515115516, 51.714170881712604 ], [ 4.643756434491227, 51.71879851728827 ], [ 4.644111505506113, 51.718925932257143 ], [ 4.646985584161038, 51.714577513164251 ], [ 4.647221051824393, 51.714663612937599 ], [ 4.644404225351075, 51.718927097962755 ], [ 4.645129280282903, 51.719167058793914 ], [ 4.648548025369371, 51.714020411910106 ], [ 4.649074415188216, 51.713941932289856 ], [ 4.65018498802064, 51.713004701886327 ], [ 4.650894161661239, 51.712714057239836 ], [ 4.651062014841116, 51.712494382296917 ], [ 4.650950690547018, 51.712257165472458 ], [ 4.652320161680016, 51.712179329593127 ], [ 4.656387212305166, 51.712679702075 ], [ 4.658308586046815, 51.713107714760049 ], [ 4.657207231460716, 51.715888937680681 ], [ 4.657244417061257, 51.716181419670114 ], [ 4.657583255155822, 51.716154048745352 ], [ 4.658626365242525, 51.713105665844068 ], [ 4.659537697882149, 51.71307927114124 ], [ 4.662211150531836, 51.713397925840553 ], [ 4.663495330076196, 51.713772353603439 ], [ 4.664067322871718, 51.713690181331508 ], [ 4.664711278362647, 51.713813747425682 ], [ 4.664779898304147, 51.714153128182261 ], [ 4.665049794170662, 51.714049457983499 ], [ 4.668093326461772, 51.714605862980036 ], [ 4.667290886249379, 51.716948011766796 ], [ 4.667278680048164, 51.717405943578242 ], [ 4.667536547891086, 51.717361294873733 ], [ 4.668376161161595, 51.714662711148414 ], [ 4.669893374958579, 51.715107346844079 ], [ 4.672488537793766, 51.715474431294346 ], [ 4.672777851034617, 51.715769558298462 ], [ 4.672913330051228, 51.715534208114121 ], [ 4.673799980761157, 51.715632318312487 ], [ 4.673784984971236, 51.715386370219612 ], [ 4.674105174307405, 51.715038848409321 ], [ 4.674064166212956, 51.715452240508682 ], [ 4.673886841310949, 51.715535744539388 ], [ 4.674001618025352, 51.715825876908568 ], [ 4.678018524383448, 51.715952385856745 ], [ 4.677520956833898, 51.718348661402054 ], [ 4.677838150283995, 51.718336808916213 ], [ 4.678288779115284, 51.716087068209745 ], [ 4.68005221302136, 51.71789113292607 ], [ 4.680465886301921, 51.720487752517982 ], [ 4.698524238151908, 51.72208985994498 ], [ 4.698544160110822, 51.721892454483559 ], [ 4.710236373148557, 51.720855552776541 ], [ 4.71565665546862, 51.721266748073333 ], [ 4.722467375405002, 51.722201201096752 ], [ 4.728912142084127, 51.723488805082255 ], [ 4.730184704943554, 51.721544610957935 ], [ 4.730965906303088, 51.721641153423242 ], [ 4.732150245450192, 51.720366995545632 ], [ 4.745153586864909, 51.722064526324012 ], [ 4.747174795488209, 51.722145609228207 ], [ 4.749550759286191, 51.722006824766865 ], [ 4.752185509051508, 51.720359766426455 ], [ 4.765017035922232, 51.717311887810297 ], [ 4.771600794218099, 51.714600740596026 ], [ 4.773669606293698, 51.713383731242104 ], [ 4.776233301777528, 51.712131406443369 ], [ 4.78014228631403, 51.710975452509182 ], [ 4.7806361886199, 51.710641316253074 ], [ 4.780990702469099, 51.710107074643993 ], [ 4.769632858312733, 51.707581202457973 ], [ 4.758918924153289, 51.704617854324745 ], [ 4.761365564682841, 51.701522244094726 ], [ 4.763720521642443, 51.702099153346836 ], [ 4.76481529668742, 51.701309333919141 ], [ 4.766240027047728, 51.701308621804351 ], [ 4.768000022516133, 51.697788918289888 ], [ 4.762995122165039, 51.696090635862141 ], [ 4.763301069837126, 51.695108741460544 ], [ 4.763090174458998, 51.694833544664725 ], [ 4.763205577971827, 51.694283072463023 ], [ 4.764141197956005, 51.692391361532316 ], [ 4.763503879367454, 51.692141221688708 ], [ 4.763352753723653, 51.691861702203553 ], [ 4.764542157399593, 51.689522222264486 ], [ 4.765053872509181, 51.688774382233838 ], [ 4.766129060711531, 51.687924792075322 ], [ 4.775161985004451, 51.673483989380173 ], [ 4.772781807240757, 51.673184329278392 ], [ 4.753036761524304, 51.66972438648002 ], [ 4.752057280000373, 51.669746618184945 ], [ 4.751658234104069, 51.66943424824499 ], [ 4.738723773448969, 51.667331824064497 ], [ 4.73722237861347, 51.669261208438527 ], [ 4.736664073892438, 51.669230217466506 ], [ 4.732444023642133, 51.66839787330904 ], [ 4.725597739034477, 51.66639836924611 ], [ 4.723456719240946, 51.669174270572867 ], [ 4.720974575794543, 51.67037521311682 ], [ 4.71620330540984, 51.675381957683115 ], [ 4.70985147555797, 51.673367849499876 ], [ 4.68481098813187, 51.666405713582819 ], [ 4.694090042086941, 51.658277803661839 ], [ 4.694680055634993, 51.658112910173834 ], [ 4.696609778006108, 51.654693981415903 ], [ 4.688944359206082, 51.652355606919585 ], [ 4.695347005705229, 51.643143597865844 ], [ 4.698957222265213, 51.638304999994958 ], [ 4.699185881204243, 51.638173643986718 ], [ 4.693443900005466, 51.637962075798121 ], [ 4.690937267541972, 51.637455634563409 ], [ 4.688763320393616, 51.636753825543828 ], [ 4.683914164022346, 51.634207249818807 ], [ 4.681539701360104, 51.633297172293133 ], [ 4.677608598884939, 51.632597498864158 ], [ 4.675214549012229, 51.632498976870188 ], [ 4.672271285998829, 51.632721974468495 ], [ 4.664638925413712, 51.634513184674873 ], [ 4.661216404610295, 51.634854723598508 ], [ 4.655456553926303, 51.634382163714484 ], [ 4.644965355635699, 51.63270869643376 ], [ 4.642008868402265, 51.631914072814247 ], [ 4.64045335292638, 51.631258834437908 ], [ 4.638374412640579, 51.630070037231171 ], [ 4.636462330408909, 51.628578579976796 ], [ 4.635623246420394, 51.626361440427303 ], [ 4.634782495419909, 51.625769171631994 ], [ 4.633752403729999, 51.625353811440782 ], [ 4.630861326216962, 51.62776053012292 ], [ 4.628151763778109, 51.626177639409804 ], [ 4.624717089451426, 51.62539354614163 ], [ 4.624426803800462, 51.625010794993536 ], [ 4.624312500465982, 51.624390967789878 ], [ 4.621574163577739, 51.625229511726026 ], [ 4.618397890459016, 51.627037764988934 ], [ 4.616849176241404, 51.627719342444422 ], [ 4.614055490388479, 51.628403548661375 ], [ 4.611323975064765, 51.628602925840042 ], [ 4.609621824046378, 51.628531445272728 ], [ 4.606264207348347, 51.627816563414612 ], [ 4.604820119008031, 51.627256169611336 ], [ 4.601163745033605, 51.625310855248053 ], [ 4.60124026582988, 51.624415346131535 ], [ 4.601408591659609, 51.62408671765246 ], [ 4.601884396523786, 51.623548616854499 ], [ 4.603452617710351, 51.622469370075208 ], [ 4.604168250407223, 51.62141101361243 ], [ 4.604312410002834, 51.619644311802467 ], [ 4.60409123994398, 51.618930445436803 ], [ 4.603301789584181, 51.617788054298188 ], [ 4.603279906856926, 51.61732859620399 ], [ 4.603994126661255, 51.616940190566318 ], [ 4.606576830491576, 51.616567142887376 ], [ 4.608756364106957, 51.6149757683215 ], [ 4.608996684087977, 51.61336614219065 ], [ 4.609553843635102, 51.612800195339304 ], [ 4.610825485215816, 51.612210801135269 ], [ 4.610520647438218, 51.610920737614201 ], [ 4.610485257941924, 51.60994299254191 ], [ 4.610651814484249, 51.609478462627635 ], [ 4.611200610394872, 51.608978728540961 ], [ 4.613052771858095, 51.608619074605549 ], [ 4.613762139595682, 51.608264924835836 ], [ 4.61379158778454, 51.608056080580361 ], [ 4.612734635445574, 51.606819678889742 ], [ 4.612885952097388, 51.606634897444273 ], [ 4.612746735579271, 51.60628220510376 ], [ 4.610519852497364, 51.603197167878591 ], [ 4.608600438049521, 51.602234494892961 ], [ 4.606457770905473, 51.599903653213275 ], [ 4.605637134053153, 51.599227537486549 ], [ 4.605350915169615, 51.598651706668527 ], [ 4.604635802845207, 51.59819713033761 ], [ 4.6045365721996, 51.597837650824445 ], [ 4.602793416595931, 51.596129816825041 ], [ 4.602127892387177, 51.595121531844917 ], [ 4.599466040986392, 51.592526003193946 ], [ 4.59666522452771, 51.590341476825934 ], [ 4.597611044976546, 51.587186835383349 ], [ 4.597858185326547, 51.586834169764764 ], [ 4.598472163374719, 51.584480554379994 ], [ 4.595880965097446, 51.575703157392233 ], [ 4.595826477519189, 51.574598992392716 ], [ 4.595960255330069, 51.573823119423402 ], [ 4.595051310115847, 51.56769422913046 ], [ 4.594561646640566, 51.566746733721942 ], [ 4.590570931728936, 51.566043697743844 ], [ 4.59033248463537, 51.564839090565627 ], [ 4.590900719897832, 51.564456457319878 ], [ 4.592085940123731, 51.561366083111182 ], [ 4.591599725611051, 51.561273144032889 ], [ 4.591580650517034, 51.561103780020169 ], [ 4.589697915871826, 51.560792569079801 ], [ 4.589432548007707, 51.560613345231452 ], [ 4.589657816962823, 51.560336819252456 ], [ 4.589999371920228, 51.560307329960601 ], [ 4.590155573813594, 51.559960860045472 ], [ 4.592529504790063, 51.560182036593417 ], [ 4.595970558724192, 51.560032216219888 ], [ 4.598596813086121, 51.559583453840254 ], [ 4.600624553356294, 51.559003443360119 ], [ 4.602149430856318, 51.55833413676055 ], [ 4.606512135384327, 51.55594202887481 ], [ 4.607555363187831, 51.554599299220513 ], [ 4.608090010697352, 51.554152989969957 ], [ 4.610316188537251, 51.553448141731181 ], [ 4.610940340346943, 51.554255895048996 ], [ 4.616493050025023, 51.552966065095134 ], [ 4.620890381691384, 51.55241482274203 ], [ 4.624721359136502, 51.552238634909052 ], [ 4.625720077748188, 51.547377109812174 ], [ 4.626589016664375, 51.54740893821284 ], [ 4.627004687222993, 51.547966208290468 ], [ 4.628729161866886, 51.546520435657911 ], [ 4.630039309022841, 51.547059799613471 ], [ 4.631703961966897, 51.543788405116082 ], [ 4.632760715802465, 51.544136241100993 ], [ 4.635281601813182, 51.542251492938647 ], [ 4.636095816346664, 51.543071957320379 ], [ 4.637871080379203, 51.542226013203098 ], [ 4.639990176783541, 51.543246334060633 ], [ 4.638536012292239, 51.523383300446682 ], [ 4.634917453220546, 51.522707630231061 ], [ 4.634042264294536, 51.523693225649481 ], [ 4.631222584939259, 51.523451311738391 ], [ 4.627537769117093, 51.5225337642906 ], [ 4.624913167052786, 51.521157982645832 ], [ 4.625681677612924, 51.520053443488003 ], [ 4.626195693486313, 51.518973170840553 ], [ 4.625494639251196, 51.518635690896581 ], [ 4.625488694212254, 51.518480347687131 ], [ 4.62775993061447, 51.517732878100759 ], [ 4.628310234616988, 51.519071984186198 ], [ 4.629219910764274, 51.519158299022187 ], [ 4.633203886319968, 51.513783627864193 ], [ 4.632504968308363, 51.512914279788852 ], [ 4.632502555848244, 51.51253965774476 ], [ 4.630964630646496, 51.511788270275588 ], [ 4.630332643891529, 51.510708450210387 ], [ 4.630460005007062, 51.510079409014637 ], [ 4.629591057686931, 51.509246922110947 ], [ 4.629005327261635, 51.508942055227052 ], [ 4.622879950990197, 51.507434513295209 ], [ 4.616941966299827, 51.507927780561367 ], [ 4.615911719108051, 51.508330768572655 ], [ 4.614886091364243, 51.509026791506678 ], [ 4.610770825659782, 51.508437654946405 ], [ 4.579289491102616, 51.510818202460058 ], [ 4.579495301071874, 51.510327257201084 ], [ 4.583168637102366, 51.505469357179805 ], [ 4.584463731665843, 51.503526042181278 ], [ 4.586357754139468, 51.501000599843643 ], [ 4.586594946552302, 51.500975348983594 ], [ 4.587462255966543, 51.499794767583118 ], [ 4.587284505148342, 51.499707861832107 ], [ 4.58736115986682, 51.499525773848497 ], [ 4.589554494869365, 51.496786931968643 ], [ 4.588280391899973, 51.496383690711255 ], [ 4.586299184618744, 51.496040906184824 ], [ 4.583646926459336, 51.495850665632801 ], [ 4.579169064749034, 51.493513310809625 ], [ 4.577602502585231, 51.492911511208078 ], [ 4.576114353217144, 51.492616844448001 ], [ 4.575750233532636, 51.491458276728594 ], [ 4.573876515826437, 51.488475419901789 ], [ 4.575644489042713, 51.488067174013437 ], [ 4.572234686754849, 51.482758699152505 ], [ 4.570754504214092, 51.482779189031454 ], [ 4.569217495469462, 51.483028346198736 ], [ 4.556054002407733, 51.485722711234843 ], [ 4.54802849829478, 51.473302312633919 ], [ 4.538151274746761, 51.482293197525379 ], [ 4.486802237839843, 51.477242883779304 ], [ 4.480225636647627, 51.478182617620533 ], [ 4.476708182060069, 51.478193136248393 ], [ 4.474262769674503, 51.477384475482253 ], [ 4.471746241225033, 51.47624654184272 ], [ 4.469106762023719, 51.474252518854051 ], [ 4.468581773103051, 51.474031357528375 ], [ 4.468183607543319, 51.473397858811303 ], [ 4.467376064505101, 51.472871942955187 ], [ 4.466775813760065, 51.471911102599421 ], [ 4.464743514708412, 51.470912471849807 ], [ 4.464528539622346, 51.471045421550059 ], [ 4.457059276001379, 51.469717127221202 ], [ 4.442585056297407, 51.468591154024153 ], [ 4.402012123597251, 51.455136720961939 ], [ 4.391304324057637, 51.451413894184547 ], [ 4.391016726618752, 51.451389405261224 ], [ 4.383382970130128, 51.45501834053379 ], [ 4.366939217138653, 51.456622479793651 ], [ 4.366390158138494, 51.458068014681416 ], [ 4.36418653765022, 51.458103702688483 ], [ 4.363980818770298, 51.458283465771778 ], [ 4.364066537632013, 51.458459193150709 ], [ 4.365972529511131, 51.45914204475649 ], [ 4.365593929574854, 51.460115661182996 ], [ 4.362691266418709, 51.460400855346528 ], [ 4.360912528138912, 51.460391469649764 ], [ 4.360800638370803, 51.460517327490265 ], [ 4.360933369198125, 51.460964335970061 ], [ 4.359187901172087, 51.461003966329535 ], [ 4.360720113217853, 51.464197352682739 ], [ 4.360999196918804, 51.464479233877903 ], [ 4.36110207713654, 51.465055618048012 ], [ 4.363586024931698, 51.465262282573065 ], [ 4.361298291630825, 51.471202146205741 ], [ 4.362551657551658, 51.47174965609242 ], [ 4.361534966216013, 51.476394162418508 ], [ 4.371556619076398, 51.479075891330005 ], [ 4.371723679281971, 51.483918341842092 ], [ 4.372397392216157, 51.487322818391313 ], [ 4.372583624574159, 51.487686213731934 ], [ 4.365558721101472, 51.490054061180139 ], [ 4.363669814562683, 51.491180251660332 ], [ 4.358124266498294, 51.492515780501485 ], [ 4.351510268716263, 51.499867590363429 ], [ 4.349450153315945, 51.503524536591136 ], [ 4.351133734154415, 51.503942581293728 ], [ 4.352829946500696, 51.505383768301854 ], [ 4.354238244773017, 51.505839793017145 ], [ 4.353989494056752, 51.506221613870402 ], [ 4.35121837855929, 51.505536549672449 ], [ 4.350385884440433, 51.505543082158312 ], [ 4.352212081024971, 51.514179347517924 ], [ 4.351432588280153, 51.517507654682575 ], [ 4.350096247986707, 51.518211597772698 ], [ 4.342232924514748, 51.517963572531094 ], [ 4.340502768420116, 51.522714431324687 ], [ 4.342787097986378, 51.526211405562854 ], [ 4.342694711929633, 51.526303414211107 ], [ 4.337640788361941, 51.527461139561801 ], [ 4.33657320132754, 51.527322395104264 ], [ 4.332454439034169, 51.528169552844737 ], [ 4.329989749073531, 51.528167860041393 ], [ 4.329915635145959, 51.528308543252948 ], [ 4.330376469860663, 51.529118597399858 ], [ 4.325604581416279, 51.529524634722009 ], [ 4.325694415311315, 51.530033945099852 ], [ 4.328185201896959, 51.530757905673411 ], [ 4.327857750722376, 51.531013726044016 ], [ 4.328611152718712, 51.531779723830631 ], [ 4.327494693498135, 51.535117879030722 ], [ 4.322236539975797, 51.537498122960933 ], [ 4.315676027726145, 51.540171998881448 ], [ 4.314577715268626, 51.540984994405086 ], [ 4.30671393203585, 51.543483801292069 ], [ 4.308175395186615, 51.546830326124514 ], [ 4.31244190479312, 51.546068153794621 ], [ 4.313138486359336, 51.546129865156452 ], [ 4.316239412186213, 51.545593077816584 ], [ 4.31660299871987, 51.546508962358978 ] ], [ [ 4.44205834997258, 51.695560628259102 ], [ 4.44124257537757, 51.695349759471007 ], [ 4.440809069684939, 51.694984841961336 ], [ 4.440349054415488, 51.694517836731862 ], [ 4.441660428239808, 51.693926984809245 ], [ 4.441220517578965, 51.694147811868874 ], [ 4.440732007219192, 51.694743151204378 ], [ 4.440952432685034, 51.695090679291653 ], [ 4.441598425855118, 51.695365143465743 ], [ 4.441819299527223, 51.695148435103953 ], [ 4.441336377380502, 51.69488845076318 ], [ 4.442957894372647, 51.694631526221137 ], [ 4.44252941742623, 51.69397374975977 ], [ 4.44220847712585, 51.693945359605806 ], [ 4.442245524472403, 51.693215185209709 ], [ 4.442337673630561, 51.692706267511866 ], [ 4.442804043504062, 51.692639269322633 ], [ 4.443218490673602, 51.692041564100656 ], [ 4.442446416870012, 51.69157573060518 ], [ 4.441797389075982, 51.691521811449228 ], [ 4.441404800875755, 51.691203669334747 ], [ 4.44219888303889, 51.691206204753101 ], [ 4.442465977516996, 51.690505297855545 ], [ 4.442656886121691, 51.69056773055334 ], [ 4.442445147896127, 51.690992920976846 ], [ 4.442534313388226, 51.691326217885745 ], [ 4.443781357626039, 51.692034584775627 ], [ 4.44407028416636, 51.692028469883397 ], [ 4.442633720805875, 51.692766710189602 ], [ 4.442443588002692, 51.693028782772551 ], [ 4.442642438689702, 51.693283883791899 ], [ 4.443565106344053, 51.693337012019235 ], [ 4.443837798911425, 51.694735359317505 ], [ 4.442318344691504, 51.695238798719735 ], [ 4.442142630445908, 51.695421074081381 ], [ 4.442221356301206, 51.695592783358641 ], [ 4.44205834997258, 51.695560628259102 ] ], [ [ 4.401975178378916, 51.694520915198758 ], [ 4.401905351310117, 51.694515495981641 ], [ 4.401718813722579, 51.694405802541425 ], [ 4.401814804372464, 51.694431441120074 ], [ 4.401975178378916, 51.694520915198758 ] ], [ [ 4.400156763535637, 51.693533271687016 ], [ 4.400224847817088, 51.693573186590442 ], [ 4.400229650247144, 51.693576002113637 ], [ 4.400144836594751, 51.693535715889055 ], [ 4.400156763535637, 51.693533271687016 ] ], [ [ 4.455811741205747, 51.690500079538602 ], [ 4.455426214823806, 51.690638513063078 ], [ 4.455240626259244, 51.690730525007076 ], [ 4.455306527867893, 51.69065332902673 ], [ 4.455811741205747, 51.690500079538602 ] ], [ [ 4.482279045151973, 51.684745627516712 ], [ 4.482081276713402, 51.684802612345266 ], [ 4.481825904579285, 51.684892017420324 ], [ 4.482439287095481, 51.684716705843464 ], [ 4.482279045151973, 51.684745627516712 ] ], [ [ 4.481082855203467, 51.685248296343282 ], [ 4.481060676989242, 51.685252698568512 ], [ 4.481054454514722, 51.68525393510037 ], [ 4.48108778914524, 51.685245833814754 ], [ 4.481082855203467, 51.685248296343282 ] ] ] } }
]
}
