{
"type": "FeatureCollection",
"name": "SWVPO2402",
"crs": { "type": "name", "properties": { "name": "urn:ogc:def:crs:OGC:1.3:CRS84" } },
"features": [
{ "type": "Feature", "properties": { "PO SWV": "PO2402", "strokeColor": "#A9A9A9", "strokeWidth": 2, "fillColor": "#ADD8E6" }, "geometry": { "type": "Polygon", "coordinates": [ [ [ 5.59137285888342, 52.660973026410929 ], [ 5.591418211064468, 52.661484012550815 ], [ 5.591938149874532, 52.662442366377043 ], [ 5.591685709925274, 52.662973121549115 ], [ 5.591738488860154, 52.663265074737048 ], [ 5.591928775494423, 52.663267985694297 ], [ 5.591978415166267, 52.662891661588674 ], [ 5.592253157366983, 52.662910126531088 ], [ 5.592773276615523, 52.663261869694921 ], [ 5.592893814951801, 52.663593400586585 ], [ 5.592841006942882, 52.663813505364587 ], [ 5.59260478595886, 52.663935785754568 ], [ 5.592336668272083, 52.663721438839573 ], [ 5.592171901998897, 52.663831466909855 ], [ 5.592903243697229, 52.664507940451628 ], [ 5.593010529045208, 52.666437853753216 ], [ 5.592935823256882, 52.669990690839128 ], [ 5.593206349030567, 52.674814950808781 ], [ 5.595062023160117, 52.762368857097385 ], [ 5.595515214248099, 52.76437534600651 ], [ 5.596499949370924, 52.766113998705386 ], [ 5.659651194965, 52.827739362559868 ], [ 5.661826291554497, 52.829368939647338 ], [ 5.66336484387829, 52.830178121082817 ], [ 5.665341789331542, 52.830943808874324 ], [ 5.66918907825974, 52.831793856194309 ], [ 5.703433473309275, 52.8343060638542 ], [ 5.703185329410516, 52.835951208847142 ], [ 5.703355150252802, 52.836158119270948 ], [ 5.703622808674607, 52.836015521287607 ], [ 5.703965068152056, 52.834363869602349 ], [ 5.709801969281798, 52.834763730884212 ], [ 5.711252000573576, 52.835217949798668 ], [ 5.712131805728967, 52.835965860317415 ], [ 5.712262049662713, 52.836584511399813 ], [ 5.712794760414137, 52.837485087011217 ], [ 5.711999321395385, 52.837648061372334 ], [ 5.712007405635836, 52.837919451155621 ], [ 5.713014500065773, 52.8378704957127 ], [ 5.713335414557734, 52.838065920902288 ], [ 5.714718206587127, 52.837811876780066 ], [ 5.714703410100409, 52.837276670730574 ], [ 5.717750092560504, 52.836928351540159 ], [ 5.723772177763384, 52.835685539615831 ], [ 5.726452176976337, 52.834623973884369 ], [ 5.728639169941378, 52.833300998613453 ], [ 5.729617163268379, 52.833636354213333 ], [ 5.729354883363211, 52.834286603038045 ], [ 5.728406473870009, 52.835158366334603 ], [ 5.727489581255439, 52.836618300675987 ], [ 5.72506007920339, 52.84254407105476 ], [ 5.725103248926349, 52.843184244899426 ], [ 5.724840735625803, 52.843852685301343 ], [ 5.748770862171815, 52.83958455052268 ], [ 5.776569293783063, 52.822284036039434 ], [ 5.784300375736469, 52.81740911428038 ], [ 5.786614294662232, 52.811250230170188 ], [ 5.787783415520877, 52.807193867678656 ], [ 5.788150400144852, 52.806312408277286 ], [ 5.789738263787736, 52.803618546738825 ], [ 5.795334851360528, 52.806482091449467 ], [ 5.799335705868505, 52.801351862480544 ], [ 5.803542497738884, 52.796932213957788 ], [ 5.805981963604621, 52.79494284400981 ], [ 5.816904670648562, 52.789042019581963 ], [ 5.818723237022895, 52.787710199926607 ], [ 5.818355708020065, 52.786936535437455 ], [ 5.818868776857104, 52.784804050684592 ], [ 5.828137488990079, 52.785644932410037 ], [ 5.836253261838873, 52.78573735558178 ], [ 5.837336279797356, 52.785124607276188 ], [ 5.841625214546942, 52.785238149840737 ], [ 5.842600915643686, 52.784882500216362 ], [ 5.842627435227525, 52.784646560866406 ], [ 5.843477974157177, 52.784553374311685 ], [ 5.849703618440708, 52.784838610669013 ], [ 5.852479783818099, 52.783877239585017 ], [ 5.860289790792787, 52.781911191440798 ], [ 5.86875835702918, 52.778228279125948 ], [ 5.875633268680351, 52.77473579602669 ], [ 5.879725382516018, 52.77334090965595 ], [ 5.882760524715049, 52.771456232189031 ], [ 5.885190588508382, 52.76938618400569 ], [ 5.894433028579313, 52.765220183077858 ], [ 5.896149300684269, 52.762903904149191 ], [ 5.900072772917647, 52.761295686212996 ], [ 5.906054896937656, 52.761414632680214 ], [ 5.922636191035654, 52.750769887359994 ], [ 5.930232442728487, 52.739643666003758 ], [ 5.935645945708287, 52.730301853208424 ], [ 5.941972301579614, 52.715999274326876 ], [ 5.942618460684459, 52.715085501030508 ], [ 5.951221331795358, 52.711999252114452 ], [ 5.95540597047192, 52.707304402171374 ], [ 5.954953937620397, 52.703870291462692 ], [ 5.959057783516657, 52.703952156721485 ], [ 5.964923496029479, 52.698121853957396 ], [ 5.965249606782042, 52.693536099347028 ], [ 5.96217053085336, 52.690275312797247 ], [ 5.959438403548289, 52.689854883297151 ], [ 5.952781304745643, 52.685148825173137 ], [ 5.951492173886744, 52.684853296064063 ], [ 5.949528929081353, 52.685602626847704 ], [ 5.944899936216285, 52.682711774497925 ], [ 5.94544490380434, 52.682374802977805 ], [ 5.945450561964431, 52.68223371414286 ], [ 5.93394721285825, 52.675439737907418 ], [ 5.932854597516019, 52.673174376455705 ], [ 5.933177005884928, 52.671312593639328 ], [ 5.935192473519645, 52.669330297164358 ], [ 5.939648384830678, 52.668942371688523 ], [ 5.940033045910532, 52.670499805770049 ], [ 5.941597625795276, 52.670616591945169 ], [ 5.954026524946264, 52.667774411962377 ], [ 5.95818103290182, 52.667909110669804 ], [ 5.96192992461407, 52.667136656467171 ], [ 5.963086085002372, 52.666495070086555 ], [ 5.964963529865843, 52.666255799102551 ], [ 5.966877045197308, 52.66667691056994 ], [ 5.967971618488517, 52.66601969800584 ], [ 5.970858980775894, 52.66527813015523 ], [ 5.974598294688191, 52.66285819627781 ], [ 5.979596084301534, 52.66058236616599 ], [ 5.982738360167019, 52.658000885213376 ], [ 5.984208264877336, 52.657177953033468 ], [ 5.984126847112288, 52.657044821936815 ], [ 5.983826345110269, 52.657074481669824 ], [ 5.981865978432343, 52.658202815192304 ], [ 5.981428544976207, 52.658087106691077 ], [ 5.98153429950536, 52.657877762101236 ], [ 5.983900383996747, 52.656394875286416 ], [ 5.984039774801751, 52.655951751839403 ], [ 5.983812860492041, 52.655543123880882 ], [ 5.982698844871035, 52.654659100768804 ], [ 5.968317853465106, 52.641142938578845 ], [ 5.965918789903037, 52.639581161313401 ], [ 5.963020844114403, 52.638394843757538 ], [ 5.897943306989864, 52.625318583548129 ], [ 5.897308845757185, 52.625042497770956 ], [ 5.895827554102859, 52.624880068778758 ], [ 5.851181761390559, 52.616052922327995 ], [ 5.842987140971767, 52.614183316031998 ], [ 5.842253539593043, 52.614247795667872 ], [ 5.841347323806927, 52.614064279786959 ], [ 5.841788391171723, 52.613220801798512 ], [ 5.843272903219848, 52.6136592843865 ], [ 5.844167013013655, 52.613689774933839 ], [ 5.859928968877282, 52.616835663115765 ], [ 5.86011869378137, 52.616733435760715 ], [ 5.859956761822134, 52.616549382906932 ], [ 5.856630433100717, 52.615820182826617 ], [ 5.855695382864904, 52.615467921687653 ], [ 5.854829275789389, 52.615450857436159 ], [ 5.854340853837982, 52.615126037054978 ], [ 5.853652179953693, 52.61510769512708 ], [ 5.853089110967646, 52.614888006629222 ], [ 5.852503903874981, 52.614926110140367 ], [ 5.851356528947496, 52.614483821454634 ], [ 5.850634817394742, 52.614642771448253 ], [ 5.848724610951292, 52.614255047941015 ], [ 5.848363197418885, 52.614054668078296 ], [ 5.847773113949376, 52.614068210547885 ], [ 5.844798092401859, 52.613518535697715 ], [ 5.84439563167509, 52.612908441112481 ], [ 5.843757110682221, 52.612710965533992 ], [ 5.842701840222675, 52.612631731845681 ], [ 5.841936972294763, 52.612940824385014 ], [ 5.84310085243995, 52.610789509020243 ], [ 5.84303167859479, 52.610653281920833 ], [ 5.842531340019876, 52.61063295496551 ], [ 5.841379580460576, 52.612830705829701 ], [ 5.840195162835308, 52.612596705158367 ], [ 5.84046941459722, 52.612096714559989 ], [ 5.840204594261198, 52.611814711064035 ], [ 5.839893074239278, 52.611957589563154 ], [ 5.839591249933953, 52.612477602194311 ], [ 5.834841074268883, 52.611547544869403 ], [ 5.83167454316749, 52.611255312702347 ], [ 5.758441101824705, 52.61148016750974 ], [ 5.755406037481807, 52.610487117431099 ], [ 5.754898715796775, 52.610179477387902 ], [ 5.754609055113795, 52.609591880715534 ], [ 5.754289821705964, 52.609701812333341 ], [ 5.754515037164092, 52.610259336251502 ], [ 5.755061899469744, 52.610681711300167 ], [ 5.758346752345657, 52.611765216348026 ], [ 5.832117879709573, 52.611559336616473 ], [ 5.836552088085423, 52.612175483609256 ], [ 5.839445040476993, 52.612753700364777 ], [ 5.83951821628764, 52.613009479059357 ], [ 5.839762202086507, 52.613078706731862 ], [ 5.840036579233332, 52.612871877560082 ], [ 5.841228638401055, 52.613109314633185 ], [ 5.840768178874616, 52.613950276988852 ], [ 5.839757318907047, 52.613765021711778 ], [ 5.839297440404815, 52.613419682948965 ], [ 5.838854130050982, 52.613559474912897 ], [ 5.833926559910038, 52.612597887262787 ], [ 5.83178932159758, 52.612438866854689 ], [ 5.750330144456945, 52.612730576863797 ], [ 5.748681225692846, 52.612252173925953 ], [ 5.745765043385972, 52.612261006125458 ], [ 5.745837254937936, 52.611307940467341 ], [ 5.750017128045323, 52.611177489008632 ], [ 5.750289534803751, 52.610856995550201 ], [ 5.75046450092882, 52.609509778227654 ], [ 5.750894395593311, 52.609045699263547 ], [ 5.751523436828196, 52.608702490015851 ], [ 5.752578349412339, 52.608468716846488 ], [ 5.755144299348741, 52.608435625243814 ], [ 5.755301931972818, 52.608277874889907 ], [ 5.755141662389775, 52.608120884846649 ], [ 5.75307562142448, 52.608123710426504 ], [ 5.75163391480899, 52.608326907731033 ], [ 5.750796118526015, 52.60868835314016 ], [ 5.750094856302105, 52.609382052412926 ], [ 5.749845578168456, 52.610323998345457 ], [ 5.74960034671092, 52.61067515775666 ], [ 5.745694826733233, 52.610696975839858 ], [ 5.745208682547605, 52.610801372259878 ], [ 5.74489600325004, 52.611066909167015 ], [ 5.74350169156943, 52.610830953220471 ], [ 5.743374732113987, 52.610954240815069 ], [ 5.743467341366629, 52.611112550806716 ], [ 5.744586043749734, 52.611385125522524 ], [ 5.744028817481233, 52.612009781148657 ], [ 5.742803662919442, 52.612383804414165 ], [ 5.742023436287539, 52.61223400971371 ], [ 5.74175447854206, 52.612105562742435 ], [ 5.742380820126309, 52.611484115004238 ], [ 5.742217054581401, 52.611292688516912 ], [ 5.74087420808144, 52.612494065541057 ], [ 5.740363605231948, 52.612513629988015 ], [ 5.739989854342864, 52.612744047814417 ], [ 5.663325132026195, 52.612945910931231 ], [ 5.660851580481712, 52.613138944739738 ], [ 5.658279619733605, 52.613622956309761 ], [ 5.655280329532568, 52.614574683316114 ], [ 5.654485876521691, 52.61466982268216 ], [ 5.654431244989705, 52.614811640215095 ], [ 5.654612864414684, 52.614901651342031 ], [ 5.653312984533903, 52.615389520221783 ], [ 5.652458848511916, 52.615339026660223 ], [ 5.651262790526074, 52.61468182011302 ], [ 5.651290427040556, 52.614824846117493 ], [ 5.651090955025171, 52.614932939748947 ], [ 5.650366767308758, 52.61454209823858 ], [ 5.649971866194921, 52.614549601199599 ], [ 5.649531308505764, 52.614787412103553 ], [ 5.649439997014547, 52.615011400919656 ], [ 5.650220742088488, 52.615442924496506 ], [ 5.649994656214425, 52.615684288033513 ], [ 5.651898913360193, 52.616623120843613 ], [ 5.617219826940579, 52.649597202965396 ], [ 5.614929893744006, 52.651047795962917 ], [ 5.603206862829092, 52.655936549044291 ], [ 5.602157259071107, 52.656402244256448 ], [ 5.601362972885584, 52.656964482633981 ], [ 5.601562843652766, 52.657252343525137 ], [ 5.602212953958258, 52.657163489706583 ], [ 5.602521250542146, 52.657365101007812 ], [ 5.598635586320955, 52.657521273530463 ], [ 5.598680798932867, 52.657720240511125 ], [ 5.599108965529551, 52.657774811875839 ], [ 5.602639160957725, 52.657847464928594 ], [ 5.602719590270246, 52.657969497774843 ], [ 5.602003986713395, 52.658333729253002 ], [ 5.602002395910133, 52.659550239855804 ], [ 5.602193015147573, 52.65963748346811 ], [ 5.601977695525896, 52.660120952111264 ], [ 5.600229643269934, 52.660056794470883 ], [ 5.600210462527562, 52.658806378195955 ], [ 5.597346345842212, 52.658700626388338 ], [ 5.596558279289535, 52.659156113922556 ], [ 5.596512588887693, 52.65931666541573 ], [ 5.598293571552948, 52.659493970578488 ], [ 5.598252026836064, 52.660143235111235 ], [ 5.596473502296543, 52.660097368857166 ], [ 5.596413593299665, 52.660407727025841 ], [ 5.599058686602545, 52.660513840455877 ], [ 5.599123288987908, 52.660881898808611 ], [ 5.59630906133459, 52.660573058792053 ], [ 5.593312623247685, 52.660758623371038 ], [ 5.594358770557514, 52.660394188517131 ], [ 5.595739174344845, 52.660365104004121 ], [ 5.59629121489214, 52.659030316721612 ], [ 5.598058059262964, 52.656539965349268 ], [ 5.59786413639157, 52.656343527922552 ], [ 5.59638744525504, 52.658363814296862 ], [ 5.595942305024628, 52.658601543272873 ], [ 5.595195799266156, 52.65851036781465 ], [ 5.595203109652883, 52.65869942155782 ], [ 5.595584853466756, 52.658863403117493 ], [ 5.594985001235897, 52.659423709876933 ], [ 5.594287579194586, 52.659800679535834 ], [ 5.593675557499833, 52.659615266459639 ], [ 5.593819682262765, 52.660058906399883 ], [ 5.593583695484138, 52.660275293700344 ], [ 5.591780479382134, 52.660684287745795 ], [ 5.59137285888342, 52.660973026410929 ] ] ] } }
]
}
