{
"type": "FeatureCollection",
"name": "SWVPO2708",
"crs": { "type": "name", "properties": { "name": "urn:ogc:def:crs:OGC:1.3:CRS84" } },
"features": [
{ "type": "Feature", "properties": { "PO SWV": "PO2708", "strokeColor": "#A9A9A9", "strokeWidth": 2, "fillColor": "#ADD8E6" }, "geometry": { "type": "Polygon", "coordinates": [ [ [ 4.676599063925883, 52.234538970911153 ], [ 4.676572513627391, 52.234693441580049 ], [ 4.677820666576009, 52.235833015099821 ], [ 4.679995605112602, 52.238899329352989 ], [ 4.681062534333558, 52.239587861002441 ], [ 4.686460476150883, 52.24104545962345 ], [ 4.692304188593261, 52.243096585318618 ], [ 4.700391140962376, 52.244443552656286 ], [ 4.7014051454097, 52.244785169214964 ], [ 4.704760741809233, 52.247121849344005 ], [ 4.706089953978651, 52.249046077030158 ], [ 4.712558279367669, 52.255639245096184 ], [ 4.720406085107301, 52.259232259844609 ], [ 4.723061843674865, 52.261358118218595 ], [ 4.724472481075896, 52.262997031437649 ], [ 4.725397966624348, 52.26366957569622 ], [ 4.729975427961361, 52.265795941972861 ], [ 4.739389504414358, 52.26828787899175 ], [ 4.743207712383441, 52.270198720035943 ], [ 4.745024662104621, 52.271928667579687 ], [ 4.746845649803697, 52.272863653892728 ], [ 4.750628310492264, 52.274106611955844 ], [ 4.751012536937709, 52.273608107407789 ], [ 4.755710777159742, 52.274193509906944 ], [ 4.765220742804597, 52.276931533156443 ], [ 4.776298403322346, 52.281763033124903 ], [ 4.776084753851582, 52.2819715776563 ], [ 4.776139112192619, 52.282124966644375 ], [ 4.779825733754202, 52.28370774442962 ], [ 4.787044194705645, 52.288366044782713 ], [ 4.789216497911047, 52.290134270950361 ], [ 4.791918231320486, 52.293023927319581 ], [ 4.7925550581797, 52.294143678561348 ], [ 4.792235719448009, 52.294327721557046 ], [ 4.794165819730964, 52.298850851522708 ], [ 4.794617177293608, 52.298894335362753 ], [ 4.794882344113332, 52.299441518589504 ], [ 4.795434231637071, 52.299927009412684 ], [ 4.795867405754027, 52.300611676150595 ], [ 4.797761424064552, 52.301863808938791 ], [ 4.799921386658267, 52.30256307889681 ], [ 4.7998858332376, 52.302856114951567 ], [ 4.802066026710436, 52.303832495303119 ], [ 4.803049587356201, 52.303921351934164 ], [ 4.804689784795971, 52.30452427515408 ], [ 4.804848467797877, 52.304705972180159 ], [ 4.809451973568461, 52.30621363402242 ], [ 4.812398370469105, 52.308419170870295 ], [ 4.813014598093168, 52.308241375222252 ], [ 4.813383424158391, 52.308608910645312 ], [ 4.813632151097313, 52.308531061263331 ], [ 4.814443212358271, 52.309541546886273 ], [ 4.814335966058237, 52.30978430633683 ], [ 4.814905367359986, 52.310450276122168 ], [ 4.816314910460591, 52.310828052877334 ], [ 4.816658464645772, 52.311078253448642 ], [ 4.816941234664606, 52.311783039163117 ], [ 4.81489838073904, 52.313134853029261 ], [ 4.815120260165943, 52.314418861422538 ], [ 4.81546496457599, 52.314563083825071 ], [ 4.815762277940472, 52.314954370343692 ], [ 4.815783392128816, 52.31559580856004 ], [ 4.816282617029201, 52.316710186235561 ], [ 4.818310691623227, 52.323595596877396 ], [ 4.818292229458396, 52.324468689779614 ], [ 4.818009087503184, 52.325198760182232 ], [ 4.817458993330149, 52.325997026665526 ], [ 4.81667717063942, 52.326729904457501 ], [ 4.81705447805493, 52.327034983309723 ], [ 4.817785324231372, 52.326505155228972 ], [ 4.818477365345025, 52.325657683436283 ], [ 4.819388210388263, 52.325637124916888 ], [ 4.819369382774522, 52.325073409302433 ], [ 4.819744106556367, 52.324259663967048 ], [ 4.820410238636347, 52.324254267257061 ], [ 4.820756567107991, 52.324436680892049 ], [ 4.821460668887502, 52.324464587979726 ], [ 4.820378414434725, 52.325103807352264 ], [ 4.820057358183483, 52.325589256003738 ], [ 4.820069145307329, 52.325855501778143 ], [ 4.82516664872385, 52.325830718258416 ], [ 4.839309420230432, 52.327449958401751 ], [ 4.839529534827674, 52.327652677136719 ], [ 4.839427710449034, 52.32923299529849 ], [ 4.840497281106665, 52.329687007190131 ], [ 4.843941623361867, 52.330316596404465 ], [ 4.845249209666987, 52.329784895691219 ], [ 4.847539250148787, 52.330144267114612 ], [ 4.848000280277264, 52.330669700299019 ], [ 4.855936114567332, 52.330417123408516 ], [ 4.856268734103456, 52.330336366531675 ], [ 4.856614447742168, 52.329123815624428 ], [ 4.856450566109715, 52.322666223359029 ], [ 4.856588887044712, 52.322584496251196 ], [ 4.856582319300628, 52.321757302485942 ], [ 4.856849492867756, 52.321515024103022 ], [ 4.857374502591509, 52.321524561129586 ], [ 4.85748381072526, 52.321750082523337 ], [ 4.858583430613498, 52.321852304543185 ], [ 4.896300525811794, 52.322519463911149 ], [ 4.89718273754372, 52.321990725574459 ], [ 4.898295886501624, 52.321743016039527 ], [ 4.901606339057985, 52.321628072723186 ], [ 4.902559864249519, 52.321420497806294 ], [ 4.904736711851958, 52.32048811921954 ], [ 4.907878575714947, 52.319597334507705 ], [ 4.909116278007789, 52.318901234241288 ], [ 4.90922145208688, 52.318354225671634 ], [ 4.912331684739304, 52.318348504192386 ], [ 4.914114529370154, 52.320368457593972 ], [ 4.910633983758107, 52.321888543953882 ], [ 4.911233488135069, 52.322870164901062 ], [ 4.910268773238517, 52.323490684142122 ], [ 4.910267601685988, 52.32364089503038 ], [ 4.911264668547241, 52.324259515410738 ], [ 4.913766478188178, 52.324633428233675 ], [ 4.913518234812491, 52.326151611824976 ], [ 4.912861079709244, 52.326437016855074 ], [ 4.911877556600526, 52.328872949156668 ], [ 4.911441676110978, 52.32926558160824 ], [ 4.912714806614696, 52.329510488251955 ], [ 4.912611107257373, 52.330179393163135 ], [ 4.912865633707533, 52.33028914424542 ], [ 4.912902273842896, 52.330605973593542 ], [ 4.916874727736754, 52.331460471607677 ], [ 4.922381568186768, 52.333128502452432 ], [ 4.922361672068913, 52.333280373088712 ], [ 4.922818030003125, 52.333695139806004 ], [ 4.92282132936622, 52.334136519881554 ], [ 4.923388504257201, 52.335254244344277 ], [ 4.923342966733327, 52.335889146328071 ], [ 4.922831716407106, 52.336710007126236 ], [ 4.922877479499594, 52.336845833132045 ], [ 4.923304658389346, 52.336879446224543 ], [ 4.924429590177287, 52.335509577042821 ], [ 4.92575843013691, 52.335473314183375 ], [ 4.926765508642736, 52.335821335762844 ], [ 4.926696467247318, 52.33603240638665 ], [ 4.927234986737937, 52.336325761516946 ], [ 4.928316287553426, 52.336685030599789 ], [ 4.933856552232527, 52.335573540809214 ], [ 4.935642743164613, 52.335612128352459 ], [ 4.936539707426825, 52.334707030194153 ], [ 4.939508666141468, 52.335691157316198 ], [ 4.941607366745314, 52.335638211880422 ], [ 4.941619668500413, 52.336376412509637 ], [ 4.941118731870837, 52.336622467719245 ], [ 4.941634994860848, 52.336954804929057 ], [ 4.942219699335507, 52.336958604417539 ], [ 4.94281186448777, 52.336649955561356 ], [ 4.943664197456771, 52.336794771978468 ], [ 4.950307796667225, 52.338737139141493 ], [ 4.95069577082702, 52.338090421735799 ], [ 4.95025523778558, 52.337277066195718 ], [ 4.949473999031054, 52.336616839290429 ], [ 4.949302245128832, 52.336218262519814 ], [ 4.948371469082129, 52.335225881059003 ], [ 4.946880535773587, 52.334229827129839 ], [ 4.948465432027287, 52.333198303107764 ], [ 4.949455477551769, 52.332199110965341 ], [ 4.9494646377683, 52.331882804231057 ], [ 4.948423275702975, 52.331531609001885 ], [ 4.948526690026779, 52.331229119476589 ], [ 4.942873451962478, 52.329287086186419 ], [ 4.94474545861014, 52.327245479607939 ], [ 4.94512732939315, 52.327339636969214 ], [ 4.945563808884841, 52.326738915482366 ], [ 4.941168444842536, 52.325217492139622 ], [ 4.939062832923107, 52.324253397047158 ], [ 4.939093546290467, 52.324095084036372 ], [ 4.937760780396226, 52.322704540202977 ], [ 4.940734715214693, 52.319624435410809 ], [ 4.940715291475845, 52.319482011286894 ], [ 4.940400518194394, 52.319368539692121 ], [ 4.941190293785736, 52.318443418995479 ], [ 4.941715887625413, 52.318588433047935 ], [ 4.942663121309598, 52.317591035909864 ], [ 4.941932562236412, 52.317343338704973 ], [ 4.941594536875765, 52.317646421867067 ], [ 4.941215220068906, 52.317551927010562 ], [ 4.940986030714753, 52.317868386111179 ], [ 4.940406576243445, 52.318180028544838 ], [ 4.939889643037252, 52.317039050552054 ], [ 4.938286185640858, 52.31647021554766 ], [ 4.938519935256886, 52.316403835242689 ], [ 4.938989053312807, 52.315799888558388 ], [ 4.939062721981198, 52.31461749267217 ], [ 4.937934550226825, 52.314247381459076 ], [ 4.937610365103598, 52.314289084539105 ], [ 4.93759091486222, 52.314096390007691 ], [ 4.935623487945723, 52.31340297339672 ], [ 4.936303563561167, 52.312658999777732 ], [ 4.936156122824611, 52.312390469192266 ], [ 4.934028684888185, 52.311609400653374 ], [ 4.932156996139074, 52.310468694867645 ], [ 4.930021224057129, 52.309506850086308 ], [ 4.929973273969034, 52.30932125837893 ], [ 4.928440688736705, 52.308686187825082 ], [ 4.930564580766903, 52.306232428508203 ], [ 4.932787974104968, 52.304337052357475 ], [ 4.933293376707833, 52.303618748944864 ], [ 4.935012157190292, 52.302033737441093 ], [ 4.937217273396817, 52.299535668034977 ], [ 4.937465108770978, 52.299127823917381 ], [ 4.937295359183996, 52.29898109004079 ], [ 4.938489150750935, 52.297591119077019 ], [ 4.938795833329653, 52.297611188005632 ], [ 4.94655177574031, 52.288553650125358 ], [ 4.948367877416033, 52.286634827242828 ], [ 4.948088244328934, 52.286093738349756 ], [ 4.94867140280961, 52.285841132652479 ], [ 4.950913947773516, 52.283171212554635 ], [ 4.950890813497036, 52.282644965826336 ], [ 4.952534671886771, 52.280093321723008 ], [ 4.953931474055616, 52.280112144366647 ], [ 4.955332923755686, 52.278266661500496 ], [ 4.953720565154555, 52.27793255295726 ], [ 4.952966820650987, 52.278122103636996 ], [ 4.949898833224494, 52.278344352496674 ], [ 4.947960308105573, 52.278854485499629 ], [ 4.947213851041564, 52.27890397972061 ], [ 4.945557660896815, 52.278729234892289 ], [ 4.944130782430315, 52.278183550112473 ], [ 4.942681186835047, 52.278084496133964 ], [ 4.940686542831085, 52.27896122649728 ], [ 4.937438974956165, 52.279451070033062 ], [ 4.936311284584454, 52.280076791319715 ], [ 4.933753541531659, 52.280795694847157 ], [ 4.931412230695761, 52.280409257179777 ], [ 4.928598807180261, 52.279511958009927 ], [ 4.9264904187617, 52.279661242879271 ], [ 4.92605826282877, 52.278207305906157 ], [ 4.926876865115141, 52.276895917657299 ], [ 4.926849103919221, 52.275410883878678 ], [ 4.927761108872384, 52.273719014405515 ], [ 4.927540078355191, 52.273252138847596 ], [ 4.926745819603756, 52.272486871415467 ], [ 4.928086310104927, 52.271811911287408 ], [ 4.928211849034636, 52.271183002026646 ], [ 4.928589270052353, 52.270522547091808 ], [ 4.92943932294397, 52.269942757022932 ], [ 4.929754767889365, 52.269249795299409 ], [ 4.92950643749524, 52.268350334598239 ], [ 4.928342753289408, 52.26788559824503 ], [ 4.925847168031442, 52.267421280587868 ], [ 4.924813093280934, 52.266924756527288 ], [ 4.924331645947256, 52.266057314466877 ], [ 4.923935744419412, 52.263709803743772 ], [ 4.923305516496769, 52.263003147670865 ], [ 4.922156552762188, 52.262533595204879 ], [ 4.91896644344925, 52.261949311185226 ], [ 4.918183385272413, 52.261619619176045 ], [ 4.918084452136813, 52.261233294892193 ], [ 4.918736359835203, 52.258927511410796 ], [ 4.918496034628263, 52.258195375541462 ], [ 4.917676085084935, 52.257010901530563 ], [ 4.916679122735484, 52.256300911241546 ], [ 4.914364719740021, 52.255261558148597 ], [ 4.910840879217825, 52.252520577356819 ], [ 4.909706402781199, 52.25234585983479 ], [ 4.90570048789441, 52.253064674821744 ], [ 4.903089826651545, 52.253105515699502 ], [ 4.901849228494795, 52.252670372113933 ], [ 4.899863456218078, 52.251147856466986 ], [ 4.898565138380623, 52.250832299862125 ], [ 4.89632060125009, 52.251196595204391 ], [ 4.895601164580201, 52.251521534446958 ], [ 4.895182600403235, 52.251947220965612 ], [ 4.893005423700759, 52.25290928551081 ], [ 4.891332522146064, 52.253203168573776 ], [ 4.890795947046154, 52.253020529851348 ], [ 4.889479408104878, 52.251869140793367 ], [ 4.888311874497192, 52.251108036495097 ], [ 4.887012745283014, 52.250798911205727 ], [ 4.886471478444563, 52.250914389849619 ], [ 4.885646797423776, 52.25139520986037 ], [ 4.884151504897038, 52.253187525813594 ], [ 4.883428266080614, 52.253544733075202 ], [ 4.882723995019788, 52.253611646599047 ], [ 4.877760811927041, 52.252721337199688 ], [ 4.873847998685715, 52.250642756982543 ], [ 4.87223521819439, 52.251098172320944 ], [ 4.870044737983642, 52.253216798090605 ], [ 4.868626101990738, 52.251489166789689 ], [ 4.866292040710468, 52.250969096472026 ], [ 4.8644468474067, 52.249706311599134 ], [ 4.8606532667547, 52.248122213115593 ], [ 4.859285791842351, 52.247694640473348 ], [ 4.857436897767612, 52.247540476136791 ], [ 4.856929573983154, 52.246317813659282 ], [ 4.85581317808267, 52.245957268659211 ], [ 4.855402174093864, 52.24556366775365 ], [ 4.855282981604957, 52.242764932167596 ], [ 4.855007740361858, 52.242074063784649 ], [ 4.854194278773168, 52.24177085362129 ], [ 4.851669209587079, 52.241937569788618 ], [ 4.851342358814113, 52.241816785212386 ], [ 4.851300784634232, 52.241556395547903 ], [ 4.851629241245067, 52.24083011164678 ], [ 4.852286484799459, 52.239854640903239 ], [ 4.852109741309796, 52.239335318570767 ], [ 4.851255662664406, 52.238613851645816 ], [ 4.850766514915651, 52.238509954819861 ], [ 4.848388582854011, 52.239587792491321 ], [ 4.847317479254979, 52.23967258877795 ], [ 4.846811430886425, 52.238989951576961 ], [ 4.846633069396261, 52.238206070848243 ], [ 4.84614060998207, 52.23763595977109 ], [ 4.845506218950076, 52.237313260711829 ], [ 4.843673203693053, 52.237029692668592 ], [ 4.843011787591766, 52.23666943500546 ], [ 4.842823726764823, 52.236260446399385 ], [ 4.843024913089194, 52.235501493427186 ], [ 4.8428944374728, 52.235260171716632 ], [ 4.841268965076482, 52.23507155716139 ], [ 4.839219855735245, 52.23535305783809 ], [ 4.838365102202861, 52.235165364678451 ], [ 4.836175026088324, 52.233859510179592 ], [ 4.834932581461432, 52.23279026052915 ], [ 4.832570686890437, 52.232317000249196 ], [ 4.831026232862553, 52.231223436902511 ], [ 4.830137932054567, 52.230817514415129 ], [ 4.826579589723382, 52.22997966868914 ], [ 4.823729510692872, 52.229712950324455 ], [ 4.820825078802113, 52.228734342607453 ], [ 4.819148172052059, 52.228839869791933 ], [ 4.817233241394463, 52.228233104276619 ], [ 4.815797777596857, 52.227500133729258 ], [ 4.814470433901749, 52.227125270714502 ], [ 4.813519432873312, 52.227037006410477 ], [ 4.808802885442264, 52.22687189261174 ], [ 4.807236711049231, 52.227235526664956 ], [ 4.806059438924058, 52.22783244213327 ], [ 4.805407493072244, 52.227888769714809 ], [ 4.803231496369168, 52.227339636237808 ], [ 4.80177100270638, 52.226783513434505 ], [ 4.795436200873099, 52.226554420552702 ], [ 4.793503075176472, 52.22680055919156 ], [ 4.789299126178957, 52.227790882757006 ], [ 4.78676641328937, 52.227801375519654 ], [ 4.785618905833947, 52.228366233147064 ], [ 4.784921913059362, 52.22852720824347 ], [ 4.781003531258038, 52.228642371444884 ], [ 4.779349798270658, 52.227991852722049 ], [ 4.776451225547092, 52.227286639851791 ], [ 4.775615293331997, 52.225666580984779 ], [ 4.77465576307435, 52.224461618523712 ], [ 4.7721212219872, 52.22293294587805 ], [ 4.767363373975916, 52.221069541130497 ], [ 4.763185562661008, 52.218510987390125 ], [ 4.762111112959905, 52.218037220693908 ], [ 4.75985440320544, 52.217486711790301 ], [ 4.753319452927277, 52.217369854618845 ], [ 4.752698832212239, 52.217134283738204 ], [ 4.750712468359872, 52.215630572593561 ], [ 4.747996270244762, 52.214770999583521 ], [ 4.743529749723509, 52.21463785618414 ], [ 4.741404973288396, 52.21233741904387 ], [ 4.739471818670078, 52.211061742315508 ], [ 4.735563577753961, 52.20744481305092 ], [ 4.735682989516841, 52.207239221446478 ], [ 4.735050527692358, 52.206680842022486 ], [ 4.73479630950371, 52.206747031051336 ], [ 4.734348376230786, 52.206416866374447 ], [ 4.732535000899362, 52.207029069748856 ], [ 4.728696148366196, 52.209747252546457 ], [ 4.728880241336851, 52.210111390047473 ], [ 4.729217856955939, 52.210305172968383 ], [ 4.727253335273529, 52.211042124044724 ], [ 4.725398186218487, 52.21200201235991 ], [ 4.724639939393245, 52.212569362417391 ], [ 4.725411419259154, 52.212898638012682 ], [ 4.726727682592825, 52.212157134993397 ], [ 4.729778548129515, 52.210923465396824 ], [ 4.732502011075839, 52.212214193025794 ], [ 4.733118108324867, 52.214343247239945 ], [ 4.732090610685042, 52.214135967234881 ], [ 4.728210372630066, 52.215109902752857 ], [ 4.723804456511597, 52.214889183424255 ], [ 4.723584707114325, 52.215137147357865 ], [ 4.723658927870265, 52.216412804693284 ], [ 4.723317038683474, 52.216255009332066 ], [ 4.72320201066872, 52.216357038076545 ], [ 4.723583899621148, 52.218122159206466 ], [ 4.72286760801069, 52.219527183865374 ], [ 4.722796697638677, 52.22036836043651 ], [ 4.724217957770726, 52.231956050169217 ], [ 4.724049600695609, 52.232267140210951 ], [ 4.704867855520779, 52.233713838926199 ], [ 4.703730915748629, 52.233690490039336 ], [ 4.696529242357245, 52.232122748075547 ], [ 4.687360248409156, 52.227018625748322 ], [ 4.687008785204226, 52.22699963209832 ], [ 4.686177075873824, 52.226513594553253 ], [ 4.683051632331403, 52.226247491402475 ], [ 4.682770037311734, 52.226406527517277 ], [ 4.68001190133884, 52.226659320325552 ], [ 4.679774151907689, 52.226449708775569 ], [ 4.678170216990337, 52.226275818971878 ], [ 4.676691511393317, 52.225825802780612 ], [ 4.673261921928874, 52.228633887777441 ], [ 4.670193440194458, 52.230798314285927 ], [ 4.676886582309055, 52.234381893746168 ], [ 4.676599063925883, 52.234538970911153 ] ], [ [ 4.729459274353677, 52.210175153597135 ], [ 4.729487897435494, 52.210193762822165 ], [ 4.729365968962275, 52.210244066647178 ], [ 4.729459274353677, 52.210175153597135 ] ] ] } }
]
}
