{
"type": "FeatureCollection",
"name": "SWVPO2604",
"crs": { "type": "name", "properties": { "name": "urn:ogc:def:crs:OGC:1.3:CRS84" } },
"features": [
{ "type": "Feature", "properties": { "PO SWV": "PO2604", "strokeColor": "#A9A9A9", "strokeWidth": 2, "fillColor": "#ADD8E6" }, "geometry": { "type": "MultiPolygon", "coordinates": [ [ [ [ 5.115439615006333, 52.179777007525423 ], [ 5.118541078393098, 52.17251894876653 ], [ 5.118882991156803, 52.17249862583931 ], [ 5.118923446102795, 52.172343781927836 ], [ 5.095087787198775, 52.15536774911957 ], [ 5.120499324865578, 52.145620553840459 ], [ 5.111713837099002, 52.137589919890601 ], [ 5.110291865876746, 52.135827102052694 ], [ 5.103431493006261, 52.129754354504804 ], [ 5.10186327100907, 52.130256464578025 ], [ 5.101047213890573, 52.129751784638643 ], [ 5.087181426113384, 52.135555366120769 ], [ 5.076206157757544, 52.126961229327414 ], [ 5.07556418626096, 52.127127955364038 ], [ 5.07260474903316, 52.125381020583987 ], [ 5.071339791631574, 52.126542111874571 ], [ 5.070058754004339, 52.127398039140814 ], [ 5.069054016753205, 52.127089746476322 ], [ 5.066835218745094, 52.126040823290978 ], [ 5.06569884463729, 52.12539401127912 ], [ 5.065766916737198, 52.125162788880651 ], [ 5.061200761113442, 52.122461852352075 ], [ 5.049822585624491, 52.128902827058454 ], [ 5.047557984149922, 52.129863525956118 ], [ 5.047038929525322, 52.129633361372072 ], [ 5.046635686248726, 52.129780243537503 ], [ 5.045122764949564, 52.128913435388313 ], [ 5.044850346940424, 52.128986743583745 ], [ 5.044873606799568, 52.128806893385722 ], [ 5.04307934165014, 52.127901716112433 ], [ 5.041471939674352, 52.126563575550065 ], [ 5.038137129216894, 52.123248037066695 ], [ 5.03558624913601, 52.11981696024953 ], [ 5.03459222201966, 52.119768197867607 ], [ 5.034047450197525, 52.119198483146455 ], [ 5.033745690013244, 52.119095551328748 ], [ 5.031293504858233, 52.119672691641874 ], [ 5.0307654842228, 52.119091961242759 ], [ 5.02934991452263, 52.119811473442617 ], [ 5.028711334354493, 52.119884466562333 ], [ 5.026707124614968, 52.12089741124268 ], [ 5.026485456487723, 52.121311567284231 ], [ 5.023512137106712, 52.123113887014682 ], [ 5.02265885372948, 52.122680284089128 ], [ 5.020721006569625, 52.123915573643238 ], [ 5.020489247537705, 52.124188289455503 ], [ 5.020699287282402, 52.124396951668878 ], [ 5.019516426156177, 52.125113512038922 ], [ 5.017738926795444, 52.125138339159278 ], [ 5.016946738630531, 52.125787258590165 ], [ 5.017182846264633, 52.126060568065434 ], [ 5.016321036427797, 52.12661253877922 ], [ 5.016041955012341, 52.126507657872594 ], [ 5.016130552780592, 52.126733166957031 ], [ 5.015442821056873, 52.127135477760426 ], [ 5.014746433509687, 52.126794410389607 ], [ 5.013149732221638, 52.128031024857144 ], [ 5.013140662132702, 52.128210083269522 ], [ 5.013524933419895, 52.128434475401448 ], [ 5.01102572103242, 52.130601117966989 ], [ 5.012220781907009, 52.131603153267434 ], [ 5.008491754883275, 52.136864282875756 ], [ 5.007692224757432, 52.137481915033341 ], [ 5.00791351110469, 52.137707352599776 ], [ 5.007162569034234, 52.138779747273453 ], [ 5.006561430738753, 52.138497353299407 ], [ 5.006357535582314, 52.138633318230404 ], [ 5.005105992289391, 52.138325249733249 ], [ 5.004596309722197, 52.138901516779782 ], [ 5.006398197265884, 52.139887487468137 ], [ 5.004751155920528, 52.142495547738399 ], [ 5.007980302804545, 52.143927520818927 ], [ 4.993573616589493, 52.13820869175121 ], [ 4.986442175515781, 52.135164696170733 ], [ 4.985129897863623, 52.132069437755796 ], [ 4.984394544063091, 52.132048682246477 ], [ 4.974006146077683, 52.129588089089332 ], [ 4.972127863871897, 52.126120940470933 ], [ 4.971704753560308, 52.126092019779385 ], [ 4.96990861421138, 52.122733291854345 ], [ 4.970703034593119, 52.12195678074054 ], [ 4.97822162328445, 52.112965162912325 ], [ 4.97849573534593, 52.113252722914368 ], [ 4.980166230082881, 52.112432585901615 ], [ 4.980327839222387, 52.112224780063954 ], [ 4.979660328215878, 52.111480571124368 ], [ 4.979952332770138, 52.109796024992441 ], [ 4.979922604828425, 52.10908503550737 ], [ 4.97970975350744, 52.108669492775533 ], [ 4.979295581364132, 52.108249089369551 ], [ 4.978754951597839, 52.10800391305262 ], [ 4.976563090022515, 52.107988427545095 ], [ 4.976169255768923, 52.107753301714069 ], [ 4.976039227321767, 52.106279100937385 ], [ 4.975715856096167, 52.104980441191934 ], [ 4.975302124050763, 52.104435451802019 ], [ 4.97406734380662, 52.103645492633888 ], [ 4.973179012404968, 52.102800411907374 ], [ 4.973014138057982, 52.102287398640264 ], [ 4.973175339814572, 52.101655065910151 ], [ 4.975615945784426, 52.099933612233187 ], [ 4.989369510095373, 52.100845892540598 ], [ 4.99187246779279, 52.094873471365005 ], [ 4.992623437320437, 52.094897333317363 ], [ 4.993713696901134, 52.09203385670093 ], [ 4.994044624437135, 52.090681739943648 ], [ 5.004374274401364, 52.08886853556411 ], [ 5.004333173549611, 52.088571738368799 ], [ 5.004927166138593, 52.088245968751941 ], [ 5.004293498074045, 52.088106887469657 ], [ 5.00406624063799, 52.087713552850929 ], [ 5.004428385989679, 52.087479853825627 ], [ 5.003878149771777, 52.085824121065222 ], [ 5.003781579354055, 52.084576062096545 ], [ 5.004448499943277, 52.084424158990046 ], [ 5.003328697864389, 52.077939588164384 ], [ 5.001724290427578, 52.078172813465876 ], [ 4.999612706070503, 52.066200035565188 ], [ 5.009780859366328, 52.064219968050757 ], [ 5.018108169666259, 52.062197485121359 ], [ 5.017178643059808, 52.061210181966594 ], [ 5.017014194082202, 52.061222611594864 ], [ 5.015893534947555, 52.060298016492105 ], [ 5.010250368136643, 52.053859712643543 ], [ 5.006192894090149, 52.055511354593328 ], [ 5.004930646621075, 52.055658560024973 ], [ 5.003804852112187, 52.055460160755068 ], [ 5.001886249624966, 52.054450100967394 ], [ 5.0002373999921, 52.053813909702811 ], [ 4.996312046612451, 52.052880943868253 ], [ 4.993571020344086, 52.05261703978595 ], [ 4.990963570464168, 52.052973715250083 ], [ 4.99002725354211, 52.052254940006073 ], [ 4.983219609039833, 52.04033311151418 ], [ 4.978333777626702, 52.039812237700566 ], [ 4.978806311667023, 52.038162640986506 ], [ 4.970741796668174, 52.03770963115938 ], [ 4.967043081498551, 52.03661602972214 ], [ 4.961875534681804, 52.034359106838174 ], [ 4.958094630167591, 52.03216170973932 ], [ 4.953657434377528, 52.029326148099187 ], [ 4.947413153537685, 52.024501201039271 ], [ 4.952271645461186, 52.018206170932686 ], [ 4.953380630999425, 52.017145222235797 ], [ 4.936680712524635, 52.013683616530308 ], [ 4.92893169323564, 52.011892372500718 ], [ 4.91986129450485, 52.010088594804877 ], [ 4.916873226133675, 52.010243201108636 ], [ 4.91390071010461, 52.011176806023208 ], [ 4.91023092967623, 52.011201979360756 ], [ 4.908822526481243, 52.010923771533356 ], [ 4.892185936016166, 52.005118574718033 ], [ 4.888516366975562, 52.003932703671168 ], [ 4.887967039170261, 52.003916177215515 ], [ 4.882148725652947, 52.001907188973021 ], [ 4.878275232222403, 52.000850483209945 ], [ 4.853228728202282, 51.991821763908085 ], [ 4.851651178957621, 51.991493602220196 ], [ 4.835204989299839, 51.986281193985334 ], [ 4.818036701073466, 51.999729027226039 ], [ 4.829097520557684, 52.001162051588757 ], [ 4.85335078966976, 52.00464838895185 ], [ 4.857192833389038, 52.00588462569079 ], [ 4.853017090047641, 52.011098399275262 ], [ 4.849355148125053, 52.015298379040622 ], [ 4.847551215094985, 52.017786242662218 ], [ 4.846886519709632, 52.018281279480291 ], [ 4.840976620569732, 52.016897078515342 ], [ 4.833335763069097, 52.016523110115124 ], [ 4.82752247215979, 52.016914984683254 ], [ 4.824987299239859, 52.017336367481811 ], [ 4.823716213107977, 52.017005626669416 ], [ 4.822065857002102, 52.016240394562793 ], [ 4.817178289215136, 52.014442178581135 ], [ 4.815604202905126, 52.014080325860235 ], [ 4.813187488836966, 52.014014308028948 ], [ 4.806309786239881, 52.01425208834587 ], [ 4.80357533652812, 52.014063633071551 ], [ 4.79884452508706, 52.022223709352517 ], [ 4.799145145538388, 52.022158918786104 ], [ 4.803321410131006, 52.023792237847488 ], [ 4.803292067897091, 52.024072308422241 ], [ 4.803559324128274, 52.02400316682926 ], [ 4.804035224891069, 52.024204170417384 ], [ 4.804029284252291, 52.024381270308183 ], [ 4.805846279151921, 52.025128883062457 ], [ 4.806005650003455, 52.02502191639141 ], [ 4.809996490163877, 52.026686915844415 ], [ 4.809429600021002, 52.028421843547441 ], [ 4.806911226674134, 52.033098354423657 ], [ 4.809915610055806, 52.033334384874813 ], [ 4.811857795346136, 52.033731050928779 ], [ 4.817253705334331, 52.036851683974888 ], [ 4.818945797821338, 52.038162802500892 ], [ 4.829779621113778, 52.049407991200276 ], [ 4.829667682805016, 52.04977953030528 ], [ 4.842095900933385, 52.055456290371062 ], [ 4.844410612674634, 52.056682852236968 ], [ 4.844749629609391, 52.056699548453928 ], [ 4.848080060047293, 52.058069783389151 ], [ 4.853241438938664, 52.058492226280052 ], [ 4.855995662460503, 52.058968119907831 ], [ 4.862722205591552, 52.06146899171533 ], [ 4.864857544322304, 52.061900785525083 ], [ 4.867894701982589, 52.062960934488814 ], [ 4.873300259850193, 52.068750904031177 ], [ 4.872735876238002, 52.068952439666305 ], [ 4.865747862165994, 52.069146529061861 ], [ 4.863871257498086, 52.06914835813113 ], [ 4.863809099710737, 52.06901603294363 ], [ 4.864042929355849, 52.068658212331535 ], [ 4.86226337387045, 52.069164389181147 ], [ 4.857260114538469, 52.069097750408872 ], [ 4.856063175375295, 52.068911117978203 ], [ 4.850785770059046, 52.069217431558791 ], [ 4.842198237977707, 52.069105433965092 ], [ 4.837123346064451, 52.068522321677776 ], [ 4.830014165269731, 52.066980214692258 ], [ 4.83413481693673, 52.072746527937184 ], [ 4.832788386402886, 52.072935312345358 ], [ 4.833164581740617, 52.07468753598161 ], [ 4.833067816949517, 52.074924353338787 ], [ 4.830970447503396, 52.074464128981781 ], [ 4.830640879047228, 52.075070748408187 ], [ 4.826380397095141, 52.074747568185025 ], [ 4.826591485476268, 52.079542139415032 ], [ 4.825731500936396, 52.079858209182838 ], [ 4.823718787081309, 52.091154182582891 ], [ 4.823448503908949, 52.093365362054215 ], [ 4.823158111515603, 52.105109011271743 ], [ 4.824452121678728, 52.105325116350876 ], [ 4.825204461612196, 52.106454811999974 ], [ 4.825465107971982, 52.107139368402976 ], [ 4.795563930446093, 52.12081579378966 ], [ 4.793080082744945, 52.122084866174106 ], [ 4.792170799776856, 52.122379572791132 ], [ 4.792497183691363, 52.122503888835233 ], [ 4.792535741645839, 52.122786488814043 ], [ 4.792317443950014, 52.122914649149706 ], [ 4.792426809564313, 52.123105331808731 ], [ 4.793524307870835, 52.123878430875877 ], [ 4.797015768821268, 52.124563254091001 ], [ 4.797628677980927, 52.124982472434304 ], [ 4.798365875605064, 52.12520086527072 ], [ 4.801135933346313, 52.12475407880671 ], [ 4.802122640425593, 52.124791996290838 ], [ 4.802648554872708, 52.124971869791743 ], [ 4.803059048686824, 52.125326968575912 ], [ 4.803530787635745, 52.126320476785857 ], [ 4.805834442828802, 52.126973741816023 ], [ 4.806477043798507, 52.127342783509796 ], [ 4.807138383942964, 52.128214039618001 ], [ 4.807821128877531, 52.128538397244888 ], [ 4.808154294683822, 52.128902723217259 ], [ 4.807889759427694, 52.129838879442623 ], [ 4.808446786697912, 52.130792429309984 ], [ 4.808609201280227, 52.130841137145737 ], [ 4.808665849720467, 52.13131873841877 ], [ 4.808981192742436, 52.131873832055255 ], [ 4.80838212411466, 52.132820468534483 ], [ 4.808105375680665, 52.134336738568962 ], [ 4.807580962887508, 52.134987823352105 ], [ 4.80888877340729, 52.135584838693561 ], [ 4.80905396842712, 52.135794032908187 ], [ 4.809097800831513, 52.136368854186912 ], [ 4.808764193130474, 52.137128666154283 ], [ 4.809165543479097, 52.137572552174717 ], [ 4.809650972290902, 52.137858250533043 ], [ 4.810041535427493, 52.138361756377414 ], [ 4.811764756617944, 52.139002321263348 ], [ 4.813159520902444, 52.140085627522168 ], [ 4.813950060024706, 52.14012781926214 ], [ 4.815938197838227, 52.139340491438617 ], [ 4.816685058554262, 52.139288819045532 ], [ 4.817246592890041, 52.139587562947725 ], [ 4.817982277738406, 52.140679335476641 ], [ 4.820535980228898, 52.142124575924242 ], [ 4.82157694683608, 52.141808386615097 ], [ 4.823384835010418, 52.142127486932758 ], [ 4.826494137985294, 52.142078847171149 ], [ 4.827639065533587, 52.142381798166788 ], [ 4.829271846412911, 52.143112228861945 ], [ 4.830186133604717, 52.143216969881024 ], [ 4.831970637328457, 52.144160635814217 ], [ 4.832094546425158, 52.144370694021383 ], [ 4.83230272763495, 52.144389666160613 ], [ 4.833239164243777, 52.143379908662702 ], [ 4.834023424890692, 52.143021901530993 ], [ 4.8340908325566, 52.14278373384834 ], [ 4.835418956390996, 52.142920011365192 ], [ 4.835565479849132, 52.142663729291989 ], [ 4.836631759349375, 52.142772050873823 ], [ 4.837338799445775, 52.14055348990432 ], [ 4.837977915128399, 52.140522289008274 ], [ 4.838935437587985, 52.14110184447248 ], [ 4.840269955552554, 52.141460881600565 ], [ 4.840919645876765, 52.14133236710213 ], [ 4.841680026298218, 52.140816789681807 ], [ 4.842109086409716, 52.139755053911848 ], [ 4.842853620766345, 52.139361241784002 ], [ 4.844525661646242, 52.139281510971557 ], [ 4.846237219266211, 52.139444988874779 ], [ 4.847488919753128, 52.13883776997254 ], [ 4.848037485198266, 52.138900186602569 ], [ 4.849571802253964, 52.139482017435704 ], [ 4.85143088623397, 52.139579842515388 ], [ 4.852078027310007, 52.139307368612627 ], [ 4.852553363700197, 52.138184875780581 ], [ 4.853807415760377, 52.137456004885074 ], [ 4.855224814998066, 52.137110582505528 ], [ 4.864925983196589, 52.137291723301871 ], [ 4.87036416950182, 52.138109543585351 ], [ 4.871345868675475, 52.138738479844392 ], [ 4.874558878815637, 52.138739939380514 ], [ 4.874106147211773, 52.150530282687981 ], [ 4.873730518366801, 52.156007950739202 ], [ 4.887602481159258, 52.159862179854791 ], [ 4.892372573120511, 52.161595827429466 ], [ 4.892220910458243, 52.161888367948102 ], [ 4.891768520205817, 52.16187282776594 ], [ 4.886482430336458, 52.164276848609497 ], [ 4.886277060621381, 52.164616882999205 ], [ 4.855616179593599, 52.179011091116251 ], [ 4.854181970241287, 52.178960924564663 ], [ 4.852382414226355, 52.179284183538797 ], [ 4.851420731582858, 52.179124923585704 ], [ 4.849993649472276, 52.179521484895133 ], [ 4.848967401858978, 52.179492325480304 ], [ 4.845802862975292, 52.180083687231793 ], [ 4.84452238133606, 52.180025322659596 ], [ 4.843966285845976, 52.180210758344138 ], [ 4.842415880988042, 52.18139791165742 ], [ 4.838252836292984, 52.183433846592052 ], [ 4.836578164137531, 52.184439281246483 ], [ 4.83613300532195, 52.184823957676926 ], [ 4.836024618424527, 52.185390524799537 ], [ 4.835421151619068, 52.186179631007413 ], [ 4.834087717388074, 52.186753905172196 ], [ 4.833518251919825, 52.187643696236648 ], [ 4.832627055991842, 52.187819659895631 ], [ 4.831648096514366, 52.188527314351305 ], [ 4.829382124912813, 52.189379145220457 ], [ 4.827637441851707, 52.191015799668861 ], [ 4.82637538845811, 52.191347824833478 ], [ 4.826076629912881, 52.191811325596781 ], [ 4.825431997425379, 52.192126055559093 ], [ 4.824973033844378, 52.192688487528201 ], [ 4.823514345906741, 52.193338715322966 ], [ 4.823643333202385, 52.19434728158086 ], [ 4.823207037824171, 52.194914613871163 ], [ 4.823055965133632, 52.195423166602005 ], [ 4.822266509629532, 52.196206484949791 ], [ 4.819643660271372, 52.197099014850338 ], [ 4.817833501689799, 52.19806008952088 ], [ 4.814458124563872, 52.199390611878265 ], [ 4.814064638985347, 52.199851126299713 ], [ 4.813688248999888, 52.200731747832201 ], [ 4.813197119795348, 52.201219103666226 ], [ 4.813681636027241, 52.201798393826046 ], [ 4.813635799758613, 52.201938106354994 ], [ 4.802990959413698, 52.201131797155021 ], [ 4.801750633618466, 52.203894900494078 ], [ 4.801687660968255, 52.204328715221777 ], [ 4.801644442409705, 52.206186907439204 ], [ 4.801752938696709, 52.206321452620053 ], [ 4.801617443899532, 52.206476800547662 ], [ 4.80154342492539, 52.208083944234808 ], [ 4.801721698683881, 52.214905631375352 ], [ 4.801851070086954, 52.215023317879371 ], [ 4.80224283803342, 52.217669916227862 ], [ 4.797080594403857, 52.220420865527601 ], [ 4.795966679740519, 52.223546631702909 ], [ 4.794521913917637, 52.223528365924757 ], [ 4.794668681526255, 52.226615882136144 ], [ 4.797303329152441, 52.226556147244374 ], [ 4.801763610921801, 52.226782608830355 ], [ 4.803231496369168, 52.227339636237808 ], [ 4.805407493072244, 52.227888769714809 ], [ 4.806004460007885, 52.227848903849704 ], [ 4.807267967870485, 52.227224814504908 ], [ 4.808951273071274, 52.22685798244656 ], [ 4.814470433901749, 52.227125270714502 ], [ 4.816174582055127, 52.227637060787359 ], [ 4.817233241394463, 52.228233104276619 ], [ 4.819148172052059, 52.228839869791933 ], [ 4.820825078802113, 52.228734342607453 ], [ 4.823729510692872, 52.229712950324455 ], [ 4.826579589723382, 52.22997966868914 ], [ 4.830137932054567, 52.230817514415129 ], [ 4.831026232862553, 52.231223436902511 ], [ 4.832570686890437, 52.232317000249196 ], [ 4.834932581461432, 52.23279026052915 ], [ 4.836175026088324, 52.233859510179592 ], [ 4.837769614908027, 52.234864979367373 ], [ 4.838710530291323, 52.235268465426628 ], [ 4.839219855735245, 52.23535305783809 ], [ 4.841378765179688, 52.235069934340409 ], [ 4.842864629810689, 52.235246956065879 ], [ 4.843025502043568, 52.235491733995261 ], [ 4.842823726764823, 52.236260446399385 ], [ 4.843011787591766, 52.23666943500546 ], [ 4.843673203693053, 52.237029692668592 ], [ 4.845506218950076, 52.237313260711829 ], [ 4.84614060998207, 52.23763595977109 ], [ 4.846633069396261, 52.238206070848243 ], [ 4.846811430886425, 52.238989951576961 ], [ 4.847317479254979, 52.23967258877795 ], [ 4.848388582854011, 52.239587792491321 ], [ 4.850815834772084, 52.238499164792664 ], [ 4.851690783925373, 52.238919049652374 ], [ 4.852163570638039, 52.239409396670688 ], [ 4.852286061600719, 52.239899042690467 ], [ 4.851629241245067, 52.24083011164678 ], [ 4.851300784634232, 52.241556395547903 ], [ 4.851342358814113, 52.241816785212386 ], [ 4.851669209587079, 52.241937569788618 ], [ 4.854194278773168, 52.24177085362129 ], [ 4.855007740361858, 52.242074063784649 ], [ 4.855282981604957, 52.242764932167596 ], [ 4.855402174093864, 52.24556366775365 ], [ 4.85581317808267, 52.245957268659211 ], [ 4.856929573983154, 52.246317813659282 ], [ 4.857240260612294, 52.247304384797403 ], [ 4.85755629766129, 52.247625042870474 ], [ 4.859285791842351, 52.247694640473348 ], [ 4.8606532667547, 52.248122213115593 ], [ 4.8644468474067, 52.249706311599134 ], [ 4.866292040710468, 52.250969096472026 ], [ 4.868626101990738, 52.251489166789689 ], [ 4.870044737983642, 52.253216798090605 ], [ 4.87223521819439, 52.251098172320944 ], [ 4.873847998685715, 52.250642756982543 ], [ 4.877760811927041, 52.252721337199688 ], [ 4.882723995019788, 52.253611646599047 ], [ 4.883428266080614, 52.253544733075202 ], [ 4.884151504897038, 52.253187525813594 ], [ 4.885646797423776, 52.25139520986037 ], [ 4.886471478444563, 52.250914389849619 ], [ 4.887012745283014, 52.250798911205727 ], [ 4.888311874497192, 52.251108036495097 ], [ 4.889479408104878, 52.251869140793367 ], [ 4.890795947046154, 52.253020529851348 ], [ 4.891332522146064, 52.253203168573776 ], [ 4.893005423700759, 52.25290928551081 ], [ 4.895182600403235, 52.251947220965612 ], [ 4.895601164580201, 52.251521534446958 ], [ 4.89632060125009, 52.251196595204391 ], [ 4.898565138380623, 52.250832299862125 ], [ 4.899863456218078, 52.251147856466986 ], [ 4.901849228494795, 52.252670372113933 ], [ 4.903096152664276, 52.253106385382324 ], [ 4.90570048789441, 52.253064674821744 ], [ 4.909706402781199, 52.25234585983479 ], [ 4.910836124706185, 52.252518893322645 ], [ 4.914364719740021, 52.255261558148597 ], [ 4.916679122735484, 52.256300911241546 ], [ 4.917676085084935, 52.257010901530563 ], [ 4.918496034628263, 52.258195375541462 ], [ 4.918736359835203, 52.258927511410796 ], [ 4.918084452136813, 52.261233294892193 ], [ 4.918183385272413, 52.261619619176045 ], [ 4.91896644344925, 52.261949311185226 ], [ 4.922156552762188, 52.262533595204879 ], [ 4.923305516496769, 52.263003147670865 ], [ 4.923935744419412, 52.263709803743772 ], [ 4.924331645947256, 52.266057314466877 ], [ 4.924813093280934, 52.266924756527288 ], [ 4.925847168031442, 52.267421280587868 ], [ 4.928342753289408, 52.26788559824503 ], [ 4.92950643749524, 52.268350334598239 ], [ 4.929754767889365, 52.269249795299409 ], [ 4.92943932294397, 52.269942757022932 ], [ 4.928589270052353, 52.270522547091808 ], [ 4.928211849034636, 52.271183002026646 ], [ 4.928086310104927, 52.271811911287408 ], [ 4.926745819603756, 52.272486871415467 ], [ 4.927540078355191, 52.273252138847596 ], [ 4.927761108872384, 52.273719014405515 ], [ 4.926849103919221, 52.275410883878678 ], [ 4.926876865115141, 52.276895917657299 ], [ 4.92605826282877, 52.278207305906157 ], [ 4.9264904187617, 52.279661242879271 ], [ 4.928598807180261, 52.279511958009927 ], [ 4.931412230695761, 52.280409257179777 ], [ 4.93379199712301, 52.280793523966004 ], [ 4.936311284584454, 52.280076791319715 ], [ 4.937438974956165, 52.279451070033062 ], [ 4.940686542831085, 52.27896122649728 ], [ 4.942674054745099, 52.278085497777404 ], [ 4.944130782430315, 52.278183550112473 ], [ 4.945557660896815, 52.278729234892289 ], [ 4.947213851041564, 52.27890397972061 ], [ 4.947960308105573, 52.278854485499629 ], [ 4.949898833224494, 52.278344352496674 ], [ 4.952966820650987, 52.278122103636996 ], [ 4.953797950475236, 52.27792698567265 ], [ 4.956777060280957, 52.278571013183821 ], [ 4.957788780812108, 52.278514226754901 ], [ 4.958652468843032, 52.278243639674379 ], [ 4.961077138834634, 52.2780770035423 ], [ 4.962290734772286, 52.280118092526237 ], [ 4.965239010001556, 52.280331610344014 ], [ 4.965710809284763, 52.280463205912611 ], [ 4.966156919490731, 52.28084884367609 ], [ 4.96642595485457, 52.280020813834653 ], [ 4.967704190281116, 52.279486861343862 ], [ 4.968840596456121, 52.280677435971292 ], [ 4.969473142279012, 52.281756573961445 ], [ 4.969800293317127, 52.283042518674435 ], [ 4.975187923624382, 52.286250490193382 ], [ 4.982938845393059, 52.28955522538034 ], [ 4.983550512964401, 52.290262274142307 ], [ 4.9904495590238, 52.289503718409691 ], [ 4.997521021187076, 52.289029385525055 ], [ 4.998523847675998, 52.289768962984823 ], [ 4.998610438554462, 52.29013370401178 ], [ 4.998875232437618, 52.290160055693953 ], [ 5.001873579236769, 52.292739013125122 ], [ 5.001951321285972, 52.295796614388202 ], [ 5.003309289917572, 52.296008163434685 ], [ 5.003333356610073, 52.297375147788941 ], [ 5.00390037799545, 52.29840362168391 ], [ 5.005324024497517, 52.298312261955644 ], [ 5.007619546854137, 52.300801701176923 ], [ 5.00794754536116, 52.30143740745887 ], [ 5.009958717969198, 52.302004348314 ], [ 5.011108870423618, 52.302948086243759 ], [ 5.011800221776391, 52.303297675399705 ], [ 5.014323142550147, 52.303556918228701 ], [ 5.016660985329609, 52.302783844629374 ], [ 5.017823269298016, 52.302563746964431 ], [ 5.021455165814183, 52.302358309801811 ], [ 5.021762890650143, 52.289423668078229 ], [ 5.021768550785734, 52.282636943063373 ], [ 5.024346231661137, 52.281263923483927 ], [ 5.030538274081361, 52.288347066879403 ], [ 5.033171608912374, 52.286166827843175 ], [ 5.03343698191542, 52.28619798386719 ], [ 5.035105978461296, 52.285436210469939 ], [ 5.039402485998148, 52.283147160977514 ], [ 5.040772446942781, 52.283777106303631 ], [ 5.042770190894997, 52.282388499291834 ], [ 5.04754028649281, 52.284936876465046 ], [ 5.050467639589999, 52.287747158118393 ], [ 5.05278109904068, 52.286385972808603 ], [ 5.054872458429029, 52.287456845618195 ], [ 5.059518442837193, 52.28921589939015 ], [ 5.063221011966704, 52.287116679866813 ], [ 5.064113824452583, 52.286232222577112 ], [ 5.064734536128358, 52.284998616652551 ], [ 5.06537794106417, 52.285096304325975 ], [ 5.065557738477362, 52.282694522646842 ], [ 5.06539234990657, 52.281257503874663 ], [ 5.065763684246635, 52.281148801551289 ], [ 5.065795390423423, 52.280625292144734 ], [ 5.064375720819061, 52.280864743942431 ], [ 5.063129332283312, 52.281931503469686 ], [ 5.062899859134709, 52.282580805824402 ], [ 5.063021640795202, 52.284505809922813 ], [ 5.062906656369274, 52.284871165671959 ], [ 5.061871601324165, 52.285228573727025 ], [ 5.06049956239641, 52.285266833246439 ], [ 5.05886889661795, 52.284701216421972 ], [ 5.055260227297249, 52.283100661097578 ], [ 5.051568684940367, 52.282291504809066 ], [ 5.050696518908912, 52.281900013656148 ], [ 5.049980961623334, 52.281202146945851 ], [ 5.049629858087277, 52.280528211849152 ], [ 5.049529650135834, 52.277836131917894 ], [ 5.0491913237852, 52.277433961943359 ], [ 5.048570236870467, 52.277124641323731 ], [ 5.047234285464844, 52.277111120292126 ], [ 5.043745891351852, 52.278008298298637 ], [ 5.042091851455421, 52.277968016165346 ], [ 5.038199270673449, 52.277068010881514 ], [ 5.033284530498247, 52.275526997418794 ], [ 5.032609530825317, 52.275019448500515 ], [ 5.03119038093145, 52.273253130780652 ], [ 5.03085781497198, 52.27256989889608 ], [ 5.030543489233956, 52.272342897114555 ], [ 5.029531435376249, 52.272113424024603 ], [ 5.028350777507382, 52.272188906433222 ], [ 5.024083922110223, 52.273335815847439 ], [ 5.023284581412077, 52.273156794443686 ], [ 5.022940943087812, 52.272907878183666 ], [ 5.022788728614927, 52.272502541608624 ], [ 5.023394258124932, 52.271152478722584 ], [ 5.024670611251794, 52.269638822354061 ], [ 5.025374777282747, 52.269051123450197 ], [ 5.027078894805575, 52.268147375092497 ], [ 5.027658892335709, 52.267533212341057 ], [ 5.027811638250749, 52.266889999464823 ], [ 5.027703403605772, 52.266072375621285 ], [ 5.02738008105102, 52.265500423305802 ], [ 5.026499051155363, 52.264686539597946 ], [ 5.026506419645377, 52.264082643436119 ], [ 5.02739483406256, 52.263404812906494 ], [ 5.030983141140736, 52.261514802775856 ], [ 5.031849406068313, 52.260840889591655 ], [ 5.032400770689862, 52.260118697996774 ], [ 5.032571792946804, 52.259474889084451 ], [ 5.032366394026065, 52.258747539348242 ], [ 5.032010260133872, 52.258202545693848 ], [ 5.031117057468784, 52.25737475773176 ], [ 5.030872748405993, 52.256831789046643 ], [ 5.031082240091842, 52.255978833027775 ], [ 5.031786595807596, 52.255048550271248 ], [ 5.03444340867943, 52.252780024546091 ], [ 5.034903888182946, 52.252583573115764 ], [ 5.035738965551273, 52.252554375027508 ], [ 5.036614117808596, 52.252923501989265 ], [ 5.037561056321963, 52.253614053624922 ], [ 5.038951114747436, 52.255527588274596 ], [ 5.040105183120528, 52.256408534824217 ], [ 5.041360986136534, 52.256599992210965 ], [ 5.042882428741748, 52.255897663960546 ], [ 5.043380368005524, 52.255303162624678 ], [ 5.043883137885957, 52.252420978732502 ], [ 5.044712549956362, 52.250622245756347 ], [ 5.045217226471826, 52.249812368164783 ], [ 5.046536696264702, 52.248518020583667 ], [ 5.046421760995137, 52.246986374249566 ], [ 5.045774060277361, 52.24332182522928 ], [ 5.046527303971156, 52.242748539122424 ], [ 5.048281292399372, 52.241900700208063 ], [ 5.049489188520953, 52.241012755638337 ], [ 5.056215176334745, 52.237047901524441 ], [ 5.056815481008434, 52.236472160032136 ], [ 5.057118351149521, 52.235933477222169 ], [ 5.057425164322782, 52.235763350135883 ], [ 5.057600651608828, 52.235392204857582 ], [ 5.057482029722811, 52.235321579951389 ], [ 5.056734710386743, 52.235689118169354 ], [ 5.055723982189542, 52.235289101106716 ], [ 5.055969441627099, 52.235002708314767 ], [ 5.053540413743288, 52.234225482660541 ], [ 5.053248801337799, 52.234336783665221 ], [ 5.052794465791104, 52.23398541018998 ], [ 5.052205596351771, 52.233952362038806 ], [ 5.051766687503774, 52.233653179890183 ], [ 5.043826359622209, 52.231124559565345 ], [ 5.043533872027695, 52.231212145009493 ], [ 5.043192241048031, 52.230907169887693 ], [ 5.042401661687331, 52.230653811232536 ], [ 5.041538030016314, 52.230976200568406 ], [ 5.041266467965229, 52.230157704066208 ], [ 5.040421683560477, 52.229805666171295 ], [ 5.040651884679532, 52.229462821508157 ], [ 5.041058522681647, 52.229415512832183 ], [ 5.04105599084513, 52.229232864923475 ], [ 5.042290043353171, 52.228749731847685 ], [ 5.040773995801086, 52.22776563608376 ], [ 5.040845137088734, 52.227533326058115 ], [ 5.040448508810904, 52.227049912206965 ], [ 5.039976815365282, 52.227103479381199 ], [ 5.039078233161715, 52.226069571738684 ], [ 5.03867226997112, 52.225286856869552 ], [ 5.037017881005363, 52.225396059351112 ], [ 5.036921916035622, 52.224685340744664 ], [ 5.039227144374575, 52.224377480560648 ], [ 5.039131306954848, 52.224133144099895 ], [ 5.036568760172961, 52.224385082279063 ], [ 5.035749352556445, 52.217520735293654 ], [ 5.036771020289597, 52.217124312491762 ], [ 5.037029225418892, 52.216547685091705 ], [ 5.036819849513851, 52.216220221213845 ], [ 5.037010330733337, 52.216121345854269 ], [ 5.036597768743976, 52.215720499663689 ], [ 5.036762263469613, 52.215254396763484 ], [ 5.035637631555046, 52.215213559019382 ], [ 5.035621511084456, 52.214634583079054 ], [ 5.035229597390975, 52.214459619625707 ], [ 5.035451374622256, 52.214283964020431 ], [ 5.036575181628132, 52.21432257839767 ], [ 5.037044562358205, 52.214284465330643 ], [ 5.036582938934047, 52.214251832827891 ], [ 5.036667223236812, 52.213747835363215 ], [ 5.033714375350508, 52.213781714251844 ], [ 5.033646349030323, 52.213067759487373 ], [ 5.034240298563622, 52.212918780855567 ], [ 5.033300629067113, 52.20983332781622 ], [ 5.036318902540708, 52.209478352184441 ], [ 5.035215476773256, 52.205225145862897 ], [ 5.03730091934361, 52.204879344319828 ], [ 5.036572004492043, 52.202251986530086 ], [ 5.025606130494463, 52.204081904212934 ], [ 5.025352975233805, 52.203359257885538 ], [ 5.024983020661473, 52.203355139652359 ], [ 5.024905827875051, 52.202949294722593 ], [ 5.024785483929973, 52.202956255691973 ], [ 5.024703128491963, 52.203087962445188 ], [ 5.023428265192723, 52.203148877015053 ], [ 5.023505945189402, 52.203896640232635 ], [ 5.022615227256286, 52.204041295855731 ], [ 5.022355288889603, 52.202796750194111 ], [ 5.02249132385329, 52.202581109363123 ], [ 5.023011681492047, 52.202642657449587 ], [ 5.022950838078914, 52.202198961090751 ], [ 5.021583717650473, 52.202639933573835 ], [ 5.02152657966844, 52.202395350315975 ], [ 5.022357384675635, 52.20215774067141 ], [ 5.022670437823517, 52.201844071217906 ], [ 5.02143419740108, 52.202135737634009 ], [ 5.021194075379834, 52.201900639508672 ], [ 5.022755161401252, 52.201435165804163 ], [ 5.026029140054646, 52.201279181188205 ], [ 5.027186209593649, 52.200326515290435 ], [ 5.027845307767852, 52.200034958687219 ], [ 5.027893047074936, 52.199870933264599 ], [ 5.029819083859667, 52.199438499435921 ], [ 5.030924612122821, 52.198676082145525 ], [ 5.031605749415927, 52.198570693300447 ], [ 5.031800489990474, 52.198340037895029 ], [ 5.032195177517031, 52.198437194691813 ], [ 5.034325251717108, 52.198009165266704 ], [ 5.037036918517791, 52.197956201985498 ], [ 5.037138206507021, 52.197840236088346 ], [ 5.037315929554132, 52.197412529989435 ], [ 5.037027538439726, 52.196594757735475 ], [ 5.037695403580973, 52.196470980661402 ], [ 5.03802815459654, 52.19564928688002 ], [ 5.038040856455793, 52.195199870527894 ], [ 5.037717765912177, 52.194583067007699 ], [ 5.036432222874161, 52.19360596826548 ], [ 5.036131957360497, 52.191539125202311 ], [ 5.035241290966725, 52.190732646333025 ], [ 5.035324758759734, 52.189931368888246 ], [ 5.035607763829956, 52.189209174718656 ], [ 5.035062684469748, 52.188406853520384 ], [ 5.034883185492228, 52.186840993684527 ], [ 5.033559714878563, 52.186115729466785 ], [ 5.033111278246737, 52.184765695645986 ], [ 5.032480926294554, 52.184387815697356 ], [ 5.032406666633584, 52.184087407815817 ], [ 5.036193701450737, 52.183795091640526 ], [ 5.041510610651791, 52.183652390547493 ], [ 5.041971235559515, 52.183307411044673 ], [ 5.044297446721853, 52.172193175929443 ], [ 5.045394823592853, 52.168958124074372 ], [ 5.046088863881425, 52.166001977092868 ], [ 5.046423588088221, 52.165829022605344 ], [ 5.04775504373512, 52.166087907214028 ], [ 5.082471497185736, 52.173744015806555 ], [ 5.115439615006333, 52.179777007525423 ] ] ], [ [ [ 5.042611779095651, 52.22399848469999 ], [ 5.042037179329732, 52.224130005452025 ], [ 5.042051870251694, 52.224196548395604 ], [ 5.042611779095651, 52.22399848469999 ] ] ] ] } }
]
}
