{
"type": "FeatureCollection",
"name": "SWVPO2601",
"crs": { "type": "name", "properties": { "name": "urn:ogc:def:crs:OGC:1.3:CRS84" } },
"features": [
{ "type": "Feature", "properties": { "PO SWV": "PO2601", "strokeColor": "#A9A9A9", "strokeWidth": 2, "fillColor": "#ADD8E6" }, "geometry": { "type": "Polygon", "coordinates": [ [ [ 5.107110611954849, 52.133093864040418 ], [ 5.126491846628461, 52.124509619180884 ], [ 5.140245882522419, 52.120929269588139 ], [ 5.140065876208909, 52.120603896887737 ], [ 5.140142922978478, 52.1204841553728 ], [ 5.141436867440953, 52.121052271267658 ], [ 5.141745803255811, 52.1209269145075 ], [ 5.141854339444716, 52.120195665143555 ], [ 5.142178880892937, 52.120094716870369 ], [ 5.142657789831817, 52.12071573840683 ], [ 5.142979936544745, 52.120571742857926 ], [ 5.143775424562215, 52.120796434792034 ], [ 5.146886053133035, 52.120286056091906 ], [ 5.148107113489553, 52.119718102716924 ], [ 5.148707578708676, 52.119241484689908 ], [ 5.149214388093458, 52.118460698700126 ], [ 5.149288356185735, 52.117710105320889 ], [ 5.148514357263886, 52.115337576998229 ], [ 5.148921617654827, 52.11346751523952 ], [ 5.150313062226155, 52.110801833057067 ], [ 5.15675164014271, 52.108501070557985 ], [ 5.157243915704397, 52.108031354603035 ], [ 5.157975191541506, 52.108000078392827 ], [ 5.15884790579876, 52.107575088883351 ], [ 5.161747442987886, 52.107145167991249 ], [ 5.15647281552044, 52.099179623356726 ], [ 5.156603148495695, 52.098836749617035 ], [ 5.156095086093567, 52.098555792992919 ], [ 5.156374031295562, 52.098052760614898 ], [ 5.157259601326578, 52.098225987540197 ], [ 5.158585289742605, 52.096531504258181 ], [ 5.158556130273613, 52.096393016486445 ], [ 5.15781888160384, 52.096511941892494 ], [ 5.157724044784674, 52.096391981945203 ], [ 5.159555812864923, 52.094179493220985 ], [ 5.160865490943737, 52.091820541540805 ], [ 5.167062060912906, 52.092895376683359 ], [ 5.167134227841958, 52.093032835696349 ], [ 5.166880095257088, 52.093341721488315 ], [ 5.166994975229378, 52.093616233872332 ], [ 5.169123677994324, 52.093818633742572 ], [ 5.170641028496523, 52.093827375419842 ], [ 5.175865900118517, 52.093309081327114 ], [ 5.17606603441998, 52.093434521276464 ], [ 5.176101972993997, 52.093957794843874 ], [ 5.176618703128737, 52.093830296025345 ], [ 5.176607856137341, 52.09339435061294 ], [ 5.176792152909007, 52.093258552875277 ], [ 5.180577044906695, 52.093032710591871 ], [ 5.180787722924108, 52.094444678173993 ], [ 5.182613165584526, 52.094229276958075 ], [ 5.184711157097417, 52.093001869555586 ], [ 5.186108052931473, 52.092830283817754 ], [ 5.189672235900771, 52.086277025416294 ], [ 5.190294702170865, 52.086076231489088 ], [ 5.192685603887687, 52.085994112842698 ], [ 5.19502307371256, 52.077452268406077 ], [ 5.192599756056239, 52.07797306490118 ], [ 5.190525536725247, 52.077450646161722 ], [ 5.188656810365361, 52.07733893623783 ], [ 5.187436029669766, 52.077011267781153 ], [ 5.184207183806059, 52.076932917923465 ], [ 5.181510744172554, 52.076293888772049 ], [ 5.1793194097655, 52.077998491493538 ], [ 5.174315931529782, 52.078343881744217 ], [ 5.173987078672432, 52.078239903840284 ], [ 5.173523389485931, 52.078575639781327 ], [ 5.171607410148476, 52.078774978070292 ], [ 5.1669222864313, 52.076793264464669 ], [ 5.163300461505159, 52.078215128850772 ], [ 5.162450545687909, 52.078694607030947 ], [ 5.162073874219149, 52.07901860590394 ], [ 5.161677029131336, 52.079940115980847 ], [ 5.160767444658934, 52.080650197672199 ], [ 5.160137020189064, 52.080386502631903 ], [ 5.16008780202363, 52.079486047276049 ], [ 5.160486376007031, 52.078602834071361 ], [ 5.160354318572626, 52.077838117810735 ], [ 5.159874212437302, 52.077349349696341 ], [ 5.159704314426095, 52.076804900094487 ], [ 5.159051426136901, 52.076468351998031 ], [ 5.158608502270623, 52.076011747160514 ], [ 5.157208413957131, 52.073513805375391 ], [ 5.156154702611219, 52.072668298711896 ], [ 5.155562597496326, 52.07146950078242 ], [ 5.15572272275218, 52.070390919782746 ], [ 5.156453470054802, 52.068845329559814 ], [ 5.157799131313254, 52.067858978927809 ], [ 5.159354389220679, 52.067201894460723 ], [ 5.158200382886073, 52.06522020927104 ], [ 5.158828486221025, 52.0649391561941 ], [ 5.156792297490825, 52.063444877570909 ], [ 5.157641710517896, 52.058408753597135 ], [ 5.151022624884678, 52.056238034498541 ], [ 5.149390685178028, 52.055328899594414 ], [ 5.146405034075346, 52.052874775404483 ], [ 5.145722694464668, 52.052663170939447 ], [ 5.144215782605061, 52.052753055391904 ], [ 5.144515305014257, 52.054157029838883 ], [ 5.144357028892058, 52.054456105717215 ], [ 5.144352567739809, 52.055563943134779 ], [ 5.141074471957316, 52.055213029865506 ], [ 5.138383280873216, 52.054381960088449 ], [ 5.137881705024752, 52.053704523343889 ], [ 5.13188100030621, 52.054501456615448 ], [ 5.131825707999077, 52.054842942644676 ], [ 5.130335164633085, 52.055042759717274 ], [ 5.130403013750751, 52.055496669559375 ], [ 5.128551757658424, 52.055735625108234 ], [ 5.124757498828737, 52.056691827534522 ], [ 5.122890876681388, 52.057611874642532 ], [ 5.122918599602036, 52.057848207388538 ], [ 5.121773304265639, 52.058527302972649 ], [ 5.12127360119349, 52.058591594028414 ], [ 5.120991848277626, 52.058095166610599 ], [ 5.120243805037384, 52.058095177972781 ], [ 5.119600775243116, 52.056936606983321 ], [ 5.118031064218251, 52.057275482425133 ], [ 5.117863232750786, 52.057149743074611 ], [ 5.1172299622263, 52.057254460955029 ], [ 5.11652118149428, 52.057616265977863 ], [ 5.115269401335221, 52.057896129594681 ], [ 5.114944392408135, 52.057903955541981 ], [ 5.114598665801013, 52.057671002781149 ], [ 5.114629571065231, 52.057521227006504 ], [ 5.114313362963043, 52.057520838839302 ], [ 5.113320521167276, 52.057768341162614 ], [ 5.113301902747964, 52.057981417773874 ], [ 5.111252816053244, 52.058423204287159 ], [ 5.110293028350195, 52.057450668769718 ], [ 5.109267941537722, 52.055468333726701 ], [ 5.109128197644687, 52.054494906759807 ], [ 5.108324275237924, 52.052046589284842 ], [ 5.107290959546643, 52.050138338787569 ], [ 5.106202005168003, 52.050355427515449 ], [ 5.104456927414335, 52.050049897859388 ], [ 5.104114881164986, 52.050778202801268 ], [ 5.103842790530362, 52.050950779914523 ], [ 5.103320669954743, 52.052696058575648 ], [ 5.102167092857286, 52.054322090506233 ], [ 5.097386616942314, 52.059574369870745 ], [ 5.095232186414028, 52.058843626924869 ], [ 5.094133901524173, 52.058854345387971 ], [ 5.092518178533687, 52.05929560208785 ], [ 5.090720151207281, 52.060584985012923 ], [ 5.089403589660787, 52.060924419086007 ], [ 5.086056935973598, 52.061213660479879 ], [ 5.085613917761656, 52.061028889915875 ], [ 5.085473445376285, 52.06129363326869 ], [ 5.081592604964722, 52.061337548254699 ], [ 5.077625572855114, 52.062136142381036 ], [ 5.075532788274485, 52.062334321534209 ], [ 5.072607029954662, 52.062277854935502 ], [ 5.070492888679446, 52.061962911754769 ], [ 5.069312095403731, 52.061237962538662 ], [ 5.068203369180966, 52.059231469645546 ], [ 5.067848460111942, 52.059224529159572 ], [ 5.067047807075207, 52.057325141939558 ], [ 5.06657451447207, 52.056767200808416 ], [ 5.066029587414612, 52.05536878651673 ], [ 5.06522820155695, 52.055464165044725 ], [ 5.064301922268113, 52.052748411406242 ], [ 5.064056927056948, 52.051381557161477 ], [ 5.063783507169875, 52.044486395750077 ], [ 5.063465729107921, 52.043268923271384 ], [ 5.063627136388081, 52.043159032453033 ], [ 5.063545627954048, 52.041604829190092 ], [ 5.063244835991876, 52.040974129876226 ], [ 5.063475953118513, 52.040551090065527 ], [ 5.063470343483734, 52.038077106992382 ], [ 5.06311399104225, 52.029820940186447 ], [ 5.06242228458625, 52.029018942337046 ], [ 5.06242513237264, 52.028552307786391 ], [ 5.063038079714334, 52.027845843581808 ], [ 5.062997851014421, 52.026954472319815 ], [ 5.061986667064293, 52.026817312303336 ], [ 5.061030741533212, 52.026398590677267 ], [ 5.055040774889963, 52.028923047072695 ], [ 5.055381141350141, 52.029829221463537 ], [ 5.051984213426945, 52.030987784867762 ], [ 5.051520055045417, 52.030172999747954 ], [ 5.049559430685541, 52.031281369979311 ], [ 5.04568362156032, 52.034811991140259 ], [ 5.043949518131512, 52.036619820757309 ], [ 5.039561718850464, 52.042873931635533 ], [ 5.038130544034333, 52.044229844068944 ], [ 5.036955299681654, 52.045189051977005 ], [ 5.035519297866307, 52.045860713152507 ], [ 5.0331861782757, 52.047606693294114 ], [ 5.028522141935983, 52.050693976036968 ], [ 5.027772748908883, 52.051699861435154 ], [ 5.028459873913295, 52.052498292562035 ], [ 5.028301983754986, 52.053818008270007 ], [ 5.028163943060575, 52.054139489565848 ], [ 5.027078590009881, 52.054706459870864 ], [ 5.027185256552547, 52.055471037838721 ], [ 5.026521510645258, 52.055807349084972 ], [ 5.025790924339162, 52.055950375995131 ], [ 5.022979111760579, 52.055716840551192 ], [ 5.021924768930325, 52.055845015172878 ], [ 5.02120534143361, 52.056315109447439 ], [ 5.017561412024797, 52.060992674075074 ], [ 5.017178643059808, 52.061210181966594 ], [ 5.018086318185182, 52.06215376346843 ], [ 5.01806716024422, 52.062301377969028 ], [ 5.012451386141656, 52.063488955393957 ], [ 5.009780859366328, 52.064219968050757 ], [ 4.999612706070503, 52.066200035565188 ], [ 5.001724290427578, 52.078172813465876 ], [ 5.003328697864389, 52.077939588164384 ], [ 5.004448499943277, 52.084424158990046 ], [ 5.003781579354055, 52.084576062096545 ], [ 5.003878149771777, 52.085824121065222 ], [ 5.004428385989679, 52.087479853825627 ], [ 5.00406624063799, 52.087713552850929 ], [ 5.004293498074045, 52.088106887469657 ], [ 5.004927166138593, 52.088245968751941 ], [ 5.004333173549611, 52.088571738368799 ], [ 5.004374274401364, 52.08886853556411 ], [ 4.994044624437135, 52.090681739943648 ], [ 4.993713696901134, 52.09203385670093 ], [ 4.992623437320437, 52.094897333317363 ], [ 4.99187246779279, 52.094873471365005 ], [ 4.989369510095373, 52.100845892540598 ], [ 4.975615945784426, 52.099933612233187 ], [ 4.973501549489105, 52.101309290096523 ], [ 4.9730602703591, 52.101925919347892 ], [ 4.97301966913705, 52.102409189175944 ], [ 4.973240298536742, 52.102874976607254 ], [ 4.97406734380662, 52.103645492633888 ], [ 4.975302124050763, 52.104435451802019 ], [ 4.975710454351704, 52.104969844328707 ], [ 4.976039227321767, 52.106279100937385 ], [ 4.976169255768923, 52.107753301714069 ], [ 4.976563090022515, 52.107988427545095 ], [ 4.978754951597839, 52.10800391305262 ], [ 4.979295581364132, 52.108249089369551 ], [ 4.979704679326125, 52.108662118248759 ], [ 4.979922604828425, 52.10908503550737 ], [ 4.979952389739226, 52.109792534978702 ], [ 4.979660328215878, 52.111480571124368 ], [ 4.980327839222387, 52.112224780063954 ], [ 4.980166230082881, 52.112432585901615 ], [ 4.97849573534593, 52.113252722914368 ], [ 4.97822162328445, 52.112965162912325 ], [ 4.970703034593119, 52.12195678074054 ], [ 4.96990861421138, 52.122733291854345 ], [ 4.971704753560308, 52.126092019779385 ], [ 4.972127863871897, 52.126120940470933 ], [ 4.974006146077683, 52.129588089089332 ], [ 4.984394544063091, 52.132048682246477 ], [ 4.985129897863623, 52.132069437755796 ], [ 4.986442175515781, 52.135164696170733 ], [ 4.993573616589493, 52.13820869175121 ], [ 5.007980302804545, 52.143927520818927 ], [ 5.004751155920528, 52.142495547738399 ], [ 5.006398197265884, 52.139887487468137 ], [ 5.004596309722197, 52.138901516779782 ], [ 5.005105992289391, 52.138325249733249 ], [ 5.006357535582314, 52.138633318230404 ], [ 5.006561430738753, 52.138497353299407 ], [ 5.007162569034234, 52.138779747273453 ], [ 5.00791351110469, 52.137707352599776 ], [ 5.007692224757432, 52.137481915033341 ], [ 5.008491754883275, 52.136864282875756 ], [ 5.012220781907009, 52.131603153267434 ], [ 5.01102572103242, 52.130601117966989 ], [ 5.013524933419895, 52.128434475401448 ], [ 5.013140662132702, 52.128210083269522 ], [ 5.013149732221638, 52.128031024857144 ], [ 5.014746433509687, 52.126794410389607 ], [ 5.015442821056873, 52.127135477760426 ], [ 5.016130552780592, 52.126733166957031 ], [ 5.016041955012341, 52.126507657872594 ], [ 5.016321036427797, 52.12661253877922 ], [ 5.017182846264633, 52.126060568065434 ], [ 5.016946738630531, 52.125787258590165 ], [ 5.017738926795444, 52.125138339159278 ], [ 5.019516426156177, 52.125113512038922 ], [ 5.020699287282402, 52.124396951668878 ], [ 5.020489247537705, 52.124188289455503 ], [ 5.020721006569625, 52.123915573643238 ], [ 5.02265885372948, 52.122680284089128 ], [ 5.023512137106712, 52.123113887014682 ], [ 5.026485456487723, 52.121311567284231 ], [ 5.026707124614968, 52.12089741124268 ], [ 5.028711334354493, 52.119884466562333 ], [ 5.02934991452263, 52.119811473442617 ], [ 5.0307654842228, 52.119091961242759 ], [ 5.031293504858233, 52.119672691641874 ], [ 5.033745690013244, 52.119095551328748 ], [ 5.034047450197525, 52.119198483146455 ], [ 5.03459222201966, 52.119768197867607 ], [ 5.03558624913601, 52.11981696024953 ], [ 5.038137129216894, 52.123248037066695 ], [ 5.041471939674352, 52.126563575550065 ], [ 5.04307934165014, 52.127901716112433 ], [ 5.044873606799568, 52.128806893385722 ], [ 5.044850346940424, 52.128986743583745 ], [ 5.045122764949564, 52.128913435388313 ], [ 5.046635686248726, 52.129780243537503 ], [ 5.047038929525322, 52.129633361372072 ], [ 5.047557984149922, 52.129863525956118 ], [ 5.049822585624491, 52.128902827058454 ], [ 5.061210344111897, 52.122461949227606 ], [ 5.065766916737198, 52.125162788880651 ], [ 5.06569884463729, 52.12539401127912 ], [ 5.066835218745094, 52.126040823290978 ], [ 5.069054016753205, 52.127089746476322 ], [ 5.070058754004339, 52.127398039140814 ], [ 5.071339791631574, 52.126542111874571 ], [ 5.07260474903316, 52.125381020583987 ], [ 5.07556418626096, 52.127127955364038 ], [ 5.076206157757544, 52.126961229327414 ], [ 5.087181426113384, 52.135555366120769 ], [ 5.101075886592565, 52.129744988253783 ], [ 5.10186327100907, 52.130256464578025 ], [ 5.103448483149035, 52.129762389940673 ], [ 5.107110611954849, 52.133093864040418 ] ] ] } }
]
}
