{
"type": "FeatureCollection",
"name": "SWVPO2507",
"crs": { "type": "name", "properties": { "name": "urn:ogc:def:crs:OGC:1.3:CRS84" } },
"features": [
{ "type": "Feature", "properties": { "PO SWV": "PO2507", "strokeColor": "#A9A9A9", "strokeWidth": 2, "fillColor": "#ADD8E6" }, "geometry": { "type": "MultiPolygon", "coordinates": [ [ [ [ 5.709982786822875, 51.895592680916018 ], [ 5.712210098485685, 51.895080167782872 ], [ 5.714974545741567, 51.893865252416013 ], [ 5.71562334674663, 51.893285659118256 ], [ 5.720813504155642, 51.893041064343123 ], [ 5.727156060389722, 51.891378948991459 ], [ 5.725813937383315, 51.888695906139077 ], [ 5.72540614692537, 51.887458713548725 ], [ 5.72618842700223, 51.887247154835521 ], [ 5.730999814123773, 51.886232372562631 ], [ 5.73701796284866, 51.885458985511136 ], [ 5.738705110901452, 51.889228381770977 ], [ 5.740456338662068, 51.889242375938899 ], [ 5.742081433850032, 51.889758326490082 ], [ 5.743233200622727, 51.889763553923231 ], [ 5.747255682762665, 51.888827537558257 ], [ 5.747808761641335, 51.888547299599381 ], [ 5.748146676037882, 51.887997404883329 ], [ 5.748450439301841, 51.88784358052196 ], [ 5.748090877253603, 51.885995417402562 ], [ 5.747336502092702, 51.884300876755866 ], [ 5.752957361488966, 51.883267841779336 ], [ 5.761060422935609, 51.881215941170332 ], [ 5.769895993045926, 51.879293357369257 ], [ 5.780021657392044, 51.877884578447365 ], [ 5.789056107512756, 51.877081396439337 ], [ 5.792753046635658, 51.876601007662579 ], [ 5.800326909165576, 51.875485122106447 ], [ 5.804410409780891, 51.874555388745733 ], [ 5.81034108260424, 51.872868819225111 ], [ 5.815886946128683, 51.870900849204396 ], [ 5.8210573707014, 51.868620158174856 ], [ 5.831425178860971, 51.863461451107632 ], [ 5.835688776532018, 51.866710293594871 ], [ 5.83602099692535, 51.866661599979359 ], [ 5.838886936643754, 51.865142305989053 ], [ 5.839390924972279, 51.865527887307778 ], [ 5.838284758005114, 51.865547071916509 ], [ 5.83725623785978, 51.866619696404058 ], [ 5.835167400730388, 51.867440633535622 ], [ 5.835366452530491, 51.869190530035645 ], [ 5.836662561456849, 51.869401303009155 ], [ 5.836975330002764, 51.869626571355965 ], [ 5.836767649743203, 51.870750026671274 ], [ 5.832348745495421, 51.873491774240648 ], [ 5.833947239989046, 51.87563379254253 ], [ 5.834994165661441, 51.877568615248812 ], [ 5.832778941222961, 51.878341203276968 ], [ 5.832725044728035, 51.878481874610529 ], [ 5.835901792287613, 51.881489395142033 ], [ 5.837625382187642, 51.883400021403034 ], [ 5.836561036038078, 51.88369314484634 ], [ 5.835777791973204, 51.885987058534681 ], [ 5.836052183531261, 51.887577531056088 ], [ 5.835186421166743, 51.889244800193623 ], [ 5.835687091702695, 51.889667133415031 ], [ 5.835136516187437, 51.890394006479816 ], [ 5.83529483886499, 51.890639995569487 ], [ 5.837462261921492, 51.890899214345261 ], [ 5.837742059353072, 51.890815451817019 ], [ 5.838390083910327, 51.890114032378307 ], [ 5.8371408023516, 51.892475782188257 ], [ 5.836687405250204, 51.89283916633218 ], [ 5.83677340065045, 51.895346323841046 ], [ 5.839132551757989, 51.895435178619287 ], [ 5.83979913308762, 51.895124706461189 ], [ 5.840057635413555, 51.895178872842628 ], [ 5.841058820412131, 51.894677044329462 ], [ 5.842096254510118, 51.894506486892311 ], [ 5.845394528867021, 51.894577248115205 ], [ 5.845627708309109, 51.894880438996218 ], [ 5.847028656559569, 51.894911196210671 ], [ 5.847444099168195, 51.894229532902486 ], [ 5.852774607724303, 51.894369339756466 ], [ 5.857143569212812, 51.894718897799208 ], [ 5.857719506084269, 51.888494127796612 ], [ 5.85931068701043, 51.888674784094746 ], [ 5.861027458342737, 51.888471057588106 ], [ 5.861240229923689, 51.888748946267405 ], [ 5.861738688245093, 51.888870875115259 ], [ 5.864451576584798, 51.888728442953543 ], [ 5.865422586228044, 51.889047899558761 ], [ 5.865733803056792, 51.888838459561171 ], [ 5.865647744233248, 51.888529731389006 ], [ 5.867656729659014, 51.888354944777156 ], [ 5.869255973563223, 51.888372397171835 ], [ 5.871484038159433, 51.888752365764745 ], [ 5.872102916633383, 51.88738327852392 ], [ 5.872915717286276, 51.887459301183 ], [ 5.875117569888036, 51.882208576594252 ], [ 5.87587478020228, 51.880907518738958 ], [ 5.876168189953765, 51.87671522907673 ], [ 5.877116911109922, 51.876590353627684 ], [ 5.877670975870403, 51.87481543704255 ], [ 5.87844984270736, 51.873580389363084 ], [ 5.879158110439708, 51.87191569535203 ], [ 5.87987363336942, 51.869473097327223 ], [ 5.881396015173981, 51.868071165190145 ], [ 5.881884554295771, 51.86785098271293 ], [ 5.881995294849396, 51.867669092162139 ], [ 5.881825568055868, 51.867347217944157 ], [ 5.883025353148704, 51.866793172989766 ], [ 5.882934007746051, 51.866364461825526 ], [ 5.884362369465021, 51.86709656658666 ], [ 5.886762653665121, 51.865332029468284 ], [ 5.888368746948353, 51.86654815922499 ], [ 5.892305516115285, 51.86894650217257 ], [ 5.895931529184123, 51.870626817303062 ], [ 5.903589091479668, 51.872638914583654 ], [ 5.909105605943329, 51.873739092676978 ], [ 5.914459847669019, 51.874322057439677 ], [ 5.921036945897272, 51.874750466013843 ], [ 5.923645460161193, 51.874722404473651 ], [ 5.93220754860211, 51.873651810823461 ], [ 5.934999414610085, 51.872733306506198 ], [ 5.937361711134999, 51.871499758109358 ], [ 5.941649467446074, 51.868345147930015 ], [ 5.945392453888183, 51.865240999504309 ], [ 5.951325726684797, 51.859674054973397 ], [ 5.95298771189043, 51.858443872088742 ], [ 5.955362138745816, 51.856995276581905 ], [ 5.955354259268942, 51.856852999450318 ], [ 5.953708103409241, 51.855668913222644 ], [ 5.954955719497185, 51.854828975778986 ], [ 5.957217794519678, 51.853688604641597 ], [ 5.961082357701865, 51.85239181299233 ], [ 5.962330096479614, 51.851788484283354 ], [ 5.964707648246906, 51.850960866428046 ], [ 5.97160470254704, 51.84974442308512 ], [ 5.974014167685405, 51.855847958383819 ], [ 5.976168276901785, 51.856522333290222 ], [ 5.977694475087266, 51.857313407142733 ], [ 5.980995118609776, 51.859894727927575 ], [ 5.981925734141361, 51.860981444047503 ], [ 5.982908201556405, 51.862653102192866 ], [ 5.984641382141272, 51.866342258305167 ], [ 5.986019894743916, 51.868290649843658 ], [ 5.989723543268956, 51.872722903754884 ], [ 5.994964500825254, 51.876729453157921 ], [ 5.999667881239066, 51.879424830370098 ], [ 6.00193144706425, 51.880352779203477 ], [ 6.006040722134708, 51.88135658514782 ], [ 6.009279484635968, 51.881703111043635 ], [ 6.012188134928294, 51.881771971183333 ], [ 6.014602691674605, 51.881523412299025 ], [ 6.016944655420987, 51.88108168014692 ], [ 6.021973740582466, 51.879385445286331 ], [ 6.031153279153446, 51.874728515090929 ], [ 6.035606703809633, 51.873102955365361 ], [ 6.040830342429046, 51.871661590562915 ], [ 6.046275518148446, 51.87101683566182 ], [ 6.053822442336849, 51.869432584101119 ], [ 6.058153037857494, 51.867824993173585 ], [ 6.063556466575817, 51.865521733963121 ], [ 6.062006707141954, 51.862242733375169 ], [ 6.061723033463831, 51.861123530097736 ], [ 6.060510893660394, 51.861184447655084 ], [ 6.059655742886491, 51.85754732082664 ], [ 6.054363657550467, 51.857305544187945 ], [ 6.051611889669736, 51.856620933968557 ], [ 6.055443560036396, 51.852617032947535 ], [ 6.055366066040157, 51.852275242431872 ], [ 6.049424361127588, 51.850049728477366 ], [ 6.042452406870455, 51.847098222307402 ], [ 6.041731171382876, 51.846923508674692 ], [ 6.038110827384846, 51.844549390424582 ], [ 6.037012100198225, 51.844023526614919 ], [ 6.035706260107683, 51.842544653970542 ], [ 6.034504191314915, 51.842837552745372 ], [ 6.033504543196509, 51.843290030520293 ], [ 6.032649510981658, 51.842257033264033 ], [ 6.029113322504499, 51.845005124200561 ], [ 6.022751366923642, 51.842717141116765 ], [ 6.020313740558277, 51.841569661684389 ], [ 6.018316853037647, 51.841568551622707 ], [ 6.017654998060541, 51.841373386816635 ], [ 6.017236623317346, 51.841043066681387 ], [ 6.016848861685419, 51.840319573530522 ], [ 6.016354327129219, 51.838629374651539 ], [ 6.015893715124917, 51.837951058864192 ], [ 6.01018142710878, 51.835035094214867 ], [ 6.005712939310479, 51.833900830648275 ], [ 6.002279228003675, 51.832393091857604 ], [ 5.998909789531547, 51.831876672516373 ], [ 5.99662939577127, 51.831177084583665 ], [ 5.994436042968716, 51.830815611360002 ], [ 5.98672756415282, 51.830570365452019 ], [ 5.982886535558959, 51.831552175252384 ], [ 5.978654693004286, 51.832227439718437 ], [ 5.976197393606476, 51.832897292162563 ], [ 5.973347426824222, 51.833272603325582 ], [ 5.971085285850847, 51.833248225935662 ], [ 5.968055694805609, 51.83429877423778 ], [ 5.962987061256618, 51.836797181759032 ], [ 5.945673741439746, 51.824275011178237 ], [ 5.945887896019744, 51.82403864846421 ], [ 5.945235927752567, 51.823558765660174 ], [ 5.958248285777971, 51.81695359106164 ], [ 5.955719015699832, 51.815379038284455 ], [ 5.954793288033814, 51.815793443025186 ], [ 5.952848435805264, 51.814689618058424 ], [ 5.950674801865904, 51.81611376821327 ], [ 5.949619358710216, 51.815345404560972 ], [ 5.948092846103857, 51.8163399733495 ], [ 5.946097933314388, 51.815099499221219 ], [ 5.947120064573667, 51.8144241462753 ], [ 5.946689567343054, 51.813835239297696 ], [ 5.946673182568458, 51.813537099003597 ], [ 5.948312191618131, 51.812629193600856 ], [ 5.948774838686645, 51.812891776026945 ], [ 5.949504643353161, 51.81249921356217 ], [ 5.949261213735884, 51.812024649958147 ], [ 5.948459282723918, 51.8112716626935 ], [ 5.950951986139246, 51.810680104754546 ], [ 5.956581334662602, 51.810133805327958 ], [ 5.957565652794917, 51.809264029763483 ], [ 5.959022336509699, 51.808876749066634 ], [ 5.963118002811957, 51.807151346696315 ], [ 5.965421498028435, 51.805905407394327 ], [ 5.965828109498124, 51.805673384480855 ], [ 5.966186023925432, 51.80509972042308 ], [ 5.966938266065633, 51.80449617029651 ], [ 5.967389392515387, 51.804614357350232 ], [ 5.967550453278886, 51.804203650403572 ], [ 5.96802913795111, 51.803780309233623 ], [ 5.971350921633857, 51.801916615339337 ], [ 5.971955989165797, 51.801336170090302 ], [ 5.97415290484477, 51.800175196502792 ], [ 5.975687289225162, 51.799129684285994 ], [ 5.977229816965744, 51.798724793917458 ], [ 5.979139154307608, 51.797718123504168 ], [ 5.979105172765072, 51.797558941223393 ], [ 5.97459138642917, 51.795599647629579 ], [ 5.974870791883068, 51.795383371191065 ], [ 5.974810065678088, 51.795227672041968 ], [ 5.976882087477688, 51.794277617724184 ], [ 5.972807384147307, 51.789616241802776 ], [ 5.975163734627996, 51.788824000471841 ], [ 5.974097705491134, 51.788395596720491 ], [ 5.974620531862889, 51.786064955019029 ], [ 5.974645205056465, 51.785180155443783 ], [ 5.97955188522503, 51.786076223915124 ], [ 5.980921199781388, 51.785608403360847 ], [ 5.981810010927726, 51.7842558518552 ], [ 5.984688733278699, 51.785156628410149 ], [ 5.984882640486712, 51.78449544565904 ], [ 5.98788923424734, 51.782999716158081 ], [ 5.989728353185538, 51.783821851124422 ], [ 5.990290070646311, 51.783478683860963 ], [ 5.990488534263049, 51.783118637278179 ], [ 5.983592888105099, 51.778709798238999 ], [ 5.984641095470375, 51.777769348262296 ], [ 5.98379850321915, 51.775618703921495 ], [ 5.984110521341708, 51.775303874350698 ], [ 5.982545845840438, 51.773743003354561 ], [ 5.986845785009575, 51.772316615219687 ], [ 5.990759600945628, 51.769795152639674 ], [ 5.992036864158492, 51.770341268320664 ], [ 5.992166207879728, 51.770258246517322 ], [ 5.990565711491218, 51.7662009836571 ], [ 5.979259340194542, 51.759965867991944 ], [ 5.978300901903297, 51.759610605238258 ], [ 5.976595470041397, 51.759598348541275 ], [ 5.974952802679502, 51.758937876861644 ], [ 5.974105743886793, 51.759149956406155 ], [ 5.958370672360219, 51.751366908631901 ], [ 5.956838703226178, 51.751829625179646 ], [ 5.952177268975914, 51.74894949536089 ], [ 5.953036111873541, 51.748423276674131 ], [ 5.953238941030682, 51.748239801710923 ], [ 5.953310346629235, 51.748157776246146 ], [ 5.953367831376285, 51.748084127294163 ], [ 5.953204096013732, 51.748078726941777 ], [ 5.952197982005925, 51.746151656228108 ], [ 5.952372724063041, 51.744622508198361 ], [ 5.951022204179326, 51.744297812802181 ], [ 5.950705862796326, 51.744425373616565 ], [ 5.947059474347848, 51.742786567337951 ], [ 5.943945877315861, 51.741915703413454 ], [ 5.941018201989933, 51.741628026322076 ], [ 5.939515426255298, 51.741914489646817 ], [ 5.937052854466, 51.741583420507574 ], [ 5.935892300806144, 51.741129504833985 ], [ 5.935276793429944, 51.741222893391274 ], [ 5.934518138291415, 51.742052820800396 ], [ 5.93285238580825, 51.742019943031913 ], [ 5.932327362532406, 51.743002585425145 ], [ 5.932373365247509, 51.743278699200147 ], [ 5.931832400761449, 51.743172075078945 ], [ 5.931677416199659, 51.743373594995234 ], [ 5.931924080274101, 51.743473591499715 ], [ 5.931913728158907, 51.743619191489273 ], [ 5.930059958789425, 51.744489853066064 ], [ 5.930286425864431, 51.745836446946115 ], [ 5.930804654067596, 51.746458550254637 ], [ 5.933382366707052, 51.748017935230088 ], [ 5.933385441230996, 51.748176892048569 ], [ 5.915348581633755, 51.752374614398569 ], [ 5.913429764037608, 51.755542329966175 ], [ 5.913485903597177, 51.759038704885135 ], [ 5.911184793602038, 51.762476879773125 ], [ 5.90762510957228, 51.76431048002879 ], [ 5.905442419867749, 51.765759606605421 ], [ 5.900003400413524, 51.771846748353262 ], [ 5.893470041689099, 51.777932332353835 ], [ 5.890146538020026, 51.778497478083629 ], [ 5.887326997516169, 51.778727214883631 ], [ 5.885345698377101, 51.778563202633201 ], [ 5.878267962316661, 51.777045620510677 ], [ 5.86944706024699, 51.776190570623477 ], [ 5.868815613435361, 51.775669068810615 ], [ 5.867827452995708, 51.775596370347984 ], [ 5.867355605687259, 51.7744288136346 ], [ 5.86732239797, 51.773165007806398 ], [ 5.867191182866994, 51.773094614137968 ], [ 5.867045965210442, 51.772071385039801 ], [ 5.86700420514356, 51.769677480888674 ], [ 5.867318571796124, 51.767481813435325 ], [ 5.867939850993528, 51.766195637758322 ], [ 5.867928611554524, 51.765408160459081 ], [ 5.868097623928998, 51.764809574814393 ], [ 5.868501832804077, 51.763812945194466 ], [ 5.869124239449039, 51.762862526996038 ], [ 5.868386238146398, 51.761779382818773 ], [ 5.867112258303391, 51.76058162188081 ], [ 5.866076108602863, 51.759288049541503 ], [ 5.865537248953022, 51.759139102814444 ], [ 5.865541439936395, 51.758889733399975 ], [ 5.864368845502415, 51.757682506092664 ], [ 5.869149896299334, 51.756024067853666 ], [ 5.872718157617784, 51.754267381175772 ], [ 5.876678670666908, 51.752009694731953 ], [ 5.879483583193089, 51.749847522984474 ], [ 5.880228457834603, 51.748523231783487 ], [ 5.880504034889658, 51.744323245209536 ], [ 5.881520296369098, 51.741500461594597 ], [ 5.883469782315133, 51.737527921595543 ], [ 5.883902921962891, 51.735302929173677 ], [ 5.883971361318567, 51.733950701692017 ], [ 5.885311535541008, 51.728276197956085 ], [ 5.886566611230766, 51.726192778862526 ], [ 5.887592156820341, 51.725314643102877 ], [ 5.890346628749374, 51.723575988231829 ], [ 5.893742202171179, 51.721972212094649 ], [ 5.897031773518003, 51.720790714927404 ], [ 5.899546166076751, 51.7200920731606 ], [ 5.907418481961451, 51.71840940593048 ], [ 5.911996594178659, 51.717776715358269 ], [ 5.919468860291112, 51.717571497818433 ], [ 5.928448254340632, 51.71691568827822 ], [ 5.942935826320106, 51.714348998635089 ], [ 5.94889815767711, 51.712776724685568 ], [ 5.950707563108311, 51.712110927499495 ], [ 5.95314760183757, 51.710833989210201 ], [ 5.955216577729985, 51.709237139428453 ], [ 5.955848497158547, 51.708095233284119 ], [ 5.956080448199111, 51.707228952108608 ], [ 5.956197364440741, 51.705708204431126 ], [ 5.955978926065881, 51.701142435252947 ], [ 5.956471242495178, 51.698914059735451 ], [ 5.958131495964214, 51.695228941385039 ], [ 5.959104182193156, 51.692114445212745 ], [ 5.962310557691951, 51.684540420741627 ], [ 5.963614384323063, 51.680661225351507 ], [ 5.964293650861463, 51.677357779337541 ], [ 5.964573685364779, 51.673771536602253 ], [ 5.964543089481322, 51.671982482067108 ], [ 5.96418272538697, 51.668397807499488 ], [ 5.963265529700371, 51.662346949503515 ], [ 5.963143099843633, 51.660134661339647 ], [ 5.96358005454713, 51.65625726605316 ], [ 5.96416065490491, 51.654124721519601 ], [ 5.965021354598737, 51.652196118493045 ], [ 5.966371195956276, 51.650311427993906 ], [ 5.967864220307141, 51.648790742669313 ], [ 5.972330357553333, 51.645487326393699 ], [ 5.973878879495733, 51.64452552914463 ], [ 5.97505686055326, 51.644031376788682 ], [ 5.982088020553164, 51.642425615697931 ], [ 5.985046762228174, 51.641331648830231 ], [ 5.996306363915685, 51.636630069939471 ], [ 6.001516687203437, 51.633219638038661 ], [ 6.007170094204414, 51.630128780384986 ], [ 6.0082688853175, 51.629157212335151 ], [ 6.010622410056205, 51.627519378261091 ], [ 6.01558304129288, 51.624714731528279 ], [ 6.01974409927281, 51.621969991162686 ], [ 6.020556861034701, 51.621223157907487 ], [ 6.02262734386571, 51.618711368974004 ], [ 6.023819417465875, 51.615763698309181 ], [ 6.024006644873185, 51.614374441841939 ], [ 6.024020209663857, 51.610617444351071 ], [ 6.023667128586615, 51.603237205642351 ], [ 6.023950719824637, 51.600733469933822 ], [ 6.024850047522166, 51.598027824044522 ], [ 6.026195029440636, 51.595526468925854 ], [ 6.027170169743588, 51.594230587475884 ], [ 6.028726646920438, 51.592774326891487 ], [ 6.032699904956702, 51.590058989044465 ], [ 6.035197997934457, 51.588089224538628 ], [ 6.037068953814726, 51.586188677169432 ], [ 6.03848584687624, 51.584235196357596 ], [ 6.039241740739747, 51.58280772600385 ], [ 6.039683829667695, 51.580874046074044 ], [ 6.03949455635734, 51.579747983780315 ], [ 6.037720095009909, 51.574134336616204 ], [ 6.037468099732769, 51.571241241760475 ], [ 6.037565414288946, 51.569923087607329 ], [ 6.038659286096473, 51.567465517628804 ], [ 6.040638007658102, 51.564387930176643 ], [ 6.04372858570113, 51.561352600285574 ], [ 6.046218528028655, 51.559358183274689 ], [ 6.047888785565962, 51.558469624781964 ], [ 6.046431686992761, 51.557765151823851 ], [ 6.04468542364106, 51.559124277012465 ], [ 6.042754158597337, 51.558774874417637 ], [ 6.04268615785974, 51.558650858277893 ], [ 6.042844699071749, 51.558472066428983 ], [ 6.044181566183099, 51.557504676945648 ], [ 6.042199663543364, 51.556865346067951 ], [ 6.040910004680723, 51.556730696094199 ], [ 6.040014493381224, 51.556824100589559 ], [ 6.037319902796669, 51.558248547041622 ], [ 6.035947927883987, 51.557786768241328 ], [ 6.034284814825204, 51.557590657757636 ], [ 6.033810395721338, 51.557204135540402 ], [ 6.032508388922032, 51.556897040924177 ], [ 6.033532367210766, 51.55540610201745 ], [ 6.033236992914516, 51.555044575064308 ], [ 6.033397477055371, 51.554718726704529 ], [ 6.032191810877501, 51.553600093456147 ], [ 6.03163534834293, 51.552495128739636 ], [ 6.018266112227606, 51.563418747596451 ], [ 6.004248981825704, 51.570343446493126 ], [ 5.998835320365938, 51.568854775165967 ], [ 5.993419649599194, 51.566792808992567 ], [ 5.986219781267121, 51.564770801663855 ], [ 5.976322024465974, 51.561735361024503 ], [ 5.935432382037889, 51.55369965992535 ], [ 5.906685205707234, 51.552132252330743 ], [ 5.891487223263534, 51.560302430333273 ], [ 5.83824990434112, 51.566513962463816 ], [ 5.820255134320429, 51.568766035341916 ], [ 5.800651088890819, 51.5787009592582 ], [ 5.789062884272486, 51.5933025655224 ], [ 5.788429334045303, 51.594242604968649 ], [ 5.786710062945343, 51.598303219286009 ], [ 5.758851003108997, 51.594090165825826 ], [ 5.753973194971031, 51.610452233357073 ], [ 5.753158210324562, 51.614126897654593 ], [ 5.752974639268783, 51.614305788141486 ], [ 5.751915709212724, 51.618087280538646 ], [ 5.751993706249768, 51.61828871776197 ], [ 5.751773975109173, 51.619039175847369 ], [ 5.751609800020461, 51.619134239601848 ], [ 5.749224500067567, 51.627530085720963 ], [ 5.749493562863553, 51.627713944868603 ], [ 5.748973653566714, 51.629573678468383 ], [ 5.748773803778393, 51.629687917538057 ], [ 5.748385422450914, 51.631151143565205 ], [ 5.747362676317368, 51.633451373449759 ], [ 5.747485867910852, 51.633663347211943 ], [ 5.746852461788714, 51.635536201615352 ], [ 5.746547568583103, 51.635651490519166 ], [ 5.746214646826775, 51.636679636485958 ], [ 5.740409101933384, 51.656428712203699 ], [ 5.739718465252945, 51.658181984900715 ], [ 5.737837633196495, 51.66138439946829 ], [ 5.738232608826296, 51.661626421758818 ], [ 5.738652874784555, 51.661359140305684 ], [ 5.739237166807978, 51.661601402943916 ], [ 5.73444711604794, 51.677669486196187 ], [ 5.700080589302671, 51.711473384085956 ], [ 5.703894233648345, 51.71951143371929 ], [ 5.704386871927149, 51.719788261242464 ], [ 5.705087556671868, 51.721565081462458 ], [ 5.705026868001874, 51.721830860046836 ], [ 5.705234570302154, 51.72208859214696 ], [ 5.705518288249245, 51.722391261335517 ], [ 5.707714954002021, 51.723298366658135 ], [ 5.707866596786127, 51.723746507974973 ], [ 5.708644325102448, 51.724398992653882 ], [ 5.709928992240488, 51.725902058495883 ], [ 5.712716131512292, 51.726192547797538 ], [ 5.713309514435145, 51.726424419262294 ], [ 5.713233513647973, 51.726765897438348 ], [ 5.711926886702332, 51.727745871935483 ], [ 5.709650397482515, 51.728574062371159 ], [ 5.711395924973703, 51.7294269725787 ], [ 5.715064501372242, 51.730090337852488 ], [ 5.718022391973439, 51.730986834477669 ], [ 5.718171091698862, 51.730814196961937 ], [ 5.71843401697867, 51.730882514854116 ], [ 5.718911200493616, 51.732935313441537 ], [ 5.718799207662863, 51.733025528681885 ], [ 5.709861786164851, 51.731908463939824 ], [ 5.709697025080124, 51.731925403631728 ], [ 5.709658417365072, 51.732323926855017 ], [ 5.707954374941155, 51.732077176919894 ], [ 5.70626240823548, 51.732266773307629 ], [ 5.707972906585548, 51.736661206506263 ], [ 5.702497037469763, 51.737529862193419 ], [ 5.698263300361071, 51.738575528984747 ], [ 5.699972523678135, 51.74181757477178 ], [ 5.701151792571941, 51.742095670961113 ], [ 5.701488220136508, 51.74447530133024 ], [ 5.703591633618352, 51.750454527550957 ], [ 5.703493200924942, 51.750572790473342 ], [ 5.700058037866988, 51.750568826480645 ], [ 5.702016722531343, 51.755566042033763 ], [ 5.699663033138144, 51.75532389073522 ], [ 5.694283236055623, 51.755587515471419 ], [ 5.691157862416816, 51.758724849639101 ], [ 5.691000236261623, 51.759062763215603 ], [ 5.692329179704253, 51.759391596789825 ], [ 5.694646230498382, 51.760707410110079 ], [ 5.69609520383659, 51.761259257452728 ], [ 5.699082672183141, 51.76643237006266 ], [ 5.701112203327762, 51.768670392130787 ], [ 5.702934781555692, 51.769918863833013 ], [ 5.708215003778382, 51.77246043456072 ], [ 5.711329641751679, 51.77504165147915 ], [ 5.708890109861178, 51.775526954181927 ], [ 5.706011435597712, 51.776348929427336 ], [ 5.704574587200592, 51.776960742531806 ], [ 5.702368874808723, 51.778224069749903 ], [ 5.701268416954315, 51.77911855724836 ], [ 5.700284371590199, 51.7801817947107 ], [ 5.69669874043294, 51.785411886047186 ], [ 5.694515223747411, 51.787325863413329 ], [ 5.691622866955868, 51.789107666052729 ], [ 5.690172091889704, 51.789815761091099 ], [ 5.685816876145258, 51.791289390248004 ], [ 5.681455245446186, 51.792058762489447 ], [ 5.671310707041983, 51.792695177476112 ], [ 5.668424013755729, 51.793015565478299 ], [ 5.665544085563335, 51.793728896480012 ], [ 5.664106024097112, 51.794277530455282 ], [ 5.660259538459496, 51.796312025089506 ], [ 5.657553377882956, 51.798110470989883 ], [ 5.655353200781628, 51.799907423097231 ], [ 5.651818074379794, 51.803500508280969 ], [ 5.649487244404138, 51.807083998787093 ], [ 5.645966023417237, 51.814297885973097 ], [ 5.64427654038332, 51.816116363025145 ], [ 5.643083578238764, 51.8170238238271 ], [ 5.641043792316609, 51.818132461719351 ], [ 5.638132791987038, 51.819123102217453 ], [ 5.633773214114686, 51.819763245612819 ], [ 5.630861175787238, 51.819733654274813 ], [ 5.623612308423143, 51.819241445968963 ], [ 5.619283887840222, 51.819727791117877 ], [ 5.61640433456783, 51.820698852067437 ], [ 5.607720570409161, 51.824805745850142 ], [ 5.601924183691807, 51.826975435786466 ], [ 5.596118463770368, 51.828642920359009 ], [ 5.590305026941447, 51.82970698367852 ], [ 5.585933940342918, 51.82972281754467 ], [ 5.577222609086003, 51.828307949181088 ], [ 5.57432633781191, 51.827980753967154 ], [ 5.571430703856492, 51.827850800258247 ], [ 5.56114754171207, 51.827924985076976 ], [ 5.558734975081588, 51.827717380094327 ], [ 5.556753215090623, 51.827319186505157 ], [ 5.553990875302317, 51.826283951891789 ], [ 5.551746528746358, 51.824754338160609 ], [ 5.550604234484878, 51.823451679097026 ], [ 5.548552287134871, 51.819867962827303 ], [ 5.546684284284028, 51.818281389392027 ], [ 5.543802929538958, 51.816983789426992 ], [ 5.540918843724777, 51.816407123865929 ], [ 5.539477498600174, 51.816319692444246 ], [ 5.53659324891196, 51.81650221644859 ], [ 5.535153222575151, 51.816763020424737 ], [ 5.530805582960254, 51.818017845105288 ], [ 5.527899665800219, 51.818580000930432 ], [ 5.520642511189388, 51.818876975636535 ], [ 5.517760100826744, 51.81938063127285 ], [ 5.516320814727689, 51.819837555552851 ], [ 5.514267790980012, 51.820828373249391 ], [ 5.513018320640696, 51.821721516781011 ], [ 5.509306785045199, 51.825314818191131 ], [ 5.508140156572423, 51.826222372311648 ], [ 5.505100667597915, 51.828031418833035 ], [ 5.50329663712068, 51.828854883933708 ], [ 5.498931181824904, 51.830195304779942 ], [ 5.49602108104388, 51.830703383731596 ], [ 5.49310650940524, 51.830850948579204 ], [ 5.490191578464891, 51.83061018330082 ], [ 5.487276426824278, 51.82999925283724 ], [ 5.485809988837061, 51.829501278294927 ], [ 5.484491803009915, 51.828948436987936 ], [ 5.482937681273079, 51.828050881809943 ], [ 5.48177819040994, 51.827145148164277 ], [ 5.480134296848403, 51.825333683285834 ], [ 5.479580719194262, 51.824410465982396 ], [ 5.477873528012585, 51.819021164330884 ], [ 5.476850752096193, 51.817242560354238 ], [ 5.476074849452571, 51.816354652866217 ], [ 5.474157974376501, 51.814724032687415 ], [ 5.472715190250576, 51.813858674863852 ], [ 5.469826820305205, 51.812590717370824 ], [ 5.465489133778418, 51.811456077194279 ], [ 5.461142785362944, 51.810785578296922 ], [ 5.449548380868215, 51.809777382633662 ], [ 5.445203607133101, 51.809635986645993 ], [ 5.440858262845449, 51.809736829320961 ], [ 5.436514331910281, 51.81005291757296 ], [ 5.43362152285464, 51.81043966853008 ], [ 5.427837458999115, 51.811894196535427 ], [ 5.424950422817523, 51.813085593710028 ], [ 5.423508394004053, 51.813863997094728 ], [ 5.422068071071251, 51.814829083862605 ], [ 5.420353519810479, 51.8163845787413 ], [ 5.417019062949143, 51.819981979169533 ], [ 5.415070586024926, 51.821303799932153 ], [ 5.4158170683, 51.821862161299997 ], [ 5.4163229076, 51.822637803600003 ], [ 5.4161400814, 51.823337223800003 ], [ 5.4151347367, 51.824562006299999 ], [ 5.4150983314, 51.825073414099997 ], [ 5.4130457772, 51.825939521700001 ], [ 5.4109991247, 51.827265086 ], [ 5.4094820102, 51.828531077500003 ], [ 5.4091658958, 51.828599789199998 ], [ 5.4076359052, 51.830237966699997 ], [ 5.4071450798, 51.831367724499998 ], [ 5.4070744242, 51.832699662700001 ], [ 5.4062875834, 51.832702902 ], [ 5.4061134723, 51.8329342599 ], [ 5.4057319079, 51.833701046199998 ], [ 5.4056667375, 51.8345031052 ], [ 5.4052784671, 51.834815417900003 ], [ 5.4054529285, 51.835106659899999 ], [ 5.400834603, 51.837661062199999 ], [ 5.4020617057, 51.8384218303 ], [ 5.4020984767, 51.839056172600003 ], [ 5.4016167502, 51.8391790656 ], [ 5.4001140233, 51.842230926 ], [ 5.397773096083999, 51.844520685286454 ], [ 5.400662495084653, 51.845307951796649 ], [ 5.403499729401573, 51.845808986371935 ], [ 5.405336679593084, 51.846937602063406 ], [ 5.405832686614369, 51.847823112483191 ], [ 5.406069813703842, 51.849309941742433 ], [ 5.409617539567707, 51.853603854995221 ], [ 5.409866586163382, 51.853646910035515 ], [ 5.411501355643578, 51.852622861779004 ], [ 5.415299295178392, 51.851725128698234 ], [ 5.417028513387299, 51.855410807274502 ], [ 5.417865375354289, 51.857945823626096 ], [ 5.420290655993039, 51.86238123878649 ], [ 5.423333869821677, 51.866741698992755 ], [ 5.426097672377176, 51.870048325910446 ], [ 5.430466285707518, 51.874429671771253 ], [ 5.434152723867606, 51.877558641543999 ], [ 5.440755541500832, 51.881923276001402 ], [ 5.44588100210435, 51.884556382232802 ], [ 5.450630617644446, 51.886482576861376 ], [ 5.454432397081741, 51.887582586608929 ], [ 5.458125141345652, 51.888270438915818 ], [ 5.463924729594323, 51.888909256355554 ], [ 5.47216378296847, 51.889446329282187 ], [ 5.476156325411006, 51.889524831388144 ], [ 5.482129702723117, 51.889468963267547 ], [ 5.492851206119234, 51.888981564798868 ], [ 5.497625805151045, 51.888951163662064 ], [ 5.497650751977072, 51.891699021499768 ], [ 5.497452255451778, 51.895034647417575 ], [ 5.498741873873714, 51.894853148731507 ], [ 5.503226064458648, 51.895349185296062 ], [ 5.507038713703945, 51.896392406707193 ], [ 5.507585316352081, 51.895755865891232 ], [ 5.512803868320979, 51.895281422721439 ], [ 5.51396581410183, 51.895334426344469 ], [ 5.515877872402143, 51.890742777609603 ], [ 5.520267459841674, 51.89160625244709 ], [ 5.526693435506236, 51.893202645660629 ], [ 5.53105021938859, 51.894505799205206 ], [ 5.538697089164152, 51.897256245891121 ], [ 5.5444717081423, 51.898908064322086 ], [ 5.547284043578472, 51.899525433092919 ], [ 5.55338323200636, 51.900594611068421 ], [ 5.55714001302259, 51.901064356056999 ], [ 5.560166602342682, 51.901360984500343 ], [ 5.567060277640834, 51.901703553617651 ], [ 5.573925297738433, 51.901558156502183 ], [ 5.578890124363491, 51.901102266436048 ], [ 5.587456687362485, 51.899935249373932 ], [ 5.595225446531135, 51.899213307812019 ], [ 5.599082165545557, 51.89902107138186 ], [ 5.60514723753685, 51.898937312252492 ], [ 5.613974180086255, 51.899196254882938 ], [ 5.628104863081149, 51.899304872229642 ], [ 5.634855497581379, 51.899012988547469 ], [ 5.642896770274327, 51.898331284552484 ], [ 5.656873973609506, 51.896425634830194 ], [ 5.666941320462407, 51.895571044854336 ], [ 5.675206750452788, 51.895343168146368 ], [ 5.687092926102567, 51.895572652102601 ], [ 5.692151414859026, 51.895421105053025 ], [ 5.699020881492989, 51.894694657978185 ], [ 5.706655379952573, 51.893191648027447 ], [ 5.709982786822875, 51.895592680916018 ] ], [ [ 5.882730760874189, 51.866269424481189 ], [ 5.882732865998941, 51.866268011979564 ], [ 5.882770804220471, 51.866286203805352 ], [ 5.882730760874189, 51.866269424481189 ] ] ], [ [ [ 5.953372251409652, 51.748077863745522 ], [ 5.95337321380464, 51.748076180259808 ], [ 5.953370518514784, 51.748080319399222 ], [ 5.953372251409652, 51.748077863745522 ] ] ], [ [ [ 5.953376974276652, 51.748069602190526 ], [ 5.953377808967227, 51.748067753621385 ], [ 5.95337552822213, 51.748072131725863 ], [ 5.953376974276652, 51.748069602190526 ] ] ], [ [ [ 5.953380890460121, 51.748060929113187 ], [ 5.953381574490368, 51.748058925097382 ], [ 5.95337972901268, 51.748063501342898 ], [ 5.953380890460121, 51.748060929113187 ] ] ], [ [ [ 5.507831674944929, 51.896710788858506 ], [ 5.507277879998513, 51.896608182875575 ], [ 5.506870618619088, 51.899218693738121 ], [ 5.510195526735716, 51.899595796354859 ], [ 5.511771325942608, 51.897471772346435 ], [ 5.509391403119576, 51.897232884848236 ], [ 5.507831674944929, 51.896710788858506 ] ] ] ] } }
]
}
