{
"type": "FeatureCollection",
"name": "SWVPO3010",
"crs": { "type": "name", "properties": { "name": "urn:ogc:def:crs:OGC:1.3:CRS84" } },
"features": [
{ "type": "Feature", "properties": { "PO SWV": "PO3010", "strokeColor": "#A9A9A9", "strokeWidth": 2, "fillColor": "#ADD8E6" }, "geometry": { "type": "Polygon", "coordinates": [ [ [ 4.920920146863454, 51.71135973579154 ], [ 4.917939861245873, 51.720045211243878 ], [ 4.931883239581907, 51.72203818923586 ], [ 4.938122037832509, 51.722741830557517 ], [ 4.94323124630514, 51.723075593708081 ], [ 4.949516697099758, 51.723150198005733 ], [ 4.95470777323337, 51.722992012098807 ], [ 4.960905917985425, 51.722512606629245 ], [ 4.969396017114012, 51.721308212596092 ], [ 4.9749423910577, 51.720262341862899 ], [ 4.979495698608642, 51.71927720223065 ], [ 4.988591305116432, 51.716985337831467 ], [ 4.989836307173415, 51.718924334028998 ], [ 4.989589202705053, 51.718997891343328 ], [ 4.989604415246474, 51.71914956475289 ], [ 4.99686041680596, 51.723171083663082 ], [ 4.99709773311745, 51.723149257220349 ], [ 4.996559824233753, 51.729153130708298 ], [ 4.998348937272429, 51.729448460265807 ], [ 4.997766247208184, 51.729558682783619 ], [ 4.997710933211741, 51.729724808193431 ], [ 5.000254921161872, 51.737042676966027 ], [ 4.999700887035742, 51.737193836328558 ], [ 5.000187997550022, 51.73849597957549 ], [ 4.998380683950131, 51.738813928287428 ], [ 4.998784405727558, 51.739959812828324 ], [ 4.9902459136357, 51.741252708268426 ], [ 4.991960151084381, 51.745791795548271 ], [ 4.991878557906092, 51.746013471829201 ], [ 4.990391670414555, 51.746390538693781 ], [ 4.990529869252742, 51.752049712025048 ], [ 5.008194863020966, 51.751439239548581 ], [ 5.024790621332608, 51.751521985197243 ], [ 5.023949356187961, 51.756370391310135 ], [ 5.020018090628756, 51.756435690465345 ], [ 5.01975075095294, 51.758497359307974 ], [ 5.017487371787096, 51.763986324881657 ], [ 5.017627732401633, 51.764137014213937 ], [ 5.022809144786677, 51.764640302156721 ], [ 5.022238568119191, 51.770377851891716 ], [ 5.02485920762483, 51.770433737919127 ], [ 5.025022294708434, 51.770595792966617 ], [ 5.034550197592989, 51.770789522867929 ], [ 5.042249093935705, 51.768249890043663 ], [ 5.043799341676633, 51.767872280350318 ], [ 5.045911248301548, 51.767922441965126 ], [ 5.046141938441956, 51.767786038533103 ], [ 5.050610430848519, 51.76813683793182 ], [ 5.055275457463116, 51.767897639026536 ], [ 5.058030358302591, 51.76752937719364 ], [ 5.0603279419883, 51.76702269133699 ], [ 5.061581475215427, 51.766972472872183 ], [ 5.062749395958684, 51.766626073666274 ], [ 5.063909347422609, 51.766570236960085 ], [ 5.073217936527856, 51.767125636133684 ], [ 5.072719185307185, 51.768713372668344 ], [ 5.072978417675751, 51.770547523680158 ], [ 5.081515465200352, 51.769866674470499 ], [ 5.080840452967102, 51.77327800464932 ], [ 5.081490202432742, 51.775531151982563 ], [ 5.085310491560204, 51.775408948639466 ], [ 5.08645826559273, 51.778471049658592 ], [ 5.081909752112272, 51.780622691522495 ], [ 5.08187436980762, 51.780773880395216 ], [ 5.083732818876568, 51.781859019273476 ], [ 5.085725037956021, 51.784173081282383 ], [ 5.087150326976861, 51.78518119633695 ], [ 5.088548308727724, 51.785894284733892 ], [ 5.091363689186191, 51.787013587015657 ], [ 5.092941960956432, 51.787468299861452 ], [ 5.095894225436605, 51.78774751290608 ], [ 5.098331128653069, 51.78757418526277 ], [ 5.100294158630937, 51.787249154659968 ], [ 5.104168176110703, 51.7861025180637 ], [ 5.107936588468992, 51.784318020150778 ], [ 5.11481762152447, 51.779815758010166 ], [ 5.117719816333849, 51.77824800711349 ], [ 5.128650583487811, 51.774997562996958 ], [ 5.133657217176382, 51.774220839613889 ], [ 5.13657230791718, 51.773458140866197 ], [ 5.137631634073275, 51.77299137360562 ], [ 5.138818085263751, 51.772089598259669 ], [ 5.139486010838706, 51.771157845565988 ], [ 5.139747731363147, 51.770235723100157 ], [ 5.139692798301716, 51.769276557444492 ], [ 5.138824866807544, 51.767464119209116 ], [ 5.137410315906952, 51.765664131080875 ], [ 5.136442424158244, 51.76387753056752 ], [ 5.135905525608821, 51.762100599268578 ], [ 5.135843487135501, 51.761223463427967 ], [ 5.135987399545765, 51.760347875340258 ], [ 5.136906675933389, 51.75858732518946 ], [ 5.137718136495762, 51.757704622165058 ], [ 5.139579756437795, 51.756455173569144 ], [ 5.14275264963237, 51.755302379539621 ], [ 5.142806129932294, 51.755171778224394 ], [ 5.141243995358553, 51.753072286802286 ], [ 5.140280688871427, 51.75215817164019 ], [ 5.138163752532113, 51.750640364603441 ], [ 5.133809246203756, 51.748343417176351 ], [ 5.129518390923352, 51.74674356856557 ], [ 5.127615995517644, 51.745837527169442 ], [ 5.126409255620993, 51.74495128782204 ], [ 5.125828949037616, 51.744082737382683 ], [ 5.125692140797421, 51.74322289517184 ], [ 5.126167382535299, 51.740541213922548 ], [ 5.126085588845845, 51.739635927293087 ], [ 5.126286618727492, 51.738776910743084 ], [ 5.126787295154283, 51.737923571977412 ], [ 5.128054276695924, 51.737708637949979 ], [ 5.146832158310014, 51.740737481401162 ], [ 5.158420435048003, 51.742218252460574 ], [ 5.167115939429377, 51.74311068391637 ], [ 5.174364153496558, 51.743133006273567 ], [ 5.180155376555499, 51.742782024772389 ], [ 5.185717561712011, 51.742015965975327 ], [ 5.191372711379543, 51.740841232541534 ], [ 5.194689505985719, 51.740402462299308 ], [ 5.198723349063149, 51.740513799783372 ], [ 5.206526462522961, 51.74157182962746 ], [ 5.209682054264161, 51.738788915714181 ], [ 5.210464779223446, 51.737755000662041 ], [ 5.209633876147183, 51.737314727786966 ], [ 5.210539529394651, 51.735497160888016 ], [ 5.21021260323193, 51.735338118390459 ], [ 5.21062802018042, 51.73436023378995 ], [ 5.210176955658208, 51.733976179354158 ], [ 5.216552112538979, 51.730733154072489 ], [ 5.219361065205808, 51.728270621023945 ], [ 5.221756040024766, 51.729485299506315 ], [ 5.22491304734683, 51.726762775553517 ], [ 5.227557969853224, 51.727242219536798 ], [ 5.231112068902438, 51.724145921310189 ], [ 5.231149128089095, 51.723965065697456 ], [ 5.230844068221246, 51.723876505677751 ], [ 5.23079220005417, 51.723620959057079 ], [ 5.230561104804444, 51.720955943963162 ], [ 5.228640304687581, 51.714767575456484 ], [ 5.229087399989879, 51.713287793511604 ], [ 5.228964977807183, 51.713154671774227 ], [ 5.23004157857583, 51.710680921067578 ], [ 5.231234401674223, 51.710881880098889 ], [ 5.241285205272354, 51.714047583140136 ], [ 5.236381291619837, 51.706273064382692 ], [ 5.235879858618702, 51.704734702991111 ], [ 5.237331794810749, 51.704842850917707 ], [ 5.239051090755634, 51.702130383228528 ], [ 5.240354169991365, 51.701759609553278 ], [ 5.241138735061878, 51.701143085981236 ], [ 5.247025936637453, 51.702834371266711 ], [ 5.247712699138703, 51.702124903655658 ], [ 5.248222209836233, 51.70122219946095 ], [ 5.249055704330295, 51.701302680682502 ], [ 5.250053831511697, 51.700343829824327 ], [ 5.250538099456847, 51.700662999803214 ], [ 5.251711731733269, 51.699461164344861 ], [ 5.249964450505844, 51.698152731651213 ], [ 5.249057374225105, 51.697274985816087 ], [ 5.249015296374278, 51.695461693215108 ], [ 5.248390669235417, 51.694762729766595 ], [ 5.247844707684619, 51.694516279852643 ], [ 5.246503039593707, 51.694533958108686 ], [ 5.230419744816336, 51.691659301219886 ], [ 5.230357439571094, 51.69150983340618 ], [ 5.227140858481468, 51.69086843112359 ], [ 5.226579977368893, 51.690570713386059 ], [ 5.226116749133136, 51.689642501373058 ], [ 5.225842217896999, 51.683843504828808 ], [ 5.22428657237161, 51.680270968423216 ], [ 5.223259981696087, 51.673687356227383 ], [ 5.209176750031598, 51.673468655388156 ], [ 5.208494268649545, 51.673560827026932 ], [ 5.207942696258045, 51.673837860451108 ], [ 5.202377001115433, 51.670586142618589 ], [ 5.203392296774095, 51.670231856203436 ], [ 5.204653930120491, 51.670094010762277 ], [ 5.204871571713822, 51.669853359482936 ], [ 5.204786849049663, 51.669722696862934 ], [ 5.166842273415565, 51.668948760838276 ], [ 5.161818541462949, 51.663362452516203 ], [ 5.157760413762607, 51.663178805855367 ], [ 5.157052129424454, 51.657727877980115 ], [ 5.154565843651466, 51.654898047529009 ], [ 5.15712911743901, 51.6479935940161 ], [ 5.157957915711561, 51.647962054226085 ], [ 5.157973471568218, 51.647041544441599 ], [ 5.157671980280365, 51.646730194971823 ], [ 5.158137146866101, 51.646088152296379 ], [ 5.158022045051318, 51.645511784145633 ], [ 5.158793588638837, 51.643096802527147 ], [ 5.154556712822784, 51.642438039675113 ], [ 5.154112969528948, 51.642096858038322 ], [ 5.153107622289085, 51.642158946392307 ], [ 5.15298957951426, 51.642316884620996 ], [ 5.153547909572476, 51.644833401474145 ], [ 5.152466188979303, 51.644371403336159 ], [ 5.150902966158903, 51.644136739389886 ], [ 5.14880767815546, 51.639960587964055 ], [ 5.145008743892041, 51.640601787087704 ], [ 5.144946265184344, 51.64041266194365 ], [ 5.14246374629682, 51.640478855904782 ], [ 5.138021112349218, 51.640212783370806 ], [ 5.135033779700827, 51.639623727085976 ], [ 5.134224960256481, 51.639313119575696 ], [ 5.133554025563946, 51.640274686178699 ], [ 5.133033950808626, 51.639877991690838 ], [ 5.132170144820066, 51.639767944383728 ], [ 5.131995373059532, 51.639988155524442 ], [ 5.131385439442915, 51.640125039972425 ], [ 5.130893738820338, 51.639837198250753 ], [ 5.130444845554188, 51.63980857492475 ], [ 5.129250559070964, 51.640543669281975 ], [ 5.128453785049082, 51.640809148373755 ], [ 5.127689449977821, 51.640510432588989 ], [ 5.126977121585007, 51.640483460644631 ], [ 5.125760064791518, 51.640965395496252 ], [ 5.123664625200171, 51.641181368938767 ], [ 5.120362288158331, 51.64071271772638 ], [ 5.119909888970067, 51.640436880204781 ], [ 5.118410671791115, 51.640204433151723 ], [ 5.117340090882752, 51.639775703363867 ], [ 5.116631138977541, 51.639759799025569 ], [ 5.115918916873497, 51.63944905899664 ], [ 5.114871151858607, 51.639350336352088 ], [ 5.114364449672273, 51.639058268274006 ], [ 5.11504647957694, 51.637208355904789 ], [ 5.113908450143009, 51.636258717178215 ], [ 5.113765069808033, 51.636332259927485 ], [ 5.11371282372366, 51.636772506148368 ], [ 5.113860395747396, 51.637235564720122 ], [ 5.112222661901709, 51.637556771142407 ], [ 5.110749903787774, 51.637235077363805 ], [ 5.110194471044883, 51.636954388352734 ], [ 5.110708105197555, 51.636646257269433 ], [ 5.110668032003454, 51.636480738096679 ], [ 5.109959740049983, 51.63655954479399 ], [ 5.10996484124336, 51.636312946518352 ], [ 5.107655123491524, 51.636194010398327 ], [ 5.105875055724701, 51.635793831926954 ], [ 5.105287487847453, 51.635225422175147 ], [ 5.103741849903995, 51.634349810751274 ], [ 5.102897890877434, 51.63440701304517 ], [ 5.101636027433895, 51.634089967099378 ], [ 5.101457289199935, 51.63255122987313 ], [ 5.100544316433326, 51.631166927647797 ], [ 5.09840560311557, 51.628981479805006 ], [ 5.098223814874769, 51.628322452026829 ], [ 5.099943006356829, 51.627886104160915 ], [ 5.099735185501506, 51.62698301371605 ], [ 5.100268076178559, 51.62571807856623 ], [ 5.100996853606163, 51.622985379296438 ], [ 5.101314833454976, 51.620430437049954 ], [ 5.102089370538233, 51.61852871039931 ], [ 5.103053698601643, 51.61688007090757 ], [ 5.101421987334661, 51.61649842954612 ], [ 5.101322616036019, 51.616341113685152 ], [ 5.100422273187978, 51.617749972812362 ], [ 5.099268366962456, 51.617707744425232 ], [ 5.097369902128867, 51.614067666972971 ], [ 5.097192565718437, 51.614020929616238 ], [ 5.09607956016081, 51.612401131787678 ], [ 5.093782920689706, 51.6111566302027 ], [ 5.079545160703323, 51.610686850363003 ], [ 5.080246163001331, 51.609465929217514 ], [ 5.075570897747697, 51.608855469637987 ], [ 5.075629629305003, 51.605723524480005 ], [ 5.074002620614289, 51.605583534934723 ], [ 5.073958246826449, 51.609349744413983 ], [ 5.073284729223465, 51.609152477952229 ], [ 5.072094876114989, 51.608217997688286 ], [ 5.071272296696365, 51.608198705700637 ], [ 5.07082404989242, 51.611034929075196 ], [ 5.070542361929713, 51.612165525661808 ], [ 5.070095679290472, 51.613505340331777 ], [ 5.069588014064378, 51.614782228900573 ], [ 5.069209579835456, 51.615548435135331 ], [ 5.068764765620744, 51.616382976159734 ], [ 5.068106047303855, 51.617471389236648 ], [ 5.06795053974816, 51.617711252454733 ], [ 5.06937336931912, 51.615200410183306 ], [ 5.070208774320317, 51.613107458742711 ], [ 5.070813792007785, 51.610836261757449 ], [ 5.071008432025835, 51.608538602584282 ], [ 5.07083219923063, 51.608615448603324 ], [ 5.070011621522106, 51.612477042597575 ], [ 5.067586595173512, 51.612303963323107 ], [ 5.060409629852717, 51.610615451043799 ], [ 5.059321477475903, 51.611462655538475 ], [ 5.058040605382875, 51.611710627384291 ], [ 5.051639432369615, 51.612179209954114 ], [ 5.04718369927684, 51.612095975341994 ], [ 5.042503508114107, 51.611458939932177 ], [ 5.038088706371124, 51.610561193698643 ], [ 5.038178838671514, 51.610220994467845 ], [ 5.041139325315875, 51.607664147074516 ], [ 5.041374032890504, 51.606115128853588 ], [ 5.029157475705382, 51.606756856848207 ], [ 5.021421739545809, 51.606854451201549 ], [ 5.018753827907844, 51.607112816465204 ], [ 5.016255430055718, 51.606878939557532 ], [ 5.013256856874394, 51.603610888652916 ], [ 5.006666622033468, 51.60609151957307 ], [ 5.003780044112044, 51.606876260417337 ], [ 5.003949091219546, 51.607217440750617 ], [ 5.004168834615964, 51.607207251011054 ], [ 5.004393362678289, 51.607790820240943 ], [ 5.004246719038056, 51.607857389905504 ], [ 5.00309941775712, 51.610850265108866 ], [ 4.998462392751138, 51.623533509342352 ], [ 4.998199243249727, 51.623640993112424 ], [ 4.998347632334246, 51.624103872081029 ], [ 4.993451871187577, 51.637236915536661 ], [ 4.989448515615448, 51.648534114085123 ], [ 4.989275126591843, 51.64862668113301 ], [ 4.989313486697153, 51.648996837704416 ], [ 4.988504386396706, 51.651219768501939 ], [ 4.988322626489559, 51.651274445065305 ], [ 4.987164641183417, 51.65449801007243 ], [ 4.957861979487432, 51.65143811656614 ], [ 4.957721686824154, 51.652585990944331 ], [ 4.95788816695876, 51.652682862874855 ], [ 4.957833726534177, 51.653049599055755 ], [ 4.957974005933674, 51.653134338470423 ], [ 4.957781202480365, 51.653253440622393 ], [ 4.957697662942279, 51.654048836437063 ], [ 4.957695941169343, 51.657131632540938 ], [ 4.957798376380811, 51.657424541878115 ], [ 4.958266530167735, 51.657454107089841 ], [ 4.95774077645683, 51.657533360617713 ], [ 4.957665341848524, 51.659648071324071 ], [ 4.956700440050523, 51.663448458283149 ], [ 4.95639813210909, 51.663910594228298 ], [ 4.953222773609199, 51.663500333566127 ], [ 4.952342718568584, 51.666705969332028 ], [ 4.951013958069809, 51.669257169326102 ], [ 4.950219053995657, 51.670396396829574 ], [ 4.947519555659301, 51.672838618831022 ], [ 4.947025733547323, 51.673582810206248 ], [ 4.946980679493375, 51.674439905928949 ], [ 4.947881511963553, 51.676449649220885 ], [ 4.94774530328842, 51.676592226039439 ], [ 4.947474475384428, 51.676835598626049 ], [ 4.946497424287323, 51.6766521246428 ], [ 4.946221840061354, 51.677047123384085 ], [ 4.945757096467819, 51.676982230355584 ], [ 4.945065024085153, 51.677892346969685 ], [ 4.944274962105585, 51.678275349604249 ], [ 4.944159754456162, 51.678816012745671 ], [ 4.943001956215176, 51.678759156449168 ], [ 4.933094912629585, 51.676683279838862 ], [ 4.930423391988183, 51.684170165824248 ], [ 4.93015012490691, 51.684580428518231 ], [ 4.930217300493138, 51.684709977552941 ], [ 4.920920146863454, 51.71135973579154 ] ], [ [ 5.06597781191255, 51.620522989820202 ], [ 5.06587636135043, 51.620650210390856 ], [ 5.066191442907424, 51.620223403081845 ], [ 5.06597781191255, 51.620522989820202 ] ] ] } }
]
}
