{
"type": "FeatureCollection",
"name": "SWVPO2814",
"crs": { "type": "name", "properties": { "name": "urn:ogc:def:crs:OGC:1.3:CRS84" } },
"features": [
{ "type": "Feature", "properties": { "PO SWV": "PO2814", "strokeColor": "#A9A9A9", "strokeWidth": 2, "fillColor": "#ADD8E6" }, "geometry": { "type": "Polygon", "coordinates": [ [ [ 4.547303817733024, 51.988688841917892 ], [ 4.546251847661101, 51.991588932805122 ], [ 4.546496123814328, 51.991873704534434 ], [ 4.548234741219678, 51.99258546653413 ], [ 4.546913575589311, 51.993982443620034 ], [ 4.547414849144991, 51.994742222853155 ], [ 4.549820324530565, 51.995825813181945 ], [ 4.55216350737249, 52.000827559732315 ], [ 4.552009888302994, 52.001724237777672 ], [ 4.552266889642563, 52.002503362964212 ], [ 4.554241631099761, 52.005037426109439 ], [ 4.554782230869781, 52.005985698496026 ], [ 4.555740459755472, 52.009784053360903 ], [ 4.555781698159478, 52.010295468683829 ], [ 4.555567799815725, 52.011054163664483 ], [ 4.556221871491012, 52.011913866431136 ], [ 4.557009658352025, 52.013901915220281 ], [ 4.556749630416142, 52.016463165503311 ], [ 4.556500481194155, 52.017177642453724 ], [ 4.556526663879738, 52.017952957615925 ], [ 4.557268712372107, 52.020358086162631 ], [ 4.557399654813593, 52.021460312168074 ], [ 4.557312566462756, 52.023716067035188 ], [ 4.558063757984575, 52.025168795047577 ], [ 4.557977425909873, 52.02626725879648 ], [ 4.558122913163798, 52.028939492675427 ], [ 4.560058576404817, 52.033247549916979 ], [ 4.56335389788071, 52.035823251850751 ], [ 4.563173321154674, 52.038792690638097 ], [ 4.561957175241479, 52.040952566791979 ], [ 4.561466453903203, 52.040925302641043 ], [ 4.560780495104035, 52.041962256753408 ], [ 4.560683915912099, 52.04238924038993 ], [ 4.561087364941748, 52.043302286503412 ], [ 4.561886143574828, 52.046491126511924 ], [ 4.562280984735761, 52.046736390039698 ], [ 4.562927343125658, 52.048841203672033 ], [ 4.562800391120778, 52.049256800488322 ], [ 4.564893914451572, 52.058187707349234 ], [ 4.56508309520677, 52.058440723894144 ], [ 4.564945918721603, 52.058593520374949 ], [ 4.565288355767363, 52.059261291596293 ], [ 4.574406179037489, 52.060651092824905 ], [ 4.574474792374019, 52.060842215706792 ], [ 4.575515928687478, 52.061060711772086 ], [ 4.575986354379688, 52.060856720107978 ], [ 4.607326578116208, 52.065610442921489 ], [ 4.606881652633571, 52.077242688787301 ], [ 4.631488626252189, 52.076364537272688 ], [ 4.631732109137896, 52.078082375863303 ], [ 4.633755483448642, 52.078022038150841 ], [ 4.632097205446146, 52.082587764528327 ], [ 4.632185541309131, 52.082705577499773 ], [ 4.633631836668202, 52.082693231635993 ], [ 4.632057075927973, 52.087120845509283 ], [ 4.646896878650481, 52.086487344952069 ], [ 4.642587614695211, 52.09445872673507 ], [ 4.64104469612421, 52.097436857439781 ], [ 4.641111492934218, 52.097580186313671 ], [ 4.651864346857791, 52.098783329141014 ], [ 4.654040294597072, 52.099102377941023 ], [ 4.654220427742092, 52.099246024758962 ], [ 4.663436347696703, 52.098423593388468 ], [ 4.663575336032443, 52.099158727650881 ], [ 4.663810215951216, 52.099115470974766 ], [ 4.66403947882184, 52.099614770682976 ], [ 4.676972110357512, 52.09782966597826 ], [ 4.698046224506459, 52.095219037359264 ], [ 4.704895702585551, 52.094814162284926 ], [ 4.704691678012, 52.095332460433106 ], [ 4.714222704565286, 52.097429865879732 ], [ 4.712823576220871, 52.098530208828159 ], [ 4.711557426543934, 52.09911911787708 ], [ 4.710364213040882, 52.099441934810734 ], [ 4.710310348691131, 52.099633388987471 ], [ 4.710747506610962, 52.099923962739659 ], [ 4.717282093644518, 52.101674907543917 ], [ 4.718145199301345, 52.101407229472244 ], [ 4.718308936658953, 52.102389819387554 ], [ 4.719516761448388, 52.102212722985918 ], [ 4.719910493861924, 52.102445114285352 ], [ 4.721202631018162, 52.101648021690032 ], [ 4.721288488073446, 52.101470196306472 ], [ 4.720935720048558, 52.100379976311451 ], [ 4.723080361205175, 52.099381367010871 ], [ 4.73302708579709, 52.101567798222781 ], [ 4.733841989666305, 52.101415528571884 ], [ 4.733872465547293, 52.101752704768941 ], [ 4.734666354768938, 52.101948405935808 ], [ 4.734124694027718, 52.102440948686997 ], [ 4.734161693929485, 52.10259080238184 ], [ 4.740084232834282, 52.10469386980931 ], [ 4.739008961302749, 52.105998987471061 ], [ 4.738752156868398, 52.106415602656277 ], [ 4.738818547533032, 52.106599873264358 ], [ 4.750294578305973, 52.108153656396652 ], [ 4.75453833002929, 52.108907086653431 ], [ 4.759263770608942, 52.110422390917321 ], [ 4.760183383660309, 52.111942167185049 ], [ 4.760986552623139, 52.112798087353227 ], [ 4.762500603238398, 52.113806363238417 ], [ 4.766328155316382, 52.113262086409229 ], [ 4.769189046472468, 52.113409584853237 ], [ 4.769554580583678, 52.11367789087133 ], [ 4.769774432238769, 52.114651250310544 ], [ 4.770564276487318, 52.11519293784373 ], [ 4.774903758417802, 52.114944401862893 ], [ 4.775890797871376, 52.115861386470428 ], [ 4.776410160396538, 52.116081635311318 ], [ 4.778168421360421, 52.115900747435596 ], [ 4.77862171987334, 52.116026890080981 ], [ 4.779137748123585, 52.116460743461758 ], [ 4.779202969190172, 52.117507160134906 ], [ 4.779583560882008, 52.11780369302997 ], [ 4.78107849968399, 52.117953724636948 ], [ 4.78317851175933, 52.117416243211238 ], [ 4.78371252235478, 52.117464761049305 ], [ 4.783952634970743, 52.117546141246336 ], [ 4.784338666345385, 52.118042251544772 ], [ 4.783261553902407, 52.119157075897192 ], [ 4.782895149126065, 52.119785155743863 ], [ 4.783285862484179, 52.120491929345825 ], [ 4.784018109657517, 52.120855001643832 ], [ 4.785378814748459, 52.120761795314593 ], [ 4.78695648841308, 52.1201833576621 ], [ 4.788302780723664, 52.120043256880635 ], [ 4.791487644807167, 52.120440412259271 ], [ 4.791895003355899, 52.120603203701123 ], [ 4.792162648666253, 52.121383155420645 ], [ 4.791954619925753, 52.121899162737144 ], [ 4.791991017174473, 52.122332657853086 ], [ 4.792388537044139, 52.122359827431993 ], [ 4.825465107971982, 52.107139368402976 ], [ 4.825204461612196, 52.106454811999974 ], [ 4.824452121678728, 52.105325116350876 ], [ 4.823158111515603, 52.105109011271743 ], [ 4.823448503908949, 52.093365362054215 ], [ 4.823718787081309, 52.091154182582891 ], [ 4.825731500936396, 52.079858209182838 ], [ 4.826591485476268, 52.079542139415032 ], [ 4.826380397095141, 52.074747568185025 ], [ 4.830640879047228, 52.075070748408187 ], [ 4.830970447503396, 52.074464128981781 ], [ 4.833067816949517, 52.074924353338787 ], [ 4.833164581740617, 52.07468753598161 ], [ 4.832788386402886, 52.072935312345358 ], [ 4.83413481693673, 52.072746527937184 ], [ 4.830014165269731, 52.066980214692258 ], [ 4.837123346064451, 52.068522321677776 ], [ 4.842198237977707, 52.069105433965092 ], [ 4.850785770059046, 52.069217431558791 ], [ 4.856063175375295, 52.068911117978203 ], [ 4.857260114538469, 52.069097750408872 ], [ 4.86226337387045, 52.069164389181147 ], [ 4.864042929355849, 52.068658212331535 ], [ 4.863809099710737, 52.06901603294363 ], [ 4.863871257498086, 52.06914835813113 ], [ 4.865747862165994, 52.069146529061861 ], [ 4.872735876238002, 52.068952439666305 ], [ 4.873297334747132, 52.068770009101783 ], [ 4.867894701982589, 52.062960934488814 ], [ 4.864857544322304, 52.061900785525083 ], [ 4.862722205591552, 52.06146899171533 ], [ 4.855995662460503, 52.058968119907831 ], [ 4.853241438938664, 52.058492226280052 ], [ 4.848080060047293, 52.058069783389151 ], [ 4.844749629609391, 52.056699548453928 ], [ 4.844410612674634, 52.056682852236968 ], [ 4.842095900933385, 52.055456290371062 ], [ 4.829667682805016, 52.04977953030528 ], [ 4.829779621113778, 52.049407991200276 ], [ 4.818945797821338, 52.038162802500892 ], [ 4.817253705334331, 52.036851683974888 ], [ 4.811857795346136, 52.033731050928779 ], [ 4.809915610055806, 52.033334384874813 ], [ 4.806911226674134, 52.033098354423657 ], [ 4.809429600021002, 52.028421843547441 ], [ 4.809996490163877, 52.026686915844415 ], [ 4.806005650003455, 52.02502191639141 ], [ 4.805846279151921, 52.025128883062457 ], [ 4.804029284252291, 52.024381270308183 ], [ 4.804035224891069, 52.024204170417384 ], [ 4.803559324128274, 52.02400316682926 ], [ 4.803292067897091, 52.024072308422241 ], [ 4.803321410131006, 52.023792237847488 ], [ 4.799145145538388, 52.022158918786104 ], [ 4.79884452508706, 52.022223709352517 ], [ 4.80357533652812, 52.014063633071551 ], [ 4.806309786239881, 52.01425208834587 ], [ 4.813187488836966, 52.014014308028948 ], [ 4.815604202905126, 52.014080325860235 ], [ 4.817178289215136, 52.014442178581135 ], [ 4.822065857002102, 52.016240394562793 ], [ 4.823716213107977, 52.017005626669416 ], [ 4.824987299239859, 52.017336367481811 ], [ 4.82752247215979, 52.016914984683254 ], [ 4.833335763069097, 52.016523110115124 ], [ 4.840976620569732, 52.016897078515342 ], [ 4.846886519709632, 52.018281279480291 ], [ 4.847551215094985, 52.017786242662218 ], [ 4.849355148125053, 52.015298379040622 ], [ 4.853017090047641, 52.011098399275262 ], [ 4.857192833389038, 52.00588462569079 ], [ 4.85335078966976, 52.00464838895185 ], [ 4.829097520557684, 52.001162051588757 ], [ 4.818036701073466, 51.999729027226039 ], [ 4.835287758216448, 51.98621452607351 ], [ 4.835187777323558, 51.98589820864575 ], [ 4.834249364119354, 51.985587836879489 ], [ 4.845679147039167, 51.975095909065494 ], [ 4.84720378335529, 51.975345280063493 ], [ 4.847598434603323, 51.975226066745677 ], [ 4.857876250306727, 51.969092088928029 ], [ 4.859525243030914, 51.96876382132649 ], [ 4.86087853627083, 51.96785282829687 ], [ 4.861792717424821, 51.966387197586918 ], [ 4.862569331961692, 51.965465985047871 ], [ 4.864153233831027, 51.963969010912983 ], [ 4.865749074802797, 51.960507839637252 ], [ 4.870492480473215, 51.955079460434746 ], [ 4.871311795943156, 51.954689258603899 ], [ 4.876973325298935, 51.941023068837275 ], [ 4.87681290185432, 51.940893148672664 ], [ 4.877669922463843, 51.938936085897431 ], [ 4.877690243052055, 51.938129068889225 ], [ 4.875322152747899, 51.938091726213649 ], [ 4.872641772079306, 51.93839190857463 ], [ 4.859100889812269, 51.940947718625608 ], [ 4.852941155770071, 51.941541444288688 ], [ 4.847875924830774, 51.941653080591735 ], [ 4.844310211427271, 51.94114968042723 ], [ 4.837185363216104, 51.940520491692084 ], [ 4.835501557345735, 51.940159706102236 ], [ 4.832380608025484, 51.938795391829188 ], [ 4.832131496325908, 51.939951201598213 ], [ 4.832008483698416, 51.939857599081655 ], [ 4.832090204011499, 51.939337804595326 ], [ 4.829272649602196, 51.940417091780965 ], [ 4.826944633770366, 51.939870002079161 ], [ 4.826792399862216, 51.938753239121141 ], [ 4.825928467746111, 51.937186826713656 ], [ 4.824841160203301, 51.935778457263723 ], [ 4.824015672858104, 51.935032335642802 ], [ 4.82288227017713, 51.934909100708161 ], [ 4.82143577650725, 51.935023452091414 ], [ 4.817914322193219, 51.934628136747811 ], [ 4.817220776491276, 51.934423941938213 ], [ 4.816677483958432, 51.933924335325763 ], [ 4.815448429767933, 51.933337750387622 ], [ 4.814202872359378, 51.931992046005412 ], [ 4.813993581966637, 51.930441187195029 ], [ 4.813012536119975, 51.92991896039026 ], [ 4.81281284952323, 51.929643210769335 ], [ 4.813339511277848, 51.928591323060033 ], [ 4.812820947461012, 51.927360376114208 ], [ 4.814041235839463, 51.926250632437686 ], [ 4.811685246934884, 51.924820127264972 ], [ 4.808527096444281, 51.923688253761924 ], [ 4.802114986749389, 51.921914518736358 ], [ 4.793289765887543, 51.920412669587748 ], [ 4.783335622108748, 51.918002273789583 ], [ 4.779677716879201, 51.917362255509978 ], [ 4.777700779642688, 51.917172717476909 ], [ 4.777540527606679, 51.918411858870734 ], [ 4.772007303492631, 51.919097860034839 ], [ 4.76783045993857, 51.919108935058674 ], [ 4.765992550573427, 51.918882755786676 ], [ 4.762385490823689, 51.917431442581744 ], [ 4.757341170785984, 51.915751385746049 ], [ 4.756589573051267, 51.915248055921836 ], [ 4.755501890118265, 51.913987234345818 ], [ 4.753350098057346, 51.913105109988649 ], [ 4.751229981433052, 51.911971117025324 ], [ 4.750394128717397, 51.911841278425385 ], [ 4.749250154177632, 51.91193615307953 ], [ 4.748578585968389, 51.911717058296816 ], [ 4.747327889417843, 51.909811533805062 ], [ 4.744887813348766, 51.907902216762281 ], [ 4.743114809633387, 51.906877054440429 ], [ 4.743735002621494, 51.9053092866138 ], [ 4.74072954964645, 51.904258735480838 ], [ 4.737946875211862, 51.902805642189286 ], [ 4.732765301637544, 51.901606337782411 ], [ 4.721905756212712, 51.897356560642962 ], [ 4.715805246016171, 51.896049904375026 ], [ 4.705601984908547, 51.897318322264184 ], [ 4.699950309660813, 51.896687364955625 ], [ 4.692843015636, 51.89526387054287 ], [ 4.680648119581054, 51.893101167902209 ], [ 4.674135818254503, 51.890510164374625 ], [ 4.673350518417231, 51.890326377056965 ], [ 4.66816002289525, 51.889685237858664 ], [ 4.664016212973475, 51.889549118566421 ], [ 4.663546580617711, 51.88790817617874 ], [ 4.663631202611756, 51.887528593751234 ], [ 4.659357404445972, 51.888195648508166 ], [ 4.656746238555397, 51.888368432443464 ], [ 4.652965734930694, 51.887873356065491 ], [ 4.642750285468837, 51.889010845188793 ], [ 4.637858174565892, 51.889651892627683 ], [ 4.637804425243215, 51.889839493879158 ], [ 4.637124399000808, 51.889887581790511 ], [ 4.633829805918734, 51.889493466889817 ], [ 4.629968394905904, 51.888647745281105 ], [ 4.628901664282015, 51.889851240176476 ], [ 4.628271525489555, 51.889740715086091 ], [ 4.627990560125302, 51.889460500915611 ], [ 4.627842015864277, 51.889689642190298 ], [ 4.625393385004991, 51.889481587339233 ], [ 4.619572733641233, 51.889622699137149 ], [ 4.61944179476305, 51.889435831976392 ], [ 4.619043433428491, 51.88947766376193 ], [ 4.60431368284532, 51.891978877661927 ], [ 4.595846126257191, 51.893847727279088 ], [ 4.593587666165501, 51.894506812082561 ], [ 4.590750147525238, 51.895760300594993 ], [ 4.584579082994183, 51.9001706547159 ], [ 4.582977797893341, 51.90112219048806 ], [ 4.580201292238424, 51.90212460198908 ], [ 4.576307833703948, 51.902933981843212 ], [ 4.582615064583127, 51.903994451324635 ], [ 4.584169693176137, 51.903807559476547 ], [ 4.589112933461717, 51.902268534860852 ], [ 4.589197564024809, 51.902381557520727 ], [ 4.588841820509544, 51.904118856486349 ], [ 4.591493449692516, 51.905250034679426 ], [ 4.591611482047885, 51.905462735468092 ], [ 4.592130422807792, 51.905495194102642 ], [ 4.592250771964819, 51.904960208629085 ], [ 4.5924564853029, 51.904916841525932 ], [ 4.59253046220908, 51.904685777461523 ], [ 4.592366987177667, 51.90456289215193 ], [ 4.592462461264083, 51.904324137456449 ], [ 4.593061575098046, 51.904558039446499 ], [ 4.593117211491234, 51.904262277832039 ], [ 4.593518789429367, 51.904001902706852 ], [ 4.596798899562415, 51.905679577540553 ], [ 4.596815753871713, 51.905833888895501 ], [ 4.595356681153456, 51.90705619505264 ], [ 4.596629406834597, 51.907633209032184 ], [ 4.599013255953657, 51.907150916443442 ], [ 4.599093108433268, 51.906990893295351 ], [ 4.599472631168756, 51.907066186859986 ], [ 4.599801964405065, 51.906882471440021 ], [ 4.601168143606872, 51.906803736522143 ], [ 4.622206391631625, 51.908060091706844 ], [ 4.622877040967107, 51.908142338426536 ], [ 4.623108317134272, 51.908375322119369 ], [ 4.623482147156208, 51.908243376519273 ], [ 4.630771384953963, 51.909056527645689 ], [ 4.631160986657473, 51.909359243903822 ], [ 4.63177188188224, 51.909174907708447 ], [ 4.635175682800434, 51.90959766049675 ], [ 4.64322821263257, 51.912058307857713 ], [ 4.642982275383637, 51.912441220968049 ], [ 4.643105844419199, 51.912618935348917 ], [ 4.642583866782108, 51.91311491556025 ], [ 4.619288996893292, 51.929516692431477 ], [ 4.619450045856605, 51.92962603338573 ], [ 4.61925120961291, 51.92985620382418 ], [ 4.619393155665501, 51.930046483083743 ], [ 4.61784427178028, 51.93107432728619 ], [ 4.620139304298526, 51.934046956524604 ], [ 4.621433273330914, 51.935111452043031 ], [ 4.622722941223711, 51.935755141067929 ], [ 4.623798430195728, 51.936094114174111 ], [ 4.625148115268354, 51.936253822936685 ], [ 4.631314578923243, 51.936229538810231 ], [ 4.632923057682459, 51.936649795862422 ], [ 4.634301526768658, 51.937380333562764 ], [ 4.635020765764961, 51.938337929615734 ], [ 4.636904414887067, 51.943027305754214 ], [ 4.63769353763157, 51.94460346924815 ], [ 4.638503486750361, 51.947016388836509 ], [ 4.639204383668839, 51.950033890180805 ], [ 4.639595332788934, 51.950840762703137 ], [ 4.640100839902328, 51.951422953220145 ], [ 4.641227674523868, 51.952074455323455 ], [ 4.645099961520552, 51.953230869539134 ], [ 4.645870958892334, 51.953815413091256 ], [ 4.646198923956015, 51.954383147000833 ], [ 4.64620107674491, 51.955266225324351 ], [ 4.645738797642016, 51.956239721429569 ], [ 4.644158713519956, 51.95752641861727 ], [ 4.642126201286234, 51.959946135613407 ], [ 4.640526078108143, 51.959950594945113 ], [ 4.638370474828015, 51.961670002327189 ], [ 4.633848098104893, 51.964840253479757 ], [ 4.632317814648616, 51.965631910878301 ], [ 4.633015203906049, 51.966354581637994 ], [ 4.631176637295496, 51.967686244426922 ], [ 4.630938402183364, 51.968204239201448 ], [ 4.631087409145073, 51.968828121077408 ], [ 4.632327882928605, 51.969932607967039 ], [ 4.633545585206494, 51.970474652110859 ], [ 4.638245435773895, 51.971084581121957 ], [ 4.648625529651468, 51.972919580126991 ], [ 4.648633587355874, 51.973090132005723 ], [ 4.644385397309271, 51.975895389352218 ], [ 4.650626615915529, 51.978769826324957 ], [ 4.616860354871163, 51.999263394179117 ], [ 4.599108051181929, 51.9880713594086 ], [ 4.598253408843617, 51.987992954750027 ], [ 4.598296365624139, 51.988471209041805 ], [ 4.598472296419907, 51.988561689876292 ], [ 4.594328846676779, 51.994166493663592 ], [ 4.57902465641614, 51.989791334915267 ], [ 4.579832770607566, 51.988863000591309 ], [ 4.578889389212754, 51.988491406363352 ], [ 4.579750937514701, 51.987214604647761 ], [ 4.577490135374084, 51.986363041657071 ], [ 4.578640763472656, 51.984935901506859 ], [ 4.578957054982069, 51.98387186360155 ], [ 4.575753715189182, 51.983848899494049 ], [ 4.574021861256034, 51.983589989389095 ], [ 4.577362193897938, 51.980688310936323 ], [ 4.570396473916666, 51.978973255692146 ], [ 4.573561685926958, 51.974700538573892 ], [ 4.573936093084532, 51.974856045524405 ], [ 4.57430944513198, 51.974626854607628 ], [ 4.574704156869862, 51.974826908925856 ], [ 4.575141338293439, 51.974621397859806 ], [ 4.575236416561459, 51.974681656229102 ], [ 4.575047139434567, 51.974923014637518 ], [ 4.575155760340709, 51.975067755335999 ], [ 4.576450628924507, 51.975797945309843 ], [ 4.577683395101396, 51.976132780252719 ], [ 4.578050176751344, 51.975930896194072 ], [ 4.578652608252538, 51.976200434928771 ], [ 4.579071215640587, 51.975717177881883 ], [ 4.57426377043706, 51.973090063790082 ], [ 4.574412899542129, 51.97278937713989 ], [ 4.571930624212073, 51.971771160430691 ], [ 4.571569218594554, 51.972022102916469 ], [ 4.570293414293078, 51.971925155311268 ], [ 4.566939436874368, 51.971089873800565 ], [ 4.565795329584049, 51.971356266082502 ], [ 4.565367265910591, 51.971176834802804 ], [ 4.563466896252971, 51.971715851927314 ], [ 4.562878444507681, 51.971422608440434 ], [ 4.56239591530722, 51.971811117714026 ], [ 4.561631578274248, 51.971494696343392 ], [ 4.561660541100974, 51.971330090650703 ], [ 4.561317604974892, 51.971169802814806 ], [ 4.56174456415587, 51.970724163281588 ], [ 4.56129205570432, 51.970497122545602 ], [ 4.561483015530131, 51.970221153714732 ], [ 4.56087669911683, 51.970036579476215 ], [ 4.56072172302486, 51.969602331843795 ], [ 4.55824172097461, 51.969026887410834 ], [ 4.556465835807697, 51.968419664524482 ], [ 4.555621938133391, 51.967680445884803 ], [ 4.55497503056369, 51.967514911780484 ], [ 4.554636500597326, 51.9682078689886 ], [ 4.551637143165265, 51.969700771679783 ], [ 4.549553794186192, 51.970991022555161 ], [ 4.549721409927574, 51.971266379452167 ], [ 4.549590504069492, 51.971449659968329 ], [ 4.548027342804507, 51.972305315560902 ], [ 4.54776609370012, 51.972605819073195 ], [ 4.547831318028037, 51.972731429939344 ], [ 4.549472848501821, 51.973088861950508 ], [ 4.552116593800092, 51.974740198420783 ], [ 4.553936365725547, 51.977010344201567 ], [ 4.554204714693411, 51.977669473371428 ], [ 4.552246055200635, 51.978865585212944 ], [ 4.552178449478419, 51.980191171260188 ], [ 4.551315279887342, 51.98189016702041 ], [ 4.550855209625158, 51.981778406508397 ], [ 4.550342846431017, 51.982140188863902 ], [ 4.549097584016621, 51.982524694337705 ], [ 4.548024109332041, 51.983309643483118 ], [ 4.547905278127325, 51.983781990353833 ], [ 4.548328527723344, 51.984902267424864 ], [ 4.547303817733024, 51.988688841917892 ] ], [ [ 4.778936905247322, 52.115886076249609 ], [ 4.778940712384278, 52.115891842019302 ], [ 4.778901379995037, 52.115902930953538 ], [ 4.778936905247322, 52.115886076249609 ] ] ] } }
]
}
