{
"type": "FeatureCollection",
"name": "SWVPO2603",
"crs": { "type": "name", "properties": { "name": "urn:ogc:def:crs:OGC:1.3:CRS84" } },
"features": [
{ "type": "Feature", "properties": { "PO SWV": "PO2603", "strokeColor": "#A9A9A9", "strokeWidth": 2, "fillColor": "#ADD8E6" }, "geometry": { "type": "Polygon", "coordinates": [ [ [ 5.215782916863155, 52.204024579532515 ], [ 5.216394001336039, 52.203005015404074 ], [ 5.214329362911816, 52.20074387735977 ], [ 5.21424862266651, 52.19958349705778 ], [ 5.214686630497252, 52.19943221184969 ], [ 5.215385988656042, 52.198246949258099 ], [ 5.216257239777152, 52.195726399942494 ], [ 5.216293856403826, 52.195208782687068 ], [ 5.217280840764372, 52.193902529039676 ], [ 5.218726569308052, 52.192440888332193 ], [ 5.217649456463634, 52.192076001443631 ], [ 5.2175927069864, 52.191931512404388 ], [ 5.216346748061322, 52.191890129964193 ], [ 5.215788397250992, 52.191566785632254 ], [ 5.214567020098537, 52.191678879315816 ], [ 5.214430110216374, 52.191807887418697 ], [ 5.213498217631477, 52.191536432742325 ], [ 5.213359171020685, 52.190128275259198 ], [ 5.215145912662351, 52.188742876810593 ], [ 5.21296657314848, 52.184642951094439 ], [ 5.214203906915897, 52.18450232670444 ], [ 5.214675243878538, 52.183810889890417 ], [ 5.213837144120381, 52.18132690742317 ], [ 5.210966770392472, 52.180894044774412 ], [ 5.209329956540783, 52.177825119176077 ], [ 5.212412473141192, 52.177342709338369 ], [ 5.212223551640425, 52.176337541390524 ], [ 5.215486500342488, 52.177198961952129 ], [ 5.221062543423375, 52.178334196769242 ], [ 5.221313165018074, 52.174678985041098 ], [ 5.222798330420969, 52.174712673191095 ], [ 5.223004401753923, 52.170230918685398 ], [ 5.223896147086106, 52.166695665801441 ], [ 5.223979457943905, 52.165510475515703 ], [ 5.236267889531057, 52.167819109510774 ], [ 5.240929097342434, 52.168606246002525 ], [ 5.24169166229117, 52.168605697694098 ], [ 5.243341318323519, 52.169960602089908 ], [ 5.244972844176786, 52.166852648059702 ], [ 5.24525243989951, 52.166836312773214 ], [ 5.250923104756711, 52.156846643448553 ], [ 5.25208960912236, 52.157088840358412 ], [ 5.252755516827662, 52.157068132562067 ], [ 5.254938145072949, 52.153522298786804 ], [ 5.254926532355284, 52.153086582329507 ], [ 5.255760540613172, 52.151639867982901 ], [ 5.253888267981218, 52.151295186758013 ], [ 5.255018092352817, 52.149186021789035 ], [ 5.256742452009726, 52.143285962169173 ], [ 5.255371942798177, 52.138884424102223 ], [ 5.255761585167559, 52.137503657408075 ], [ 5.256005587297755, 52.136771831636786 ], [ 5.259440978590088, 52.132327896388063 ], [ 5.261619386249475, 52.128801173036358 ], [ 5.264144505361473, 52.125193924917973 ], [ 5.27198993744311, 52.127129811186357 ], [ 5.276942427412825, 52.11995290659501 ], [ 5.277315020381312, 52.119857566794799 ], [ 5.277152959209068, 52.119479356816164 ], [ 5.278718695507338, 52.117189755303215 ], [ 5.278977895261553, 52.11686652532623 ], [ 5.27934083581311, 52.116942191039143 ], [ 5.281525570002259, 52.113555332049927 ], [ 5.282811477938178, 52.112488413870231 ], [ 5.283321012165051, 52.112833384682347 ], [ 5.284484134121324, 52.112789947374004 ], [ 5.290371994265709, 52.114241909236554 ], [ 5.290603156591566, 52.114098692138846 ], [ 5.292492628236659, 52.114386508279559 ], [ 5.29896387938413, 52.111901716049019 ], [ 5.306487815072134, 52.110367112107447 ], [ 5.310916037044199, 52.108501039496119 ], [ 5.313013391551861, 52.109726943353806 ], [ 5.314829815662586, 52.108511906025235 ], [ 5.314761105773615, 52.109172003625105 ], [ 5.314900409742942, 52.109569649028423 ], [ 5.315567726385162, 52.109882125469603 ], [ 5.319174605390856, 52.108116149275091 ], [ 5.320389759344399, 52.107117227200305 ], [ 5.320314326322332, 52.106953958418117 ], [ 5.318652669120214, 52.106567274062904 ], [ 5.318681839303617, 52.106376086286744 ], [ 5.319555607255199, 52.105774347942273 ], [ 5.318903926909655, 52.10541351641838 ], [ 5.318921248593516, 52.10489932695328 ], [ 5.317560763192098, 52.104639519885858 ], [ 5.316562441075969, 52.104224685065709 ], [ 5.317499060684693, 52.103039236007554 ], [ 5.317415055315159, 52.102849408339118 ], [ 5.314293632203307, 52.102003556907043 ], [ 5.313720280466422, 52.102627563367605 ], [ 5.306284853379881, 52.100606838556097 ], [ 5.30570379040682, 52.101246062288673 ], [ 5.3021255016755, 52.100271364690315 ], [ 5.302668644456022, 52.099291145886426 ], [ 5.300315743851415, 52.098638856174446 ], [ 5.301346832267672, 52.09713295294133 ], [ 5.29968399803754, 52.096685438512189 ], [ 5.300298352749595, 52.09582250832765 ], [ 5.30939314486379, 52.092538209593435 ], [ 5.319967845173013, 52.089061187412092 ], [ 5.320418274541494, 52.087940619166702 ], [ 5.32299823657975, 52.087819998357901 ], [ 5.323240301838505, 52.088041141455214 ], [ 5.324179321714284, 52.087739211437167 ], [ 5.324201384405542, 52.087597743680426 ], [ 5.323429635907794, 52.086756751346933 ], [ 5.324976075095487, 52.086600916073671 ], [ 5.325725328488663, 52.086764414284467 ], [ 5.326090027404867, 52.087005110455912 ], [ 5.326498833394537, 52.086674242763209 ], [ 5.330323242417024, 52.086022128572864 ], [ 5.330398309011427, 52.085869393350876 ], [ 5.330118709334131, 52.085370213787051 ], [ 5.332279160737977, 52.084260629017969 ], [ 5.33321559612486, 52.084098391968695 ], [ 5.332415205062863, 52.083131912646401 ], [ 5.332535754674197, 52.081328523942375 ], [ 5.336498636951038, 52.082051189569647 ], [ 5.336956890736031, 52.083509299593672 ], [ 5.337145910288845, 52.083609778325432 ], [ 5.367582015095568, 52.080095512951566 ], [ 5.36760635075013, 52.079909028667053 ], [ 5.367279268668518, 52.079928231330442 ], [ 5.3671476643113, 52.078931365280184 ], [ 5.36878318928005, 52.0786990192858 ], [ 5.369149482641673, 52.076826167106567 ], [ 5.375914794576389, 52.077955343842611 ], [ 5.379326545432017, 52.078793651879579 ], [ 5.381301754914689, 52.078499960491662 ], [ 5.384568641814054, 52.078359422365914 ], [ 5.387906440998383, 52.075792457091268 ], [ 5.388379684214107, 52.075062675554449 ], [ 5.389824914350723, 52.07576873592869 ], [ 5.391083228582727, 52.075178882475129 ], [ 5.391410293176376, 52.074787910248098 ], [ 5.391750842999188, 52.07468540967475 ], [ 5.395739724765973, 52.075179877733035 ], [ 5.397494295225316, 52.074909284555893 ], [ 5.398650692292706, 52.074964039839131 ], [ 5.403499529102489, 52.075778452093424 ], [ 5.40587965944455, 52.075325248557128 ], [ 5.407088625582452, 52.072497921453234 ], [ 5.404951168446323, 52.071979924365422 ], [ 5.405459007445283, 52.071034543037648 ], [ 5.40540307656125, 52.070907094184356 ], [ 5.39971891271123, 52.06916294703359 ], [ 5.400857787261705, 52.067841055677121 ], [ 5.399024739936469, 52.06696492317203 ], [ 5.398231622353821, 52.066330801926171 ], [ 5.397504155657608, 52.06283398865677 ], [ 5.39994367761114, 52.061942028548884 ], [ 5.400542265084198, 52.061403071733459 ], [ 5.400970485676294, 52.061251898460348 ], [ 5.402795972113186, 52.063057514820819 ], [ 5.404565658936646, 52.062332306084073 ], [ 5.406080713881534, 52.063601628433027 ], [ 5.406823984360257, 52.063318777746133 ], [ 5.408859274329473, 52.065250949655635 ], [ 5.409295092266143, 52.065914098994767 ], [ 5.409539193871606, 52.066976132786074 ], [ 5.40939095546569, 52.069107264865757 ], [ 5.410027504654986, 52.069505757324386 ], [ 5.410401092753351, 52.06930045104221 ], [ 5.412588041677996, 52.070503618403919 ], [ 5.417559119545979, 52.07148972648325 ], [ 5.422342296566851, 52.073114936872201 ], [ 5.424672900187276, 52.072381430860716 ], [ 5.425569712745476, 52.07225637838723 ], [ 5.428905994846009, 52.072664891966461 ], [ 5.43336641496925, 52.072395718647726 ], [ 5.434711398143632, 52.072874360458357 ], [ 5.435617023626618, 52.072970613571307 ], [ 5.436040010074573, 52.072599486725494 ], [ 5.437001991273902, 52.072381795600442 ], [ 5.437533180978195, 52.072089723294141 ], [ 5.438415789544283, 52.070355037423212 ], [ 5.437541328964208, 52.068024638680896 ], [ 5.437538486352135, 52.067843734648982 ], [ 5.437946018163122, 52.0676645755116 ], [ 5.43741506402107, 52.067282601605321 ], [ 5.436939760966788, 52.063484514041733 ], [ 5.436490762524657, 52.061443497954947 ], [ 5.435871296961878, 52.060152578079666 ], [ 5.435143297600593, 52.059426044384672 ], [ 5.430467947580367, 52.058855318680564 ], [ 5.428792091343967, 52.05727720416548 ], [ 5.428446942374416, 52.056341864584816 ], [ 5.428780456674667, 52.055292404755996 ], [ 5.4299110462622, 52.053991699356587 ], [ 5.429971593154677, 52.05292237460494 ], [ 5.435239567789518, 52.047938467746754 ], [ 5.435791664839952, 52.047734515645608 ], [ 5.435036335544532, 52.046940064501833 ], [ 5.436218305539077, 52.046399048054717 ], [ 5.436337868321122, 52.046089430852874 ], [ 5.435240536239696, 52.044653984095191 ], [ 5.436178167753739, 52.044040918622109 ], [ 5.436652321927139, 52.044519180898732 ], [ 5.437190867973112, 52.044752924560719 ], [ 5.437190465277633, 52.045793056872604 ], [ 5.437568319858253, 52.045576767382798 ], [ 5.439489753070776, 52.046540061542167 ], [ 5.441623457119068, 52.045791377439961 ], [ 5.445734249701898, 52.04535377613545 ], [ 5.448515637363928, 52.043260599965819 ], [ 5.453054327872566, 52.049501219704204 ], [ 5.453551325063916, 52.049967688193597 ], [ 5.460352905393396, 52.047486575879311 ], [ 5.46101030783656, 52.047381526046827 ], [ 5.460815732325973, 52.048716754552764 ], [ 5.463426445689239, 52.049425354625065 ], [ 5.463405959236184, 52.049959201002814 ], [ 5.465391246311325, 52.050672293876723 ], [ 5.465668557947118, 52.0509085141246 ], [ 5.466006984272957, 52.050886658650974 ], [ 5.467126787048464, 52.051311074417498 ], [ 5.477164575232432, 52.052950594479121 ], [ 5.484003116222069, 52.056057496671208 ], [ 5.488779054574795, 52.057045646538384 ], [ 5.491511472466506, 52.057424224810319 ], [ 5.492532817274109, 52.057282327008956 ], [ 5.492770619631244, 52.05711958281956 ], [ 5.493348593088514, 52.05725344189711 ], [ 5.497761545918652, 52.057135236645429 ], [ 5.497863895138103, 52.056926300824998 ], [ 5.499925441217346, 52.056781851348553 ], [ 5.507828124742742, 52.055576646196812 ], [ 5.513688970596601, 52.054893814391818 ], [ 5.515662591497489, 52.054175661978981 ], [ 5.514974031950045, 52.052608320320324 ], [ 5.515825931529817, 52.052514146666041 ], [ 5.516359164470444, 52.047694108182853 ], [ 5.517367487347118, 52.046837948351524 ], [ 5.517368996928446, 52.046666990202141 ], [ 5.525946200516265, 52.041283990712095 ], [ 5.526799588175039, 52.040954327088542 ], [ 5.528512935056325, 52.040605473946854 ], [ 5.529225979619015, 52.04020791253285 ], [ 5.520478102335521, 52.028836316362984 ], [ 5.520124719429536, 52.028841770552724 ], [ 5.518118095739943, 52.026289417154864 ], [ 5.518040133084924, 52.026013505232818 ], [ 5.518182538642409, 52.025842049635884 ], [ 5.506761250586226, 52.011007007779426 ], [ 5.507469813575951, 52.007779641889144 ], [ 5.498920935253409, 52.00516010761519 ], [ 5.496371029261657, 52.004226117967029 ], [ 5.492980002023756, 52.002690079041557 ], [ 5.492195040069863, 52.000618448534446 ], [ 5.49328413002957, 51.999247569975104 ], [ 5.493190005914024, 51.998840795396866 ], [ 5.493930792641857, 51.998277204895373 ], [ 5.49306683091398, 51.997426826387709 ], [ 5.493059110871346, 51.997209285590486 ], [ 5.492255134009047, 51.996616292967495 ], [ 5.490649453859133, 51.996747070515404 ], [ 5.488277572483129, 51.994543500466278 ], [ 5.488257733948295, 51.994352883086826 ], [ 5.488496444905731, 51.994297961446748 ], [ 5.485206143404688, 51.991013093581927 ], [ 5.485262284918042, 51.990870135635483 ], [ 5.48595983479871, 51.990761420708274 ], [ 5.484576049626345, 51.98788023856693 ], [ 5.483871341124779, 51.988352519758088 ], [ 5.47992430770541, 51.991893601524097 ], [ 5.479560905816612, 51.99179123782627 ], [ 5.479550440662913, 51.991647745859517 ], [ 5.4801474651209, 51.991096591480634 ], [ 5.479090487637579, 51.990109797039864 ], [ 5.47961357822344, 51.989587749430228 ], [ 5.480146175761726, 51.989317260783345 ], [ 5.480012802012586, 51.989096762391668 ], [ 5.480487069144715, 51.988831396251854 ], [ 5.479410281084942, 51.988377815488441 ], [ 5.479574776417471, 51.988156146058046 ], [ 5.478992374360229, 51.987505544074956 ], [ 5.477761429189496, 51.987738484307222 ], [ 5.477706166092825, 51.985110305210128 ], [ 5.477573458137078, 51.98466588818814 ], [ 5.477564937142626, 51.983463327284618 ], [ 5.477675783612755, 51.983373311048027 ], [ 5.473229119341911, 51.982891160529817 ], [ 5.4716299971534, 51.982870772489854 ], [ 5.462681642286986, 51.983433224028047 ], [ 5.454043620104427, 51.98359420449804 ], [ 5.452345360018641, 51.983910621146556 ], [ 5.448379645494862, 51.985064263607669 ], [ 5.444806330759048, 51.985688579334273 ], [ 5.44060604442274, 51.98581784062155 ], [ 5.437340277888387, 51.985462977121266 ], [ 5.433897902136134, 51.984642441484326 ], [ 5.431345504681985, 51.983633840757598 ], [ 5.423413218757657, 51.978668571213362 ], [ 5.420635767744844, 51.977390944544808 ], [ 5.418185344633505, 51.976510238086973 ], [ 5.413533559662596, 51.975331447056462 ], [ 5.399358294810169, 51.97300493467641 ], [ 5.395921928516047, 51.972145422060073 ], [ 5.391000861034238, 51.970633319836963 ], [ 5.387086603385784, 51.969732152393298 ], [ 5.382002292002239, 51.969099449788658 ], [ 5.376903698441957, 51.969061523142337 ], [ 5.372505502108697, 51.969487303842428 ], [ 5.366199314830485, 51.970572323991938 ], [ 5.361844454717708, 51.970866376848598 ], [ 5.357687130775472, 51.97059538714359 ], [ 5.354063403875201, 51.969885145868354 ], [ 5.350277452478515, 51.968576759166233 ], [ 5.347149590394824, 51.966913740088302 ], [ 5.343618246193624, 51.963860339814346 ], [ 5.338379127249704, 51.959870311891557 ], [ 5.335261844944155, 51.957952962502546 ], [ 5.33272832494747, 51.956970513399945 ], [ 5.329097883789425, 51.956042681408015 ], [ 5.323455899886674, 51.9549985201186 ], [ 5.321620947874655, 51.954819640364143 ], [ 5.31831044454634, 51.954919954184845 ], [ 5.314823940028512, 51.955525597010883 ], [ 5.310725827042205, 51.956958998231826 ], [ 5.310784852445309, 51.95718844443109 ], [ 5.304553084547291, 51.960187417136446 ], [ 5.300871483395343, 51.96147109185916 ], [ 5.296641215023325, 51.962048965038925 ], [ 5.289115027477602, 51.962411961711219 ], [ 5.284071868176946, 51.962881977240016 ], [ 5.276505254100967, 51.963920934267563 ], [ 5.272389832505158, 51.964751836834239 ], [ 5.267553741236032, 51.966179971854011 ], [ 5.263348026751332, 51.96762062238426 ], [ 5.257492662852325, 51.970171748227855 ], [ 5.256219180084903, 51.9708509978447 ], [ 5.256195546656863, 51.970868566766512 ], [ 5.260817286511476, 51.973004639459326 ], [ 5.264256052713895, 51.974776645344598 ], [ 5.264810172739188, 51.975224928027302 ], [ 5.266103511396063, 51.975724166641925 ], [ 5.266621562159213, 51.976133818118761 ], [ 5.267918504451112, 51.978162036966616 ], [ 5.271512981263297, 51.981058742725097 ], [ 5.271522669262474, 51.981198438636319 ], [ 5.254237141717299, 51.986147404201226 ], [ 5.25394581072969, 51.990719633987908 ], [ 5.253460527179028, 51.992285965334695 ], [ 5.256079025341667, 51.993461239482549 ], [ 5.256275940179722, 51.993795000509621 ], [ 5.250375044277793, 51.995056166231947 ], [ 5.248858122645955, 51.995068987017 ], [ 5.245558986193229, 51.99603616426203 ], [ 5.245686024606751, 51.996344093710299 ], [ 5.243608849335974, 51.997533482089857 ], [ 5.244087911533315, 51.998422656140477 ], [ 5.242939622218103, 51.998654337891089 ], [ 5.243288805135036, 51.998811850683801 ], [ 5.24277124813633, 51.999357424434322 ], [ 5.240504680997023, 52.001084518978146 ], [ 5.240420929885394, 52.001381561419635 ], [ 5.237566112204894, 52.003717829413354 ], [ 5.234873202058138, 52.005637190183428 ], [ 5.231612714073842, 52.009613371180272 ], [ 5.229458837252355, 52.011279379566346 ], [ 5.22891088314293, 52.011067335016442 ], [ 5.224071964677838, 52.013796939497148 ], [ 5.221275383481946, 52.014541085805192 ], [ 5.21939268591859, 52.015313620524317 ], [ 5.216893622690839, 52.015704196973019 ], [ 5.210903451117568, 52.01629834011456 ], [ 5.207366770531743, 52.016899531608182 ], [ 5.20489313157581, 52.017042764285414 ], [ 5.202162306002096, 52.017547993678001 ], [ 5.203620097853445, 52.020112784965221 ], [ 5.202488638889633, 52.020900364545284 ], [ 5.20143158067586, 52.022077932129442 ], [ 5.20033039793525, 52.022914909180727 ], [ 5.199808335336056, 52.023668064108634 ], [ 5.199202728418764, 52.025228570642753 ], [ 5.199454523333928, 52.02714870952039 ], [ 5.200994516754271, 52.031468138170304 ], [ 5.20098400226466, 52.031754739527102 ], [ 5.199514075849856, 52.033793810907341 ], [ 5.195478822064774, 52.03651554175579 ], [ 5.194339211740218, 52.035888484384927 ], [ 5.192495884077469, 52.034529948979205 ], [ 5.190833635392075, 52.035807141481769 ], [ 5.189619630267246, 52.037050941978869 ], [ 5.189199037340962, 52.037776456404792 ], [ 5.189083667461435, 52.0383833292981 ], [ 5.189594287449443, 52.039550109805248 ], [ 5.191373335479998, 52.041536653060042 ], [ 5.191585077262276, 52.042197354001281 ], [ 5.191612311765319, 52.043118784399091 ], [ 5.189493630051794, 52.043416437215548 ], [ 5.187381389208404, 52.044011728468462 ], [ 5.18741289021887, 52.044256358401213 ], [ 5.179218624684809, 52.046368453440266 ], [ 5.178828322612656, 52.046183973737989 ], [ 5.178748346013126, 52.045786320162364 ], [ 5.177943257149434, 52.04576102450141 ], [ 5.177858705295408, 52.045378425699695 ], [ 5.177220725927184, 52.045372603085376 ], [ 5.177215334932426, 52.045767768253313 ], [ 5.176475701323801, 52.045756146223113 ], [ 5.176007931475373, 52.044428421971098 ], [ 5.174036878194098, 52.044406361452964 ], [ 5.173948591230475, 52.044269498178259 ], [ 5.174106326688326, 52.043898465584334 ], [ 5.17248728792985, 52.043239119697901 ], [ 5.172801877065038, 52.043464734234931 ], [ 5.172793453382704, 52.043625996301728 ], [ 5.171112040983807, 52.044953614065086 ], [ 5.169255032565193, 52.045116366951724 ], [ 5.169230231732291, 52.044921295460632 ], [ 5.171712021006867, 52.04291122345758 ], [ 5.170107108215048, 52.042024012731588 ], [ 5.167936510717132, 52.042932766741089 ], [ 5.167864299129892, 52.042797842995959 ], [ 5.168424573248477, 52.041548510093818 ], [ 5.166937103852187, 52.041315794450327 ], [ 5.16671798679014, 52.040963489167346 ], [ 5.163895213118256, 52.040546780681325 ], [ 5.160826526831165, 52.04557049307919 ], [ 5.157006685598708, 52.051180430005296 ], [ 5.156969720911039, 52.051589996700748 ], [ 5.156558283417465, 52.051836278413305 ], [ 5.153988086195658, 52.055885852102833 ], [ 5.153082585302283, 52.056877540761171 ], [ 5.157641710517896, 52.058408753597135 ], [ 5.156792297490825, 52.063444877570909 ], [ 5.158828486221025, 52.0649391561941 ], [ 5.158200382886073, 52.06522020927104 ], [ 5.159354389220679, 52.067201894460723 ], [ 5.157799131313254, 52.067858978927809 ], [ 5.156453470054802, 52.068845329559814 ], [ 5.15572272275218, 52.070390919782746 ], [ 5.155562597496326, 52.07146950078242 ], [ 5.156154702611219, 52.072668298711896 ], [ 5.157208413957131, 52.073513805375391 ], [ 5.158608502270623, 52.076011747160514 ], [ 5.159051426136901, 52.076468351998031 ], [ 5.159704314426095, 52.076804900094487 ], [ 5.159874212437302, 52.077349349696341 ], [ 5.160354318572626, 52.077838117810735 ], [ 5.160486376007031, 52.078602834071361 ], [ 5.16008780202363, 52.079486047276049 ], [ 5.160120454958607, 52.080376577147128 ], [ 5.160767444658934, 52.080650197672199 ], [ 5.161677029131336, 52.079940115980847 ], [ 5.162073874219149, 52.07901860590394 ], [ 5.162450545687909, 52.078694607030947 ], [ 5.163300461505159, 52.078215128850772 ], [ 5.1669222864313, 52.076793264464669 ], [ 5.171607410148476, 52.078774978070292 ], [ 5.173523389485931, 52.078575639781327 ], [ 5.173987078672432, 52.078239903840284 ], [ 5.174315931529782, 52.078343881744217 ], [ 5.1793194097655, 52.077998491493538 ], [ 5.181510744172554, 52.076293888772049 ], [ 5.184207183806059, 52.076932917923465 ], [ 5.187436029669766, 52.077011267781153 ], [ 5.188656810365361, 52.07733893623783 ], [ 5.190525536725247, 52.077450646161722 ], [ 5.192599756056239, 52.07797306490118 ], [ 5.19502307371256, 52.077452268406077 ], [ 5.192685603887687, 52.085994112842698 ], [ 5.190294702170865, 52.086076231489088 ], [ 5.189715822110309, 52.086239234263132 ], [ 5.186108052931473, 52.092830283817754 ], [ 5.184711157097417, 52.093001869555586 ], [ 5.182900704713632, 52.094103448110545 ], [ 5.182310122784095, 52.094299522171852 ], [ 5.180787722924108, 52.094444678173993 ], [ 5.18056745498043, 52.093031926924198 ], [ 5.176792152909007, 52.093258552875277 ], [ 5.176607856137341, 52.09339435061294 ], [ 5.176618703128737, 52.093830296025345 ], [ 5.176101972993997, 52.093957794843874 ], [ 5.17606603441998, 52.093434521276464 ], [ 5.175865900118517, 52.093309081327114 ], [ 5.170641028496523, 52.093827375419842 ], [ 5.166994975229378, 52.093616233872332 ], [ 5.166880095257088, 52.093341721488315 ], [ 5.167134227841958, 52.093032835696349 ], [ 5.167071629426006, 52.092897799640717 ], [ 5.160880992213463, 52.091807984765239 ], [ 5.159555812864923, 52.094179493220985 ], [ 5.157724044784674, 52.096391981945203 ], [ 5.15781888160384, 52.096511941892494 ], [ 5.158556130273613, 52.096393016486445 ], [ 5.158585289742605, 52.096531504258181 ], [ 5.157259601326578, 52.098225987540197 ], [ 5.156374031295562, 52.098052760614898 ], [ 5.156094531320467, 52.098545995375481 ], [ 5.156603148495695, 52.098836749617035 ], [ 5.15647281552044, 52.099179623356726 ], [ 5.161747442987886, 52.107145167991249 ], [ 5.15884790579876, 52.107575088883351 ], [ 5.157975191541506, 52.108000078392827 ], [ 5.157243915704397, 52.108031354603035 ], [ 5.15675164014271, 52.108501070557985 ], [ 5.150313062226155, 52.110801833057067 ], [ 5.148921617654827, 52.11346751523952 ], [ 5.148514357263886, 52.115337576998229 ], [ 5.149288356185735, 52.117710105320889 ], [ 5.149214388093458, 52.118460698700126 ], [ 5.148707578708676, 52.119241484689908 ], [ 5.147560908053399, 52.120012221581661 ], [ 5.146886053133035, 52.120286056091906 ], [ 5.143762667545563, 52.120797125272738 ], [ 5.142979936544745, 52.120571742857926 ], [ 5.142657789831817, 52.12071573840683 ], [ 5.142188394099834, 52.120092918896304 ], [ 5.141854339444716, 52.120195665143555 ], [ 5.141745803255811, 52.1209269145075 ], [ 5.141436867440953, 52.121052271267658 ], [ 5.140142922978478, 52.1204841553728 ], [ 5.140065876208909, 52.120603896887737 ], [ 5.140245882522419, 52.120929269588139 ], [ 5.126491846628461, 52.124509619180884 ], [ 5.107110611954849, 52.133093864040418 ], [ 5.110291865876746, 52.135827102052694 ], [ 5.111713837099002, 52.137589919890601 ], [ 5.120491263829503, 52.14563833508069 ], [ 5.095087787198775, 52.15536774911957 ], [ 5.118923446102795, 52.172343781927836 ], [ 5.118882991156803, 52.17249862583931 ], [ 5.118541078393098, 52.17251894876653 ], [ 5.115437681436573, 52.179781139207392 ], [ 5.121359061265643, 52.180855127916395 ], [ 5.134012654335636, 52.180372753171923 ], [ 5.143207718602634, 52.179835657556268 ], [ 5.143421192869451, 52.180166256020257 ], [ 5.189311355045605, 52.177580832372641 ], [ 5.192621197390535, 52.177739357823562 ], [ 5.215626050743553, 52.204264486899412 ], [ 5.215782916863155, 52.204024579532515 ] ] ] } }
]
}
