{
"type": "FeatureCollection",
"name": "SWVPO2602",
"crs": { "type": "name", "properties": { "name": "urn:ogc:def:crs:OGC:1.3:CRS84" } },
"features": [
{ "type": "Feature", "properties": { "PO SWV": "PO2602", "strokeColor": "#A9A9A9", "strokeWidth": 2, "fillColor": "#ADD8E6" }, "geometry": { "type": "Polygon", "coordinates": [ [ [ 5.331244503449037, 52.273710605477795 ], [ 5.331659608503195, 52.273695095600814 ], [ 5.331889402730313, 52.273634534453407 ], [ 5.332136148867228, 52.274071523339188 ], [ 5.332334642862478, 52.274100051725078 ], [ 5.332417326713601, 52.273955860064028 ], [ 5.332241410188134, 52.273643931484081 ], [ 5.333020171904534, 52.273039651138795 ], [ 5.333797575223604, 52.272749056930579 ], [ 5.33396143451932, 52.272498632628398 ], [ 5.33456965641464, 52.272353699517296 ], [ 5.33559498093092, 52.271671506421306 ], [ 5.33664951027741, 52.271529613021308 ], [ 5.337118500772682, 52.271024768407322 ], [ 5.337555890933692, 52.271089512695788 ], [ 5.338538037207891, 52.270606566722968 ], [ 5.339212244191149, 52.270539998825477 ], [ 5.339508507214256, 52.270232584201743 ], [ 5.34046367447954, 52.270761287140282 ], [ 5.340898347546879, 52.270796916911486 ], [ 5.344913711475505, 52.269576965629135 ], [ 5.345726864560588, 52.269771494942042 ], [ 5.347660855898734, 52.269250704495086 ], [ 5.348453044581729, 52.268882304155007 ], [ 5.355804332446271, 52.269393122070085 ], [ 5.356917211973509, 52.269938060811889 ], [ 5.358646762318072, 52.269453971918502 ], [ 5.359473147990185, 52.268717694145003 ], [ 5.359495213103787, 52.268413292431163 ], [ 5.359814176530961, 52.268477382010992 ], [ 5.360382688549061, 52.268204110095986 ], [ 5.361323403397097, 52.268162444438829 ], [ 5.362180248924409, 52.268624166669916 ], [ 5.363471832666468, 52.2685318011074 ], [ 5.366738746679391, 52.267039091723724 ], [ 5.369600952544576, 52.264681486329458 ], [ 5.370259293293975, 52.263579110629699 ], [ 5.371505382512748, 52.263374429011577 ], [ 5.37146165119823, 52.263094516396826 ], [ 5.370157296583045, 52.263088351090218 ], [ 5.37017029300615, 52.262859988522059 ], [ 5.370528713750665, 52.262069881582683 ], [ 5.372135133554941, 52.260964324735241 ], [ 5.372379064078351, 52.260937526990311 ], [ 5.373080127859163, 52.261283514063038 ], [ 5.371224374740442, 52.262607732776345 ], [ 5.37137285733552, 52.262836345505484 ], [ 5.37390000382122, 52.262021363190456 ], [ 5.374446840753702, 52.261575693211739 ], [ 5.374421762457553, 52.261016864588832 ], [ 5.37546538499052, 52.261128315419825 ], [ 5.375468170357015, 52.260919245302205 ], [ 5.374679742969429, 52.260795867653727 ], [ 5.374690600491385, 52.260169315996961 ], [ 5.376981700840763, 52.259488030019611 ], [ 5.377603502269372, 52.258993127735678 ], [ 5.381636306889607, 52.258124356440142 ], [ 5.382024745412867, 52.259321998639891 ], [ 5.382233801820973, 52.259349368831323 ], [ 5.382307349760916, 52.259143446616967 ], [ 5.381897256638285, 52.257910893738305 ], [ 5.380952259639012, 52.255751423134569 ], [ 5.38040430865252, 52.255195022722809 ], [ 5.379392645663136, 52.254818798862111 ], [ 5.380577192089172, 52.255181492714136 ], [ 5.381280395615781, 52.256143175787194 ], [ 5.381526232882949, 52.256216809858827 ], [ 5.381754840410493, 52.2559505212621 ], [ 5.381083386016106, 52.254746104610739 ], [ 5.381545086244606, 52.254650741024108 ], [ 5.382203662680022, 52.255810815610822 ], [ 5.381718612224416, 52.256174938059118 ], [ 5.381753291164309, 52.256448062152757 ], [ 5.382011199023672, 52.256528277121184 ], [ 5.383326368399964, 52.255694805062376 ], [ 5.383597206432985, 52.255678006382439 ], [ 5.383740134054044, 52.255382022472659 ], [ 5.384520724429358, 52.254923070833328 ], [ 5.384863921434373, 52.255123827969925 ], [ 5.383027103527417, 52.256383156670836 ], [ 5.38192577312815, 52.256933063568525 ], [ 5.381834912139786, 52.257502281828316 ], [ 5.382343068387678, 52.259056268085416 ], [ 5.382633134462735, 52.259200730075946 ], [ 5.382686253016942, 52.259004078502592 ], [ 5.383083252354771, 52.25887135808243 ], [ 5.383088736584397, 52.258397772461706 ], [ 5.383863106471559, 52.25767519653634 ], [ 5.384165517026902, 52.256984391712734 ], [ 5.386312357326098, 52.255727756449886 ], [ 5.385854771400491, 52.255196591433595 ], [ 5.386547884640392, 52.255660351353626 ], [ 5.387032407765397, 52.255550350981643 ], [ 5.387849088754272, 52.254939950614357 ], [ 5.388418298766007, 52.254154887955764 ], [ 5.388842070265211, 52.254026035113988 ], [ 5.388859080600092, 52.253454862798769 ], [ 5.388635456773367, 52.253193297056335 ], [ 5.389106281319571, 52.252743192621942 ], [ 5.400186065312132, 52.247792496307753 ], [ 5.401064093793469, 52.247439025937624 ], [ 5.403392340222315, 52.246959675582055 ], [ 5.403595008821466, 52.24670871776641 ], [ 5.396881902520923, 52.230340874934647 ], [ 5.396330946910274, 52.228430707779559 ], [ 5.395060189842434, 52.225547384388101 ], [ 5.394670338366642, 52.224101833998709 ], [ 5.393309919296578, 52.220671511505287 ], [ 5.393692006617894, 52.220166928648595 ], [ 5.4071694154676, 52.213535916967942 ], [ 5.408709167761433, 52.217015552227494 ], [ 5.409695168926056, 52.218676329733292 ], [ 5.419663796131282, 52.213802205829523 ], [ 5.421072565782281, 52.213284186881943 ], [ 5.422043832535536, 52.2123627304697 ], [ 5.426079478922309, 52.210425749702381 ], [ 5.431735501989054, 52.207451794228213 ], [ 5.431933270983841, 52.207214034046771 ], [ 5.434367617042924, 52.206306671914945 ], [ 5.434400677528756, 52.206145246420441 ], [ 5.434781815036801, 52.205956646004893 ], [ 5.436353560124986, 52.205412609967532 ], [ 5.436677375995677, 52.205682767251417 ], [ 5.439179225816607, 52.204730761766534 ], [ 5.439774744884393, 52.206072659467246 ], [ 5.441109444389387, 52.205764766524183 ], [ 5.441018081045246, 52.20540602104662 ], [ 5.440340417415321, 52.20467025332696 ], [ 5.441239772336864, 52.204278293226523 ], [ 5.439729789608939, 52.202562523218361 ], [ 5.439759367627502, 52.202189685343029 ], [ 5.43953773020041, 52.202052147732509 ], [ 5.439486755134507, 52.201426875207417 ], [ 5.439521746781874, 52.199971385292073 ], [ 5.439872097385733, 52.197286295498216 ], [ 5.439807873180252, 52.196008089126366 ], [ 5.440073209099857, 52.195763449129139 ], [ 5.440263358039044, 52.19203673156526 ], [ 5.440194391561455, 52.190035096413737 ], [ 5.439698382174863, 52.187792627171312 ], [ 5.438958091241042, 52.18586000946587 ], [ 5.438229258477309, 52.184629670498865 ], [ 5.439346620323424, 52.184328015952012 ], [ 5.439147221828828, 52.18408656638411 ], [ 5.440236878003865, 52.173209060899538 ], [ 5.439066689429747, 52.172871147383795 ], [ 5.439645260221892, 52.172084884612396 ], [ 5.439965304526584, 52.171257300958494 ], [ 5.442981256219594, 52.169262991332701 ], [ 5.444275678360461, 52.168658474618574 ], [ 5.44660196425157, 52.168111975359601 ], [ 5.448837609088474, 52.167803393214264 ], [ 5.475650292691427, 52.165868927079885 ], [ 5.475743381039821, 52.166195421198665 ], [ 5.479873336932685, 52.165917571903378 ], [ 5.478867873348966, 52.164800622266327 ], [ 5.478780298540713, 52.164487168412045 ], [ 5.477739929240873, 52.164340570522242 ], [ 5.475543105604055, 52.164488681051871 ], [ 5.47446821771128, 52.163974749269592 ], [ 5.472955336897389, 52.16391896946773 ], [ 5.47289075029397, 52.163780738736818 ], [ 5.473315572379388, 52.163198967762391 ], [ 5.472333435531616, 52.162845739683213 ], [ 5.472847791532744, 52.161750028449525 ], [ 5.475517367114419, 52.162061389334831 ], [ 5.478116521459264, 52.161619926920913 ], [ 5.479159581157481, 52.161267873245741 ], [ 5.479910728216775, 52.160874993462514 ], [ 5.480908917812057, 52.160023134581998 ], [ 5.481968909260358, 52.159716537517546 ], [ 5.481363551724566, 52.158406895840969 ], [ 5.481437753428592, 52.158215693768987 ], [ 5.482307089444732, 52.15810461770424 ], [ 5.483644428970882, 52.15818950764902 ], [ 5.484222836471868, 52.158015259732139 ], [ 5.48403293532301, 52.157147332806019 ], [ 5.48401475038552, 52.155500657431077 ], [ 5.48351130614933, 52.15540109027981 ], [ 5.483671419044158, 52.154087365362798 ], [ 5.483155578041304, 52.154055768406074 ], [ 5.482532895781278, 52.151547583909682 ], [ 5.481273522804548, 52.150574070615612 ], [ 5.481276046572773, 52.150425602745372 ], [ 5.484767479977894, 52.149069788776586 ], [ 5.489459230573848, 52.148120572255948 ], [ 5.496242000179354, 52.147250734329489 ], [ 5.498889273442063, 52.147291508641025 ], [ 5.498349330223778, 52.144739675571913 ], [ 5.497971823120882, 52.143964209566533 ], [ 5.497910546458201, 52.143180005079302 ], [ 5.497242273279602, 52.141366638354697 ], [ 5.499966243839948, 52.140949401974346 ], [ 5.501168685809457, 52.140419745002845 ], [ 5.502578291171248, 52.139438743254537 ], [ 5.507447073904146, 52.138780419305924 ], [ 5.507416484405415, 52.138437509931045 ], [ 5.510276926543839, 52.137903252218564 ], [ 5.512431539695799, 52.136985034630364 ], [ 5.513854852916667, 52.135964039804051 ], [ 5.513461583173202, 52.135839971037264 ], [ 5.512309172097529, 52.134314720650792 ], [ 5.511793223539485, 52.13416311473614 ], [ 5.511941434195803, 52.133712179981593 ], [ 5.511897327993224, 52.132200044467446 ], [ 5.509180903277799, 52.132042776112854 ], [ 5.508786682118918, 52.131688396521035 ], [ 5.508512707486545, 52.13174416784463 ], [ 5.507589347124374, 52.131324048853891 ], [ 5.507273393971503, 52.131418218602967 ], [ 5.506706053522769, 52.131079189109009 ], [ 5.506108871473796, 52.131013905315001 ], [ 5.505023845128242, 52.131212262944956 ], [ 5.504086627335855, 52.130760569427153 ], [ 5.50209338993891, 52.130191029817794 ], [ 5.50157388923234, 52.130181497691858 ], [ 5.501414881590046, 52.13002647246163 ], [ 5.499216504261748, 52.13033704098136 ], [ 5.499256117428012, 52.130511522740285 ], [ 5.499098214846275, 52.130642117795695 ], [ 5.498316772861887, 52.130321924052062 ], [ 5.497865506840821, 52.130370863132534 ], [ 5.496689646233204, 52.124923816271171 ], [ 5.49644178915394, 52.12493143751869 ], [ 5.496348172520515, 52.124705625355944 ], [ 5.494598838696539, 52.124725581168335 ], [ 5.495028293191305, 52.122325164119296 ], [ 5.494967080754255, 52.121956606834651 ], [ 5.49656822496187, 52.12043982851236 ], [ 5.496555601843998, 52.120099447385428 ], [ 5.496874717686908, 52.119467187700721 ], [ 5.500043846596689, 52.119100024052869 ], [ 5.501679489793901, 52.119470703160971 ], [ 5.505210541247042, 52.119661553869321 ], [ 5.504646819915188, 52.118257791926517 ], [ 5.503664308385164, 52.116545707681425 ], [ 5.505867990236999, 52.115887349597607 ], [ 5.507015082901632, 52.115750389242073 ], [ 5.507142313547498, 52.11551131704428 ], [ 5.507459075457193, 52.115531935566899 ], [ 5.507591408104082, 52.114036474581155 ], [ 5.506164095700709, 52.114409749548344 ], [ 5.503965510564583, 52.113820006166819 ], [ 5.502636236210428, 52.114960747736397 ], [ 5.502653351337047, 52.11518267383731 ], [ 5.498920514036569, 52.116117558300665 ], [ 5.49701287769245, 52.115951015550429 ], [ 5.496443783633557, 52.11604412378091 ], [ 5.495616282271135, 52.115686228931054 ], [ 5.491958416485291, 52.115821933346034 ], [ 5.490760973042027, 52.116154381865904 ], [ 5.488077609030665, 52.116201017262711 ], [ 5.486391367168757, 52.115442774311532 ], [ 5.486402860341761, 52.115270049489595 ], [ 5.487392517384153, 52.114953539119689 ], [ 5.489001091264401, 52.114774350974372 ], [ 5.489224727465612, 52.114893582612225 ], [ 5.490920128861323, 52.114387813104116 ], [ 5.491184890607284, 52.114498486616611 ], [ 5.491794538367524, 52.114413192206364 ], [ 5.491766825454458, 52.114014397183986 ], [ 5.492906806592003, 52.113502275132547 ], [ 5.493330927785478, 52.112913277861722 ], [ 5.493617129497555, 52.113007721533073 ], [ 5.493841126072256, 52.112510688783033 ], [ 5.493763405653851, 52.111153233644671 ], [ 5.484208530578239, 52.105578329358977 ], [ 5.484896836831014, 52.103263145217092 ], [ 5.485136704014713, 52.099221312510039 ], [ 5.484640664482644, 52.096609466106386 ], [ 5.485957006658621, 52.093724325338627 ], [ 5.480592943196916, 52.0921229655602 ], [ 5.476710603991697, 52.090447075937966 ], [ 5.474803478323884, 52.090350948308853 ], [ 5.472772103695722, 52.08926883361476 ], [ 5.471842868472399, 52.08947174220468 ], [ 5.471404111885863, 52.088412317985096 ], [ 5.466204516778968, 52.084893414318955 ], [ 5.464049825343818, 52.083178670258086 ], [ 5.463343393302996, 52.083539164732912 ], [ 5.459620446627972, 52.082085118789607 ], [ 5.460024188346443, 52.080983595486067 ], [ 5.459144628079569, 52.08024414439484 ], [ 5.459607854324485, 52.079892691510388 ], [ 5.461081156678874, 52.079282135402728 ], [ 5.464635855587237, 52.078650716263411 ], [ 5.465384784182539, 52.078342442748834 ], [ 5.466015760780466, 52.077692704554622 ], [ 5.46629385014805, 52.076143513523526 ], [ 5.466969546271969, 52.075535264120198 ], [ 5.470273424768322, 52.074853622456537 ], [ 5.473790480884452, 52.072956553784934 ], [ 5.476156441212813, 52.072616257779778 ], [ 5.477189150989376, 52.071918563845855 ], [ 5.479941844429945, 52.071286179579268 ], [ 5.481701858978932, 52.070369758257392 ], [ 5.483875459492595, 52.069558847406419 ], [ 5.484705865003618, 52.069573595307439 ], [ 5.485903799573079, 52.070164089077068 ], [ 5.487842923853788, 52.070152678912599 ], [ 5.490717122533521, 52.071312551736845 ], [ 5.494255371240864, 52.071826272177105 ], [ 5.495937104822536, 52.071632410028364 ], [ 5.495568909929666, 52.071405830711981 ], [ 5.495459160875949, 52.070784249952887 ], [ 5.496242260942958, 52.066523002704834 ], [ 5.496080849009322, 52.065906596471947 ], [ 5.496570767107033, 52.064564494737596 ], [ 5.497761545918652, 52.057135236645429 ], [ 5.493348593088514, 52.05725344189711 ], [ 5.492770619631244, 52.05711958281956 ], [ 5.49248247385243, 52.057294271396906 ], [ 5.491420090475271, 52.057421643653484 ], [ 5.488779054574795, 52.057045646538384 ], [ 5.484003116222069, 52.056057496671208 ], [ 5.477164575232432, 52.052950594479121 ], [ 5.467126787048464, 52.051311074417498 ], [ 5.466006984272957, 52.050886658650974 ], [ 5.465668557947118, 52.0509085141246 ], [ 5.465391246311325, 52.050672293876723 ], [ 5.463405959236184, 52.049959201002814 ], [ 5.463426445689239, 52.049425354625065 ], [ 5.460815732325973, 52.048716754552764 ], [ 5.46101030783656, 52.047381526046827 ], [ 5.460352905393396, 52.047486575879311 ], [ 5.453560017772358, 52.049970447117197 ], [ 5.453054327872566, 52.049501219704204 ], [ 5.448515637363928, 52.043260599965819 ], [ 5.445734249701898, 52.04535377613545 ], [ 5.441623457119068, 52.045791377439961 ], [ 5.439489753070776, 52.046540061542167 ], [ 5.437568319858253, 52.045576767382798 ], [ 5.437190465277633, 52.045793056872604 ], [ 5.437190867973112, 52.044752924560719 ], [ 5.436652321927139, 52.044519180898732 ], [ 5.43619866976548, 52.044036044671465 ], [ 5.435240536239696, 52.044653984095191 ], [ 5.436337868321122, 52.046089430852874 ], [ 5.436218305539077, 52.046399048054717 ], [ 5.435036335544532, 52.046940064501833 ], [ 5.435791664839952, 52.047734515645608 ], [ 5.435239567789518, 52.047938467746754 ], [ 5.429971593154677, 52.05292237460494 ], [ 5.4299110462622, 52.053991699356587 ], [ 5.428780456674667, 52.055292404755996 ], [ 5.428446942374416, 52.056341864584816 ], [ 5.428792091343967, 52.05727720416548 ], [ 5.430467947580367, 52.058855318680564 ], [ 5.435143297600593, 52.059426044384672 ], [ 5.435871296961878, 52.060152578079666 ], [ 5.436490762524657, 52.061443497954947 ], [ 5.436939760966788, 52.063484514041733 ], [ 5.43741506402107, 52.067282601605321 ], [ 5.437946018163122, 52.0676645755116 ], [ 5.437538486352135, 52.067843734648982 ], [ 5.437541328964208, 52.068024638680896 ], [ 5.438415789544283, 52.070355037423212 ], [ 5.437533180978195, 52.072089723294141 ], [ 5.437001991273902, 52.072381795600442 ], [ 5.436040010074573, 52.072599486725494 ], [ 5.435617023626618, 52.072970613571307 ], [ 5.434711398143632, 52.072874360458357 ], [ 5.43336641496925, 52.072395718647726 ], [ 5.428905994846009, 52.072664891966461 ], [ 5.425569712745476, 52.07225637838723 ], [ 5.424672900187276, 52.072381430860716 ], [ 5.422342296566851, 52.073114936872201 ], [ 5.417559119545979, 52.07148972648325 ], [ 5.412588041677996, 52.070503618403919 ], [ 5.410401092753351, 52.06930045104221 ], [ 5.410027504654986, 52.069505757324386 ], [ 5.40939095546569, 52.069107264865757 ], [ 5.409539193871606, 52.066976132786074 ], [ 5.409295092266143, 52.065914098994767 ], [ 5.408859274329473, 52.065250949655635 ], [ 5.406823984360257, 52.063318777746133 ], [ 5.406080713881534, 52.063601628433027 ], [ 5.404565658936646, 52.062332306084073 ], [ 5.402795972113186, 52.063057514820819 ], [ 5.400970485676294, 52.061251898460348 ], [ 5.400542265084198, 52.061403071733459 ], [ 5.39994367761114, 52.061942028548884 ], [ 5.397504155657608, 52.06283398865677 ], [ 5.398231622353821, 52.066330801926171 ], [ 5.399024739936469, 52.06696492317203 ], [ 5.400857787261705, 52.067841055677121 ], [ 5.39971891271123, 52.06916294703359 ], [ 5.40540307656125, 52.070907094184356 ], [ 5.405459007445283, 52.071034543037648 ], [ 5.404951168446323, 52.071979924365422 ], [ 5.407088625582452, 52.072497921453234 ], [ 5.40587965944455, 52.075325248557128 ], [ 5.403499529102489, 52.075778452093424 ], [ 5.398650692292706, 52.074964039839131 ], [ 5.397494295225316, 52.074909284555893 ], [ 5.395739724765973, 52.075179877733035 ], [ 5.391750842999188, 52.07468540967475 ], [ 5.391410293176376, 52.074787910248098 ], [ 5.391083228582727, 52.075178882475129 ], [ 5.389824914350723, 52.07576873592869 ], [ 5.388379684214107, 52.075062675554449 ], [ 5.387906440998383, 52.075792457091268 ], [ 5.384568641814054, 52.078359422365914 ], [ 5.381301754914689, 52.078499960491662 ], [ 5.379326545432017, 52.078793651879579 ], [ 5.375914794576389, 52.077955343842611 ], [ 5.369149482641673, 52.076826167106567 ], [ 5.36878318928005, 52.0786990192858 ], [ 5.3671476643113, 52.078931365280184 ], [ 5.367279268668518, 52.079928231330442 ], [ 5.36760635075013, 52.079909028667053 ], [ 5.367582015095568, 52.080095512951566 ], [ 5.337145910288845, 52.083609778325432 ], [ 5.336956890736031, 52.083509299593672 ], [ 5.336498636951038, 52.082051189569647 ], [ 5.332535754674197, 52.081328523942375 ], [ 5.332415205062863, 52.083131912646401 ], [ 5.33321559612486, 52.084098391968695 ], [ 5.332279160737977, 52.084260629017969 ], [ 5.330118709334131, 52.085370213787051 ], [ 5.330398309011427, 52.085869393350876 ], [ 5.330335333247673, 52.086016674445915 ], [ 5.326498833394537, 52.086674242763209 ], [ 5.326090027404867, 52.087005110455912 ], [ 5.325725328488663, 52.086764414284467 ], [ 5.324976075095487, 52.086600916073671 ], [ 5.323429635907794, 52.086756751346933 ], [ 5.324201384405542, 52.087597743680426 ], [ 5.324179321714284, 52.087739211437167 ], [ 5.323240301838505, 52.088041141455214 ], [ 5.32299823657975, 52.087819998357901 ], [ 5.320418274541494, 52.087940619166702 ], [ 5.319967845173013, 52.089061187412092 ], [ 5.30939314486379, 52.092538209593435 ], [ 5.300298352749595, 52.09582250832765 ], [ 5.29968399803754, 52.096685438512189 ], [ 5.301329541595295, 52.097076697496028 ], [ 5.300315743851415, 52.098638856174446 ], [ 5.302668644456022, 52.099291145886426 ], [ 5.3021255016755, 52.100271364690315 ], [ 5.30570379040682, 52.101246062288673 ], [ 5.306284853379881, 52.100606838556097 ], [ 5.313720280466422, 52.102627563367605 ], [ 5.314293632203307, 52.102003556907043 ], [ 5.31745501605837, 52.102867079291606 ], [ 5.317499060684693, 52.103039236007554 ], [ 5.316562441075969, 52.104224685065709 ], [ 5.317560763192098, 52.104639519885858 ], [ 5.318913426848048, 52.104893465607994 ], [ 5.318903926909655, 52.10541351641838 ], [ 5.319555607255199, 52.105774347942273 ], [ 5.318681839303617, 52.106376086286744 ], [ 5.318652669120214, 52.106567274062904 ], [ 5.320400210646277, 52.107028440078764 ], [ 5.319197013184003, 52.108102179801548 ], [ 5.315535079299789, 52.109887140008667 ], [ 5.314896748802414, 52.109562768122657 ], [ 5.314761105773615, 52.109172003625105 ], [ 5.314829815662586, 52.108511906025235 ], [ 5.313013391551861, 52.109726943353806 ], [ 5.310916037044199, 52.108501039496119 ], [ 5.306487815072134, 52.110367112107447 ], [ 5.29896387938413, 52.111901716049019 ], [ 5.292492628236659, 52.114386508279559 ], [ 5.290603156591566, 52.114098692138846 ], [ 5.290371994265709, 52.114241909236554 ], [ 5.284484134121324, 52.112789947374004 ], [ 5.283321012165051, 52.112833384682347 ], [ 5.282811477938178, 52.112488413870231 ], [ 5.281525570002259, 52.113555332049927 ], [ 5.27934083581311, 52.116942191039143 ], [ 5.278977895261553, 52.11686652532623 ], [ 5.278718695507338, 52.117189755303215 ], [ 5.277152959209068, 52.119479356816164 ], [ 5.277315020381312, 52.119857566794799 ], [ 5.276942427412825, 52.11995290659501 ], [ 5.27198993744311, 52.127129811186357 ], [ 5.264144505361473, 52.125193924917973 ], [ 5.261619386249475, 52.128801173036358 ], [ 5.259440978590088, 52.132327896388063 ], [ 5.256005587297755, 52.136771831636786 ], [ 5.255761585167559, 52.137503657408075 ], [ 5.255371942798177, 52.138884424102223 ], [ 5.256742452009726, 52.143285962169173 ], [ 5.255018092352817, 52.149186021789035 ], [ 5.253888267981218, 52.151295186758013 ], [ 5.255760540613172, 52.151639867982901 ], [ 5.254926532355284, 52.153086582329507 ], [ 5.254938145072949, 52.153522298786804 ], [ 5.252755516827662, 52.157068132562067 ], [ 5.25208960912236, 52.157088840358412 ], [ 5.250923104756711, 52.156846643448553 ], [ 5.24525243989951, 52.166836312773214 ], [ 5.244972844176786, 52.166852648059702 ], [ 5.243334333541592, 52.169967199662175 ], [ 5.24169166229117, 52.168605697694098 ], [ 5.240929097342434, 52.168606246002525 ], [ 5.236267889531057, 52.167819109510774 ], [ 5.223979457943905, 52.165510475515703 ], [ 5.223896147086106, 52.166695665801441 ], [ 5.223004401753923, 52.170230918685398 ], [ 5.222798330420969, 52.174712673191095 ], [ 5.221313165018074, 52.174678985041098 ], [ 5.221062543423375, 52.178334196769242 ], [ 5.215486500342488, 52.177198961952129 ], [ 5.212223551640425, 52.176337541390524 ], [ 5.212412473141192, 52.177342709338369 ], [ 5.209329956540783, 52.177825119176077 ], [ 5.210966770392472, 52.180894044774412 ], [ 5.213837144120381, 52.18132690742317 ], [ 5.214675243878538, 52.183810889890417 ], [ 5.214203906915897, 52.18450232670444 ], [ 5.21296657314848, 52.184642951094439 ], [ 5.215145912662351, 52.188742876810593 ], [ 5.213359171020685, 52.190128275259198 ], [ 5.213498217631477, 52.191536432742325 ], [ 5.214430110216374, 52.191807887418697 ], [ 5.214567020098537, 52.191678879315816 ], [ 5.215788397250992, 52.191566785632254 ], [ 5.216346748061322, 52.191890129964193 ], [ 5.2175927069864, 52.191931512404388 ], [ 5.217649456463634, 52.192076001443631 ], [ 5.218723356701603, 52.192430652148104 ], [ 5.217280840764372, 52.193902529039676 ], [ 5.216238444901065, 52.195302441817006 ], [ 5.216257239777152, 52.195726399942494 ], [ 5.215385988656042, 52.198246949258099 ], [ 5.214686630497252, 52.19943221184969 ], [ 5.21424862266651, 52.19958349705778 ], [ 5.214329362911816, 52.20074387735977 ], [ 5.216394001336039, 52.203005015404074 ], [ 5.215626050743553, 52.204264486899412 ], [ 5.217303974374438, 52.206188983842566 ], [ 5.217250954293731, 52.206325739265473 ], [ 5.216628667408196, 52.206443257298517 ], [ 5.22058720254669, 52.215752039480584 ], [ 5.224793583030448, 52.225094698512564 ], [ 5.276530812760393, 52.223723354328207 ], [ 5.283665433641112, 52.223397852939101 ], [ 5.284670271591105, 52.223052141384251 ], [ 5.287463788098146, 52.222783113268967 ], [ 5.29320314422908, 52.22324488654457 ], [ 5.294173575894647, 52.223445253012741 ], [ 5.300932563899672, 52.223422956385832 ], [ 5.301678502346829, 52.222896527418321 ], [ 5.302248621679436, 52.221600785216907 ], [ 5.305684679138357, 52.220338048760119 ], [ 5.3055167565491, 52.219675408568378 ], [ 5.306872728525783, 52.219173427680005 ], [ 5.30736151890651, 52.21988474326831 ], [ 5.308048110207372, 52.220340302112206 ], [ 5.309291213332346, 52.220704689828224 ], [ 5.311986627972501, 52.22105504042969 ], [ 5.312861470876616, 52.221514724131332 ], [ 5.313207829080013, 52.221843832954832 ], [ 5.313665016865268, 52.22272239912116 ], [ 5.314792569718308, 52.223870608652504 ], [ 5.314857493840156, 52.224196871457842 ], [ 5.31469500416935, 52.224592573661099 ], [ 5.314083677126539, 52.225234702084542 ], [ 5.313255735850729, 52.225682251549131 ], [ 5.311984792624611, 52.224707342870801 ], [ 5.31141967931621, 52.224469930006599 ], [ 5.310757458899921, 52.225485068520243 ], [ 5.310238322534629, 52.225915355763505 ], [ 5.310822852110627, 52.226233198851006 ], [ 5.311636568899004, 52.226417479521459 ], [ 5.311671503070052, 52.226570647027174 ], [ 5.310347662058329, 52.227938613836535 ], [ 5.30741468367882, 52.229302845027355 ], [ 5.306833125835226, 52.229879338235115 ], [ 5.306701051184973, 52.230368477657784 ], [ 5.307062119045282, 52.23109246289755 ], [ 5.308010201097839, 52.2316450760202 ], [ 5.31239765310429, 52.232776099511533 ], [ 5.312961606215469, 52.233177146251826 ], [ 5.313415781000771, 52.234132696431018 ], [ 5.313530003235956, 52.234956942959315 ], [ 5.313401642066432, 52.235716820749396 ], [ 5.312289209828352, 52.237488734061692 ], [ 5.312566744494774, 52.23909872320246 ], [ 5.311035856686564, 52.241766222348303 ], [ 5.310976073783337, 52.243341160980009 ], [ 5.310565746189368, 52.245218233923495 ], [ 5.310649330843164, 52.245997429988456 ], [ 5.312510286944263, 52.248874255704145 ], [ 5.31324407871836, 52.250927633910798 ], [ 5.314174301216461, 52.251864892580237 ], [ 5.316133420595364, 52.252373548108629 ], [ 5.321699029866259, 52.252503004904611 ], [ 5.324360069705689, 52.25291083688527 ], [ 5.32723917499342, 52.254052975289085 ], [ 5.328703450026348, 52.255308508502104 ], [ 5.328952604537141, 52.256033186493823 ], [ 5.328547867746809, 52.25711987576063 ], [ 5.326594556949456, 52.258669909255396 ], [ 5.323903634158557, 52.260154695815423 ], [ 5.323054606999319, 52.260778453586653 ], [ 5.322332954639395, 52.26162104877686 ], [ 5.32214523682581, 52.262621838219644 ], [ 5.322453654803124, 52.263527864246136 ], [ 5.323021880849486, 52.264115739536422 ], [ 5.326063092905974, 52.265598044711389 ], [ 5.327235506333574, 52.266500266522847 ], [ 5.32827544232414, 52.268026844814742 ], [ 5.3306463935515, 52.272174092214698 ], [ 5.330518965284131, 52.272337235430882 ], [ 5.331329115307287, 52.273563684316983 ], [ 5.331244503449037, 52.273710605477795 ] ], [ [ 5.386517617892698, 52.253878958769228 ], [ 5.386321022421693, 52.253959518610884 ], [ 5.386213402945734, 52.253924659875537 ], [ 5.386293120586194, 52.253852120609082 ], [ 5.386517617892698, 52.253878958769228 ] ], [ [ 5.37850284318973, 52.254512305235188 ], [ 5.37837002400801, 52.254516680142466 ], [ 5.378229274033099, 52.254137103029784 ], [ 5.378515723632797, 52.254512758509804 ], [ 5.37850284318973, 52.254512305235188 ] ] ] } }
]
}
