{
"type": "FeatureCollection",
"name": "SWVPO2809",
"crs": { "type": "name", "properties": { "name": "urn:ogc:def:crs:OGC:1.3:CRS84" } },
"features": [
{ "type": "Feature", "properties": { "PO SWV": "PO2809", "strokeColor": "#A9A9A9", "strokeWidth": 2, "fillColor": "#ADD8E6" }, "geometry": { "type": "Polygon", "coordinates": [ [ [ 4.558247156628815, 51.835289203998073 ], [ 4.558701939955865, 51.835916930123737 ], [ 4.558942153140313, 51.836580285760597 ], [ 4.558544937182188, 51.836877392116989 ], [ 4.558920694249782, 51.837226213147375 ], [ 4.559338146525771, 51.838171255248298 ], [ 4.559947448508217, 51.838866413535591 ], [ 4.560806943481571, 51.839497150506439 ], [ 4.564051584849631, 51.841165075436983 ], [ 4.56612926735378, 51.842549773109042 ], [ 4.569147387283829, 51.844960071475079 ], [ 4.571037603651729, 51.847214579762969 ], [ 4.58528180853839, 51.842642197706049 ], [ 4.595145548611424, 51.840274578856842 ], [ 4.60010171422081, 51.838846877646432 ], [ 4.604808696403826, 51.84845008517393 ], [ 4.606687786261357, 51.848522687113821 ], [ 4.608080493429426, 51.849063392408915 ], [ 4.608258083493554, 51.849509342344156 ], [ 4.613598348576194, 51.850893394941593 ], [ 4.618689336955215, 51.851335083129705 ], [ 4.62139686987498, 51.852440913906442 ], [ 4.623384815024334, 51.853823375613928 ], [ 4.625961583024962, 51.85459936993044 ], [ 4.627315342989273, 51.854752863926777 ], [ 4.629158501133767, 51.854342908714365 ], [ 4.629977368572511, 51.853874056733645 ], [ 4.631942778347653, 51.851642257146636 ], [ 4.633138499719145, 51.850646927064332 ], [ 4.63350861871315, 51.850522256339275 ], [ 4.633502122904204, 51.850359973152472 ], [ 4.635442986902174, 51.850199224762065 ], [ 4.636524419731086, 51.849767789225361 ], [ 4.637121339302925, 51.850021574165815 ], [ 4.639616626426711, 51.851809563855419 ], [ 4.64161942729531, 51.853625326632269 ], [ 4.643973633772145, 51.854717318923051 ], [ 4.645453927482031, 51.855767729641421 ], [ 4.645491953942987, 51.85604116433678 ], [ 4.644648449291974, 51.856486274376522 ], [ 4.642610061024493, 51.856254332823433 ], [ 4.640569122326985, 51.856257682453645 ], [ 4.640455487106359, 51.857317699097912 ], [ 4.641161453918654, 51.857656900289314 ], [ 4.640332168506364, 51.857940861808366 ], [ 4.640129072099641, 51.858911423812678 ], [ 4.638850975790782, 51.860597578890328 ], [ 4.635839222769107, 51.862045359925645 ], [ 4.633752011893088, 51.863442024167931 ], [ 4.630832860178713, 51.864305959571176 ], [ 4.631290222811422, 51.865180585613786 ], [ 4.630870194204431, 51.86515424444719 ], [ 4.630807363103738, 51.865303874898856 ], [ 4.632937465222416, 51.867878051551713 ], [ 4.632874089258483, 51.868038984119586 ], [ 4.633236303069657, 51.868419343179156 ], [ 4.633642517829739, 51.869432420565921 ], [ 4.633934132184891, 51.869454331947338 ], [ 4.633976981676748, 51.869120584019576 ], [ 4.634310507014816, 51.868963146359675 ], [ 4.635320892037109, 51.8691911729426 ], [ 4.635177753952467, 51.869642703796643 ], [ 4.63390491339301, 51.870534353555684 ], [ 4.62823074346739, 51.877796896586567 ], [ 4.627361134624759, 51.878996293264279 ], [ 4.626509030476063, 51.8802903922033 ], [ 4.62650851798298, 51.880291178587171 ], [ 4.626307019959085, 51.880603558126722 ], [ 4.628003511409077, 51.880858952099786 ], [ 4.628253032331754, 51.880701422905432 ], [ 4.628780647439375, 51.88109162227407 ], [ 4.637062737230921, 51.876195278488133 ], [ 4.642139810864313, 51.880099442387383 ], [ 4.644636026708834, 51.879650531537017 ], [ 4.645177761721174, 51.879137525758971 ], [ 4.646839715245047, 51.878706183663709 ], [ 4.658536132954248, 51.876298415878288 ], [ 4.663966249714539, 51.874882512578978 ], [ 4.670303212657642, 51.874979160118187 ], [ 4.672914913986567, 51.874691943789564 ], [ 4.673395791844032, 51.874953307831063 ], [ 4.676031091601168, 51.874786710047779 ], [ 4.677909036290421, 51.875203470380264 ], [ 4.679947368889163, 51.875956658690221 ], [ 4.681130702504774, 51.876569268365088 ], [ 4.685530540326274, 51.877632294900067 ], [ 4.686743275995745, 51.878318372441605 ], [ 4.687833193668962, 51.878619308746494 ], [ 4.697083628336863, 51.879739650966059 ], [ 4.699206220936095, 51.879836456875161 ], [ 4.700074207012519, 51.879642723313907 ], [ 4.690397992106688, 51.866956628172694 ], [ 4.688481958090013, 51.867023740010723 ], [ 4.687249616870703, 51.866752915626165 ], [ 4.686387943549492, 51.866368800729006 ], [ 4.685165872072869, 51.865135217407406 ], [ 4.682292528281449, 51.86069793264825 ], [ 4.681771662623976, 51.860230325668525 ], [ 4.680622013892396, 51.85968807812224 ], [ 4.681210468149358, 51.858757181819279 ], [ 4.68305786978815, 51.848659353778132 ], [ 4.681830610512502, 51.849193190118463 ], [ 4.681283312308994, 51.848753630616031 ], [ 4.681293047896333, 51.848595185581466 ], [ 4.681787319861503, 51.848384486950415 ], [ 4.681429538988167, 51.847109390567503 ], [ 4.687214001098222, 51.847133403129433 ], [ 4.689909665747087, 51.846012434030747 ], [ 4.691897974047909, 51.846035865995255 ], [ 4.695422189728291, 51.844872119011406 ], [ 4.695605391892633, 51.844237108001046 ], [ 4.696024602799307, 51.84382039514513 ], [ 4.699655651892913, 51.842881735053211 ], [ 4.701827658034586, 51.842059873142468 ], [ 4.706681342302672, 51.840972322816562 ], [ 4.708488368948274, 51.840967981465731 ], [ 4.708573154938922, 51.840813358777076 ], [ 4.709770991338885, 51.840927822841238 ], [ 4.709744049229711, 51.840661919161086 ], [ 4.711584386616207, 51.840214665953617 ], [ 4.712211914122375, 51.840931907318748 ], [ 4.713630867692332, 51.840970165595103 ], [ 4.715355213412566, 51.841246144366451 ], [ 4.734712451395021, 51.845998827664303 ], [ 4.737188006250976, 51.846356681830585 ], [ 4.737661596585809, 51.844542593084093 ], [ 4.73840153542113, 51.843719889322948 ], [ 4.740201741787604, 51.843672971230355 ], [ 4.74030672848981, 51.843162732860037 ], [ 4.743021234840114, 51.842722245957219 ], [ 4.743301426543064, 51.842642334731202 ], [ 4.743411595505117, 51.842346003210594 ], [ 4.742698392231986, 51.841085439356192 ], [ 4.741329840036962, 51.840835799481596 ], [ 4.736759247490074, 51.833367013470038 ], [ 4.745515493127143, 51.831304689955182 ], [ 4.74603730196536, 51.831606189832385 ], [ 4.746506064626652, 51.831483677441156 ], [ 4.747746922054377, 51.832132732580931 ], [ 4.748027895475376, 51.832008672462003 ], [ 4.749167594761402, 51.832454268092661 ], [ 4.748819352690243, 51.83315809130179 ], [ 4.750563520379416, 51.833558904936162 ], [ 4.750749758958705, 51.833230340499533 ], [ 4.754042193573574, 51.833630616930542 ], [ 4.754339160330829, 51.834968616034999 ], [ 4.754209103169116, 51.835149243605741 ], [ 4.753332702520818, 51.83519091313029 ], [ 4.751705709376083, 51.834684314378961 ], [ 4.749674796751169, 51.834559469096199 ], [ 4.750963582871977, 51.83614262485856 ], [ 4.749964937203632, 51.838126320083326 ], [ 4.750764237569213, 51.838217752415261 ], [ 4.756044799282662, 51.840148642451943 ], [ 4.760172918199772, 51.840299528283964 ], [ 4.760923425989594, 51.843675207074121 ], [ 4.762606009364823, 51.843679298436498 ], [ 4.765226431596663, 51.844156322915381 ], [ 4.766578335281403, 51.84379094287241 ], [ 4.768176164293386, 51.843778273683021 ], [ 4.771883050839379, 51.844597583605022 ], [ 4.773162715306974, 51.844612565922468 ], [ 4.774720205232543, 51.845493752943007 ], [ 4.780386122717602, 51.846540111777351 ], [ 4.785930189699795, 51.845402033142122 ], [ 4.787160288196219, 51.844882824660473 ], [ 4.788143594887587, 51.844837492876131 ], [ 4.795608789632105, 51.844875984101932 ], [ 4.803120589209743, 51.846259388841432 ], [ 4.803728684342093, 51.838606505833333 ], [ 4.80455229501157, 51.837706984535679 ], [ 4.804048758045394, 51.83736790024475 ], [ 4.803905433468298, 51.836819485298548 ], [ 4.804242131411, 51.832196491291029 ], [ 4.804744131973661, 51.830858476290686 ], [ 4.804882151552957, 51.829972163353212 ], [ 4.804398479184716, 51.829790059959031 ], [ 4.804749311972794, 51.823749869153964 ], [ 4.806283283939591, 51.823552610225384 ], [ 4.806808154944328, 51.82319325409285 ], [ 4.807813345970798, 51.823116516555196 ], [ 4.806436377384986, 51.821993841675287 ], [ 4.80646315860253, 51.821828568107804 ], [ 4.808153773586229, 51.821705724751894 ], [ 4.811004832462739, 51.82096379385532 ], [ 4.811285708824796, 51.821021312106744 ], [ 4.811314621726656, 51.818752597810743 ], [ 4.807973100452906, 51.818564651651286 ], [ 4.805235340973393, 51.818100973006388 ], [ 4.800152727661569, 51.817667256193296 ], [ 4.786793531652625, 51.815413189315308 ], [ 4.782540203700051, 51.815232646149568 ], [ 4.772096632283933, 51.815418979892058 ], [ 4.76795771425875, 51.815818173785097 ], [ 4.765062110165271, 51.816446493126158 ], [ 4.762154335513021, 51.817400787822379 ], [ 4.754650394419605, 51.820778171492044 ], [ 4.751913562944887, 51.821603365635646 ], [ 4.748974223709632, 51.822157062592282 ], [ 4.745063192272708, 51.822395330612288 ], [ 4.735947847182417, 51.822133465417963 ], [ 4.729642660392865, 51.822268668609951 ], [ 4.713862778352028, 51.823397195707614 ], [ 4.70581657073607, 51.823376854127638 ], [ 4.705466469571917, 51.825208051514331 ], [ 4.704064376011172, 51.824874093367654 ], [ 4.703432509607139, 51.824464989888028 ], [ 4.702675577930804, 51.824316017834022 ], [ 4.697547226073095, 51.824386932028467 ], [ 4.697696135165918, 51.822678499235955 ], [ 4.695362915647443, 51.822547033887069 ], [ 4.684618723693542, 51.820874609532346 ], [ 4.676911056041569, 51.820494277632946 ], [ 4.671715959531668, 51.820953711370279 ], [ 4.670426639878325, 51.820921417731839 ], [ 4.665974562217944, 51.82011294978961 ], [ 4.661850377515647, 51.818599276087859 ], [ 4.656039488189369, 51.815390019582793 ], [ 4.653144865977401, 51.813536786535934 ], [ 4.645635407812949, 51.807530004946109 ], [ 4.643289412919486, 51.806326602799182 ], [ 4.643056784526882, 51.806455833231617 ], [ 4.639895276951528, 51.80477921573987 ], [ 4.634879096705174, 51.802910517955951 ], [ 4.630140166385519, 51.801786307271406 ], [ 4.626024582516533, 51.80112144291067 ], [ 4.623291529044501, 51.800860080729358 ], [ 4.621213758152317, 51.800903376673567 ], [ 4.62113695182756, 51.8007164075429 ], [ 4.617303348418011, 51.801389915547183 ], [ 4.602874317215763, 51.805150445973815 ], [ 4.599018527312339, 51.806007075231747 ], [ 4.59335007580678, 51.806678405269047 ], [ 4.582664961950011, 51.807405050644391 ], [ 4.57953285143673, 51.80790588168918 ], [ 4.571134202362663, 51.810565729655728 ], [ 4.566360470923116, 51.812917072898301 ], [ 4.564391910850832, 51.814258878249277 ], [ 4.562582360406068, 51.816053209539803 ], [ 4.561104484905544, 51.817868759099959 ], [ 4.560064028457747, 51.819664648046796 ], [ 4.559168404100437, 51.823246027572758 ], [ 4.557156435521139, 51.826805160000582 ], [ 4.55566981106319, 51.828446598434745 ], [ 4.553513714651383, 51.829865638690904 ], [ 4.556602250362661, 51.83321137196932 ], [ 4.558247156628815, 51.835289203998073 ] ] ] } }
]
}
