{
"type": "FeatureCollection",
"name": "SWVPO2801",
"crs": { "type": "name", "properties": { "name": "urn:ogc:def:crs:OGC:1.3:CRS84" } },
"features": [
{ "type": "Feature", "properties": { "PO SWV": "PO2801", "strokeColor": "#A9A9A9", "strokeWidth": 2, "fillColor": "#ADD8E6" }, "geometry": { "type": "MultiPolygon", "coordinates": [ [ [ [ 4.303421016281673, 52.12887597762731 ], [ 4.309847147405653, 52.133144554706085 ], [ 4.317490784684185, 52.139348916746698 ], [ 4.322073296662116, 52.142616885830037 ], [ 4.323276368664597, 52.143709787169975 ], [ 4.32395881283517, 52.144076328135263 ], [ 4.333226677283344, 52.151410392242369 ], [ 4.340224610968196, 52.157420998199598 ], [ 4.347546329923856, 52.164114101456903 ], [ 4.35750944598314, 52.171804093960532 ], [ 4.364358551085807, 52.177756827055056 ], [ 4.369932824720523, 52.183096866671399 ], [ 4.374367081552981, 52.186948598931565 ], [ 4.374375323426376, 52.186792479718754 ], [ 4.391591059801074, 52.175805727703171 ], [ 4.392225515858764, 52.17499184810243 ], [ 4.394965244642105, 52.174520552429577 ], [ 4.395972167335993, 52.173592982090526 ], [ 4.397566354098934, 52.173103521075888 ], [ 4.398968590719242, 52.171764760702985 ], [ 4.3991509994937, 52.171810927012473 ], [ 4.400161617249339, 52.171217345995679 ], [ 4.404083631769354, 52.168272242495334 ], [ 4.404754515454996, 52.167414287905707 ], [ 4.409257899846119, 52.169208844592283 ], [ 4.41009342408021, 52.167781561076218 ], [ 4.409782259967522, 52.167025054105856 ], [ 4.410467430281574, 52.166064995101898 ], [ 4.410969577679658, 52.164092923392779 ], [ 4.411548609444043, 52.163390635372188 ], [ 4.412142782968663, 52.163368704060723 ], [ 4.413122576903586, 52.16371659479799 ], [ 4.414177710938997, 52.162686420328122 ], [ 4.414962250044079, 52.162244895710622 ], [ 4.415950697862272, 52.162108757490742 ], [ 4.41777056764467, 52.161378775968075 ], [ 4.418172921382338, 52.161420142210225 ], [ 4.419763646860743, 52.162236165099962 ], [ 4.425947530234645, 52.159133373812402 ], [ 4.43113521672805, 52.158380952863126 ], [ 4.434245292198374, 52.157354752404949 ], [ 4.434735491098731, 52.157053422098741 ], [ 4.438287409659311, 52.156376711781569 ], [ 4.439514023266476, 52.156031070224515 ], [ 4.44048140399017, 52.155555913668771 ], [ 4.444138331627014, 52.15798181215937 ], [ 4.445134511395425, 52.158905257376126 ], [ 4.445343598361365, 52.159334978490755 ], [ 4.445928990355607, 52.159641529514225 ], [ 4.448459829219265, 52.162011724186584 ], [ 4.44675565794068, 52.164250886435909 ], [ 4.445954576325185, 52.165597491517268 ], [ 4.445592420816614, 52.166452796803661 ], [ 4.445483914552157, 52.167783160931265 ], [ 4.445690780591485, 52.169812445490471 ], [ 4.448689848599542, 52.173383974817547 ], [ 4.448938538810253, 52.174947630311003 ], [ 4.448894169070737, 52.175605772780393 ], [ 4.448058813936198, 52.17737630503072 ], [ 4.446723807774149, 52.178457001786626 ], [ 4.445865169962241, 52.178893550564446 ], [ 4.443977448525433, 52.179357174657511 ], [ 4.437630530169883, 52.180194743058316 ], [ 4.435755591428927, 52.180562543416528 ], [ 4.435155322398155, 52.180843855544218 ], [ 4.437703839183077, 52.181615580080823 ], [ 4.440081335129682, 52.180970868079847 ], [ 4.448363901342955, 52.182509492728762 ], [ 4.451955481942541, 52.182790799514443 ], [ 4.452038568566727, 52.18299116671129 ], [ 4.452635611510288, 52.183004840545841 ], [ 4.454775741125963, 52.183534129530926 ], [ 4.458082494987513, 52.183527853375658 ], [ 4.458150222204558, 52.18337022908387 ], [ 4.458668941338645, 52.183366776957442 ], [ 4.463625935977436, 52.192633568795095 ], [ 4.46354384910261, 52.192818956267161 ], [ 4.462811145703997, 52.19313091079966 ], [ 4.463716788682311, 52.193364161976461 ], [ 4.464184658621893, 52.194106390783119 ], [ 4.464452041109949, 52.194896546748623 ], [ 4.464726022490776, 52.195077354651445 ], [ 4.464990538282197, 52.195045164324036 ], [ 4.46616658781383, 52.196272915343023 ], [ 4.466466924863748, 52.196860464231847 ], [ 4.466188160460713, 52.19751320997149 ], [ 4.462031402537552, 52.197262754690477 ], [ 4.462932917043459, 52.19829663040629 ], [ 4.463574758211315, 52.199324429025786 ], [ 4.463330589751116, 52.199787659277618 ], [ 4.463388295035058, 52.200013476421006 ], [ 4.463970895798606, 52.20021242634671 ], [ 4.464834086996452, 52.200130821580046 ], [ 4.466346758105395, 52.200456963571241 ], [ 4.46727819619232, 52.2012775687298 ], [ 4.467453597834911, 52.201730060820005 ], [ 4.467671173187653, 52.201833326672137 ], [ 4.470227794958222, 52.202162425453636 ], [ 4.470385050331579, 52.201727581700915 ], [ 4.470663624050859, 52.201505462271371 ], [ 4.471538397623826, 52.201503203386416 ], [ 4.472857814717709, 52.202560885353101 ], [ 4.476291349108897, 52.203135569885234 ], [ 4.477325462273, 52.203748768738031 ], [ 4.478432470636318, 52.204698346562104 ], [ 4.479458375356187, 52.203366690703419 ], [ 4.479634732428576, 52.202606451006915 ], [ 4.479402624623058, 52.202371402847795 ], [ 4.479755995395068, 52.20210443865934 ], [ 4.483277262041356, 52.203517879029761 ], [ 4.483658563747765, 52.203349372458455 ], [ 4.483939951651111, 52.203431728217076 ], [ 4.484052295494697, 52.203070716811936 ], [ 4.484431808405057, 52.202933799827719 ], [ 4.486710839388633, 52.204062649133583 ], [ 4.488025548687728, 52.202823203539026 ], [ 4.489846519499666, 52.203858424868166 ], [ 4.490591119750461, 52.203332722183973 ], [ 4.491384226156191, 52.203563218362845 ], [ 4.492142359677779, 52.201278743324451 ], [ 4.492548183659865, 52.197563737415535 ], [ 4.493322881322555, 52.194988215498235 ], [ 4.492426465053998, 52.194282393828715 ], [ 4.492111251809648, 52.194382494065735 ], [ 4.490368097522934, 52.193214181682933 ], [ 4.487854388156941, 52.190852457738032 ], [ 4.487635570737959, 52.190403956812744 ], [ 4.487769030170338, 52.189806943446705 ], [ 4.488342727773906, 52.188913992710717 ], [ 4.489722506680343, 52.18764113231498 ], [ 4.489301663939706, 52.187105151766495 ], [ 4.490711138701117, 52.186737064578253 ], [ 4.490995275400795, 52.186314527273581 ], [ 4.491204224564918, 52.185371801415769 ], [ 4.491069467575123, 52.184654102625927 ], [ 4.489425536669753, 52.181706545627932 ], [ 4.490579918111611, 52.180980157123741 ], [ 4.491448537564782, 52.18085292544982 ], [ 4.492688267742215, 52.181207459058577 ], [ 4.492944327253631, 52.181447034922769 ], [ 4.494382296614124, 52.18158502876171 ], [ 4.494259512417422, 52.182013339123863 ], [ 4.49498503522365, 52.182498830882167 ], [ 4.495333963385946, 52.183840318305769 ], [ 4.500805831151595, 52.183925215889971 ], [ 4.502408598645847, 52.184419674865531 ], [ 4.503402007357849, 52.18452615871859 ], [ 4.509419107740555, 52.183803696907418 ], [ 4.517189846615061, 52.182620235950104 ], [ 4.518266956826662, 52.182407086117522 ], [ 4.518346298827711, 52.182018796556129 ], [ 4.528155628118706, 52.179753268448287 ], [ 4.530361431648162, 52.179635209028824 ], [ 4.533320752622096, 52.179594652096576 ], [ 4.533532697298858, 52.179806755490688 ], [ 4.53404425712996, 52.17982735573576 ], [ 4.536655807979562, 52.179741611519198 ], [ 4.538731438213461, 52.180056770514405 ], [ 4.53883618202183, 52.180882264032142 ], [ 4.53957417386768, 52.181599583764729 ], [ 4.544173784127479, 52.187421870684261 ], [ 4.544106816064101, 52.18756332480762 ], [ 4.543064862449071, 52.187723515497979 ], [ 4.543097410421612, 52.188089395106275 ], [ 4.54462502008504, 52.191513541466158 ], [ 4.544580261152856, 52.192193156704867 ], [ 4.546837074211931, 52.198874565502521 ], [ 4.549261081129195, 52.198839356227687 ], [ 4.549286060403256, 52.198262461572924 ], [ 4.554017190308637, 52.198234557800689 ], [ 4.554031364796129, 52.197483226730064 ], [ 4.557170971402695, 52.197643166779102 ], [ 4.557249618753994, 52.197774943249485 ], [ 4.556887669748898, 52.198173984762754 ], [ 4.556737412259076, 52.198885667163879 ], [ 4.555665624633352, 52.199272502149917 ], [ 4.555635086722672, 52.199460870619504 ], [ 4.555334129605969, 52.19959948568458 ], [ 4.555653120681042, 52.199649821097331 ], [ 4.555676889911302, 52.200053382091973 ], [ 4.559731994758001, 52.200439717316556 ], [ 4.559658601728551, 52.201902569110473 ], [ 4.561255051464197, 52.202753541627999 ], [ 4.561804183895593, 52.203667994079545 ], [ 4.560637083039325, 52.203758193977031 ], [ 4.560731439575281, 52.204868346615989 ], [ 4.558362104747609, 52.205521712475282 ], [ 4.558399610059521, 52.206576659269494 ], [ 4.558281027286939, 52.206697662359105 ], [ 4.55813383647894, 52.208611103505611 ], [ 4.558376634051871, 52.208652678679854 ], [ 4.559044502492626, 52.210285434153235 ], [ 4.555762838418374, 52.211893357762023 ], [ 4.554723678189857, 52.212034569151228 ], [ 4.554386248832225, 52.212287081850754 ], [ 4.554948109247909, 52.213505077246701 ], [ 4.555971344352645, 52.214279040744948 ], [ 4.556665405106908, 52.214603498673263 ], [ 4.557023235970055, 52.214432191505821 ], [ 4.557932754608133, 52.215046995578149 ], [ 4.557959059451218, 52.215503223902289 ], [ 4.557288242329676, 52.216266362061475 ], [ 4.557265057689198, 52.216487194904367 ], [ 4.557644567004441, 52.217413128111495 ], [ 4.558333488409751, 52.218339410094366 ], [ 4.558530467195127, 52.218775547857149 ], [ 4.558450370720728, 52.218897080761778 ], [ 4.570236673976201, 52.217126858340968 ], [ 4.571563933439287, 52.217058900335019 ], [ 4.573387164215612, 52.217264349729035 ], [ 4.581715651644149, 52.218893196233935 ], [ 4.583558674167634, 52.218974056572812 ], [ 4.601722488882547, 52.214750422025276 ], [ 4.618149039563265, 52.21456841980563 ], [ 4.632609370644293, 52.216281106706589 ], [ 4.641778289132911, 52.219887954351044 ], [ 4.644201449766101, 52.220700612778387 ], [ 4.644127219483798, 52.220473287595212 ], [ 4.644477848522973, 52.219593405957689 ], [ 4.645043444227569, 52.217099797604355 ], [ 4.644758559949064, 52.216958406174527 ], [ 4.645265050422372, 52.215216924174612 ], [ 4.645395560365294, 52.214935747385972 ], [ 4.645740377450691, 52.214964774135701 ], [ 4.64641713725769, 52.213466392465968 ], [ 4.650377914087242, 52.20145915350858 ], [ 4.650289007086832, 52.201341357917592 ], [ 4.650664400482391, 52.200055109578351 ], [ 4.633848644099236, 52.185966250917701 ], [ 4.633881869044532, 52.185735349440947 ], [ 4.632984480133685, 52.185242909694097 ], [ 4.633011850162177, 52.185092835001569 ], [ 4.633922510056052, 52.1846951279922 ], [ 4.633542393384013, 52.184715176077766 ], [ 4.632313198494725, 52.183754603923433 ], [ 4.631566428998151, 52.180130461727742 ], [ 4.624047340000028, 52.178331626928774 ], [ 4.61812962461856, 52.176560490665771 ], [ 4.611133741566348, 52.173667874700477 ], [ 4.604294400962651, 52.17044686704542 ], [ 4.601082873875731, 52.169869578479123 ], [ 4.600257375977872, 52.171887388476982 ], [ 4.599370362258035, 52.173526735250164 ], [ 4.599327953021185, 52.174065534255774 ], [ 4.598919647300946, 52.174707902480215 ], [ 4.596880835604333, 52.177417571712411 ], [ 4.594068532189783, 52.180294314905545 ], [ 4.588984543019184, 52.179507497718028 ], [ 4.571696549496032, 52.172794676832808 ], [ 4.568303286989576, 52.17064092427929 ], [ 4.564873014910448, 52.16808937348295 ], [ 4.564654357877226, 52.168222969624722 ], [ 4.562376302044651, 52.166234054554494 ], [ 4.561734324049587, 52.166422369519609 ], [ 4.560808669584363, 52.165630317785904 ], [ 4.560879189130685, 52.165455362163591 ], [ 4.560223842767272, 52.164831088723666 ], [ 4.5586819461896, 52.163538326694677 ], [ 4.558705480915089, 52.163330853004894 ], [ 4.560217716281545, 52.162592830141598 ], [ 4.560166987836418, 52.162255024966043 ], [ 4.560440531216373, 52.161969790795624 ], [ 4.560855415557619, 52.161827292281821 ], [ 4.561226116327015, 52.161917199137847 ], [ 4.561925575834452, 52.161369675798298 ], [ 4.562109574907234, 52.161159132186924 ], [ 4.561535645760442, 52.160800329270913 ], [ 4.562163317274181, 52.160156209511825 ], [ 4.571339217543879, 52.15308855877317 ], [ 4.570368749319497, 52.142893214751055 ], [ 4.567598333998073, 52.138133289588801 ], [ 4.567270340183024, 52.137007503574907 ], [ 4.566032713945939, 52.135333480966551 ], [ 4.5655785617897, 52.134982107847883 ], [ 4.563148710492361, 52.134158864474593 ], [ 4.562372904643941, 52.13350638157209 ], [ 4.561974709917736, 52.132764459304987 ], [ 4.561683538271138, 52.132787144990658 ], [ 4.56124942978448, 52.132357776015873 ], [ 4.560134350606251, 52.132011612541319 ], [ 4.558135655584528, 52.133261205474227 ], [ 4.554516296096599, 52.136264419867693 ], [ 4.551222627797973, 52.138247459023113 ], [ 4.550708950571351, 52.138477339835141 ], [ 4.549116642204069, 52.137698654175765 ], [ 4.548961081135339, 52.137439138592633 ], [ 4.550110601582948, 52.136751239482791 ], [ 4.546223011508402, 52.134075226838561 ], [ 4.546385409206631, 52.133860203816084 ], [ 4.545918651414713, 52.133227036074025 ], [ 4.547468351298244, 52.132279912946196 ], [ 4.545018964115586, 52.129152691420089 ], [ 4.545219970296018, 52.128961467934353 ], [ 4.544914524125045, 52.128614843814965 ], [ 4.544683392647079, 52.12861314665313 ], [ 4.542523708701142, 52.125120634473951 ], [ 4.54130695705879, 52.123530739409013 ], [ 4.540547860211753, 52.121598896857769 ], [ 4.54062635580148, 52.121463345216469 ], [ 4.542809127947832, 52.121153597898122 ], [ 4.541847373141865, 52.118774000453918 ], [ 4.536003125250006, 52.12023181628431 ], [ 4.536188044663353, 52.119858236187703 ], [ 4.53601625229634, 52.119659372170801 ], [ 4.535970349514114, 52.119007439645706 ], [ 4.53540526203163, 52.11875044471428 ], [ 4.536363903642169, 52.102827828386026 ], [ 4.536670479309488, 52.095595996962359 ], [ 4.536528961414335, 52.095313181298266 ], [ 4.537030283996046, 52.084044202057761 ], [ 4.535677045850125, 52.083962051148866 ], [ 4.534524655035267, 52.083584701443236 ], [ 4.530544889810911, 52.080628334488871 ], [ 4.522145516365024, 52.084888785105093 ], [ 4.514976234972194, 52.088237777121492 ], [ 4.514986577044477, 52.088408999458679 ], [ 4.514737913502875, 52.088547047846689 ], [ 4.514156096791352, 52.088687467301128 ], [ 4.513153010724772, 52.088549569129739 ], [ 4.50538046785541, 52.092605928915511 ], [ 4.504471019361547, 52.093388013943844 ], [ 4.499899390422772, 52.091728852808117 ], [ 4.499062194077256, 52.090421393486196 ], [ 4.498810875411312, 52.089451471146766 ], [ 4.499349039538626, 52.088696539378432 ], [ 4.499278052204525, 52.088504397352033 ], [ 4.497809187426814, 52.087944300588688 ], [ 4.49278166329707, 52.090005319810537 ], [ 4.491894584104933, 52.090123493251269 ], [ 4.490031526919807, 52.09761882335858 ], [ 4.490464012369078, 52.097771989886525 ], [ 4.490496889817055, 52.097913816708477 ], [ 4.470987944481843, 52.117686377074719 ], [ 4.473068835012356, 52.11891593512695 ], [ 4.472394698747421, 52.119670575020727 ], [ 4.472601792373919, 52.121228686942992 ], [ 4.472383228696233, 52.12245400177828 ], [ 4.472414434460108, 52.123387898493739 ], [ 4.473034417560397, 52.123739998030857 ], [ 4.468212874545316, 52.128627992550413 ], [ 4.467508762997579, 52.128438298671384 ], [ 4.466865303398444, 52.129077825397111 ], [ 4.46631316561767, 52.128735580732673 ], [ 4.466402019609654, 52.128447516398083 ], [ 4.465886064445456, 52.127919871672923 ], [ 4.466270704473295, 52.127361647004591 ], [ 4.465207915737662, 52.12673864714013 ], [ 4.464436218740031, 52.127393973224024 ], [ 4.452141109314871, 52.118651636156414 ], [ 4.446797721785735, 52.113700989109546 ], [ 4.443690404960961, 52.111910124357749 ], [ 4.439236990671511, 52.110166140543974 ], [ 4.437579038039337, 52.109109064713564 ], [ 4.436741406142168, 52.108210256458477 ], [ 4.435667408540296, 52.107465204032195 ], [ 4.434552476337519, 52.105410196476029 ], [ 4.433520396859732, 52.104239380191281 ], [ 4.427905577233503, 52.101581723923296 ], [ 4.423829799894361, 52.103676776327902 ], [ 4.421015325876086, 52.104643610606544 ], [ 4.421349551788675, 52.104911185835356 ], [ 4.42129939733429, 52.105059164883173 ], [ 4.414173479101905, 52.107607113879517 ], [ 4.413002447251087, 52.106738472934552 ], [ 4.411481092174969, 52.107352843583442 ], [ 4.412155924818602, 52.107886418332356 ], [ 4.412122084685199, 52.108049425129849 ], [ 4.401144578062565, 52.111968941440722 ], [ 4.395818386278259, 52.108308254119557 ], [ 4.399221669467767, 52.104085532135258 ], [ 4.388639256950753, 52.099391656469848 ], [ 4.388308313906613, 52.099459161309888 ], [ 4.388117987044977, 52.099341808355064 ], [ 4.3881588582497, 52.099180062661205 ], [ 4.377486552695354, 52.094447960446153 ], [ 4.377214691441844, 52.094533983581051 ], [ 4.374991976816412, 52.093524941963615 ], [ 4.374679660106672, 52.093946701897664 ], [ 4.37393481755098, 52.093589323180638 ], [ 4.372882095407984, 52.094917692109554 ], [ 4.370004561999917, 52.096808655786688 ], [ 4.365610441256614, 52.100529496117829 ], [ 4.363337949314861, 52.101937276611004 ], [ 4.363235008150523, 52.102214941839485 ], [ 4.362227718101294, 52.103113278446024 ], [ 4.3597255539685, 52.104985198473877 ], [ 4.3585957598473, 52.105647122946564 ], [ 4.357999720409558, 52.105462046160881 ], [ 4.354474313725763, 52.103284726867081 ], [ 4.34823200643058, 52.099973855325452 ], [ 4.342744241297025, 52.097568937862739 ], [ 4.342590265035074, 52.097692050412434 ], [ 4.342338869971939, 52.097598231773333 ], [ 4.341366322567067, 52.098442397709064 ], [ 4.338598093512374, 52.097550446668684 ], [ 4.337244766502501, 52.098869178149982 ], [ 4.335934553806768, 52.09816607202908 ], [ 4.335683851601809, 52.098172640456696 ], [ 4.33555489802121, 52.097909326902901 ], [ 4.332667467162237, 52.096959309214213 ], [ 4.332410185463328, 52.097119099472494 ], [ 4.327509890303859, 52.095680691160098 ], [ 4.323468945209938, 52.099186958791236 ], [ 4.330574801708757, 52.102182859253872 ], [ 4.330612202160986, 52.102324745087245 ], [ 4.330284640441995, 52.102641192483119 ], [ 4.33122987251534, 52.103053262592191 ], [ 4.331651998437184, 52.102699073699974 ], [ 4.332324566032932, 52.10296030483287 ], [ 4.332327822249022, 52.103117297831496 ], [ 4.33052546543453, 52.104320787771684 ], [ 4.333112630527058, 52.105645497821769 ], [ 4.333139933693262, 52.105791416284674 ], [ 4.329164384155114, 52.109170730153537 ], [ 4.330071786304895, 52.109432387502181 ], [ 4.33009016428429, 52.109610393944251 ], [ 4.329667722329208, 52.109733100785363 ], [ 4.328786192071009, 52.109447656051465 ], [ 4.302846039209868, 52.128405152570373 ], [ 4.303421016281673, 52.12887597762731 ] ] ], [ [ [ 4.644210675298763, 52.220702929393788 ], [ 4.644211003537681, 52.220702978346161 ], [ 4.644205832118062, 52.220701713226937 ], [ 4.644210675298763, 52.220702929393788 ] ] ], [ [ [ 4.644220361951454, 52.220704374026326 ], [ 4.644220743379488, 52.220704393139727 ], [ 4.644215527748774, 52.220703653070728 ], [ 4.644220361951454, 52.220704374026326 ] ] ] ] } }
]
}
