{
"type": "FeatureCollection",
"name": "SWVPO2202",
"crs": { "type": "name", "properties": { "name": "urn:ogc:def:crs:OGC:1.3:CRS84" } },
"features": [
{ "type": "Feature", "properties": { "PO SWV": "PO2202", "strokeColor": "#A9A9A9", "strokeWidth": 2, "fillColor": "#ADD8E6" }, "geometry": { "type": "Polygon", "coordinates": [ [ [ 6.71747964374342, 52.898684347617944 ], [ 6.717636851958467, 52.899046279082945 ], [ 6.715046260874308, 52.899091098107796 ], [ 6.71418419478571, 52.902860207960892 ], [ 6.718582273741657, 52.901088665333454 ], [ 6.719089184220612, 52.901329375125592 ], [ 6.718900410141289, 52.901706967642255 ], [ 6.718985837355977, 52.901850838969651 ], [ 6.720948311868122, 52.901836366570151 ], [ 6.724048106817853, 52.902501490092185 ], [ 6.723859041645537, 52.903023972716582 ], [ 6.723950554561693, 52.903159892811658 ], [ 6.726701284085535, 52.903155269571627 ], [ 6.726855835110113, 52.903548870977026 ], [ 6.728924887930505, 52.90362707156703 ], [ 6.728126809791409, 52.907054492069783 ], [ 6.72690252285846, 52.915875700310288 ], [ 6.72624795001935, 52.927394355029612 ], [ 6.724075223846321, 52.937285059092666 ], [ 6.731299424215125, 52.937650560530855 ], [ 6.727669827414934, 52.954810532002085 ], [ 6.788738837172064, 52.962872880475722 ], [ 6.790278012746366, 52.963306455020543 ], [ 6.790605143613719, 52.963066524655524 ], [ 6.79078498920948, 52.963449918018277 ], [ 6.839489053063748, 52.978258074464698 ], [ 6.857784729283625, 52.981238006008375 ], [ 6.856514136564054, 52.984756766796544 ], [ 6.856592448853496, 52.984889482468787 ], [ 6.870781580190696, 52.987160037011293 ], [ 6.872389988791311, 52.983532697770748 ], [ 6.935647413536333, 52.993472573298135 ], [ 6.936675568068098, 52.992835601740609 ], [ 7.01603477605708, 52.924655746869036 ], [ 7.021570242409188, 52.921529236861616 ], [ 7.026144014864276, 52.91925676127012 ], [ 7.045631410388856, 52.915988524032862 ], [ 7.01499381394044, 52.873085919404836 ], [ 7.040282352440794, 52.872994697453841 ], [ 7.042243372687262, 52.869265416576042 ], [ 7.042181640414892, 52.869132461466037 ], [ 7.04168009199226, 52.869070145677718 ], [ 7.043541247755256, 52.865332783815958 ], [ 7.046493742769208, 52.865935053970844 ], [ 7.05148414052205, 52.861297327388975 ], [ 7.052364225639932, 52.861573064205032 ], [ 7.057507078258134, 52.856447301826933 ], [ 7.060830500172933, 52.853519659021764 ], [ 7.062772994883349, 52.851563625958356 ], [ 7.063758906495335, 52.851908598602058 ], [ 7.064308169069066, 52.851163469206782 ], [ 7.065961919778458, 52.851731463567241 ], [ 7.069106674882486, 52.84800695698096 ], [ 7.069565727507159, 52.847847457178744 ], [ 7.07003763601851, 52.847888722084065 ], [ 7.075544001257155, 52.849973968396064 ], [ 7.076335932433156, 52.850096043385783 ], [ 7.07648571074575, 52.848959298032824 ], [ 7.076353064808607, 52.848626948655465 ], [ 7.072284516603337, 52.845167981417831 ], [ 7.071952805868372, 52.83994316170368 ], [ 7.07171937866455, 52.839352239730779 ], [ 7.072328526612147, 52.838907198837184 ], [ 7.07218713102482, 52.838503168177283 ], [ 7.072380265662951, 52.838613887656223 ], [ 7.09283954349973, 52.838201074417391 ], [ 7.080613959070427, 52.822150405087662 ], [ 7.080126207362313, 52.822220238586503 ], [ 7.079685699857978, 52.821672551669451 ], [ 7.080068409445534, 52.821433369542142 ], [ 7.071648465084456, 52.8103838762962 ], [ 7.064981958447784, 52.729355558558005 ], [ 7.054867075285983, 52.644522382775776 ], [ 7.055719264210384, 52.644421284824055 ], [ 7.055810443826267, 52.643362330998663 ], [ 7.041975436962703, 52.632723118136774 ], [ 7.041738111448224, 52.632610226146738 ], [ 7.039570229721344, 52.63260592761219 ], [ 7.038403078495053, 52.632848420737126 ], [ 7.03665045902618, 52.634319079326438 ], [ 7.035452508558731, 52.634755542622237 ], [ 7.028750854586244, 52.634541440868198 ], [ 7.012470205020257, 52.636678906415902 ], [ 7.006550293877797, 52.638433751559745 ], [ 7.00578602137972, 52.638969147716729 ], [ 7.00442476504072, 52.640801057936557 ], [ 7.001852073113335, 52.641822164319088 ], [ 7.00034718519878, 52.642057834800369 ], [ 6.99924004025569, 52.642052996108156 ], [ 6.993870681601518, 52.64123194871943 ], [ 6.992442126837456, 52.641233821382613 ], [ 6.98423749798848, 52.643542507905181 ], [ 6.981890204793836, 52.644918623161736 ], [ 6.975976426852066, 52.646154971838484 ], [ 6.974856405205831, 52.645964662645 ], [ 6.970300504578901, 52.642552644575495 ], [ 6.968021456987803, 52.641641437271709 ], [ 6.959325566731476, 52.641645974936218 ], [ 6.953801830447994, 52.638928764286135 ], [ 6.945433347960399, 52.63924248820642 ], [ 6.944309406119419, 52.639072409321727 ], [ 6.93999582421515, 52.637893650232925 ], [ 6.938848828430456, 52.637771828461013 ], [ 6.934626253246899, 52.638225283183253 ], [ 6.929787059079147, 52.639853874614701 ], [ 6.928512241507735, 52.640085296053527 ], [ 6.919611987771851, 52.639720199360831 ], [ 6.918944338531359, 52.639815589808435 ], [ 6.916020298471079, 52.641399718662683 ], [ 6.915610102556691, 52.641757575308368 ], [ 6.914900983484181, 52.645803271757877 ], [ 6.914415151462461, 52.646394105669451 ], [ 6.913569209044679, 52.646712335686026 ], [ 6.908246206411548, 52.647760845537299 ], [ 6.902907474889354, 52.648498631318937 ], [ 6.898799080423064, 52.650794501020677 ], [ 6.89701071064061, 52.651295008137232 ], [ 6.89136477236427, 52.651416271280645 ], [ 6.879943514596778, 52.650448546711146 ], [ 6.877166317541827, 52.651261100683257 ], [ 6.873721840079096, 52.653035273658425 ], [ 6.872816917728851, 52.653170677543827 ], [ 6.871368366917642, 52.652825697810542 ], [ 6.869561394256984, 52.651764532482133 ], [ 6.864510573189754, 52.649699551612287 ], [ 6.861876718669668, 52.64959087254433 ], [ 6.861974949837466, 52.649698128835688 ], [ 6.861846657512592, 52.649884747034498 ], [ 6.85393331348878, 52.649779334186682 ], [ 6.852909774644443, 52.649609831617397 ], [ 6.852448961334093, 52.651844066669149 ], [ 6.855747431161933, 52.652488490431246 ], [ 6.855953829129106, 52.652883955667541 ], [ 6.855592385820353, 52.65492922502154 ], [ 6.860166490367801, 52.65536092277123 ], [ 6.860378329722771, 52.654600114613956 ], [ 6.860637952644347, 52.654635352723027 ], [ 6.858535238945764, 52.66313617444375 ], [ 6.856340103724806, 52.671222092225065 ], [ 6.85588292257501, 52.672435084233882 ], [ 6.855589639746946, 52.672754576656914 ], [ 6.855715283812975, 52.672922411027713 ], [ 6.854742358439093, 52.676415571851173 ], [ 6.853106809799254, 52.68418390953893 ], [ 6.853805579061125, 52.684616552529754 ], [ 6.853038318117222, 52.687945425342399 ], [ 6.852723028694046, 52.688160341138726 ], [ 6.852220299149081, 52.687813252578195 ], [ 6.849621298216465, 52.699393032712592 ], [ 6.84093624653867, 52.699669566504049 ], [ 6.83878431619246, 52.704403922514899 ], [ 6.828734663981313, 52.704718082813343 ], [ 6.828705487713367, 52.70500147015332 ], [ 6.828443972171023, 52.705018698697558 ], [ 6.826914961422147, 52.709630762561275 ], [ 6.835959738649664, 52.711054924612533 ], [ 6.832547555539166, 52.719049870435953 ], [ 6.832834736164152, 52.719553745029131 ], [ 6.830004595947471, 52.726021031648415 ], [ 6.828499632885871, 52.726141442307963 ], [ 6.826494908334236, 52.730826699591624 ], [ 6.837436641475088, 52.734331318477736 ], [ 6.835874642284618, 52.737100671176641 ], [ 6.83061680883144, 52.742205057991832 ], [ 6.829897945480003, 52.742746333893606 ], [ 6.83030367754477, 52.742885837149537 ], [ 6.831539244765157, 52.743850223214224 ], [ 6.831133003744859, 52.744343258469748 ], [ 6.830130587038533, 52.745052161194486 ], [ 6.831254323264002, 52.745173588842704 ], [ 6.83185331232633, 52.745739148871486 ], [ 6.833275284808057, 52.745740601475205 ], [ 6.833655592922248, 52.747240493168427 ], [ 6.835162110430105, 52.748368893868708 ], [ 6.83392907905036, 52.751712239674589 ], [ 6.834250773773875, 52.7527603854547 ], [ 6.83370685377249, 52.75417947355254 ], [ 6.834991769327364, 52.755157638814651 ], [ 6.834958520175802, 52.755337293144258 ], [ 6.834455278364491, 52.75550804477394 ], [ 6.836805927661487, 52.757123449308473 ], [ 6.838360574344632, 52.758441339467659 ], [ 6.840457814742877, 52.76051366155032 ], [ 6.84153978870091, 52.762087181499552 ], [ 6.841374234345246, 52.762159462121794 ], [ 6.840451751935039, 52.761946263827063 ], [ 6.840184720793089, 52.761733047572179 ], [ 6.839779021196156, 52.761837006550913 ], [ 6.839350260407713, 52.76164855086494 ], [ 6.838957015492185, 52.762060330720026 ], [ 6.838385192716486, 52.762338064922019 ], [ 6.835955346692014, 52.762873024159568 ], [ 6.834040768292082, 52.76394627645368 ], [ 6.83302273663211, 52.765201769932816 ], [ 6.831241760184136, 52.7668622725934 ], [ 6.826156243178286, 52.76550718819847 ], [ 6.824253948218, 52.769049629029858 ], [ 6.823552641720237, 52.769377289312324 ], [ 6.821293679958076, 52.769527083319083 ], [ 6.8212746713058, 52.769910896363186 ], [ 6.820584678444414, 52.771064391675218 ], [ 6.81967852264412, 52.771743406419276 ], [ 6.820153929170336, 52.77189383734126 ], [ 6.820652176997256, 52.772296665347916 ], [ 6.819395991086901, 52.773063038881368 ], [ 6.822524990847618, 52.77395381074966 ], [ 6.824771591255362, 52.774288079671997 ], [ 6.832225092943988, 52.774397522338667 ], [ 6.832264271351614, 52.77454535656544 ], [ 6.831165628658366, 52.775791056485886 ], [ 6.831228074235723, 52.776649574197954 ], [ 6.831066534017865, 52.777647815773022 ], [ 6.831188736862511, 52.778272671731834 ], [ 6.833286095785063, 52.781074640185423 ], [ 6.834695608413277, 52.782497223091866 ], [ 6.836342059390936, 52.785119703446924 ], [ 6.838940833581047, 52.784966219558221 ], [ 6.842320817782345, 52.784326424256768 ], [ 6.84403036305546, 52.784544628964575 ], [ 6.846198817397445, 52.78522277085964 ], [ 6.847029626528752, 52.789617060605423 ], [ 6.84841998680107, 52.793476098807943 ], [ 6.850798608937053, 52.797620650867394 ], [ 6.854750938742267, 52.802926023710953 ], [ 6.851997319851512, 52.803606692626886 ], [ 6.849982686327571, 52.8048029131349 ], [ 6.84949268410092, 52.804572873660298 ], [ 6.84426177135988, 52.807679178433425 ], [ 6.844224077034391, 52.807877729756378 ], [ 6.840493839670132, 52.810155592311837 ], [ 6.839037486850835, 52.812055666596237 ], [ 6.834023436842432, 52.815192733149054 ], [ 6.834116780329414, 52.815412197486971 ], [ 6.823905937245794, 52.821766979180673 ], [ 6.823452536444877, 52.821398931854922 ], [ 6.816419172022105, 52.825772511928271 ], [ 6.766126115459888, 52.849786386428008 ], [ 6.769185484320084, 52.851076257095379 ], [ 6.769599220259144, 52.851066609850584 ], [ 6.770664891659078, 52.850569209178161 ], [ 6.771014479544383, 52.850887177113165 ], [ 6.756116083478508, 52.858015913042465 ], [ 6.755534540040735, 52.858414498415492 ], [ 6.754573084038006, 52.858836156459788 ], [ 6.754165509248965, 52.85860559639071 ], [ 6.75311528497183, 52.859100433722126 ], [ 6.753256232117529, 52.860413216548864 ], [ 6.752841914606448, 52.861206612464123 ], [ 6.753489053957213, 52.861630806946224 ], [ 6.74723917943859, 52.870464031286375 ], [ 6.745117725863776, 52.871949849833577 ], [ 6.740491210334119, 52.871094168212025 ], [ 6.737582103763952, 52.874954370797987 ], [ 6.736432023086736, 52.878722659413732 ], [ 6.736215767043353, 52.878744658533826 ], [ 6.733514869749705, 52.887663216118774 ], [ 6.725881834042824, 52.88668206471587 ], [ 6.724125342670298, 52.88753678146599 ], [ 6.723395045141656, 52.888942458946197 ], [ 6.722353716033743, 52.891650257806887 ], [ 6.722095298831337, 52.891736596083909 ], [ 6.720716930837322, 52.893755476818257 ], [ 6.720137230486628, 52.894011689166142 ], [ 6.718017273545699, 52.896523093630996 ], [ 6.716042582952447, 52.898199997128224 ], [ 6.716128643812832, 52.898349103941371 ], [ 6.71747964374342, 52.898684347617944 ] ] ] } }
]
}
