{
"type": "FeatureCollection",
"name": "SWVPO2813",
"crs": { "type": "name", "properties": { "name": "urn:ogc:def:crs:OGC:1.3:CRS84" } },
"features": [
{ "type": "Feature", "properties": { "PO SWV": "PO2813", "strokeColor": "#A9A9A9", "strokeWidth": 2, "fillColor": "#ADD8E6" }, "geometry": { "type": "MultiPolygon", "coordinates": [ [ [ [ 4.530587131570541, 52.080660287538699 ], [ 4.534524655035267, 52.083584701443236 ], [ 4.535677045850125, 52.083962051148866 ], [ 4.537030283996046, 52.084044202057761 ], [ 4.536528961414335, 52.095313181298266 ], [ 4.536670479309488, 52.095595996962359 ], [ 4.536363903642169, 52.102827828386026 ], [ 4.53540526203163, 52.11875044471428 ], [ 4.535970349514114, 52.119007439645706 ], [ 4.53601625229634, 52.119659372170801 ], [ 4.536188044663353, 52.119858236187703 ], [ 4.536003125250006, 52.12023181628431 ], [ 4.541847373141865, 52.118774000453918 ], [ 4.542809127947832, 52.121153597898122 ], [ 4.54062635580148, 52.121463345216469 ], [ 4.540547860211753, 52.121598896857769 ], [ 4.54130695705879, 52.123530739409013 ], [ 4.542523708701142, 52.125120634473951 ], [ 4.544683392647079, 52.12861314665313 ], [ 4.544914524125045, 52.128614843814965 ], [ 4.545219970296018, 52.128961467934353 ], [ 4.545018964115586, 52.129152691420089 ], [ 4.547468351298244, 52.132279912946196 ], [ 4.545918651414713, 52.133227036074025 ], [ 4.546385409206631, 52.133860203816084 ], [ 4.546223011508402, 52.134075226838561 ], [ 4.550110601582948, 52.136751239482791 ], [ 4.548961081135339, 52.137439138592633 ], [ 4.549116642204069, 52.137698654175765 ], [ 4.550708950571351, 52.138477339835141 ], [ 4.551222627797973, 52.138247459023113 ], [ 4.554516296096599, 52.136264419867693 ], [ 4.558135655584528, 52.133261205474227 ], [ 4.560134350606251, 52.132011612541319 ], [ 4.56124942978448, 52.132357776015873 ], [ 4.561683538271138, 52.132787144990658 ], [ 4.561974709917736, 52.132764459304987 ], [ 4.562372904643941, 52.13350638157209 ], [ 4.563148710492361, 52.134158864474593 ], [ 4.5655785617897, 52.134982107847883 ], [ 4.566032713945939, 52.135333480966551 ], [ 4.567270340183024, 52.137007503574907 ], [ 4.567598333998073, 52.138133289588801 ], [ 4.570368749319497, 52.142893214751055 ], [ 4.571339217543879, 52.15308855877317 ], [ 4.562163317274181, 52.160156209511825 ], [ 4.561535645760442, 52.160800329270913 ], [ 4.562109574907234, 52.161159132186924 ], [ 4.561925575834452, 52.161369675798298 ], [ 4.561226116327015, 52.161917199137847 ], [ 4.560855415557619, 52.161827292281821 ], [ 4.560440531216373, 52.161969790795624 ], [ 4.560166987836418, 52.162255024966043 ], [ 4.560217716281545, 52.162592830141598 ], [ 4.558705480915089, 52.163330853004894 ], [ 4.55867666344795, 52.163532968584441 ], [ 4.560223842767272, 52.164831088723666 ], [ 4.560879189130685, 52.165455362163591 ], [ 4.560808669584363, 52.165630317785904 ], [ 4.561734324049587, 52.166422369519609 ], [ 4.562376302044651, 52.166234054554494 ], [ 4.564654357877226, 52.168222969624722 ], [ 4.564873014910448, 52.16808937348295 ], [ 4.568303286989576, 52.17064092427929 ], [ 4.571696549496032, 52.172794676832808 ], [ 4.588984543019184, 52.179507497718028 ], [ 4.594068532189783, 52.180294314905545 ], [ 4.596880835604333, 52.177417571712411 ], [ 4.598919647300946, 52.174707902480215 ], [ 4.599327953021185, 52.174065534255774 ], [ 4.599370362258035, 52.173526735250164 ], [ 4.600257375977872, 52.171887388476982 ], [ 4.601082873875731, 52.169869578479123 ], [ 4.604294400962651, 52.17044686704542 ], [ 4.611133741566348, 52.173667874700477 ], [ 4.61812962461856, 52.176560490665771 ], [ 4.624047340000028, 52.178331626928774 ], [ 4.631566428998151, 52.180130461727742 ], [ 4.632313198494725, 52.183754603923433 ], [ 4.633542393384013, 52.184715176077766 ], [ 4.633922510056052, 52.1846951279922 ], [ 4.633011850162177, 52.185092835001569 ], [ 4.632990944332138, 52.185250055483849 ], [ 4.633881869044532, 52.185735349440947 ], [ 4.633848644099236, 52.185966250917701 ], [ 4.650664400482391, 52.200055109578351 ], [ 4.650289007086832, 52.201341357917592 ], [ 4.650377914087242, 52.20145915350858 ], [ 4.649418292506298, 52.204530690192883 ], [ 4.648202471918739, 52.208326623215754 ], [ 4.646994500840203, 52.211419580045522 ], [ 4.646579011516129, 52.213022694692981 ], [ 4.645740377450691, 52.214964774135701 ], [ 4.645395560365294, 52.214935747385972 ], [ 4.645265050422372, 52.215216924174612 ], [ 4.644757245906662, 52.216967942050232 ], [ 4.645043444227569, 52.217099797604355 ], [ 4.644152971733777, 52.220668329566394 ], [ 4.646579258853758, 52.221065294518674 ], [ 4.651206082154997, 52.223044637943701 ], [ 4.654059985986626, 52.224551606723729 ], [ 4.657841370382258, 52.225994267899061 ], [ 4.665010193122612, 52.227667491933076 ], [ 4.670194349116279, 52.230782253579171 ], [ 4.673261921928874, 52.228633887777441 ], [ 4.676701662494173, 52.225825555060922 ], [ 4.678170216990337, 52.226275818971878 ], [ 4.679774151907689, 52.226449708775569 ], [ 4.68001190133884, 52.226659320325552 ], [ 4.682770037311734, 52.226406527517277 ], [ 4.683051632331403, 52.226247491402475 ], [ 4.686177075873824, 52.226513594553253 ], [ 4.687008785204226, 52.22699963209832 ], [ 4.687360248409156, 52.227018625748322 ], [ 4.696529242357245, 52.232122748075547 ], [ 4.703730915748629, 52.233690490039336 ], [ 4.704867855520779, 52.233713838926199 ], [ 4.724049600695609, 52.232267140210951 ], [ 4.724217957770726, 52.231956050169217 ], [ 4.722796697638677, 52.22036836043651 ], [ 4.72286760801069, 52.219527183865374 ], [ 4.723583899621148, 52.218122159206466 ], [ 4.72320201066872, 52.216357038076545 ], [ 4.723317038683474, 52.216255009332066 ], [ 4.723658927870265, 52.216412804693284 ], [ 4.723584707114325, 52.215137147357865 ], [ 4.723804456511597, 52.214889183424255 ], [ 4.728210372630066, 52.215109902752857 ], [ 4.732090610685042, 52.214135967234881 ], [ 4.733118108324867, 52.214343247239945 ], [ 4.732502011075839, 52.212214193025794 ], [ 4.729778548129515, 52.210923465396824 ], [ 4.726727682592825, 52.212157134993397 ], [ 4.725411419259154, 52.212898638012682 ], [ 4.724639939393245, 52.212569362417391 ], [ 4.725398186218487, 52.21200201235991 ], [ 4.727253335273529, 52.211042124044724 ], [ 4.729217856955939, 52.210305172968383 ], [ 4.728880241336851, 52.210111390047473 ], [ 4.728696148366196, 52.209747252546457 ], [ 4.732535000899362, 52.207029069748856 ], [ 4.734338889002614, 52.206416421212005 ], [ 4.73479630950371, 52.206747031051336 ], [ 4.735050527692358, 52.206680842022486 ], [ 4.735682989516841, 52.207239221446478 ], [ 4.735563577753961, 52.20744481305092 ], [ 4.739471818670078, 52.211061742315508 ], [ 4.741404973288396, 52.21233741904387 ], [ 4.743529749723509, 52.21463785618414 ], [ 4.747996270244762, 52.214770999583521 ], [ 4.750712468359872, 52.215630572593561 ], [ 4.752698832212239, 52.217134283738204 ], [ 4.753319452927277, 52.217369854618845 ], [ 4.75985440320544, 52.217486711790301 ], [ 4.762111112959905, 52.218037220693908 ], [ 4.763185562661008, 52.218510987390125 ], [ 4.767363373975916, 52.221069541130497 ], [ 4.7721212219872, 52.22293294587805 ], [ 4.77465576307435, 52.224461618523712 ], [ 4.775615293331997, 52.225666580984779 ], [ 4.776275499260964, 52.227137807866804 ], [ 4.776640017490143, 52.227368847178461 ], [ 4.779349798270658, 52.227991852722049 ], [ 4.781003531258038, 52.228642371444884 ], [ 4.784008237952246, 52.228637243091029 ], [ 4.785535739004365, 52.22839449189437 ], [ 4.78676641328937, 52.227801375519654 ], [ 4.789299126178957, 52.227790882757006 ], [ 4.794668681526255, 52.226615882136144 ], [ 4.794521913917637, 52.223528365924757 ], [ 4.795966679740519, 52.223546631702909 ], [ 4.797080594403857, 52.220420865527601 ], [ 4.80224283803342, 52.217669916227862 ], [ 4.801851070086954, 52.215023317879371 ], [ 4.801721698683881, 52.214905631375352 ], [ 4.80154342492539, 52.208083944234808 ], [ 4.801617443899532, 52.206476800547662 ], [ 4.801752938696709, 52.206321452620053 ], [ 4.801644442409705, 52.206186907439204 ], [ 4.801687660968255, 52.204328715221777 ], [ 4.801750633618466, 52.203894900494078 ], [ 4.802990959413698, 52.201131797155021 ], [ 4.813635799758613, 52.201938106354994 ], [ 4.813681636027241, 52.201798393826046 ], [ 4.813197119795348, 52.201219103666226 ], [ 4.813688248999888, 52.200731747832201 ], [ 4.814064638985347, 52.199851126299713 ], [ 4.814458124563872, 52.199390611878265 ], [ 4.817833501689799, 52.19806008952088 ], [ 4.819643660271372, 52.197099014850338 ], [ 4.822266509629532, 52.196206484949791 ], [ 4.823055965133632, 52.195423166602005 ], [ 4.823207037824171, 52.194914613871163 ], [ 4.823643333202385, 52.19434728158086 ], [ 4.823514345906741, 52.193338715322966 ], [ 4.824973033844378, 52.192688487528201 ], [ 4.825431997425379, 52.192126055559093 ], [ 4.826076629912881, 52.191811325596781 ], [ 4.82637538845811, 52.191347824833478 ], [ 4.827637441851707, 52.191015799668861 ], [ 4.829382124912813, 52.189379145220457 ], [ 4.831648096514366, 52.188527314351305 ], [ 4.832627055991842, 52.187819659895631 ], [ 4.833518251919825, 52.187643696236648 ], [ 4.834087717388074, 52.186753905172196 ], [ 4.835421151619068, 52.186179631007413 ], [ 4.836024618424527, 52.185390524799537 ], [ 4.83613300532195, 52.184823957676926 ], [ 4.836578164137531, 52.184439281246483 ], [ 4.838252836292984, 52.183433846592052 ], [ 4.842415880988042, 52.18139791165742 ], [ 4.843966285845976, 52.180210758344138 ], [ 4.84452238133606, 52.180025322659596 ], [ 4.845802862975292, 52.180083687231793 ], [ 4.848967401858978, 52.179492325480304 ], [ 4.849993649472276, 52.179521484895133 ], [ 4.851420731582858, 52.179124923585704 ], [ 4.852382414226355, 52.179284183538797 ], [ 4.854181970241287, 52.178960924564663 ], [ 4.855616179593599, 52.179011091116251 ], [ 4.886277060621381, 52.164616882999205 ], [ 4.886482430336458, 52.164276848609497 ], [ 4.891768520205817, 52.16187282776594 ], [ 4.892220910458243, 52.161888367948102 ], [ 4.89236996658175, 52.161615644028281 ], [ 4.887602481159258, 52.159862179854791 ], [ 4.873730518366801, 52.156007950739202 ], [ 4.874106147211773, 52.150530282687981 ], [ 4.874549565795301, 52.138736370256574 ], [ 4.871345868675475, 52.138738479844392 ], [ 4.87036416950182, 52.138109543585351 ], [ 4.864925983196589, 52.137291723301871 ], [ 4.855224814998066, 52.137110582505528 ], [ 4.853807415760377, 52.137456004885074 ], [ 4.852553363700197, 52.138184875780581 ], [ 4.852078027310007, 52.139307368612627 ], [ 4.85143088623397, 52.139579842515388 ], [ 4.849571802253964, 52.139482017435704 ], [ 4.848037485198266, 52.138900186602569 ], [ 4.847488919753128, 52.13883776997254 ], [ 4.846237219266211, 52.139444988874779 ], [ 4.844525661646242, 52.139281510971557 ], [ 4.842853620766345, 52.139361241784002 ], [ 4.842109086409716, 52.139755053911848 ], [ 4.841680026298218, 52.140816789681807 ], [ 4.840919645876765, 52.14133236710213 ], [ 4.840269955552554, 52.141460881600565 ], [ 4.838935437587985, 52.14110184447248 ], [ 4.837977915128399, 52.140522289008274 ], [ 4.837338799445775, 52.14055348990432 ], [ 4.836631759349375, 52.142772050873823 ], [ 4.835565479849132, 52.142663729291989 ], [ 4.835418956390996, 52.142920011365192 ], [ 4.8340908325566, 52.14278373384834 ], [ 4.834023424890692, 52.143021901530993 ], [ 4.833230083054353, 52.143386638578022 ], [ 4.83230272763495, 52.144389666160613 ], [ 4.83017744676177, 52.143213456953646 ], [ 4.829271846412911, 52.143112228861945 ], [ 4.827639065533587, 52.142381798166788 ], [ 4.826494137985294, 52.142078847171149 ], [ 4.823384835010418, 52.142127486932758 ], [ 4.82157694683608, 52.141808386615097 ], [ 4.82056599923946, 52.142133913531168 ], [ 4.817982277738406, 52.140679335476641 ], [ 4.817268309794904, 52.139612455227486 ], [ 4.81695316127052, 52.139375957437245 ], [ 4.816103403841615, 52.139293130150868 ], [ 4.814828672233127, 52.139886914789294 ], [ 4.813950060024706, 52.14012781926214 ], [ 4.813284055173872, 52.140130082561598 ], [ 4.811764756617944, 52.139002321263348 ], [ 4.810041535427493, 52.138361756377414 ], [ 4.809650972290902, 52.137858250533043 ], [ 4.809165543479097, 52.137572552174717 ], [ 4.808764193130474, 52.137128666154283 ], [ 4.809097800831513, 52.136368854186912 ], [ 4.80905396842712, 52.135794032908187 ], [ 4.80888877340729, 52.135584838693561 ], [ 4.807580729586522, 52.134986567872382 ], [ 4.808105375680665, 52.134336738568962 ], [ 4.80838212411466, 52.132820468534483 ], [ 4.808981959205974, 52.131894163107432 ], [ 4.808665849720467, 52.13131873841877 ], [ 4.808609201280227, 52.130841137145737 ], [ 4.808446786697912, 52.130792429309984 ], [ 4.807889759427694, 52.129838879442623 ], [ 4.808154294683822, 52.128902723217259 ], [ 4.807821128877531, 52.128538397244888 ], [ 4.807162815478619, 52.128235766085993 ], [ 4.806484164863833, 52.127348848211938 ], [ 4.805869386184569, 52.126988702231053 ], [ 4.803530787635745, 52.126320476785857 ], [ 4.803206779598375, 52.125804921979501 ], [ 4.803204420616606, 52.125491146782153 ], [ 4.802639270155405, 52.124967431675294 ], [ 4.801991491206698, 52.124758133435186 ], [ 4.801150565769043, 52.124753009035317 ], [ 4.798365875605064, 52.12520086527072 ], [ 4.797628677980927, 52.124982472434304 ], [ 4.797015768821268, 52.124563254091001 ], [ 4.7932752423397, 52.123782370415277 ], [ 4.792426809564313, 52.123105331808731 ], [ 4.792317443950014, 52.122914649149706 ], [ 4.792539343890547, 52.12277706339512 ], [ 4.792476317741175, 52.122470639260257 ], [ 4.791991017174473, 52.122332657853086 ], [ 4.791954619925753, 52.121899162737144 ], [ 4.792162648666253, 52.121383155420645 ], [ 4.791895003355899, 52.120603203701123 ], [ 4.791487644807167, 52.120440412259271 ], [ 4.788302780723664, 52.120043256880635 ], [ 4.78695648841308, 52.1201833576621 ], [ 4.785388184089236, 52.120760753362248 ], [ 4.783990461252702, 52.120847930841236 ], [ 4.783270510636403, 52.120480851687745 ], [ 4.782879440836524, 52.119862177585041 ], [ 4.783261553902407, 52.119157075897192 ], [ 4.784338666345385, 52.118042251544772 ], [ 4.783926391971072, 52.117528795347667 ], [ 4.78317851175933, 52.117416243211238 ], [ 4.78050700449982, 52.117992133879582 ], [ 4.779583560882008, 52.11780369302997 ], [ 4.779202969190172, 52.117507160134906 ], [ 4.779137748123585, 52.116460743461758 ], [ 4.77862171987334, 52.116026890080981 ], [ 4.778168421360421, 52.115900747435596 ], [ 4.776410160396538, 52.116081635311318 ], [ 4.775890797871376, 52.115861386470428 ], [ 4.774903758417802, 52.114944401862893 ], [ 4.77066748752264, 52.115219049892012 ], [ 4.769774432238769, 52.114651250310544 ], [ 4.769554580583678, 52.11367789087133 ], [ 4.769394549633069, 52.1135349051331 ], [ 4.768434632942284, 52.113330790775713 ], [ 4.765627912711324, 52.113317246763835 ], [ 4.763651636504643, 52.113727949771715 ], [ 4.762500603238398, 52.113806363238417 ], [ 4.760986552623139, 52.112798087353227 ], [ 4.760183383660309, 52.111942167185049 ], [ 4.759263770608942, 52.110422390917321 ], [ 4.75453833002929, 52.108907086653431 ], [ 4.750294578305973, 52.108153656396652 ], [ 4.738827966931745, 52.106603220527681 ], [ 4.738749111028626, 52.106425663665405 ], [ 4.739008961302749, 52.105998987471061 ], [ 4.740084232834282, 52.10469386980931 ], [ 4.734161693929485, 52.10259080238184 ], [ 4.734124694027718, 52.102440948686997 ], [ 4.734666354768938, 52.101948405935808 ], [ 4.733872465547293, 52.101752704768941 ], [ 4.733841989666305, 52.101415528571884 ], [ 4.73302708579709, 52.101567798222781 ], [ 4.723080361205175, 52.099381367010871 ], [ 4.720935720048558, 52.100379976311451 ], [ 4.721288488073446, 52.101470196306472 ], [ 4.721202631018162, 52.101648021690032 ], [ 4.719910493861924, 52.102445114285352 ], [ 4.719516761448388, 52.102212722985918 ], [ 4.718318587015856, 52.10239279162905 ], [ 4.718145199301345, 52.101407229472244 ], [ 4.717282093644518, 52.101674907543917 ], [ 4.710747506610962, 52.099923962739659 ], [ 4.710310348691131, 52.099633388987471 ], [ 4.710364213040882, 52.099441934810734 ], [ 4.711557426543934, 52.09911911787708 ], [ 4.712823576220871, 52.098530208828159 ], [ 4.714222704565286, 52.097429865879732 ], [ 4.704691678012, 52.095332460433106 ], [ 4.704895702585551, 52.094814162284926 ], [ 4.698046224506459, 52.095219037359264 ], [ 4.676972110357512, 52.09782966597826 ], [ 4.66403947882184, 52.099614770682976 ], [ 4.663810215951216, 52.099115470974766 ], [ 4.663575336032443, 52.099158727650881 ], [ 4.663436347696703, 52.098423593388468 ], [ 4.654220427742092, 52.099246024758962 ], [ 4.654040294597072, 52.099102377941023 ], [ 4.651864346857791, 52.098783329141014 ], [ 4.641102247713708, 52.097577619549405 ], [ 4.64104469612421, 52.097436857439781 ], [ 4.642587614695211, 52.09445872673507 ], [ 4.646896878650481, 52.086487344952069 ], [ 4.632057075927973, 52.087120845509283 ], [ 4.633631836668202, 52.082693231635993 ], [ 4.632185541309131, 52.082705577499773 ], [ 4.632097205446146, 52.082587764528327 ], [ 4.633755483448642, 52.078022038150841 ], [ 4.631732109137896, 52.078082375863303 ], [ 4.631488626252189, 52.076364537272688 ], [ 4.606862941583069, 52.077235613300019 ], [ 4.607326578116208, 52.065610442921489 ], [ 4.575986354379688, 52.060856720107978 ], [ 4.575475368341955, 52.061054159259086 ], [ 4.574474792374019, 52.060842215706792 ], [ 4.574406179037489, 52.060651092824905 ], [ 4.56534637516443, 52.059296736050449 ], [ 4.565001577723915, 52.058478342450563 ], [ 4.55924114457722, 52.06119926173988 ], [ 4.558804063764958, 52.061163291940524 ], [ 4.558438160584369, 52.061328000355985 ], [ 4.5577037214692, 52.060773824484777 ], [ 4.556848520820709, 52.061284553319283 ], [ 4.556043072384171, 52.061483608407492 ], [ 4.555913761934114, 52.06172316041571 ], [ 4.554756755017971, 52.062303274661971 ], [ 4.55476253192456, 52.062483690062244 ], [ 4.552840719868732, 52.063385843788268 ], [ 4.553287773355957, 52.063768847939158 ], [ 4.553252144471172, 52.063922084586764 ], [ 4.54336640075794, 52.068705916075608 ], [ 4.536806609859688, 52.071562933958873 ], [ 4.533871295610146, 52.073081113899832 ], [ 4.535271213536869, 52.074440189989986 ], [ 4.534957822547324, 52.074773440422078 ], [ 4.534057523427474, 52.075247516717248 ], [ 4.534283356551517, 52.075532317961162 ], [ 4.536642019775276, 52.077232254977709 ], [ 4.537188361116031, 52.076875045002978 ], [ 4.537311372193739, 52.077016657947858 ], [ 4.530587131570541, 52.080660287538699 ] ] ], [ [ [ 4.778936905247322, 52.115886076249609 ], [ 4.778901379995037, 52.115902930953538 ], [ 4.778940712384278, 52.115891842019302 ], [ 4.778936905247322, 52.115886076249609 ] ] ], [ [ [ 4.729487897435494, 52.210193762822165 ], [ 4.729459274353677, 52.210175153597135 ], [ 4.729365968962275, 52.210244066647178 ], [ 4.729487897435494, 52.210193762822165 ] ] ] ] } }
]
}
