{
"type": "FeatureCollection",
"name": "SWVPO2701",
"crs": { "type": "name", "properties": { "name": "urn:ogc:def:crs:OGC:1.3:CRS84" } },
"features": [
{ "type": "Feature", "properties": { "PO SWV": "PO2701", "strokeColor": "#A9A9A9", "strokeWidth": 2, "fillColor": "#ADD8E6" }, "geometry": { "type": "MultiPolygon", "coordinates": [ [ [ [ 4.645508590421157, 52.756706238251319 ], [ 4.646659895930492, 52.759323211377371 ], [ 4.648566842371793, 52.762808649116202 ], [ 4.650984432083005, 52.766665665727686 ], [ 4.651904675574309, 52.768710093750862 ], [ 4.653073315150431, 52.76979001380441 ], [ 4.655102035577221, 52.773078733191952 ], [ 4.65710624119897, 52.775251433574056 ], [ 4.658021429957331, 52.776565598580156 ], [ 4.659476527790837, 52.778018123885566 ], [ 4.660946221142765, 52.779120319665246 ], [ 4.66148363098943, 52.779860550323377 ], [ 4.66287101111723, 52.781113944650741 ], [ 4.665386431062239, 52.784217991635963 ], [ 4.666117032151252, 52.784635890754416 ], [ 4.666545619548581, 52.785154253266306 ], [ 4.666609533796853, 52.785532694092701 ], [ 4.667267310543807, 52.786639286687105 ], [ 4.667842032499133, 52.787112161376612 ], [ 4.670208799072908, 52.791135256411025 ], [ 4.671106516107685, 52.793270099449408 ], [ 4.673552525967256, 52.796807948587308 ], [ 4.674209708459691, 52.798091991223423 ], [ 4.674738437704035, 52.798677974296247 ], [ 4.674730777394412, 52.799023342023659 ], [ 4.675159996543642, 52.799633281849673 ], [ 4.675387208805303, 52.80037963311009 ], [ 4.678373917032545, 52.806315850099161 ], [ 4.678890138896705, 52.807625240692069 ], [ 4.679003051601347, 52.808424226273303 ], [ 4.677234680357111, 52.808756413988704 ], [ 4.677121728099603, 52.808959479654604 ], [ 4.677380906346089, 52.809049274893233 ], [ 4.679119558297387, 52.808729773148173 ], [ 4.679423550550866, 52.809087428512285 ], [ 4.679815682149537, 52.810206508118441 ], [ 4.678096731323129, 52.810512897999509 ], [ 4.677982096013038, 52.810727022012678 ], [ 4.678188025466709, 52.810830539743982 ], [ 4.679960810500865, 52.810530865164637 ], [ 4.680403851528718, 52.811156264128314 ], [ 4.680526416459748, 52.8119356329249 ], [ 4.681203268293288, 52.813463258330955 ], [ 4.681809294799722, 52.815545282782416 ], [ 4.679896038168283, 52.815890068726929 ], [ 4.67980479353942, 52.8160512641197 ], [ 4.679996439138933, 52.816195827503336 ], [ 4.681973594543872, 52.815932419615116 ], [ 4.682143793797738, 52.81613514457419 ], [ 4.682360239120596, 52.817453863229524 ], [ 4.680550853477738, 52.817777748961561 ], [ 4.680483062542193, 52.817972066141181 ], [ 4.680643454014099, 52.81808314676983 ], [ 4.682424396597604, 52.817787635684297 ], [ 4.68364566420417, 52.819873567682528 ], [ 4.685443354878429, 52.825492079802508 ], [ 4.685589503226671, 52.826469633089836 ], [ 4.684245029664418, 52.826665922992646 ], [ 4.684143616397154, 52.826844823946466 ], [ 4.684304728765289, 52.826940654061644 ], [ 4.685720315808373, 52.826738995619742 ], [ 4.686248639987354, 52.827561638623109 ], [ 4.68632822072833, 52.828241179533542 ], [ 4.68507445336212, 52.828427527199125 ], [ 4.6849436391179, 52.828617229564756 ], [ 4.685132802732345, 52.828726681661671 ], [ 4.686624396013855, 52.828578742523774 ], [ 4.687109940982162, 52.830035100037627 ], [ 4.685918384897625, 52.830251832658078 ], [ 4.68583714585467, 52.830415430786601 ], [ 4.68595308343646, 52.83051552291635 ], [ 4.68721332854321, 52.830343016932758 ], [ 4.687601412502894, 52.831095784326536 ], [ 4.687735201903418, 52.831866873831579 ], [ 4.686465473729855, 52.832062197343774 ], [ 4.686357778492145, 52.83223487503485 ], [ 4.68653989316286, 52.832332967722159 ], [ 4.687890940293792, 52.83212641382088 ], [ 4.68823666203226, 52.832531447027257 ], [ 4.688433669606729, 52.83368710600918 ], [ 4.687281527202583, 52.833905626139199 ], [ 4.687185692179484, 52.834089131104271 ], [ 4.687371597241173, 52.834193942102182 ], [ 4.688460553921627, 52.834002670391449 ], [ 4.688832883692296, 52.834351250776912 ], [ 4.689295275365291, 52.835419504195677 ], [ 4.68810586637389, 52.83563546515505 ], [ 4.688006403799303, 52.835836723830496 ], [ 4.689397940125507, 52.835720949625241 ], [ 4.689866748614153, 52.836385586965491 ], [ 4.690013501628807, 52.837001307721494 ], [ 4.690004924903517, 52.837162571839869 ], [ 4.688871536268721, 52.83738420852994 ], [ 4.688808456829457, 52.837572208780259 ], [ 4.69016749829898, 52.837522486257612 ], [ 4.691150749268594, 52.839152090855535 ], [ 4.691227615306368, 52.839634359204716 ], [ 4.691108498729626, 52.839783052269617 ], [ 4.690125488214315, 52.839971590062412 ], [ 4.690011705432005, 52.840135446643195 ], [ 4.690188201764695, 52.840258196030284 ], [ 4.691363966397718, 52.840051083327509 ], [ 4.691702701641985, 52.840525391692601 ], [ 4.691775799106646, 52.841170614204067 ], [ 4.692383856945579, 52.842288348436426 ], [ 4.691349154319115, 52.842553180958824 ], [ 4.691247409253767, 52.84276026066388 ], [ 4.692434605261245, 52.842649169121792 ], [ 4.692769055611767, 52.842978670868128 ], [ 4.692929438243797, 52.843683939494049 ], [ 4.69331284232183, 52.844397358690038 ], [ 4.693359097401383, 52.844987306110653 ], [ 4.692288310290146, 52.845157217474842 ], [ 4.692191718359161, 52.84534032719138 ], [ 4.692376719481513, 52.845445616221078 ], [ 4.693435482701065, 52.845282522505364 ], [ 4.693867928362264, 52.845781072738987 ], [ 4.694418997812599, 52.847625108410902 ], [ 4.693434019405431, 52.847749486843959 ], [ 4.693305876852624, 52.84794427183035 ], [ 4.693504246403123, 52.848052190277336 ], [ 4.694595703358586, 52.847906965030646 ], [ 4.694735523838819, 52.848061584372012 ], [ 4.695002107636652, 52.848858164410203 ], [ 4.695464287512846, 52.849539930812163 ], [ 4.695552135303785, 52.850384577208295 ], [ 4.696149083435824, 52.851355187520603 ], [ 4.696488134978723, 52.852853699798047 ], [ 4.695486965945971, 52.853016430765898 ], [ 4.695383582545397, 52.853206559416179 ], [ 4.695556876570315, 52.853299006975369 ], [ 4.696624766892102, 52.853128834964551 ], [ 4.699048636246761, 52.857492697092518 ], [ 4.69954361008647, 52.859107299363004 ], [ 4.70088626202625, 52.861655966793066 ], [ 4.701514496455215, 52.863742427620366 ], [ 4.701987359946502, 52.864250802926797 ], [ 4.702280169356056, 52.86544740895966 ], [ 4.703197225709034, 52.867201029909388 ], [ 4.70331154629321, 52.867921337029834 ], [ 4.705073807979998, 52.87140158242191 ], [ 4.705121524522379, 52.872401512916063 ], [ 4.705569134994454, 52.872901803673834 ], [ 4.70593714347484, 52.873649087883678 ], [ 4.706146268189608, 52.874332305376754 ], [ 4.706134173305797, 52.874908461903843 ], [ 4.706521858229049, 52.875529636278173 ], [ 4.706808923062309, 52.876580144921114 ], [ 4.705114628592992, 52.876742713750104 ], [ 4.704989468431489, 52.876925547899219 ], [ 4.705166009858924, 52.877035103430707 ], [ 4.706894894734644, 52.876848043485928 ], [ 4.707357312968147, 52.878367363808614 ], [ 4.707954535337869, 52.879294525032307 ], [ 4.708008370689648, 52.880178473476782 ], [ 4.708516430138234, 52.881287928161022 ], [ 4.708587119723059, 52.88208683774679 ], [ 4.708912741188933, 52.882527483216712 ], [ 4.708868395207155, 52.883612248984647 ], [ 4.709261494529853, 52.884366038689961 ], [ 4.709558396959147, 52.885516538201209 ], [ 4.709223442605372, 52.885890819262556 ], [ 4.709979860926243, 52.886898628911496 ], [ 4.709914795401503, 52.88768966664184 ], [ 4.710262028459069, 52.888195046517254 ], [ 4.710261741691864, 52.888924518180652 ], [ 4.710612367211988, 52.889743247625667 ], [ 4.710516739364171, 52.890038256176538 ], [ 4.710654710057911, 52.890801971850969 ], [ 4.711001748211435, 52.891659641873979 ], [ 4.710993611227782, 52.892781868291486 ], [ 4.711308396967373, 52.893210543482773 ], [ 4.711297441314619, 52.893701615214972 ], [ 4.711578167364185, 52.894546950703671 ], [ 4.711451976693999, 52.895808413086137 ], [ 4.711633161230921, 52.897018727911707 ], [ 4.711499599533663, 52.897861092388332 ], [ 4.711744802523084, 52.899302694660776 ], [ 4.71164046518915, 52.900189257688176 ], [ 4.711870605467962, 52.900815660327417 ], [ 4.712184718306696, 52.905286890707387 ], [ 4.712408298002093, 52.906078497467796 ], [ 4.712357753270394, 52.907092435118244 ], [ 4.712611316289858, 52.907947693748753 ], [ 4.712472039896224, 52.908729776120801 ], [ 4.712723860083409, 52.909805517543411 ], [ 4.71263968316981, 52.912108505024911 ], [ 4.712781211818535, 52.913165220007514 ], [ 4.712772473189695, 52.915775371593178 ], [ 4.713111530455924, 52.91743995888929 ], [ 4.712995861040072, 52.919487554923002 ], [ 4.71334917895398, 52.920676987501551 ], [ 4.713099255998098, 52.921854533500138 ], [ 4.713161265821781, 52.922518137035553 ], [ 4.71286891353266, 52.92490402737851 ], [ 4.71308666019993, 52.926215027610844 ], [ 4.712997183794161, 52.927294706812688 ], [ 4.713131528697186, 52.927882886282006 ], [ 4.71296215947954, 52.928347599806976 ], [ 4.713251551004277, 52.93097013915142 ], [ 4.71321726372557, 52.932022046358355 ], [ 4.713519336949451, 52.933008409650483 ], [ 4.713464765280574, 52.933774169158163 ], [ 4.713713619741677, 52.934687376586716 ], [ 4.713609846400727, 52.935560396297255 ], [ 4.713934162501035, 52.936554684497764 ], [ 4.713827329330976, 52.937382111192406 ], [ 4.714394463790772, 52.938092878280123 ], [ 4.714447582851798, 52.939386715978273 ], [ 4.714794555073444, 52.94077134000662 ], [ 4.715674481219763, 52.941871169460477 ], [ 4.715718445076027, 52.942575298844858 ], [ 4.716301165686527, 52.943766564449682 ], [ 4.716623182274515, 52.945113628426938 ], [ 4.71660136148374, 52.946511232214952 ], [ 4.717145154011862, 52.947283478068755 ], [ 4.716281190445296, 52.948424435366441 ], [ 4.716574395471842, 52.948532182802772 ], [ 4.71711693958697, 52.947937697704305 ], [ 4.717792232511368, 52.948347899515646 ], [ 4.718441432177533, 52.949666933778886 ], [ 4.717851583463233, 52.949866951038452 ], [ 4.717797354188168, 52.950024362572613 ], [ 4.718629601659123, 52.950081425130698 ], [ 4.719884893546036, 52.952061044420027 ], [ 4.720024777041976, 52.953062887477067 ], [ 4.720431374547802, 52.953040956741823 ], [ 4.720472861280071, 52.952610967817236 ], [ 4.721434007070713, 52.953424415167831 ], [ 4.721179898506188, 52.953566244575171 ], [ 4.721275772207878, 52.953747235289313 ], [ 4.72170266577902, 52.95360657048321 ], [ 4.722453164022545, 52.954214458985739 ], [ 4.724716349006562, 52.956695816027505 ], [ 4.724618233628853, 52.957115784601697 ], [ 4.724943106114413, 52.956974242793201 ], [ 4.727803581222662, 52.959898809252216 ], [ 4.727753098144232, 52.960154499725036 ], [ 4.728078210542332, 52.960139890700248 ], [ 4.73063674486782, 52.962608953907633 ], [ 4.742682562472432, 52.964241307591102 ], [ 4.748795849664239, 52.964473781495855 ], [ 4.755850092855459, 52.963956331930916 ], [ 4.762890862173176, 52.965467999329825 ], [ 4.767119825569503, 52.965563770879783 ], [ 4.77553824744647, 52.965395947833841 ], [ 4.778980612041391, 52.965119850128751 ], [ 4.779407870275752, 52.965519755362287 ], [ 4.779693666157939, 52.965512265355031 ], [ 4.77979869000122, 52.965270536295314 ], [ 4.77923030598048, 52.964629096498037 ], [ 4.777815893508264, 52.963942951810544 ], [ 4.777823320099646, 52.963133547529104 ], [ 4.778155386075843, 52.963243636340422 ], [ 4.778133013617786, 52.962925149928132 ], [ 4.778965861322377, 52.963691589870685 ], [ 4.779138330849952, 52.963619571174455 ], [ 4.779090514192317, 52.963359202000952 ], [ 4.779314880416626, 52.96330747715821 ], [ 4.781182559424912, 52.964818228738466 ], [ 4.781453408519748, 52.964851583908072 ], [ 4.7821698149554, 52.964538800043513 ], [ 4.782497852908039, 52.964593599832497 ], [ 4.783470484390777, 52.965780099511143 ], [ 4.784198767807703, 52.966186788579151 ], [ 4.784623807866265, 52.966250788834252 ], [ 4.785027421580339, 52.966064927395109 ], [ 4.785059615182656, 52.96574577423435 ], [ 4.784163443898451, 52.965209688714658 ], [ 4.783425816303184, 52.964025203937325 ], [ 4.783711231446414, 52.963673639650814 ], [ 4.784757659396496, 52.963145141850106 ], [ 4.78481534133556, 52.962940213728118 ], [ 4.784674194098262, 52.962770689497511 ], [ 4.784012027016342, 52.962304458827752 ], [ 4.783595038787797, 52.962203127085914 ], [ 4.78128833738458, 52.963131033465849 ], [ 4.781090289478521, 52.962985023775353 ], [ 4.780942277305069, 52.963076219024011 ], [ 4.780612689559365, 52.96278012172084 ], [ 4.782905725646699, 52.961840494777846 ], [ 4.782793943518841, 52.961570714142589 ], [ 4.780315107804428, 52.962523646286868 ], [ 4.779819410882632, 52.962063657359245 ], [ 4.781223826441743, 52.961466359886096 ], [ 4.781133199858338, 52.961207152572371 ], [ 4.779532000806711, 52.961818726717688 ], [ 4.779137166811917, 52.961537594903241 ], [ 4.778480856252488, 52.961443651848242 ], [ 4.777767680492367, 52.960818858271026 ], [ 4.775365167085026, 52.960768153413831 ], [ 4.775304709138416, 52.960619476173555 ], [ 4.774486761184296, 52.960436819097872 ], [ 4.775363030424213, 52.960146347437579 ], [ 4.776530194309109, 52.958157559319318 ], [ 4.779202231399259, 52.954650544138438 ], [ 4.780665172388587, 52.955345564485775 ], [ 4.778708425319104, 52.957878272797323 ], [ 4.778689177887927, 52.958078947668461 ], [ 4.778903305582547, 52.958282599973195 ], [ 4.778169762397161, 52.95945238204385 ], [ 4.778484751842218, 52.959505591395292 ], [ 4.779281192905996, 52.958411682186039 ], [ 4.780185112689703, 52.958670929661601 ], [ 4.779458312616206, 52.959687226265203 ], [ 4.779729729978282, 52.959874722319789 ], [ 4.780117001554058, 52.959454894445514 ], [ 4.781440422112413, 52.959749618703668 ], [ 4.781493700983344, 52.959477795791614 ], [ 4.780317856105642, 52.959163309767376 ], [ 4.780594076074935, 52.958777685896479 ], [ 4.783257830079878, 52.959315292846377 ], [ 4.783331157248742, 52.959028363638964 ], [ 4.781354502058432, 52.958498337580437 ], [ 4.781696272570173, 52.958017283569298 ], [ 4.783826583498685, 52.958521063803715 ], [ 4.783874840316461, 52.958252102428126 ], [ 4.781891923063045, 52.957722193102811 ], [ 4.782244199858757, 52.957226533635748 ], [ 4.784389834345249, 52.957744789394916 ], [ 4.784448266463879, 52.957457532018609 ], [ 4.782449613914515, 52.95692476135337 ], [ 4.782799791259021, 52.956442476705263 ], [ 4.785217898511567, 52.956989352573757 ], [ 4.785642997795139, 52.954404709776632 ], [ 4.786067020530378, 52.954399783314287 ], [ 4.787169954589708, 52.954496795584632 ], [ 4.786576214711719, 52.956975708545293 ], [ 4.786655008910475, 52.957096229041333 ], [ 4.787362562552061, 52.957095325305659 ], [ 4.788029539082366, 52.954574854410708 ], [ 4.79196416327147, 52.955099414237253 ], [ 4.790773020728324, 52.95752572711438 ], [ 4.791453229223928, 52.957745385993071 ], [ 4.792814152976304, 52.955275965806486 ], [ 4.794228783831683, 52.955564956436817 ], [ 4.793264740228018, 52.957324686862464 ], [ 4.793780218659435, 52.957333380278733 ], [ 4.794156817372201, 52.956726242819826 ], [ 4.796316920275893, 52.957164774807175 ], [ 4.795443900992931, 52.958723591436275 ], [ 4.793198824625617, 52.958276731045522 ], [ 4.793012363677725, 52.958632433583702 ], [ 4.797995725798341, 52.95969170981467 ], [ 4.79785188901414, 52.960279166480106 ], [ 4.797666271791365, 52.960267999528135 ], [ 4.797236427799018, 52.96065270157419 ], [ 4.796483635402542, 52.961793362750129 ], [ 4.79568274629001, 52.961669215143644 ], [ 4.796193490409161, 52.960602937499125 ], [ 4.795662146013291, 52.960531501910552 ], [ 4.79560785547822, 52.960721526755187 ], [ 4.79580636677207, 52.96080483366746 ], [ 4.795356291513987, 52.961602371337285 ], [ 4.794478764694176, 52.961421251510068 ], [ 4.794353442889691, 52.961313091722303 ], [ 4.794887330853996, 52.960145428029563 ], [ 4.793331512643761, 52.95981773055837 ], [ 4.79205795228914, 52.961997784033692 ], [ 4.791543330728447, 52.96226707663876 ], [ 4.789591846319166, 52.96254441022986 ], [ 4.789415551371049, 52.962809808671629 ], [ 4.789603379457401, 52.963082129446619 ], [ 4.79098085326905, 52.963143947425124 ], [ 4.795862775158445, 52.964576431171622 ], [ 4.801376101899822, 52.964609421748094 ], [ 4.801653522330803, 52.964377670865538 ], [ 4.803520611074296, 52.959181869950619 ], [ 4.801726917217861, 52.953375117654183 ], [ 4.801791979825323, 52.953061382489544 ], [ 4.801415064725218, 52.952757778939109 ], [ 4.801308244649221, 52.952428356109714 ], [ 4.800894071748727, 52.952236432175631 ], [ 4.793824404798937, 52.945262270328982 ], [ 4.792924659726672, 52.944071700051488 ], [ 4.792059562850903, 52.942076046575878 ], [ 4.791983633881344, 52.938087409020717 ], [ 4.791428937284961, 52.937614505637448 ], [ 4.79141340514733, 52.93600899760937 ], [ 4.791504542422721, 52.935883856910202 ], [ 4.792217844650125, 52.935876315952854 ], [ 4.79217245204759, 52.935692239368215 ], [ 4.791813103088677, 52.935572706821851 ], [ 4.792178951888392, 52.934969777097187 ], [ 4.792194157595493, 52.933028577267336 ], [ 4.792613265035343, 52.932879746484645 ], [ 4.79314364942643, 52.933016921268084 ], [ 4.793149314827496, 52.934637299561878 ], [ 4.793284687014324, 52.934764825108125 ], [ 4.793486440258667, 52.934635247978257 ], [ 4.793506030325681, 52.93307349494507 ], [ 4.793989442214744, 52.932944928961547 ], [ 4.794755413122251, 52.933400131765687 ], [ 4.794950538925967, 52.93335868433315 ], [ 4.794932122870573, 52.933177437856585 ], [ 4.794243674999024, 52.932729582393875 ], [ 4.794402799653033, 52.932417531693659 ], [ 4.79451423812317, 52.930466245898387 ], [ 4.794414848916582, 52.930356649353087 ], [ 4.794717474198007, 52.929574440420332 ], [ 4.80265662389945, 52.918597392609605 ], [ 4.803336648411978, 52.917468424726422 ], [ 4.804881530715318, 52.916665878348333 ], [ 4.807244825285293, 52.916208413075914 ], [ 4.808559920050111, 52.915783296243411 ], [ 4.810054231927179, 52.914827870803961 ], [ 4.809991658553769, 52.914172340030348 ], [ 4.809602405492897, 52.914055188038986 ], [ 4.809295195905997, 52.914145816733608 ], [ 4.809103472788545, 52.913883805269592 ], [ 4.808145242569565, 52.913475635846062 ], [ 4.80752554662656, 52.913517362989339 ], [ 4.806279166907664, 52.914020345121834 ], [ 4.806343533392043, 52.913311138524939 ], [ 4.806998296668526, 52.91256614745862 ], [ 4.808731770746164, 52.911343742797868 ], [ 4.811718712793447, 52.910984751184351 ], [ 4.81263609276407, 52.910516289415284 ], [ 4.812861358771457, 52.910288917220818 ], [ 4.812952153765988, 52.909847039713014 ], [ 4.813605978912538, 52.909492697907417 ], [ 4.827964575134984, 52.904264247481919 ], [ 4.829323022196625, 52.903910612585662 ], [ 4.830445751455386, 52.903367919835389 ], [ 4.841998698835009, 52.899211064084355 ], [ 4.846209316478085, 52.899636411797587 ], [ 4.848442683007845, 52.89953374283305 ], [ 4.849512508022094, 52.89924341047648 ], [ 4.850199746984101, 52.898986578227436 ], [ 4.85058084585018, 52.898397939948723 ], [ 4.850578798537529, 52.897992856638268 ], [ 4.850206685905472, 52.897848047961965 ], [ 4.850200455442859, 52.897646763918551 ], [ 4.850004732849609, 52.897537741828785 ], [ 4.849712239538627, 52.897612379521597 ], [ 4.849478955973426, 52.898021111080254 ], [ 4.847431889183648, 52.898665001035923 ], [ 4.846283293365637, 52.898559838820155 ], [ 4.846048082859693, 52.89845237578843 ], [ 4.845965930801506, 52.898195215545307 ], [ 4.847426020363655, 52.897686693161162 ], [ 4.848381279660599, 52.897638679168622 ], [ 4.849058657574363, 52.897094832620823 ], [ 4.849433966197553, 52.897162228328035 ], [ 4.85104157585235, 52.896846772106642 ], [ 4.856402602953408, 52.894369009528361 ], [ 4.867853147045301, 52.890220079752311 ], [ 4.869081292620497, 52.889985717724016 ], [ 4.874528230741891, 52.888359738537623 ], [ 4.877147288540909, 52.888209102786178 ], [ 4.881513895230578, 52.888793404613502 ], [ 4.888211632870141, 52.88996017750685 ], [ 4.890675621586155, 52.890429232659649 ], [ 4.892964553134525, 52.891068080028568 ], [ 4.900481464804415, 52.892303135058214 ], [ 4.901891711375435, 52.892766700837321 ], [ 4.902965884119793, 52.892813252508432 ], [ 4.904258445937692, 52.893154757309297 ], [ 4.905319516663321, 52.893148019618486 ], [ 4.90552134384879, 52.893323660378464 ], [ 4.907216707999876, 52.893649763116677 ], [ 4.908212116223822, 52.893981617292773 ], [ 4.909357001048145, 52.894935793954389 ], [ 4.910413067978039, 52.895575007656149 ], [ 4.913175921170939, 52.896297679144482 ], [ 4.914329713411088, 52.896758725474015 ], [ 4.916579908657074, 52.898294936796823 ], [ 4.919256365022616, 52.899528463446387 ], [ 4.935998942320388, 52.90379070753815 ], [ 4.93803721382484, 52.904560388045681 ], [ 4.939334052535438, 52.905246210241486 ], [ 4.939773117536556, 52.905640162083408 ], [ 4.9398030746158, 52.906021922924154 ], [ 4.940469312493939, 52.906358625305721 ], [ 4.94176094432851, 52.907459855939592 ], [ 4.943213723831415, 52.908275352523702 ], [ 4.944647521093249, 52.9094699189097 ], [ 4.945585401624684, 52.909761855191775 ], [ 4.954516947199833, 52.916757165633271 ], [ 4.955893436271462, 52.918602539632161 ], [ 4.956774350058918, 52.920137066670279 ], [ 4.957244234156151, 52.921784261824378 ], [ 4.9573754610133, 52.923844400880299 ], [ 4.957696049430405, 52.924509610097573 ], [ 4.958348407321363, 52.925213916290055 ], [ 4.965186708324202, 52.929184801482535 ], [ 4.96706088528048, 52.930079498097058 ], [ 4.967975614243806, 52.93035273169685 ], [ 4.96813560712493, 52.930848279445279 ], [ 4.968313499381108, 52.930816626314865 ], [ 4.968285188261969, 52.930473447044314 ], [ 4.968459837763816, 52.930430972755218 ], [ 4.975238105561248, 52.931449898261185 ], [ 4.976966679152369, 52.931397910107187 ], [ 4.979922556208653, 52.931832370118983 ], [ 4.987069808475037, 52.931953808128632 ], [ 4.996856946075175, 52.934834901511451 ], [ 4.997931876255395, 52.934957419962508 ], [ 4.998789377910866, 52.934873879911635 ], [ 4.998892644095434, 52.934986176930657 ], [ 4.999137115075523, 52.93489022002575 ], [ 5.002793854974866, 52.935755179264234 ], [ 5.00518607623871, 52.935812928680789 ], [ 5.008438520605531, 52.934699721427513 ], [ 5.012369182140278, 52.93404158687747 ], [ 5.02090304417804, 52.934956053598086 ], [ 5.024788648630515, 52.936340946385627 ], [ 5.025885073905146, 52.937027410536579 ], [ 5.026327023233195, 52.937532385236274 ], [ 5.027301573966914, 52.93951878717597 ], [ 5.027338139229946, 52.940202177972068 ], [ 5.027002492049998, 52.941375982135249 ], [ 5.024114082939032, 52.942567638328207 ], [ 5.024216375262119, 52.942795862411387 ], [ 5.024575496661085, 52.942872244440302 ], [ 5.02587876764939, 52.944099835460122 ], [ 5.026201960120849, 52.944013682009036 ], [ 5.026247963199013, 52.943794109917249 ], [ 5.025083324119972, 52.942630372896737 ], [ 5.02890915843648, 52.941088840121708 ], [ 5.030265679775441, 52.942599471985226 ], [ 5.026866240448577, 52.943427474042359 ], [ 5.026712734110824, 52.943565240614696 ], [ 5.026784277054961, 52.943745251630865 ], [ 5.03051515041659, 52.942998875660948 ], [ 5.034419900774087, 52.94141659790634 ], [ 5.035058577384887, 52.941300534367102 ], [ 5.036208417452005, 52.941585238343464 ], [ 5.038190640036471, 52.942965996176156 ], [ 5.038482531243919, 52.942919080717395 ], [ 5.038612285065429, 52.942751548590294 ], [ 5.03852407483005, 52.942598813276646 ], [ 5.035809332996065, 52.940733866016018 ], [ 5.03724397546414, 52.939883340329345 ], [ 5.037177561403962, 52.939565855498387 ], [ 5.036703765604159, 52.939698311884321 ], [ 5.036181716075122, 52.939564535510534 ], [ 5.036025584713983, 52.939724874649002 ], [ 5.03627491724214, 52.939961125931568 ], [ 5.036019192994925, 52.940139357948262 ], [ 5.033544396144085, 52.941387682864146 ], [ 5.031780522087538, 52.942085720979541 ], [ 5.030137047267063, 52.94184038472595 ], [ 5.029298145845062, 52.940918155947678 ], [ 5.03359451917715, 52.938735760180236 ], [ 5.035135717592794, 52.939441794074135 ], [ 5.035487533764242, 52.939410184760035 ], [ 5.03548759273813, 52.939136404830577 ], [ 5.034028199724447, 52.938468005712025 ], [ 5.034079213994819, 52.93818887977217 ], [ 5.033778889210665, 52.938097792952604 ], [ 5.03370850958684, 52.937877638743664 ], [ 5.033505525759747, 52.937891269064558 ], [ 5.033487037701424, 52.938118632581336 ], [ 5.033004908300885, 52.938374784073623 ], [ 5.031572478006947, 52.937145608906128 ], [ 5.032669829093161, 52.93661459567182 ], [ 5.033124985578527, 52.936852585909698 ], [ 5.033327414693748, 52.93780751626803 ], [ 5.033668803817131, 52.937818216252211 ], [ 5.033532670233358, 52.936740590810565 ], [ 5.03805151649395, 52.933533379684121 ], [ 5.03930899207501, 52.934111536935418 ], [ 5.038911383340716, 52.934530111876398 ], [ 5.038621483256698, 52.934490541632556 ], [ 5.038471939251968, 52.934784450044432 ], [ 5.037088636152205, 52.93590497166992 ], [ 5.035495356692182, 52.936958688464735 ], [ 5.035103518786436, 52.937404911888116 ], [ 5.035126911663682, 52.937642906545122 ], [ 5.035447102262369, 52.937651456754757 ], [ 5.037806470724523, 52.93609604979109 ], [ 5.039357930295661, 52.93481415837487 ], [ 5.041101685064877, 52.934437074752331 ], [ 5.041794729714407, 52.93476013652166 ], [ 5.04186297540552, 52.935668425055589 ], [ 5.040873980449152, 52.936698477047841 ], [ 5.039471748546412, 52.937825303443013 ], [ 5.039525324711175, 52.938116499830635 ], [ 5.039833983714328, 52.938092853966111 ], [ 5.041447198875737, 52.936758141049388 ], [ 5.042720228827248, 52.935954766380284 ], [ 5.04330626675799, 52.935784431062096 ], [ 5.043871138735738, 52.935833839205138 ], [ 5.04469266436504, 52.936217460178923 ], [ 5.044914571553011, 52.93665243567704 ], [ 5.045950722964796, 52.936804112631336 ], [ 5.046715665017798, 52.937159076160683 ], [ 5.047061556224147, 52.937551724066964 ], [ 5.047612971615147, 52.937784152046909 ], [ 5.048002217814273, 52.937751599515764 ], [ 5.048785297383313, 52.938121044503625 ], [ 5.049249522933279, 52.938912575942119 ], [ 5.048208558576287, 52.94010129599004 ], [ 5.048254962742023, 52.940569553389508 ], [ 5.048584436631319, 52.940812738153163 ], [ 5.04912099422653, 52.94088291045658 ], [ 5.050431877476902, 52.940674228719885 ], [ 5.054108054662552, 52.941231959751057 ], [ 5.165836741644833, 52.999955810633786 ], [ 5.165818238355491, 52.999791054525865 ], [ 5.16680897649031, 52.999170565931159 ], [ 5.127833456245622, 52.978722733437088 ], [ 5.125007398453584, 52.977092551956957 ], [ 5.124436711201708, 52.976939397867405 ], [ 5.114704401145662, 52.971847594000259 ], [ 5.075838367800506, 52.951434165309941 ], [ 5.073483378273925, 52.95018629955436 ], [ 5.073352661476603, 52.949966082933337 ], [ 5.054952503524602, 52.940405317633186 ], [ 5.054669461111531, 52.940171430424016 ], [ 5.053522480970561, 52.937808312234459 ], [ 5.053868910435841, 52.937179406735616 ], [ 5.053518584179869, 52.936791682679157 ], [ 5.052713836996553, 52.936755816861258 ], [ 5.050941781957576, 52.937740994574 ], [ 5.050212457398904, 52.937843653032097 ], [ 5.049553607034285, 52.937613043770803 ], [ 5.049231673473579, 52.937682510979705 ], [ 5.04853286044176, 52.937353996046511 ], [ 5.048437925976386, 52.937071478931372 ], [ 5.047556715071877, 52.936652569820986 ], [ 5.047141547510713, 52.936707987724724 ], [ 5.046411617080587, 52.936361915082024 ], [ 5.046395939613879, 52.936131479923759 ], [ 5.045764891155779, 52.935817135796121 ], [ 5.045134749093632, 52.93575909791435 ], [ 5.044394950884914, 52.935413890009542 ], [ 5.044220499638572, 52.934524410891022 ], [ 5.044724904292183, 52.934096993310035 ], [ 5.045020719754061, 52.933557831671926 ], [ 5.048921514869039, 52.930509627545902 ], [ 5.049229966487653, 52.929891512522424 ], [ 5.052751571930965, 52.927101329657695 ], [ 5.05288275079008, 52.926741436117503 ], [ 5.052762315398746, 52.926246610093564 ], [ 5.051258998787405, 52.924862584973908 ], [ 5.051064386597125, 52.924865138098852 ], [ 5.051018476027428, 52.925054628965917 ], [ 5.052472410465024, 52.926398875931874 ], [ 5.052496504164002, 52.926897997069318 ], [ 5.048303162615, 52.930173031636571 ], [ 5.04766821365492, 52.930132620931857 ], [ 5.046823251510443, 52.929699363690737 ], [ 5.047439724138986, 52.929193845170388 ], [ 5.047321960498461, 52.929004821077996 ], [ 5.049706643617726, 52.927119927518881 ], [ 5.049659339893626, 52.926934173018886 ], [ 5.048105258719224, 52.928014972757815 ], [ 5.04740581430698, 52.92819019460844 ], [ 5.04721499973353, 52.928692244530339 ], [ 5.046323927718793, 52.9290198970074 ], [ 5.042061923597281, 52.9323504612723 ], [ 5.040504824188984, 52.931930615247332 ], [ 5.039363614122164, 52.931249307220824 ], [ 5.038990076478713, 52.931255672277786 ], [ 5.038583145607173, 52.930742334255456 ], [ 5.038581168639295, 52.929897621803264 ], [ 5.039029607356315, 52.929392413290685 ], [ 5.039706962424902, 52.929236620429762 ], [ 5.039788265468667, 52.929092190764536 ], [ 5.039381388203543, 52.928954397373673 ], [ 5.039154072829285, 52.928661605865557 ], [ 5.038683348155015, 52.928703412689046 ], [ 5.038414159234526, 52.92840916484365 ], [ 5.038512935885311, 52.927967967064937 ], [ 5.03834310928645, 52.927741380698244 ], [ 5.038593635459071, 52.927487620945492 ], [ 5.038686328529989, 52.92658843361032 ], [ 5.039307216919203, 52.925829355380706 ], [ 5.038910776361979, 52.925618341048782 ], [ 5.038722046181597, 52.925202067903818 ], [ 5.038208992467918, 52.922858088830772 ], [ 5.037663615945255, 52.922542186647334 ], [ 5.03768259084596, 52.922210740108298 ], [ 5.037936107596659, 52.922082319420603 ], [ 5.03789178213202, 52.921663431664555 ], [ 5.03919986278136, 52.921611019191317 ], [ 5.039540514428321, 52.921715467192108 ], [ 5.039579353400647, 52.921889742135704 ], [ 5.042213640902369, 52.922692592732112 ], [ 5.042468094542621, 52.922517791413121 ], [ 5.046227237066827, 52.92365943650826 ], [ 5.045777585761042, 52.924186410433443 ], [ 5.041906160201163, 52.923001684624175 ], [ 5.041492272117597, 52.923434532732479 ], [ 5.047330192415315, 52.925276524945879 ], [ 5.047694506180049, 52.924784649275765 ], [ 5.04608504572631, 52.924281048889654 ], [ 5.046531771188703, 52.923747522802771 ], [ 5.049957878526523, 52.924661755864669 ], [ 5.049953778622008, 52.924438183054853 ], [ 5.048697878953689, 52.924039149469607 ], [ 5.073974714180104, 52.893887143140923 ], [ 5.074808382350327, 52.893341526375259 ], [ 5.076251551839174, 52.893241001264727 ], [ 5.07687821615014, 52.89299535395115 ], [ 5.079561476540848, 52.890098355535464 ], [ 5.07982332114767, 52.889398427665029 ], [ 5.079124888056839, 52.888027809592302 ], [ 5.07923007014098, 52.887589238801411 ], [ 5.101954535940674, 52.860431996394439 ], [ 5.102236564496359, 52.860226643528485 ], [ 5.104544321558694, 52.859893274712704 ], [ 5.105956544959618, 52.858455254770796 ], [ 5.109834721112807, 52.857544143978302 ], [ 5.109822767733424, 52.857377028780405 ], [ 5.109622522933012, 52.857327688891452 ], [ 5.105787117440368, 52.858184701910005 ], [ 5.105347362304368, 52.858475479406351 ], [ 5.104542770698798, 52.859420343639847 ], [ 5.103353269900268, 52.859043685877893 ], [ 5.104330372416994, 52.857869911897581 ], [ 5.105261139211885, 52.858046242713193 ], [ 5.105245872458314, 52.857893197925243 ], [ 5.104751599472229, 52.85773475481912 ], [ 5.105339006247442, 52.8570229052089 ], [ 5.106899579814694, 52.857376179213531 ], [ 5.10796760653173, 52.857165756116189 ], [ 5.108622136998953, 52.8564020324295 ], [ 5.10889643341286, 52.856423688079552 ], [ 5.109659812780155, 52.855358195064468 ], [ 5.109994178804142, 52.855458238035403 ], [ 5.109070329128741, 52.856584862966187 ], [ 5.109104552193278, 52.856777242754305 ], [ 5.109331281275039, 52.856809141128501 ], [ 5.110866521727078, 52.855037401005646 ], [ 5.112148486289573, 52.854652001903787 ], [ 5.112203548346079, 52.854432323708004 ], [ 5.112045601507503, 52.854245140369436 ], [ 5.111070364909057, 52.854126975812484 ], [ 5.108019055583503, 52.853213492027606 ], [ 5.110071151767278, 52.850776171840586 ], [ 5.112632159026627, 52.851622341055517 ], [ 5.111118413267827, 52.85356536274076 ], [ 5.111143411524332, 52.853822682672707 ], [ 5.11143522477925, 52.854013600953941 ], [ 5.112111300435692, 52.853770515976116 ], [ 5.113885611195474, 52.85158383659406 ], [ 5.113876868860952, 52.851311963275414 ], [ 5.113613231807888, 52.85109143482763 ], [ 5.110561518670033, 52.850175796385379 ], [ 5.113916782355186, 52.846157438522248 ], [ 5.114052531992406, 52.845497506507172 ], [ 5.112499859456633, 52.833799217189487 ], [ 5.103935102244866, 52.774964624354297 ], [ 5.103923739475438, 52.7746988276566 ], [ 5.104155457056343, 52.774552018485359 ], [ 5.103372975217335, 52.774273311897922 ], [ 5.103028534322743, 52.774530897747724 ], [ 5.099761331285922, 52.773527275162571 ], [ 5.09858131458563, 52.772394777922756 ], [ 5.099254186450683, 52.772018146982568 ], [ 5.09907988578373, 52.771874239952751 ], [ 5.096232048235243, 52.770494640474531 ], [ 5.093451214221669, 52.768722210010466 ], [ 5.093156114736982, 52.768585970327628 ], [ 5.092627548697862, 52.76886787422837 ], [ 5.090153581686375, 52.769509727683946 ], [ 5.088002304347223, 52.769674207887597 ], [ 5.08201033834102, 52.769711858328812 ], [ 5.076197548166337, 52.769344416654015 ], [ 5.073496955199309, 52.768982702250291 ], [ 5.070384853958585, 52.768337488115542 ], [ 5.069430420031862, 52.7680126695778 ], [ 5.067124517149913, 52.766399993849177 ], [ 5.064684477885826, 52.763179619035547 ], [ 5.063219359295629, 52.761739637064117 ], [ 5.057530982787137, 52.757925571841177 ], [ 5.055438654552749, 52.757004070649792 ], [ 5.048916875848657, 52.754816388224285 ], [ 5.045884112881673, 52.753450347318967 ], [ 5.043434439346753, 52.752967152533863 ], [ 5.042248359094319, 52.752369055290323 ], [ 5.04059775793252, 52.752166023052617 ], [ 5.040287883320683, 52.752166488094439 ], [ 5.040143819943816, 52.752508526576996 ], [ 5.034828649571909, 52.751990242983048 ], [ 5.029305986915827, 52.751713412139146 ], [ 5.013006798614988, 52.751730617105927 ], [ 4.955874140142954, 52.753375230426215 ], [ 4.955063908875546, 52.754119187688751 ], [ 4.954822543452408, 52.755151064786489 ], [ 4.954346298185897, 52.755396248363581 ], [ 4.949945259036377, 52.754600281663841 ], [ 4.947257705215127, 52.754291869893869 ], [ 4.946164399919881, 52.754022377992023 ], [ 4.946117311301364, 52.753873161451111 ], [ 4.944403036101593, 52.75354079352055 ], [ 4.944450966443317, 52.752796559932143 ], [ 4.940289860384544, 52.750514228664429 ], [ 4.937499858488406, 52.749853341883046 ], [ 4.932722282894185, 52.748998571262263 ], [ 4.931374083292099, 52.742152590180886 ], [ 4.931172161689135, 52.74174815791153 ], [ 4.912164079748542, 52.720334748402934 ], [ 4.906244844205517, 52.714321476929037 ], [ 4.904809962258241, 52.712627330637524 ], [ 4.899935410517534, 52.708021396547871 ], [ 4.898982317339772, 52.706910192830264 ], [ 4.898618063465583, 52.706917753792141 ], [ 4.898428639059484, 52.706548525083967 ], [ 4.898156347951331, 52.706435460627354 ], [ 4.897217493242653, 52.706624498578783 ], [ 4.89483545682902, 52.707477355855836 ], [ 4.887848338441621, 52.709261875283417 ], [ 4.884627208764191, 52.709927043101636 ], [ 4.877378018125008, 52.712053896290158 ], [ 4.876346599611691, 52.712657695104063 ], [ 4.873331818436523, 52.715306016936651 ], [ 4.871156829743917, 52.716459040919432 ], [ 4.871238339301064, 52.716731054727802 ], [ 4.861255498901943, 52.720816024989098 ], [ 4.858573744062106, 52.722807342712137 ], [ 4.856726849828779, 52.722367000419403 ], [ 4.856461092530392, 52.722859849330185 ], [ 4.855895553294887, 52.722919635928044 ], [ 4.855754815027707, 52.723172716183058 ], [ 4.855571756880519, 52.723183883579622 ], [ 4.855143340186785, 52.72390856351182 ], [ 4.85460059117561, 52.724397643587139 ], [ 4.851527181609416, 52.726236919107926 ], [ 4.851384076063292, 52.725890130700733 ], [ 4.850786343571145, 52.72549778957309 ], [ 4.850259663769251, 52.725427863566651 ], [ 4.849140736719794, 52.724847402393735 ], [ 4.848308886307527, 52.723438695824733 ], [ 4.848172666555029, 52.722921931698266 ], [ 4.848258282755705, 52.721870642168199 ], [ 4.847591190998961, 52.720344954519568 ], [ 4.843749207248164, 52.719752036796471 ], [ 4.843581441468614, 52.718206678317081 ], [ 4.842641628385623, 52.718348435351814 ], [ 4.842390597048447, 52.718607824104836 ], [ 4.841485648220091, 52.718936551385674 ], [ 4.841174384007918, 52.719404902026433 ], [ 4.828856678776816, 52.718195418379075 ], [ 4.826769521649614, 52.717750945763164 ], [ 4.824002745141337, 52.716628520031023 ], [ 4.816953323201079, 52.715436055341783 ], [ 4.81349659812048, 52.715045082350464 ], [ 4.811017342937393, 52.715280870397471 ], [ 4.809162943407876, 52.715221404857687 ], [ 4.805025312285697, 52.714312563707928 ], [ 4.804091877484756, 52.714720903183007 ], [ 4.805097243582104, 52.715018871779968 ], [ 4.804634109577022, 52.715739919146877 ], [ 4.803214761950557, 52.715519309555077 ], [ 4.802167177642546, 52.715979698387564 ], [ 4.800959614298336, 52.71686763085156 ], [ 4.79960828313475, 52.718256673715459 ], [ 4.7976101634523, 52.719709244070629 ], [ 4.797444120441382, 52.719915301795965 ], [ 4.797442333250529, 52.72027536770937 ], [ 4.797661092025517, 52.720928552328552 ], [ 4.79543236848921, 52.720544479392743 ], [ 4.794101705961117, 52.720803272594438 ], [ 4.79248471993814, 52.723214435263174 ], [ 4.789689320394042, 52.722555526341594 ], [ 4.790454354968686, 52.721221957335672 ], [ 4.789139280857872, 52.720951866245393 ], [ 4.788078427586683, 52.721156743911756 ], [ 4.786623455018241, 52.721115699748225 ], [ 4.785512879437889, 52.722477807172261 ], [ 4.785899112472022, 52.722968327751936 ], [ 4.786094619599127, 52.724560725570093 ], [ 4.786805521782308, 52.726355131194452 ], [ 4.786565690117839, 52.72771261695366 ], [ 4.786646355715132, 52.728005266982102 ], [ 4.785092086119986, 52.728938030478396 ], [ 4.781223825543601, 52.730185466064569 ], [ 4.779307083982968, 52.731299343390823 ], [ 4.777949109506684, 52.728282530673354 ], [ 4.775867911471254, 52.724875538038233 ], [ 4.77425975986809, 52.721146519659122 ], [ 4.773522681784804, 52.718454507636174 ], [ 4.773327900119676, 52.717111587545979 ], [ 4.772763389540258, 52.715707229359886 ], [ 4.770851851440842, 52.70860017712333 ], [ 4.770553923443062, 52.706593985360065 ], [ 4.770681900444732, 52.704845931693534 ], [ 4.772246513188085, 52.698557216562996 ], [ 4.769463717529865, 52.698052495801498 ], [ 4.769034321130211, 52.69803208618746 ], [ 4.768481118015305, 52.698519778119895 ], [ 4.76653218602149, 52.698205188648132 ], [ 4.757245521986826, 52.69786969502244 ], [ 4.752876509771462, 52.697411509720972 ], [ 4.739543544729504, 52.69428430630618 ], [ 4.739269585503116, 52.694128972952527 ], [ 4.739348372168642, 52.693885325641745 ], [ 4.738921699394469, 52.693724857032564 ], [ 4.733987396922489, 52.692559126428911 ], [ 4.730333462222761, 52.690880178054222 ], [ 4.72922114902185, 52.691665945275354 ], [ 4.728775086325032, 52.691465256374293 ], [ 4.72755704243637, 52.692083600559926 ], [ 4.726531160223755, 52.692777793215143 ], [ 4.726470615720076, 52.693153725117824 ], [ 4.721753850833401, 52.696355433668835 ], [ 4.720295106541568, 52.697527435096994 ], [ 4.719720877270102, 52.698281193902403 ], [ 4.719105687406315, 52.699579695106934 ], [ 4.716992848599189, 52.705104466148377 ], [ 4.71630316859752, 52.707674626562451 ], [ 4.715354674003184, 52.707984465516333 ], [ 4.714864234321164, 52.70787338909242 ], [ 4.714422704140291, 52.708666938932339 ], [ 4.713526607992118, 52.708911593425412 ], [ 4.713489030218875, 52.71042826449834 ], [ 4.713085407834272, 52.711456829243645 ], [ 4.710204510585698, 52.714272915693869 ], [ 4.710552429966779, 52.714584079271184 ], [ 4.70949490367474, 52.71556468064319 ], [ 4.707056559535658, 52.718773685653943 ], [ 4.702504290450849, 52.721635862655233 ], [ 4.700165805657362, 52.724265729854999 ], [ 4.692707695088426, 52.731084527297654 ], [ 4.689853689619988, 52.7330869357748 ], [ 4.686905234468912, 52.732745634513897 ], [ 4.68357866636612, 52.733623581732111 ], [ 4.682791539505964, 52.735316017483655 ], [ 4.681100883876241, 52.737735625479772 ], [ 4.680691198470684, 52.737990703752082 ], [ 4.679624484926668, 52.73826847044954 ], [ 4.678851825218999, 52.739312085989496 ], [ 4.67139411801889, 52.740635008053985 ], [ 4.669686562957456, 52.741457016939485 ], [ 4.666087572635395, 52.744469364170996 ], [ 4.66298224981158, 52.746741010104117 ], [ 4.660481301985121, 52.746803051664614 ], [ 4.659256450109551, 52.747385404115391 ], [ 4.659035672252728, 52.74815567089798 ], [ 4.659134488143353, 52.749536660318206 ], [ 4.659031520602453, 52.74970033067374 ], [ 4.656432330248989, 52.750634444403524 ], [ 4.656237605794972, 52.750863123019762 ], [ 4.656492603789008, 52.751506641016569 ], [ 4.656352364480773, 52.751782971330329 ], [ 4.651093138255558, 52.755931628286348 ], [ 4.645508590421157, 52.756706238251319 ] ], [ [ 5.046062370643345, 52.931441109226796 ], [ 5.046352025750274, 52.931713823821163 ], [ 5.043841828497087, 52.933660858496609 ], [ 5.042441625749102, 52.934170497349889 ], [ 5.041804489773283, 52.933878500358723 ], [ 5.042258786821782, 52.933007392384731 ], [ 5.044776611837483, 52.931043102533167 ], [ 5.04507221063792, 52.931026912494701 ], [ 5.046062370643345, 52.931441109226796 ] ] ], [ [ [ 4.708479507304427, 53.0227212824595 ], [ 4.708786019442205, 53.024323462386008 ], [ 4.708676920900078, 53.025186330133245 ], [ 4.709032965037455, 53.025421817245537 ], [ 4.709219949586746, 53.026313054980989 ], [ 4.709182290851336, 53.027545135722711 ], [ 4.709403681247193, 53.028575841095375 ], [ 4.709313592172209, 53.02912633425921 ], [ 4.709996258747116, 53.031628011452696 ], [ 4.710059240688682, 53.033109978632496 ], [ 4.707089595118947, 53.033348683313733 ], [ 4.706967384973541, 53.033525104858981 ], [ 4.71009244462332, 53.033390293414797 ], [ 4.711000603050035, 53.036304795382343 ], [ 4.711044368367607, 53.037323812370019 ], [ 4.711542575165605, 53.037596997509759 ], [ 4.711856919452837, 53.038208351831351 ], [ 4.711731985736715, 53.038999292358262 ], [ 4.711981440098223, 53.040573692410547 ], [ 4.713113964335107, 53.042259430314374 ], [ 4.713377321043606, 53.043258924640718 ], [ 4.713340760202466, 53.043878041350098 ], [ 4.714324666646174, 53.045485204892898 ], [ 4.714500155492452, 53.046832700194358 ], [ 4.714744767811711, 53.047175045774154 ], [ 4.714635684699791, 53.047591538847328 ], [ 4.714866933155044, 53.047946757497847 ], [ 4.715666672462932, 53.050980210710733 ], [ 4.716594464617624, 53.052715254122745 ], [ 4.716967618897263, 53.053887571055739 ], [ 4.718107829030532, 53.055546244964823 ], [ 4.718381331409018, 53.057826455008851 ], [ 4.719550340608365, 53.059395967118732 ], [ 4.720114663844913, 53.060933928213856 ], [ 4.720643022900053, 53.06162361451063 ], [ 4.720767736701863, 53.062452312591333 ], [ 4.721379436237497, 53.06354608742798 ], [ 4.721686277831001, 53.064521598490614 ], [ 4.723433375029752, 53.066506417662225 ], [ 4.723553337886961, 53.067899643459874 ], [ 4.725714656851388, 53.070496340012916 ], [ 4.726525290071041, 53.072065651296924 ], [ 4.72864988935421, 53.074202085050636 ], [ 4.729105590364119, 53.075205562234252 ], [ 4.729907514632289, 53.075710310454987 ], [ 4.730267735532555, 53.076417732795377 ], [ 4.731229544682603, 53.077354264758419 ], [ 4.732002286829296, 53.078570557657656 ], [ 4.73517641805921, 53.082390661125579 ], [ 4.736101634617486, 53.08324722017327 ], [ 4.738836876945857, 53.086403007570553 ], [ 4.740949937615061, 53.088319350219479 ], [ 4.740895067345329, 53.088622319016466 ], [ 4.741186410034962, 53.089138562114151 ], [ 4.742635796917828, 53.090271405235761 ], [ 4.743045254206843, 53.090430391542711 ], [ 4.744161954368835, 53.091526243501079 ], [ 4.746877473786841, 53.09458711841674 ], [ 4.749374480308292, 53.096919518210079 ], [ 4.750056112205812, 53.097809998020089 ], [ 4.752012660604737, 53.099404601231313 ], [ 4.753523529499903, 53.101043336454779 ], [ 4.754786500586137, 53.102143352930185 ], [ 4.75528058820839, 53.10290952655599 ], [ 4.757396975454878, 53.104896218917226 ], [ 4.757503613146409, 53.105378270516603 ], [ 4.758067810323208, 53.105959153473584 ], [ 4.758874208358752, 53.106645960943609 ], [ 4.759985266203349, 53.107293767706146 ], [ 4.760325323960113, 53.107817822277596 ], [ 4.762981269906986, 53.110132901499412 ], [ 4.763216373654898, 53.110731854725493 ], [ 4.763863504016507, 53.111233112936816 ], [ 4.764274565051762, 53.111980027316683 ], [ 4.765518398013473, 53.113175267178683 ], [ 4.76788409069235, 53.114714824397865 ], [ 4.769528375421199, 53.116417835149917 ], [ 4.77113672040623, 53.117646673307412 ], [ 4.775647536052311, 53.122076537978081 ], [ 4.78183062375683, 53.127204545010891 ], [ 4.786632715483321, 53.130928130680907 ], [ 4.791735335154305, 53.135685194774446 ], [ 4.793061351330649, 53.136585520551627 ], [ 4.795225312743964, 53.138438880101766 ], [ 4.795929376249886, 53.138497671332814 ], [ 4.796711306270292, 53.138786390150045 ], [ 4.798852622383539, 53.138571131663213 ], [ 4.799688627854988, 53.138838719559679 ], [ 4.800366239551357, 53.138701811555137 ], [ 4.800502897607421, 53.138443197320498 ], [ 4.800347087581471, 53.138063236844168 ], [ 4.799498416373639, 53.137412008216842 ], [ 4.798434842012699, 53.136904656121551 ], [ 4.79851964253155, 53.136344170166041 ], [ 4.798016013582081, 53.136568256287113 ], [ 4.797327941112016, 53.136191612624408 ], [ 4.796533077281678, 53.135316839244396 ], [ 4.796616966497558, 53.134877589716652 ], [ 4.797032522697089, 53.134600077680481 ], [ 4.798419842066763, 53.134299228833761 ], [ 4.798688629093162, 53.13408244570217 ], [ 4.798676700206254, 53.133669470839713 ], [ 4.799386434980696, 53.133556565499646 ], [ 4.799405911153206, 53.133328847547013 ], [ 4.799963312329535, 53.133230076067981 ], [ 4.799985351827933, 53.132931886042442 ], [ 4.800343696666034, 53.132940892061278 ], [ 4.800574114695803, 53.132703294026719 ], [ 4.801245393133486, 53.133067225696962 ], [ 4.801601096249993, 53.133022590906997 ], [ 4.802092172494567, 53.133353327841427 ], [ 4.802183019112998, 53.133733286057691 ], [ 4.80248644306061, 53.13380374546098 ], [ 4.803256518053121, 53.133766516060078 ], [ 4.803645503183444, 53.133586213079276 ], [ 4.804046047458292, 53.133231413551968 ], [ 4.804040307242995, 53.133000245778568 ], [ 4.803766570383435, 53.13291310382175 ], [ 4.803939443378638, 53.132872594006102 ], [ 4.804581356619908, 53.133051878440924 ], [ 4.80437014495148, 53.133452113923397 ], [ 4.804708342488563, 53.133706058530507 ], [ 4.80580081640326, 53.133593978920622 ], [ 4.805955976913897, 53.133815446238735 ], [ 4.808013199865783, 53.134053867675988 ], [ 4.80795438564444, 53.134309226878287 ], [ 4.807390060686717, 53.134447004899357 ], [ 4.807103992049166, 53.134725680556379 ], [ 4.807216984010494, 53.135113678623355 ], [ 4.807579588605545, 53.135288151345293 ], [ 4.807635084188927, 53.135534894211084 ], [ 4.808265097992149, 53.136139403767544 ], [ 4.809880356689724, 53.136878267589417 ], [ 4.810159015357582, 53.136570072336525 ], [ 4.810100212245279, 53.136829747689575 ], [ 4.810268890302593, 53.137030630615612 ], [ 4.811054305687482, 53.137224443692411 ], [ 4.811480093226934, 53.137591395875553 ], [ 4.811231675948481, 53.137590367756381 ], [ 4.811176754352281, 53.137752762967537 ], [ 4.811586427924951, 53.137963088086181 ], [ 4.811813422106416, 53.138200603488542 ], [ 4.81179503063742, 53.138538576571776 ], [ 4.812388302175438, 53.138978635010226 ], [ 4.815939768451927, 53.140097854640828 ], [ 4.818410658061834, 53.142156219792291 ], [ 4.8188818579572, 53.142260821300809 ], [ 4.819466381937577, 53.142154530269671 ], [ 4.819413819465071, 53.14176771955227 ], [ 4.818573750804548, 53.140861534772483 ], [ 4.818206042961395, 53.140227515342239 ], [ 4.81828324859131, 53.139782175686435 ], [ 4.818143318546453, 53.139576746449848 ], [ 4.818352609999729, 53.139422412285263 ], [ 4.818523060564646, 53.139511293239075 ], [ 4.818342657244761, 53.13983605275444 ], [ 4.818385072528575, 53.140312760302784 ], [ 4.819038331633363, 53.141213390456883 ], [ 4.819992318109532, 53.142145661280651 ], [ 4.821222857737956, 53.142671019340291 ], [ 4.822016018454254, 53.143522254962434 ], [ 4.822149781721071, 53.144227186487392 ], [ 4.821497522394201, 53.144991898008669 ], [ 4.821672908146291, 53.145334893639365 ], [ 4.822375607737302, 53.145578240826033 ], [ 4.823044281697636, 53.145408494969118 ], [ 4.823046404243092, 53.14517338547946 ], [ 4.822662473291635, 53.144846249208037 ], [ 4.822908048139935, 53.143937462362842 ], [ 4.822906655711708, 53.143016265068994 ], [ 4.824319443760658, 53.142377540794747 ], [ 4.825697984162761, 53.142911530121381 ], [ 4.826326251754125, 53.142524174363686 ], [ 4.826402168963926, 53.143084867490536 ], [ 4.827199585970114, 53.143564803542432 ], [ 4.828067009803474, 53.142928081306017 ], [ 4.828721682917941, 53.143317914452261 ], [ 4.828944358467778, 53.143685517021638 ], [ 4.829321925748776, 53.143721628755202 ], [ 4.829578828438681, 53.143485599181595 ], [ 4.830047482993596, 53.14374172168155 ], [ 4.830507166859089, 53.144496235185287 ], [ 4.830719525282396, 53.145569927996057 ], [ 4.830698439959757, 53.146005629180557 ], [ 4.830298885424071, 53.146437226924604 ], [ 4.830519600546609, 53.146112468362901 ], [ 4.830531506605682, 53.145729040673018 ], [ 4.830141895601227, 53.144013919790275 ], [ 4.829681550950621, 53.143675099135834 ], [ 4.829375482118864, 53.143976022431794 ], [ 4.829667118377797, 53.144715395407339 ], [ 4.828882671856927, 53.145046095499978 ], [ 4.827642392924142, 53.145178897557315 ], [ 4.826785272150696, 53.145516293503739 ], [ 4.825942214445834, 53.146886657369166 ], [ 4.825491023200374, 53.147235966374943 ], [ 4.824918642034464, 53.14650417683756 ], [ 4.824726077036487, 53.146631719608934 ], [ 4.824554102203303, 53.147143357784294 ], [ 4.824426532486395, 53.146714150789947 ], [ 4.823971991752964, 53.147130809386653 ], [ 4.823562405571616, 53.147274604759069 ], [ 4.823367720664326, 53.147032075631301 ], [ 4.822046137459196, 53.146884414120656 ], [ 4.821907374368736, 53.14674006408287 ], [ 4.820829957085052, 53.14668881688025 ], [ 4.820196046459215, 53.146920646158463 ], [ 4.820043720099785, 53.147211069734134 ], [ 4.820350154103569, 53.147427630903088 ], [ 4.820405371020157, 53.14766332193161 ], [ 4.819874667708432, 53.148104719426556 ], [ 4.820183157206889, 53.148438761405174 ], [ 4.820184365917718, 53.148687074358477 ], [ 4.819920325960139, 53.149016720339617 ], [ 4.820371516555602, 53.149330690317001 ], [ 4.820272752406964, 53.149584105589049 ], [ 4.81963028092324, 53.149727436852068 ], [ 4.819829023023313, 53.149965931995624 ], [ 4.819714061184424, 53.150616550780597 ], [ 4.819903041755603, 53.151176230391073 ], [ 4.819218761157115, 53.152081501135903 ], [ 4.819301055618981, 53.152879753670476 ], [ 4.818846553920422, 53.152739764901568 ], [ 4.818714236294711, 53.153044301831414 ], [ 4.81848274195896, 53.153098543951458 ], [ 4.818483292579268, 53.152497308158019 ], [ 4.817740026217948, 53.152296306601784 ], [ 4.817751239701228, 53.152136316956273 ], [ 4.817580091731922, 53.152073296141701 ], [ 4.817965836881597, 53.151993778629922 ], [ 4.818019928764799, 53.151802739190508 ], [ 4.818370768234939, 53.151640713488895 ], [ 4.818964907288509, 53.150471400127124 ], [ 4.818495804416895, 53.150489688394337 ], [ 4.818290939972334, 53.151103699078874 ], [ 4.817980035160617, 53.151218272339918 ], [ 4.817992841628131, 53.151428345331283 ], [ 4.817937652989103, 53.15147235076023 ], [ 4.817875049273932, 53.151171822637643 ], [ 4.818181871441866, 53.151046529696636 ], [ 4.818447761013055, 53.150321820389181 ], [ 4.818263222299536, 53.149892657185994 ], [ 4.818314487786102, 53.149536921592876 ], [ 4.817376310685581, 53.14897633528885 ], [ 4.817032975587929, 53.148496306771229 ], [ 4.81598018296445, 53.148177539443012 ], [ 4.815450697683744, 53.147790045316007 ], [ 4.815220561955829, 53.147337055378848 ], [ 4.816064840866794, 53.146593767952403 ], [ 4.817140939793626, 53.146342871911152 ], [ 4.817103628386812, 53.145730434551531 ], [ 4.816631699366798, 53.145178156473065 ], [ 4.817225938336736, 53.145498712155671 ], [ 4.817515489897962, 53.146455660546238 ], [ 4.817861336516371, 53.146502333563987 ], [ 4.818048166603011, 53.146798082947811 ], [ 4.818527948569248, 53.146915014765497 ], [ 4.818468532581891, 53.147131478928856 ], [ 4.819086306824767, 53.147214183884088 ], [ 4.819510739969928, 53.147035982860167 ], [ 4.819776265043385, 53.146723515208457 ], [ 4.819389212242295, 53.145393905035306 ], [ 4.820208600096363, 53.14516659740471 ], [ 4.820404483577967, 53.144584441187071 ], [ 4.82087288850507, 53.144075483318787 ], [ 4.820962304601591, 53.143458075365892 ], [ 4.820646914966146, 53.143148579522922 ], [ 4.819981908553852, 53.142942088188384 ], [ 4.818451979263657, 53.142863065879745 ], [ 4.818058775523955, 53.1425873054324 ], [ 4.816840753970797, 53.142400593484751 ], [ 4.816325737160088, 53.14187738903545 ], [ 4.816055210827381, 53.141016466771177 ], [ 4.815021915223129, 53.14023187293585 ], [ 4.812190014016351, 53.139536401556917 ], [ 4.810176622618651, 53.138498378867638 ], [ 4.80982967582314, 53.13850591246171 ], [ 4.80955506940588, 53.137916989821221 ], [ 4.806767009718823, 53.136386705051422 ], [ 4.805943168985643, 53.136117542327185 ], [ 4.805492421364916, 53.136124949446192 ], [ 4.804912802733852, 53.136377988721968 ], [ 4.802467570462817, 53.137951694842926 ], [ 4.802061443186837, 53.138659255742084 ], [ 4.802099723820397, 53.139404164631749 ], [ 4.801536883538034, 53.139440377972619 ], [ 4.801099959698431, 53.139211408365 ], [ 4.80027937785423, 53.139453423551807 ], [ 4.799363487079428, 53.139485514025679 ], [ 4.797845308118371, 53.139356841098383 ], [ 4.797561391843722, 53.13909040269013 ], [ 4.796340950358309, 53.139261563138959 ], [ 4.796469059039417, 53.139978484229722 ], [ 4.796869008531295, 53.140475777206468 ], [ 4.800470353581258, 53.143955111508809 ], [ 4.800356014871242, 53.144217888418687 ], [ 4.80059007306637, 53.144687452787281 ], [ 4.803570533359014, 53.147435687877874 ], [ 4.807306747601558, 53.151524144793726 ], [ 4.809745774941135, 53.154784747098965 ], [ 4.811195482538341, 53.155954031275819 ], [ 4.813325401667872, 53.158381789490846 ], [ 4.814478105887708, 53.159059336405129 ], [ 4.821931487797452, 53.165522403754039 ], [ 4.826504381414884, 53.16846352645485 ], [ 4.829818864796837, 53.170854099588063 ], [ 4.831603103905651, 53.172475354616559 ], [ 4.83177195126818, 53.173155991019016 ], [ 4.83216068876068, 53.17376411972149 ], [ 4.836820125115964, 53.177757839456625 ], [ 4.839828004234205, 53.181235203466244 ], [ 4.840991044221971, 53.182908124713499 ], [ 4.838959752218513, 53.184146669624994 ], [ 4.838970068414672, 53.184313830970098 ], [ 4.839161940129794, 53.184349764356249 ], [ 4.840857673951497, 53.183422056923597 ], [ 4.842195162893987, 53.184175582505056 ], [ 4.844866401948259, 53.18492358154294 ], [ 4.84826486331658, 53.185273688253531 ], [ 4.852956556124337, 53.185508772492277 ], [ 4.854955229407391, 53.185246859385025 ], [ 4.857976743483648, 53.184350635726489 ], [ 4.859485480620091, 53.183759166138671 ], [ 4.860527213229561, 53.183073289992272 ], [ 4.861180814804902, 53.183102380603053 ], [ 4.862873555021713, 53.181671895312796 ], [ 4.86729313189993, 53.177063550055408 ], [ 4.868754918844532, 53.175930879680102 ], [ 4.870595383410763, 53.174881232321049 ], [ 4.872989112809519, 53.172616021990137 ], [ 4.873568295186574, 53.171731671018861 ], [ 4.874051521684301, 53.17040059473058 ], [ 4.874515205029353, 53.170199039617842 ], [ 4.874786164874697, 53.169664064917391 ], [ 4.874738374084485, 53.169450992769569 ], [ 4.874513697399652, 53.169381396297062 ], [ 4.874207599840899, 53.169729237160276 ], [ 4.874877287462596, 53.166914179822776 ], [ 4.876317553264542, 53.166623194966881 ], [ 4.876435842425854, 53.166261923247156 ], [ 4.878501107445048, 53.165627955690354 ], [ 4.879583641936055, 53.165046076753889 ], [ 4.879816006669297, 53.164074725987582 ], [ 4.879318998192531, 53.163578912844201 ], [ 4.879798331419317, 53.163200578079312 ], [ 4.880280092984566, 53.162076405637734 ], [ 4.880679501404784, 53.161782308399623 ], [ 4.880678198519341, 53.161629822321594 ], [ 4.880493194807097, 53.16157445760512 ], [ 4.879922081182014, 53.161841715653892 ], [ 4.879525261273857, 53.162313988021317 ], [ 4.879351093757473, 53.162888570155438 ], [ 4.877962892280538, 53.163849422564326 ], [ 4.877306347982147, 53.163924889281418 ], [ 4.877311026501049, 53.162766235141241 ], [ 4.876824042667758, 53.162647561655049 ], [ 4.876981087406947, 53.161857462234309 ], [ 4.876971960458338, 53.161254068621083 ], [ 4.876823687660612, 53.161089707106335 ], [ 4.877660721219647, 53.158197703373517 ], [ 4.878579319600393, 53.158221639668191 ], [ 4.87849434867213, 53.158069870286674 ], [ 4.877792356687997, 53.157963827235761 ], [ 4.877898955473547, 53.157776502046701 ], [ 4.878485351770573, 53.157815979327971 ], [ 4.878473096698267, 53.157554887737213 ], [ 4.878241813260886, 53.157465442617955 ], [ 4.881107952845602, 53.155181582439646 ], [ 4.882689416431608, 53.155147620897075 ], [ 4.883748200398258, 53.155494679452616 ], [ 4.883783726351834, 53.15577389265912 ], [ 4.884094882808672, 53.155612392912658 ], [ 4.88506873319078, 53.155914027388704 ], [ 4.885128246154717, 53.156147850799016 ], [ 4.885414744612125, 53.156022416903866 ], [ 4.886642186572172, 53.15643144254463 ], [ 4.886793087358042, 53.156283312907334 ], [ 4.88665070025711, 53.156074945203059 ], [ 4.88700385834519, 53.1558151463095 ], [ 4.889020011447706, 53.154817166227879 ], [ 4.889337992059811, 53.154878366464438 ], [ 4.889294224984062, 53.154632608888747 ], [ 4.893932428473448, 53.151238829693511 ], [ 4.897044134639058, 53.147655877930809 ], [ 4.899792333295116, 53.144104484343458 ], [ 4.900196945404099, 53.143817771126656 ], [ 4.900841714056641, 53.143883795567987 ], [ 4.900846911035284, 53.143724672809711 ], [ 4.900415826622349, 53.14345927966724 ], [ 4.902315504889557, 53.141853050509958 ], [ 4.902605233001301, 53.141270045655773 ], [ 4.90344986441925, 53.140613921613294 ], [ 4.904183749158172, 53.139659313967123 ], [ 4.905497090203559, 53.138401037707055 ], [ 4.906085249588115, 53.137637740577304 ], [ 4.906099448265594, 53.137255863914149 ], [ 4.906383306584273, 53.136929047307447 ], [ 4.906346076326584, 53.136561286892579 ], [ 4.906771084069606, 53.136507329595567 ], [ 4.907952126982412, 53.135249235006619 ], [ 4.908355758687572, 53.13408106137733 ], [ 4.908432225444593, 53.132997423196478 ], [ 4.907614896889945, 53.132676320457712 ], [ 4.907920369410826, 53.132606222817572 ], [ 4.907915190294075, 53.132405378935324 ], [ 4.907443357627616, 53.132243408815853 ], [ 4.907136735810708, 53.131731863896299 ], [ 4.90688800689141, 53.131714981163029 ], [ 4.906794806348892, 53.131420196863793 ], [ 4.905973910846539, 53.131166423525109 ], [ 4.905668369152542, 53.131239921258043 ], [ 4.904244433809635, 53.132176241070844 ], [ 4.904017486890459, 53.1326324944474 ], [ 4.904072010160857, 53.132084041653208 ], [ 4.903097574328947, 53.131995619312846 ], [ 4.903076966076708, 53.131789946433834 ], [ 4.902732269875726, 53.13162385012938 ], [ 4.901864875399297, 53.132020914905667 ], [ 4.901789373310154, 53.131730060690195 ], [ 4.901558290578151, 53.131649917525181 ], [ 4.901413849962661, 53.131386159709898 ], [ 4.901649863422481, 53.13056205563651 ], [ 4.901547762423294, 53.13019086968513 ], [ 4.901854808811872, 53.130674530896343 ], [ 4.902344827733683, 53.130334279911935 ], [ 4.903425712158022, 53.129967329576672 ], [ 4.905089043152883, 53.130629586468267 ], [ 4.905359941309928, 53.130526151110637 ], [ 4.905498570296625, 53.12998794431973 ], [ 4.905106837448243, 53.12949262634649 ], [ 4.904227854808394, 53.129307917513849 ], [ 4.903714264916426, 53.128671430152522 ], [ 4.902652695482566, 53.128638298933758 ], [ 4.902648053732157, 53.128280546917125 ], [ 4.9021754422704, 53.12770130913465 ], [ 4.901741864166648, 53.127694464663044 ], [ 4.901710533103007, 53.127935183165967 ], [ 4.901482407997415, 53.127819863800632 ], [ 4.901347312698319, 53.127396944794434 ], [ 4.901932471671482, 53.127536770430964 ], [ 4.902724863264859, 53.127111694168136 ], [ 4.902767792924268, 53.126778798502407 ], [ 4.902617374659097, 53.126524349041127 ], [ 4.902744248546179, 53.126374207507375 ], [ 4.902618656332783, 53.126224125884811 ], [ 4.903318752450348, 53.126678046078659 ], [ 4.903492210342445, 53.126623362216208 ], [ 4.903493603191081, 53.126328736189087 ], [ 4.902480246215842, 53.125581567417036 ], [ 4.900294490903681, 53.12492420131764 ], [ 4.899895845175244, 53.123932666570575 ], [ 4.89956829454692, 53.121703707708527 ], [ 4.899635388510174, 53.120976494602743 ], [ 4.899507876183248, 53.120563420197939 ], [ 4.898439626170522, 53.100204000657115 ], [ 4.898601439747662, 53.100042109751477 ], [ 4.898425561469647, 53.099752579676583 ], [ 4.898743033109673, 53.098173958767383 ], [ 4.899676169289905, 53.097452160984076 ], [ 4.899170691952778, 53.095696093856716 ], [ 4.900290711299586, 53.090381569016948 ], [ 4.900494100800163, 53.08854783611298 ], [ 4.900434170242657, 53.086749924022868 ], [ 4.900292037306285, 53.08526578232614 ], [ 4.899679893847534, 53.083025981729186 ], [ 4.898979600722257, 53.081607381681607 ], [ 4.897545196658262, 53.079631998415095 ], [ 4.897145858861299, 53.078385237761303 ], [ 4.896230508576792, 53.077528554001994 ], [ 4.893823158238956, 53.076578868954627 ], [ 4.889097540628538, 53.07323017167186 ], [ 4.88770195076528, 53.072498380826744 ], [ 4.885036877174331, 53.071668529876895 ], [ 4.881966664121888, 53.071276713111899 ], [ 4.880623254970206, 53.070796311337851 ], [ 4.879837158215583, 53.070046078303086 ], [ 4.879866387145962, 53.069641467681215 ], [ 4.880199171383765, 53.069270309204001 ], [ 4.880144745999365, 53.06895968356541 ], [ 4.879078275255505, 53.068445873449114 ], [ 4.879312367299365, 53.067482281424219 ], [ 4.878841184897762, 53.066822402057667 ], [ 4.87796916026064, 53.066446172058725 ], [ 4.876780148870305, 53.065542087500049 ], [ 4.875546732742309, 53.065341678721225 ], [ 4.874724764865603, 53.06503402990235 ], [ 4.873538697205908, 53.064944653724957 ], [ 4.873108052396074, 53.064652961935352 ], [ 4.872844599185286, 53.064107132983089 ], [ 4.87287084015583, 53.061917589872472 ], [ 4.873611533138201, 53.056673919320872 ], [ 4.873314711412547, 53.055434026737814 ], [ 4.87310124792517, 53.055126486931655 ], [ 4.86497461636543, 53.050258677391483 ], [ 4.861664546183234, 53.04803331510994 ], [ 4.86133419438617, 53.04758561235591 ], [ 4.861800274289526, 53.047181357194347 ], [ 4.861809231358469, 53.046888190974641 ], [ 4.860877882658163, 53.046392456215422 ], [ 4.860539878245381, 53.04520166380815 ], [ 4.859947233326946, 53.044072590772316 ], [ 4.858954196266441, 53.043817192010629 ], [ 4.859212267495525, 53.043502721150062 ], [ 4.859112026606063, 53.043143636227406 ], [ 4.856063684135058, 53.04065887638933 ], [ 4.854319273988403, 53.040453046664744 ], [ 4.853082406568637, 53.04006501063013 ], [ 4.852867117319225, 53.039693488912071 ], [ 4.853543321656846, 53.039397687578607 ], [ 4.853269661152569, 53.039175531621218 ], [ 4.852141453216008, 53.0395019684644 ], [ 4.852479468760094, 53.040243476702656 ], [ 4.853896613506041, 53.040801815370592 ], [ 4.85435594945952, 53.041472106093899 ], [ 4.854608374202557, 53.041474641664578 ], [ 4.8550199950713, 53.042033842723704 ], [ 4.856538926669797, 53.041762651685502 ], [ 4.858426452144673, 53.043359914490296 ], [ 4.858403699690628, 53.044057064390401 ], [ 4.859573096607988, 53.044783259405406 ], [ 4.860336198458843, 53.046706090915791 ], [ 4.859979660075393, 53.046874135674635 ], [ 4.857279556024359, 53.044970523111175 ], [ 4.857278088080839, 53.044802464100393 ], [ 4.856810975288633, 53.0446528938688 ], [ 4.85703708794102, 53.044346603831606 ], [ 4.857908627707126, 53.044348805473867 ], [ 4.858090068560526, 53.044068640938796 ], [ 4.857783173654053, 53.043772962768557 ], [ 4.857029868497471, 53.04362626235492 ], [ 4.856190590953281, 53.042528084156586 ], [ 4.855539289757964, 53.042726369992543 ], [ 4.855840841179804, 53.043257455195182 ], [ 4.853354552816937, 53.043252684418668 ], [ 4.851408743751499, 53.04000208836483 ], [ 4.84961657398211, 53.039163090123658 ], [ 4.850330242985897, 53.038931954315487 ], [ 4.851434366431464, 53.039438104812135 ], [ 4.853100224124115, 53.039013680754607 ], [ 4.853174042903863, 53.038670463043552 ], [ 4.85227702060949, 53.038445095647397 ], [ 4.84909204641034, 53.035112075389769 ], [ 4.847458808362989, 53.034045937683054 ], [ 4.845843269546063, 53.033289122570402 ], [ 4.839909339620044, 53.031123648558783 ], [ 4.837363561022565, 53.030443343291111 ], [ 4.830719257148921, 53.029655170431184 ], [ 4.830141491630247, 53.029454640568673 ], [ 4.829891826823405, 53.029561776647469 ], [ 4.822268838423443, 53.029364591942752 ], [ 4.820097119028847, 53.029140597774052 ], [ 4.819603002114672, 53.028974414530886 ], [ 4.819457289452742, 53.028776310468054 ], [ 4.819088391303374, 53.028892111470149 ], [ 4.792802577835967, 53.008385434953617 ], [ 4.79298512122139, 53.007769200056707 ], [ 4.79345657293673, 53.007342233460001 ], [ 4.797266726188374, 53.007413503912183 ], [ 4.797699477715301, 53.007244638138509 ], [ 4.797956204538993, 53.006948858305279 ], [ 4.797740813208519, 53.006744642514633 ], [ 4.796931285454804, 53.007052099563154 ], [ 4.796746724192396, 53.006877834302912 ], [ 4.79368277657058, 53.006796216141232 ], [ 4.79319239815549, 53.006096864042377 ], [ 4.793530278560946, 53.006016254700334 ], [ 4.793803873369553, 53.006134971684681 ], [ 4.793864305447586, 53.005965777578105 ], [ 4.795014583827106, 53.005612531935761 ], [ 4.795116842729843, 53.005835119635925 ], [ 4.795448360087287, 53.005771167426118 ], [ 4.795504103815995, 53.005600840334907 ], [ 4.795315498154421, 53.00548528112094 ], [ 4.796142806669982, 53.005155090551384 ], [ 4.796948294543967, 53.005900204491574 ], [ 4.79721038286147, 53.005941930571133 ], [ 4.797362652976486, 53.00568476756586 ], [ 4.796919657306033, 53.005274527142717 ], [ 4.79739582310915, 53.005002529967058 ], [ 4.795200308952102, 53.003712194603501 ], [ 4.794846500034337, 53.003683558089001 ], [ 4.79381634269462, 53.003116252866818 ], [ 4.79297842769899, 53.002176875749591 ], [ 4.791041487454862, 53.00185385860248 ], [ 4.785698943408598, 53.001785454300297 ], [ 4.784542573293559, 53.001528511292079 ], [ 4.784375548070884, 53.001712691307297 ], [ 4.784584755353183, 53.001905590667192 ], [ 4.782911810871584, 53.003745278213081 ], [ 4.782652672263335, 53.0039678035238 ], [ 4.782037735301642, 53.004089163501618 ], [ 4.781510742172758, 53.003893027851909 ], [ 4.782642548809815, 53.003073627563268 ], [ 4.782601784693786, 53.002861251200244 ], [ 4.781455268059879, 53.003530325346276 ], [ 4.780342654553793, 53.003433441047164 ], [ 4.78154123067407, 53.002742837469683 ], [ 4.781416471147714, 53.002543611013316 ], [ 4.782001845588538, 53.001943498759061 ], [ 4.783208467307137, 53.001571571352294 ], [ 4.783298889595211, 53.001378944722582 ], [ 4.783030861374445, 53.001236959936449 ], [ 4.781560085415467, 53.001390507663046 ], [ 4.780892795771972, 53.001703482032411 ], [ 4.779867770897599, 53.002730680623962 ], [ 4.779669020542475, 53.002572821938443 ], [ 4.778769708088666, 53.002912450334037 ], [ 4.778698619451598, 53.003138074299507 ], [ 4.778971436836302, 53.003246953796101 ], [ 4.776804064482509, 53.003977695757655 ], [ 4.775922771883819, 53.004010470020113 ], [ 4.774850834784703, 53.004771443014576 ], [ 4.772791001632279, 53.005862603288378 ], [ 4.770300631773249, 53.006120273246928 ], [ 4.769473794812138, 53.005801486569517 ], [ 4.769148934976925, 53.005835566262299 ], [ 4.768067541378977, 53.006163124048534 ], [ 4.767225643086733, 53.006722665623677 ], [ 4.763044749215704, 53.007536214494927 ], [ 4.754982239559955, 53.010066402565066 ], [ 4.754118027795932, 53.010071513445276 ], [ 4.751498720108478, 53.010688612402994 ], [ 4.750522616896414, 53.010611957791355 ], [ 4.749107648494323, 53.010869364964066 ], [ 4.749710956561808, 53.010628687349175 ], [ 4.749621727083206, 53.010266897639831 ], [ 4.748422399599361, 53.010452634675723 ], [ 4.748186358769867, 53.010051918574476 ], [ 4.747125214616579, 53.010219981531819 ], [ 4.746559863154132, 53.010043818307572 ], [ 4.74745511862029, 53.009638373304696 ], [ 4.747576422482591, 53.009300258954305 ], [ 4.748376227161544, 53.008959467710987 ], [ 4.748538244936233, 53.00855059371456 ], [ 4.750426799341644, 53.007303250616886 ], [ 4.752028091543589, 53.006025859157305 ], [ 4.752964781938465, 53.005044262851719 ], [ 4.75385491507323, 53.004431400470075 ], [ 4.755712518382171, 53.003405484816824 ], [ 4.759937540151101, 53.002038417981396 ], [ 4.760504651940714, 53.002029270925171 ], [ 4.76080190779642, 53.00182231347442 ], [ 4.761361977032855, 53.001725989185296 ], [ 4.761787964519187, 53.00217602783686 ], [ 4.762598673376597, 53.002394994056552 ], [ 4.762745572940829, 53.002290309262598 ], [ 4.762684984904499, 53.002079823091329 ], [ 4.76195697586298, 53.001894120930977 ], [ 4.761669982423435, 53.001525982495941 ], [ 4.762385499561054, 53.001318515854351 ], [ 4.762862283786896, 53.001749706009214 ], [ 4.763755425029224, 53.001641440550799 ], [ 4.763413522078978, 53.002232218447546 ], [ 4.763769254920096, 53.002391736784816 ], [ 4.764150521874313, 53.002105942848573 ], [ 4.764304408270259, 53.001751785550567 ], [ 4.765055640307035, 53.001762343334931 ], [ 4.765694583786733, 53.000838889748309 ], [ 4.766804829068858, 53.000703065354671 ], [ 4.767477651332108, 53.000384009291899 ], [ 4.767830587242771, 53.000519815377203 ], [ 4.768201007091811, 53.000198026372239 ], [ 4.770239421668378, 53.00017612750154 ], [ 4.770531767277191, 52.99999371872525 ], [ 4.770939109850161, 52.999175281490238 ], [ 4.771314061189156, 52.998932063057858 ], [ 4.772037843703234, 52.998614155281331 ], [ 4.772787442524046, 52.998683136145281 ], [ 4.773086017006978, 52.998562571418148 ], [ 4.773304081041923, 52.998069932157357 ], [ 4.773259505201222, 52.996953092277607 ], [ 4.773743064136998, 52.996383089900476 ], [ 4.773759279043797, 52.996149441601382 ], [ 4.773224294458669, 52.996000631529668 ], [ 4.771861263475847, 52.996236410934486 ], [ 4.770731192243565, 52.996226327427863 ], [ 4.767672474283026, 52.995816963534736 ], [ 4.767508939456249, 52.995955324551652 ], [ 4.76764329997223, 52.99614074964876 ], [ 4.768972787904084, 52.996417623378292 ], [ 4.767697180355286, 52.996510833452824 ], [ 4.763572641249027, 52.997279049124131 ], [ 4.75838286814254, 52.996831384374893 ], [ 4.756450070993991, 52.996514679670589 ], [ 4.755519171162942, 52.996615994053471 ], [ 4.753467450517661, 52.996337794482045 ], [ 4.750714029277478, 52.995093721948969 ], [ 4.751188330672525, 52.994873436859109 ], [ 4.751902423847445, 52.994835574700659 ], [ 4.75446624102221, 52.99514854585837 ], [ 4.754865989780643, 52.994881735989807 ], [ 4.754495306454947, 52.994585336368985 ], [ 4.753307986331746, 52.994298915388526 ], [ 4.753102181282605, 52.994058404900578 ], [ 4.755973631865158, 52.994421044814359 ], [ 4.757532405543254, 52.994458602225983 ], [ 4.758176076937066, 52.994366280283742 ], [ 4.758151554793132, 52.994140191799531 ], [ 4.757960189058352, 52.994025120818272 ], [ 4.760348483963515, 52.994193661541026 ], [ 4.760512244497308, 52.993994110690657 ], [ 4.759988484939207, 52.993400078542784 ], [ 4.757295636093593, 52.993324856274349 ], [ 4.75668475069866, 52.993005088062205 ], [ 4.754755836082976, 52.992767126571145 ], [ 4.754627634061642, 52.992719366346648 ], [ 4.754900582459455, 52.992554228425689 ], [ 4.754850156667465, 52.992403482681461 ], [ 4.748183403121733, 52.991015475052983 ], [ 4.747089376362097, 52.990479398234193 ], [ 4.746520714698016, 52.990399432734172 ], [ 4.745612682624936, 52.990624348439852 ], [ 4.746110821769883, 52.99042308946769 ], [ 4.747094181078978, 52.99029029991209 ], [ 4.749166882188581, 52.990575544085786 ], [ 4.749472442546609, 52.990487622102904 ], [ 4.749257042536625, 52.990249486811408 ], [ 4.748542228768147, 52.989986422740913 ], [ 4.746475737215563, 52.98974158236598 ], [ 4.742530677068508, 52.988628058753783 ], [ 4.735111520282384, 52.987757768901773 ], [ 4.735044985012656, 52.987407797693706 ], [ 4.734624305128727, 52.987186736287555 ], [ 4.731593367887671, 52.986439542067359 ], [ 4.727099886857441, 52.985685605843656 ], [ 4.724286485658471, 52.98457547379433 ], [ 4.723483899746552, 52.984021958194781 ], [ 4.721468596041284, 52.983428361192324 ], [ 4.720971224786823, 52.98358030184837 ], [ 4.719982578742295, 52.984675978623194 ], [ 4.720086337148465, 52.987034081367739 ], [ 4.719890331702531, 52.98820166179339 ], [ 4.720004399932823, 52.989119733324578 ], [ 4.720407561098605, 52.990163616765059 ], [ 4.720236563816265, 52.991231414993159 ], [ 4.71905523551052, 52.993196430133857 ], [ 4.718233981019563, 52.994207659515034 ], [ 4.716429631988701, 52.995782054447297 ], [ 4.716669965270531, 52.995890645610672 ], [ 4.717041811932928, 52.995686598677544 ], [ 4.713230988855125, 52.998747502645912 ], [ 4.712685062452577, 52.999824731364548 ], [ 4.712398006307603, 53.003590758041973 ], [ 4.711660827572591, 53.005722036852802 ], [ 4.711706829708253, 53.006509013753181 ], [ 4.711547810542698, 53.007335214059175 ], [ 4.711218191215997, 53.008531716648307 ], [ 4.710351364942022, 53.009680168861287 ], [ 4.710385907951926, 53.010461145594235 ], [ 4.710121274119379, 53.011957610227761 ], [ 4.70946350530135, 53.014109657893641 ], [ 4.708979035778507, 53.015029863631085 ], [ 4.709293204427929, 53.01585592476583 ], [ 4.708979083410318, 53.01665217027697 ], [ 4.709147266118122, 53.017401378948335 ], [ 4.708648397784647, 53.019323706705514 ], [ 4.708644596379957, 53.021460807420091 ], [ 4.708479507304427, 53.0227212824595 ] ], [ [ 4.904453591085725, 53.136280742640935 ], [ 4.904447148072431, 53.136318923804481 ], [ 4.904455443531635, 53.136364162235573 ], [ 4.904383115081776, 53.1363025486705 ], [ 4.904453591085725, 53.136280742640935 ] ], [ [ 4.811726318180504, 53.134290889265415 ], [ 4.811774028420668, 53.13429683327093 ], [ 4.811772872263165, 53.134317515012533 ], [ 4.811726318180504, 53.134290889265415 ] ], [ [ 4.808772897537216, 53.133300873172864 ], [ 4.808728821270771, 53.133152853524045 ], [ 4.808954720926702, 53.132946582201726 ], [ 4.808810886684546, 53.132803446486022 ], [ 4.809171621130851, 53.132728422983526 ], [ 4.809329167185929, 53.132962821347277 ], [ 4.809067746495637, 53.132987068856195 ], [ 4.808989871031451, 53.133223203082302 ], [ 4.808772897537216, 53.133300873172864 ] ], [ [ 4.805118079868193, 53.132905490069533 ], [ 4.805123181579647, 53.132902767271531 ], [ 4.805272693716343, 53.132817329823823 ], [ 4.80504811905744, 53.132940267753654 ], [ 4.805118079868193, 53.132905490069533 ] ], [ [ 4.808237054881966, 53.131401197786346 ], [ 4.808513718053725, 53.13133288603867 ], [ 4.808666367200107, 53.131285800462422 ], [ 4.808225752970571, 53.131503338639604 ], [ 4.808083987348938, 53.131449918953905 ], [ 4.808237054881966, 53.131401197786346 ] ], [ [ 4.812716172755884, 53.137966320337952 ], [ 4.812808418509638, 53.138049438115317 ], [ 4.812888127386346, 53.138193044649434 ], [ 4.812766307310664, 53.138104310171776 ], [ 4.812716172755884, 53.137966320337952 ] ], [ [ 4.829010286298969, 53.146655314782166 ], [ 4.828940292235703, 53.146735587974582 ], [ 4.82888683613759, 53.146814862645023 ], [ 4.828890502623365, 53.14671470258952 ], [ 4.829010286298969, 53.146655314782166 ] ], [ [ 4.828733601448365, 53.147034769276331 ], [ 4.828542493833554, 53.147316581969633 ], [ 4.828439037355238, 53.147617329069099 ], [ 4.828458649731145, 53.147498580121955 ], [ 4.82855893872186, 53.147269996636844 ], [ 4.828733601448365, 53.147034769276331 ] ], [ [ 4.828404597340597, 53.147864057120799 ], [ 4.828420189099738, 53.148093360184724 ], [ 4.828388794586323, 53.148311903254211 ], [ 4.828363905682029, 53.148269439516767 ], [ 4.828407023625824, 53.147834399262308 ], [ 4.828404597340597, 53.147864057120799 ] ], [ [ 4.824511873445534, 53.147318161295338 ], [ 4.824579208332572, 53.147614303871592 ], [ 4.824431942235299, 53.147688897706239 ], [ 4.824449710763217, 53.14739656749007 ], [ 4.824511873445534, 53.147318161295338 ] ], [ [ 4.809915299368365, 53.140071458592587 ], [ 4.811883790917321, 53.140281208994089 ], [ 4.811749982813241, 53.140456282236471 ], [ 4.811815800435389, 53.140706736303898 ], [ 4.813087730086281, 53.141727185327603 ], [ 4.814090119022875, 53.142390136674905 ], [ 4.816202218485933, 53.143384726250765 ], [ 4.817148385899869, 53.144103911967207 ], [ 4.816736054755526, 53.144051095720712 ], [ 4.816174906917782, 53.143558104100109 ], [ 4.812966100714193, 53.142552299753369 ], [ 4.811434200608169, 53.14155253639472 ], [ 4.809722031095065, 53.14127694430038 ], [ 4.809426732283895, 53.141508808748796 ], [ 4.809691582817899, 53.141877114248963 ], [ 4.809165404215313, 53.141692294911188 ], [ 4.808375060748211, 53.141008684346694 ], [ 4.807612334203802, 53.140751827965786 ], [ 4.805951177271234, 53.140561120459864 ], [ 4.805409732742974, 53.140192820719406 ], [ 4.806162145864617, 53.139987236123488 ], [ 4.806955620734462, 53.139997271717391 ], [ 4.809111028181163, 53.140435685751818 ], [ 4.809456838024421, 53.140299831649692 ], [ 4.809633684825057, 53.140040420491822 ], [ 4.809915299368365, 53.140071458592587 ] ], [ [ 4.850257959094693, 53.040212583709902 ], [ 4.849705439340508, 53.039996151091678 ], [ 4.849682888736931, 53.039896856844628 ], [ 4.84996034947422, 53.039674851862785 ], [ 4.850588743036187, 53.039946000516316 ], [ 4.850257959094693, 53.040212583709902 ] ] ] ] } }
]
}
