{
"type": "FeatureCollection",
"name": "SWVPO2301",
"crs": { "type": "name", "properties": { "name": "urn:ogc:def:crs:OGC:1.3:CRS84" } },
"features": [
{ "type": "Feature", "properties": { "PO SWV": "PO2301", "strokeColor": "#A9A9A9", "strokeWidth": 2, "fillColor": "#ADD8E6" }, "geometry": { "type": "Polygon", "coordinates": [ [ [ 6.702784711461657, 52.484312776656047 ], [ 6.717742039056071, 52.478225135799697 ], [ 6.720478465508573, 52.477278544715126 ], [ 6.723812267604291, 52.477108754070862 ], [ 6.752765005617618, 52.464206643315983 ], [ 6.774597009273992, 52.459700648925292 ], [ 6.804477268546178, 52.459651947917081 ], [ 6.831786551636186, 52.46006121141491 ], [ 6.844733699703366, 52.459288578528778 ], [ 6.854312151066072, 52.459805191182326 ], [ 6.854395991534733, 52.459688462017183 ], [ 6.852664622323231, 52.450034115014795 ], [ 6.861833476802522, 52.451456440094709 ], [ 6.889079515485775, 52.446643566930277 ], [ 6.906101254120848, 52.442340670600068 ], [ 6.941654753254235, 52.435528087387034 ], [ 6.942151271962484, 52.435738399211751 ], [ 6.942324405534024, 52.435668537998964 ], [ 6.947266122495123, 52.43671637664319 ], [ 6.947210430532533, 52.436577707424924 ], [ 6.949060952208336, 52.432962926597114 ], [ 6.938780114170194, 52.43282245633479 ], [ 6.928524274423987, 52.434248355598605 ], [ 6.924275153033396, 52.434230384184211 ], [ 6.91237400524712, 52.433654387760662 ], [ 6.91029012354097, 52.432965776719335 ], [ 6.909034779929571, 52.432815280672102 ], [ 6.904792140575793, 52.432943034860756 ], [ 6.904711207866815, 52.433258110239656 ], [ 6.897111674853446, 52.432915333505463 ], [ 6.891390544852236, 52.432089283004885 ], [ 6.870454951740922, 52.429588063074306 ], [ 6.853369506468614, 52.427153356891161 ], [ 6.851405786696972, 52.414536817219847 ], [ 6.856539492564206, 52.41036597737174 ], [ 6.862241637114717, 52.407750228429805 ], [ 6.863514556479772, 52.38803575350876 ], [ 6.863078808813619, 52.372791278993319 ], [ 6.863357250190169, 52.369723878297769 ], [ 6.863483665317407, 52.363796141478097 ], [ 6.855666995202065, 52.360393671155499 ], [ 6.855099273948465, 52.361462991969724 ], [ 6.853925179950564, 52.361224414647779 ], [ 6.851798146805527, 52.362268261959684 ], [ 6.840929675107712, 52.362453202778163 ], [ 6.83580083462381, 52.362724391039009 ], [ 6.817677571746196, 52.365197335336532 ], [ 6.806815510648603, 52.362316177916654 ], [ 6.793739800106026, 52.361011603557472 ], [ 6.783355754724319, 52.360209488230744 ], [ 6.778242441404421, 52.350275372648348 ], [ 6.773931060605952, 52.346653940089411 ], [ 6.76260272886791, 52.343531965387982 ], [ 6.760508117578499, 52.342015132773454 ], [ 6.759459117298635, 52.339008728702701 ], [ 6.759087555608328, 52.334182993189501 ], [ 6.759624644391156, 52.333693792297055 ], [ 6.759914823793572, 52.332688507280473 ], [ 6.75944724125525, 52.331996559504034 ], [ 6.75900828111519, 52.332156865482915 ], [ 6.753747965282467, 52.330142040459208 ], [ 6.750700198431363, 52.329768672905367 ], [ 6.750015785944761, 52.330163774886095 ], [ 6.745484618192432, 52.334790075284459 ], [ 6.743738345222636, 52.336194006463494 ], [ 6.734532293778154, 52.339448446462697 ], [ 6.720812201492872, 52.341301772720172 ], [ 6.72076986123054, 52.341142312273689 ], [ 6.721055540896535, 52.34101739373066 ], [ 6.720917313749153, 52.34017968023069 ], [ 6.718630512195251, 52.338078517498118 ], [ 6.715544559878823, 52.336660543759905 ], [ 6.714978057949841, 52.336263944930423 ], [ 6.713378394519012, 52.334279158214152 ], [ 6.712107248179414, 52.333322661913655 ], [ 6.709616886863996, 52.330814145508029 ], [ 6.709386435527171, 52.330757341787262 ], [ 6.706836863754901, 52.332358664815203 ], [ 6.696800439535497, 52.329917379172713 ], [ 6.694978639821022, 52.32679692686046 ], [ 6.70675060376562, 52.320990180022029 ], [ 6.704259901399301, 52.319770595025126 ], [ 6.705715923054966, 52.318011911422765 ], [ 6.694841061183614, 52.315090159291636 ], [ 6.694760259181349, 52.314852403314745 ], [ 6.691849871413666, 52.314988325791703 ], [ 6.690165174288423, 52.314869022604178 ], [ 6.690115720327761, 52.314640100098622 ], [ 6.692046778851982, 52.313961339658846 ], [ 6.689944362837214, 52.313029745066828 ], [ 6.690638314235073, 52.312476893343963 ], [ 6.690982002594892, 52.311580300240095 ], [ 6.690603261759065, 52.311516860333924 ], [ 6.690586719919618, 52.31058262234351 ], [ 6.689383396558116, 52.309568318324857 ], [ 6.690703961250022, 52.308455613010004 ], [ 6.688048557598028, 52.307843975163614 ], [ 6.687147443959805, 52.307331079637997 ], [ 6.686867184466461, 52.307418056609379 ], [ 6.685526737341812, 52.306902635214186 ], [ 6.685136854217525, 52.306585340919419 ], [ 6.684761233422906, 52.306729833046816 ], [ 6.683597476237129, 52.306296890490337 ], [ 6.682335831432412, 52.305760675349184 ], [ 6.682313532214581, 52.30557606011417 ], [ 6.679978485898284, 52.30432842510379 ], [ 6.675310156834395, 52.302184781610507 ], [ 6.675308847062604, 52.301882111745634 ], [ 6.674990922615137, 52.30207347782234 ], [ 6.667863957051026, 52.29894803496817 ], [ 6.660982265236599, 52.296673562650483 ], [ 6.658032237890361, 52.295981009329928 ], [ 6.657454840043125, 52.294944938592941 ], [ 6.65238195741862, 52.294008178174508 ], [ 6.650995957623738, 52.294317826133387 ], [ 6.647442307496764, 52.293808477406031 ], [ 6.642255584965717, 52.292623222258548 ], [ 6.64157145809077, 52.291851837195367 ], [ 6.64075050928819, 52.292115265530057 ], [ 6.639518156579761, 52.292092037651933 ], [ 6.639053003919916, 52.29291986230885 ], [ 6.638835382575232, 52.293884306021873 ], [ 6.637940945373895, 52.293749279214666 ], [ 6.636316443279815, 52.293098321483789 ], [ 6.629764550175738, 52.291766512510684 ], [ 6.627132077829809, 52.292335433601814 ], [ 6.625964259111661, 52.289993025036942 ], [ 6.605326696754124, 52.270790802585871 ], [ 6.595138996535373, 52.271298106306126 ], [ 6.583502570984999, 52.270147413715982 ], [ 6.580684631468277, 52.269617893680582 ], [ 6.575379099881847, 52.269416104210663 ], [ 6.57525438381334, 52.269229428092366 ], [ 6.56822349718952, 52.270241249924197 ], [ 6.564448249015605, 52.272492425941913 ], [ 6.562295990579096, 52.27445984131127 ], [ 6.554033022584568, 52.283409944189984 ], [ 6.551986149178241, 52.283369211107711 ], [ 6.541650701194937, 52.282378034173391 ], [ 6.541568600684475, 52.282783006372149 ], [ 6.535816119411336, 52.282803945052493 ], [ 6.534890990278295, 52.283091692869128 ], [ 6.532839953024395, 52.282937976016363 ], [ 6.529316720258527, 52.283391368241389 ], [ 6.525816456789434, 52.28359888779206 ], [ 6.523536626463092, 52.283399931136088 ], [ 6.521952146102687, 52.283485066584348 ], [ 6.520284487455454, 52.283062697031511 ], [ 6.518397338039009, 52.282919727918532 ], [ 6.517255740081533, 52.283147529341747 ], [ 6.515674777329206, 52.282276388724867 ], [ 6.514818407017095, 52.279226736911653 ], [ 6.509967420512406, 52.278944866489837 ], [ 6.510067310300894, 52.279234336094021 ], [ 6.50837123469227, 52.280805211044708 ], [ 6.507167134253579, 52.280044928552734 ], [ 6.504633835871545, 52.279639508539141 ], [ 6.504439967439532, 52.279734474020579 ], [ 6.49000288002416, 52.276010900460399 ], [ 6.489732215524443, 52.275660549480172 ], [ 6.485228444791156, 52.274701478144351 ], [ 6.481788856204961, 52.273344471717522 ], [ 6.480806831130228, 52.273160422729212 ], [ 6.480771049045138, 52.272923903909856 ], [ 6.480074308449552, 52.272701148905938 ], [ 6.479839729627186, 52.272876730990298 ], [ 6.478072068961595, 52.272270094163886 ], [ 6.477617339431812, 52.271960829276892 ], [ 6.477133210578653, 52.272017534734779 ], [ 6.476757941678887, 52.271692308008085 ], [ 6.475524821373875, 52.271375713525956 ], [ 6.471171042747665, 52.269389800658857 ], [ 6.470909963601224, 52.26775254858012 ], [ 6.466284659019983, 52.265483800043008 ], [ 6.461758097185005, 52.263495507383929 ], [ 6.448934783626969, 52.258546478139287 ], [ 6.447777645843061, 52.257938263340428 ], [ 6.441453419783768, 52.256690068824888 ], [ 6.438996337224435, 52.25482005332497 ], [ 6.436715374139656, 52.254146430140523 ], [ 6.4364751032238, 52.253848505076277 ], [ 6.435822109610383, 52.253651664961701 ], [ 6.435665281659207, 52.253744918597562 ], [ 6.429636782566374, 52.251785849459864 ], [ 6.429475737507443, 52.251562104302778 ], [ 6.429559486046697, 52.251423513693744 ], [ 6.431603851192996, 52.250862518434445 ], [ 6.429322710339657, 52.249153334864644 ], [ 6.428457232810713, 52.248315884074891 ], [ 6.426180913970948, 52.248951595247284 ], [ 6.420692492742381, 52.245016743940468 ], [ 6.417923697365286, 52.243569094792356 ], [ 6.41637256228913, 52.242255047613391 ], [ 6.41384334050957, 52.242711615409064 ], [ 6.412318849577469, 52.242769846060916 ], [ 6.411056245304423, 52.243146266350053 ], [ 6.405975082826175, 52.243004716675507 ], [ 6.402623592851101, 52.243371598090008 ], [ 6.399003737213318, 52.243344999109894 ], [ 6.395596164134465, 52.242866837313748 ], [ 6.393240435056232, 52.24296343372739 ], [ 6.390664943246881, 52.242602777898902 ], [ 6.38598238859517, 52.243207393448593 ], [ 6.383462317739115, 52.244103226555666 ], [ 6.382400136446877, 52.245747775677835 ], [ 6.381976908807466, 52.24606669903018 ], [ 6.38192104459992, 52.246394088321061 ], [ 6.380870678294865, 52.246857142043758 ], [ 6.381398860803545, 52.247105310237195 ], [ 6.381291715432131, 52.247470993046676 ], [ 6.377933355154354, 52.249938128452165 ], [ 6.376831803059595, 52.250223073715695 ], [ 6.377267955979611, 52.250869224291151 ], [ 6.376634542746269, 52.251390878919175 ], [ 6.376446993628379, 52.252186932933817 ], [ 6.376896908383315, 52.253449828836331 ], [ 6.377412604016127, 52.254355470138577 ], [ 6.377164486576162, 52.254592902819006 ], [ 6.375033007971369, 52.255208886446042 ], [ 6.374896541895381, 52.25606875335513 ], [ 6.374904158361466, 52.256199172713004 ], [ 6.37729835599075, 52.25658345046962 ], [ 6.377266263398519, 52.258614587436242 ], [ 6.377474814431459, 52.258764922225801 ], [ 6.377248682133975, 52.259021852782155 ], [ 6.376729236136229, 52.258862721760174 ], [ 6.372911813632924, 52.261099356369783 ], [ 6.370781035080434, 52.260118560386942 ], [ 6.364883914595834, 52.263519951055031 ], [ 6.364528496095916, 52.263280647956691 ], [ 6.363278796727592, 52.264000823207951 ], [ 6.363562097499647, 52.264276076298955 ], [ 6.356759380870191, 52.268219292395173 ], [ 6.355363886374827, 52.26737660500558 ], [ 6.353093843593276, 52.26834671987735 ], [ 6.354977212370811, 52.269237086121159 ], [ 6.352053357023151, 52.270983735679657 ], [ 6.350796470340473, 52.269370327735167 ], [ 6.349038176233238, 52.269938326905567 ], [ 6.350609145898126, 52.271518757126117 ], [ 6.350075448246499, 52.271864568423453 ], [ 6.348905858528988, 52.272151264386657 ], [ 6.348699214605086, 52.272442958710151 ], [ 6.347502309609465, 52.273106614686995 ], [ 6.346633063195113, 52.273362092201154 ], [ 6.339581436127187, 52.276584302300776 ], [ 6.338148761387516, 52.276915635910179 ], [ 6.337680624409593, 52.277403050912461 ], [ 6.333695223125703, 52.279030822358678 ], [ 6.331752619563613, 52.280080003261915 ], [ 6.330283709666028, 52.280451916324445 ], [ 6.330141209471201, 52.280734717085309 ], [ 6.328929989197374, 52.281174560672419 ], [ 6.326636980682776, 52.301573396726674 ], [ 6.341244995380193, 52.308992594309053 ], [ 6.349665881287202, 52.314556213017923 ], [ 6.356113750704274, 52.318199277843036 ], [ 6.346503484953662, 52.327889728113441 ], [ 6.342475103355405, 52.333220430562136 ], [ 6.338673687131842, 52.342304818389614 ], [ 6.333615104076251, 52.351400404325076 ], [ 6.343155265644937, 52.36995687845986 ], [ 6.356994735059628, 52.376887159515356 ], [ 6.376108745831353, 52.379635818614915 ], [ 6.378674866484741, 52.380433512490228 ], [ 6.380469153250114, 52.380400372802555 ], [ 6.380996958808256, 52.380713042439297 ], [ 6.381979718565147, 52.38178148283324 ], [ 6.382391556563762, 52.382577322962319 ], [ 6.382575724017478, 52.383447545493027 ], [ 6.389742578219891, 52.382459521735669 ], [ 6.400905182914887, 52.405037462748503 ], [ 6.405269417259105, 52.415537502755775 ], [ 6.390511709955902, 52.428094278735593 ], [ 6.428802667860262, 52.438590758551186 ], [ 6.432650140689351, 52.440747802333831 ], [ 6.437195177605133, 52.44355164591876 ], [ 6.438410806674015, 52.443891737794068 ], [ 6.438559592399996, 52.444163706634015 ], [ 6.437650046750483, 52.444745396643945 ], [ 6.438694116874068, 52.445731577567685 ], [ 6.438866787629924, 52.44609075830283 ], [ 6.438329075339256, 52.448103666183904 ], [ 6.439585298773137, 52.448103334931702 ], [ 6.440717936496031, 52.448973174338931 ], [ 6.442587483589514, 52.450000995925301 ], [ 6.443175285774463, 52.452523442032401 ], [ 6.443756117548321, 52.453678551588034 ], [ 6.444489924680083, 52.454625171501789 ], [ 6.444436058626835, 52.454881002762434 ], [ 6.444222101798977, 52.455006796527236 ], [ 6.442835438234761, 52.454961179140511 ], [ 6.442207372361419, 52.455094737781927 ], [ 6.441863047605913, 52.455310254443141 ], [ 6.441855791041674, 52.455623367223772 ], [ 6.442256694855369, 52.456243310990629 ], [ 6.443000377627403, 52.456838088864778 ], [ 6.443663090161365, 52.45708193604559 ], [ 6.445516047328789, 52.457190544286917 ], [ 6.446248905567992, 52.45761674095867 ], [ 6.446176091035569, 52.457914843531718 ], [ 6.444738762671228, 52.458622963986187 ], [ 6.444702684603302, 52.45911910995855 ], [ 6.445106199411974, 52.4601268041881 ], [ 6.445988336710988, 52.461085496024644 ], [ 6.447171546358063, 52.461561649031509 ], [ 6.447973133646055, 52.461593374229089 ], [ 6.450666532952797, 52.461028385636432 ], [ 6.451491422447985, 52.461284114079824 ], [ 6.45152327872837, 52.461504751578886 ], [ 6.451369032015031, 52.461650124622615 ], [ 6.450137878516647, 52.461963730150977 ], [ 6.44977341706609, 52.462909764732174 ], [ 6.447814090583007, 52.464559131036737 ], [ 6.44755049598453, 52.465533107318173 ], [ 6.448417117765804, 52.46637775470878 ], [ 6.450620609077143, 52.466793461446187 ], [ 6.450966716172402, 52.466440899589131 ], [ 6.451132097877223, 52.465798988050629 ], [ 6.451013449191751, 52.465396591394175 ], [ 6.451280576145242, 52.464847395762291 ], [ 6.452007416446678, 52.464474689176654 ], [ 6.452642092946267, 52.464533081063493 ], [ 6.453341438723202, 52.466305432533204 ], [ 6.453264273707372, 52.46681230188787 ], [ 6.452904708593858, 52.467190393512531 ], [ 6.451801005700324, 52.467516846315682 ], [ 6.450796301754976, 52.468032813099605 ], [ 6.451024632695233, 52.468652136832944 ], [ 6.452236612848647, 52.469081611183974 ], [ 6.452767217509849, 52.469489765173108 ], [ 6.452718702479626, 52.46982887140441 ], [ 6.452201306439556, 52.47036068001011 ], [ 6.45260256134418, 52.470974991118837 ], [ 6.453628017856133, 52.471114852664599 ], [ 6.452913764524268, 52.469959128671235 ], [ 6.453314750478163, 52.469558761107898 ], [ 6.454443277053262, 52.469205162058408 ], [ 6.454764738026809, 52.469206910804665 ], [ 6.454910692103911, 52.469428256973949 ], [ 6.45515180655872, 52.469246991051811 ], [ 6.455478376694547, 52.469465760636318 ], [ 6.456954811359038, 52.469620918149467 ], [ 6.45714232574706, 52.469771098024303 ], [ 6.458640880658744, 52.469804489300351 ], [ 6.461524438928039, 52.471296616011976 ], [ 6.461558990243186, 52.471700371794142 ], [ 6.460739739240441, 52.472096519967849 ], [ 6.461698354510258, 52.472195036511721 ], [ 6.461695207683658, 52.473301160000815 ], [ 6.463176374717626, 52.473860885282186 ], [ 6.464311202724725, 52.474553671248131 ], [ 6.465471769718389, 52.475017031334971 ], [ 6.466244101625483, 52.47506158885605 ], [ 6.467045006646147, 52.47542249160967 ], [ 6.468204127182876, 52.475295237588838 ], [ 6.469431593357677, 52.475519517445569 ], [ 6.472464512499648, 52.475590791184722 ], [ 6.475272271698221, 52.476596982550866 ], [ 6.47599289337299, 52.477040826292217 ], [ 6.478412072452983, 52.477504698379889 ], [ 6.479696976060645, 52.477512787679601 ], [ 6.481174473069567, 52.47715583917833 ], [ 6.48413053193744, 52.47681201982347 ], [ 6.485726328371494, 52.476856536533028 ], [ 6.486893488468408, 52.476633264845361 ], [ 6.488589229641496, 52.476763093809936 ], [ 6.48926983504183, 52.477004724375355 ], [ 6.490538934008181, 52.477919372347031 ], [ 6.490995708287723, 52.478450595606198 ], [ 6.492537673818331, 52.47916441161874 ], [ 6.49322359804629, 52.4793445914841 ], [ 6.495027923696177, 52.479071956223656 ], [ 6.495843608741335, 52.479171985511087 ], [ 6.495938287973646, 52.479373313747217 ], [ 6.495674164370929, 52.48007773166939 ], [ 6.494778484035959, 52.480483673682926 ], [ 6.495077313799837, 52.480785310239469 ], [ 6.495033312631714, 52.480935426234346 ], [ 6.503807976565727, 52.481627938083747 ], [ 6.50477274833168, 52.487366733968372 ], [ 6.505548740136779, 52.490856897531181 ], [ 6.554514114685955, 52.487482624390857 ], [ 6.595022462385356, 52.480210961112761 ], [ 6.600794408957753, 52.47939154031927 ], [ 6.609621062450892, 52.468848779371925 ], [ 6.609781454302628, 52.468600041218458 ], [ 6.609677135407233, 52.468209294767277 ], [ 6.610264693404647, 52.467942728840519 ], [ 6.612097510416032, 52.465920941212616 ], [ 6.613024740760655, 52.465527260245437 ], [ 6.616609428975334, 52.469263913435128 ], [ 6.617710659552438, 52.46915646707933 ], [ 6.620981218175221, 52.470449670508138 ], [ 6.626827045437787, 52.473720025353209 ], [ 6.63118801834388, 52.47187682043451 ], [ 6.635613510652205, 52.471547481057335 ], [ 6.640531569215412, 52.472987624661762 ], [ 6.641542504551079, 52.471143862335573 ], [ 6.649606045329048, 52.473003539347566 ], [ 6.651194986389821, 52.475188737227882 ], [ 6.647626400202507, 52.478593597159737 ], [ 6.654645226297252, 52.482641022654782 ], [ 6.65387769240509, 52.487180514166951 ], [ 6.656485224501733, 52.487811786725267 ], [ 6.657700045994425, 52.48792943146092 ], [ 6.657907812683096, 52.488987330759784 ], [ 6.657459614408876, 52.489560667482067 ], [ 6.660184984526162, 52.490875302285566 ], [ 6.661647757404262, 52.490154790096327 ], [ 6.662204824356319, 52.490068963789689 ], [ 6.675756761377341, 52.490952678287528 ], [ 6.678165577105333, 52.491705326795049 ], [ 6.693451682381339, 52.486232949175985 ], [ 6.697583916693159, 52.48619824196544 ], [ 6.697640099082514, 52.48638370514108 ], [ 6.702784711461657, 52.484312776656047 ] ] ] } }
]
}
