{
"type": "FeatureCollection",
"name": "SWVPO2504",
"crs": { "type": "name", "properties": { "name": "urn:ogc:def:crs:OGC:1.3:CRS84" } },
"features": [
{ "type": "Feature", "properties": { "PO SWV": "PO2504", "strokeColor": "#A9A9A9", "strokeWidth": 2, "fillColor": "#ADD8E6" }, "geometry": { "type": "Polygon", "coordinates": [ [ [ 6.109871751529202, 51.996310850087724 ], [ 6.110432217141885, 51.995798035933191 ], [ 6.11267770944381, 51.996674274582602 ], [ 6.114386839044365, 51.997059031208792 ], [ 6.114521290826278, 51.9969289068531 ], [ 6.117057816887479, 51.997131565936279 ], [ 6.127026566577783, 51.997142877521306 ], [ 6.130182738378767, 51.997306619535472 ], [ 6.130361036333115, 51.997020750159166 ], [ 6.136096655878283, 51.997529959702533 ], [ 6.138368453311418, 51.997197816676241 ], [ 6.138886033206746, 51.998013456577091 ], [ 6.138801310692592, 51.998791100161846 ], [ 6.139235187154939, 51.999182289036163 ], [ 6.140058492021489, 51.999423939983387 ], [ 6.140488950342231, 51.998925599641275 ], [ 6.14251071819432, 51.999520873293314 ], [ 6.146200663650094, 52.00085996863875 ], [ 6.149024880281266, 52.002213452672748 ], [ 6.152931585170921, 52.000983575018992 ], [ 6.155450308189169, 52.000381779192985 ], [ 6.159258928944101, 51.999839448627789 ], [ 6.16305454816389, 51.999717666847623 ], [ 6.164360964597762, 51.999088895405698 ], [ 6.164364383464799, 51.998804648690196 ], [ 6.164172587580412, 51.998653147620765 ], [ 6.161992803721899, 51.998383805648764 ], [ 6.161671853142936, 51.998071162962979 ], [ 6.160615530874064, 51.997971786507961 ], [ 6.159981710421279, 51.997666626324424 ], [ 6.159668164922027, 51.996028450769529 ], [ 6.160671340073438, 51.994704252990097 ], [ 6.160586371213626, 51.994247161951208 ], [ 6.161958046627897, 51.993321089396105 ], [ 6.162075308593254, 51.992799369980297 ], [ 6.161670661202766, 51.991594326033699 ], [ 6.161676316593732, 51.990648088721088 ], [ 6.161505860985297, 51.990587245369674 ], [ 6.161311841116483, 51.984020562210034 ], [ 6.16078125225409, 51.981763666822744 ], [ 6.160751790386613, 51.980988031358898 ], [ 6.151572765820503, 51.980367425388017 ], [ 6.149800852896657, 51.98075325287148 ], [ 6.146693388281959, 51.980406998831555 ], [ 6.144823481344324, 51.980422175420379 ], [ 6.146564238185664, 51.975632233171801 ], [ 6.14615030502074, 51.975247738343825 ], [ 6.146846582782596, 51.974769411293437 ], [ 6.146770574854025, 51.974534458611359 ], [ 6.146929300111545, 51.974327973487583 ], [ 6.14819409765528, 51.973980190619081 ], [ 6.148361971137177, 51.972562740353858 ], [ 6.149210745297718, 51.970544700788544 ], [ 6.149984396373809, 51.969612440093577 ], [ 6.149954270242188, 51.968736769855738 ], [ 6.150962737470188, 51.966406245055133 ], [ 6.1530027050517, 51.964666535606213 ], [ 6.155834988853544, 51.961497451519449 ], [ 6.157291397293446, 51.960546456940946 ], [ 6.158101367093547, 51.958828032477918 ], [ 6.161399320485611, 51.957590641803229 ], [ 6.162086036052849, 51.956870065825306 ], [ 6.162131016528459, 51.956262478254473 ], [ 6.163182619424114, 51.955415176461607 ], [ 6.165984862406162, 51.95496163366235 ], [ 6.168305711275382, 51.953949475589738 ], [ 6.169151167043399, 51.95338411594259 ], [ 6.169943082724993, 51.953570859308115 ], [ 6.172285289229675, 51.953365588599226 ], [ 6.172756376531538, 51.952986626675361 ], [ 6.172454214818697, 51.952612368577704 ], [ 6.174153174973505, 51.95227602771682 ], [ 6.174324946568513, 51.951605364906079 ], [ 6.17599663506469, 51.950861482377789 ], [ 6.176548113096378, 51.950071531515029 ], [ 6.178454294212991, 51.948831368067161 ], [ 6.180414150432045, 51.948370703665177 ], [ 6.181051371081974, 51.948513206395575 ], [ 6.181809412250585, 51.948287360113447 ], [ 6.182336068115626, 51.948373679586034 ], [ 6.18309006727121, 51.948029814504082 ], [ 6.184552650545177, 51.947850215451425 ], [ 6.186130348400092, 51.946288325759049 ], [ 6.186716263899935, 51.945894979736678 ], [ 6.188638119983334, 51.945642954819981 ], [ 6.188941273032414, 51.944772243598479 ], [ 6.188558664300028, 51.944242791615594 ], [ 6.188641454495621, 51.943984056886329 ], [ 6.188486596576644, 51.943418503696968 ], [ 6.190125723633185, 51.942806031605691 ], [ 6.191779126652193, 51.942540704678706 ], [ 6.193356494469055, 51.940917707305211 ], [ 6.192009711793007, 51.939199877548411 ], [ 6.190652047142279, 51.938010283886811 ], [ 6.187754549775557, 51.9357534298831 ], [ 6.184868235686769, 51.933768831378075 ], [ 6.183880148576186, 51.932539276931415 ], [ 6.18067300070199, 51.930384375520205 ], [ 6.179486187010493, 51.928837085661861 ], [ 6.177854595820405, 51.925559573207977 ], [ 6.171653649276867, 51.919060321596213 ], [ 6.170491788910579, 51.916517063065896 ], [ 6.17023155989207, 51.916237060976535 ], [ 6.168524377276222, 51.915154547828017 ], [ 6.163005768075409, 51.913260803297682 ], [ 6.160196491449628, 51.912869958371552 ], [ 6.158548071575944, 51.912305985991743 ], [ 6.157495150241425, 51.91269430901125 ], [ 6.156305600046567, 51.912154518707936 ], [ 6.154698151130755, 51.912080414911799 ], [ 6.154832750209892, 51.911405000239959 ], [ 6.155422381193849, 51.911639859750508 ], [ 6.156220372091065, 51.910629106283665 ], [ 6.156157297833604, 51.909364950739011 ], [ 6.156410490836182, 51.909213390903567 ], [ 6.156650737438802, 51.908223443500681 ], [ 6.157255804843579, 51.907088615833224 ], [ 6.158744384079729, 51.905934155002413 ], [ 6.159493687278508, 51.905023611125578 ], [ 6.159855135693232, 51.905111878060531 ], [ 6.160248707049297, 51.904732032874591 ], [ 6.161945833404022, 51.903890774342941 ], [ 6.163023703912837, 51.902955586739843 ], [ 6.164937672643608, 51.902392653439996 ], [ 6.165456095295518, 51.902445763559534 ], [ 6.166815665959749, 51.901144444546361 ], [ 6.167992838997908, 51.901034384458022 ], [ 6.167648880921011, 51.900494009350503 ], [ 6.166749610039535, 51.899805798912027 ], [ 6.165680891585207, 51.898508752664718 ], [ 6.162995061571101, 51.901028939377795 ], [ 6.162229498064801, 51.900861225803112 ], [ 6.159800525919292, 51.903142841279951 ], [ 6.157346863473195, 51.905005831943178 ], [ 6.156228491980167, 51.905144067463461 ], [ 6.155963444204882, 51.904887736976114 ], [ 6.154381865906782, 51.905097525576721 ], [ 6.154391703927121, 51.904813860319884 ], [ 6.154073656316846, 51.904456210170281 ], [ 6.13068217701192, 51.899783035135528 ], [ 6.130622238765491, 51.899642358559333 ], [ 6.12875013965577, 51.899240231534023 ], [ 6.125683723560964, 51.898101953862316 ], [ 6.124162103880598, 51.898659144838184 ], [ 6.120838370113406, 51.900465969998478 ], [ 6.118187793515404, 51.901580811468655 ], [ 6.117941473189868, 51.901561555391197 ], [ 6.114879233304164, 51.897639015402234 ], [ 6.11229468213348, 51.898838701543667 ], [ 6.111890317842167, 51.898742282519073 ], [ 6.109380272277905, 51.895898811505617 ], [ 6.110255862680032, 51.895003015204331 ], [ 6.110236323541797, 51.894863122469772 ], [ 6.103905668662972, 51.892530443166585 ], [ 6.104470896269055, 51.892395663068065 ], [ 6.105324986778118, 51.89189747864863 ], [ 6.106328472992256, 51.891753664776459 ], [ 6.113091188399151, 51.892666540530087 ], [ 6.11439978831086, 51.892461482794772 ], [ 6.115393329883871, 51.892546354908802 ], [ 6.118245167572136, 51.892110377854891 ], [ 6.121190853976331, 51.891156433281658 ], [ 6.121804471632559, 51.89049638300866 ], [ 6.122330967140382, 51.890202743637282 ], [ 6.124413580720721, 51.890251322464437 ], [ 6.126932122217664, 51.889551062877118 ], [ 6.128695546771621, 51.888608382836168 ], [ 6.130156600145294, 51.888362023488583 ], [ 6.130764512410529, 51.887980457944522 ], [ 6.130967012222396, 51.887510789782667 ], [ 6.131856570674955, 51.887096265931206 ], [ 6.133054589573787, 51.886814605074171 ], [ 6.13346025184883, 51.886575898776989 ], [ 6.134386542662113, 51.886632313862634 ], [ 6.135470600806425, 51.886480767632513 ], [ 6.136577349523495, 51.885983147824447 ], [ 6.137168011318556, 51.885893987103508 ], [ 6.137950009186889, 51.885068249270041 ], [ 6.138142066514502, 51.883642079218205 ], [ 6.139193960705927, 51.882652846152702 ], [ 6.139975307778601, 51.881086020866206 ], [ 6.140865698823607, 51.880403001259992 ], [ 6.141918912007641, 51.87908306521782 ], [ 6.142932907883251, 51.877334434848457 ], [ 6.143118957719003, 51.876637316262297 ], [ 6.143699530222651, 51.876295721559686 ], [ 6.143708298769012, 51.875872162355826 ], [ 6.143406803788637, 51.874986317360595 ], [ 6.143839625105429, 51.874187684071543 ], [ 6.143859285053767, 51.873239387162513 ], [ 6.144715968664128, 51.872091644887938 ], [ 6.144632393267936, 51.869805667808812 ], [ 6.145718241362244, 51.869334296626086 ], [ 6.146471671396995, 51.869263571994082 ], [ 6.147553453831372, 51.868845058436634 ], [ 6.148476671801352, 51.868316725607322 ], [ 6.148860840448426, 51.868026002884157 ], [ 6.149265989264878, 51.867137932110722 ], [ 6.149916019064809, 51.866593570491936 ], [ 6.150893519833651, 51.866268052680766 ], [ 6.152062720723368, 51.866344524450177 ], [ 6.155216688229793, 51.865844828174957 ], [ 6.1562356145585, 51.865521635109047 ], [ 6.157381355858562, 51.864791942220343 ], [ 6.160116588833453, 51.863904076415082 ], [ 6.161547604435227, 51.863081320669181 ], [ 6.164559024371949, 51.86239151216396 ], [ 6.165475968388795, 51.861832983001058 ], [ 6.167067076810818, 51.861696063047212 ], [ 6.16734699546266, 51.861195480346446 ], [ 6.167224498666613, 51.86076956670626 ], [ 6.165407087016783, 51.859920930349432 ], [ 6.164532182899374, 51.859053895199196 ], [ 6.164432232751662, 51.857427405368895 ], [ 6.16369755468778, 51.853676699388508 ], [ 6.164335910055324, 51.852013662090584 ], [ 6.165314576322477, 51.851020782837487 ], [ 6.165737505930433, 51.850230085497785 ], [ 6.16659021149083, 51.840626376561488 ], [ 6.157360263682479, 51.843083407295211 ], [ 6.147474107783263, 51.845306457310393 ], [ 6.135760520339867, 51.847069942543499 ], [ 6.129324801747777, 51.847528925383486 ], [ 6.112264414504097, 51.847594933396927 ], [ 6.108779319732529, 51.847796318444708 ], [ 6.102414896628371, 51.848655838429934 ], [ 6.099493957194956, 51.849294450629301 ], [ 6.093998042925667, 51.850857288331582 ], [ 6.089513771954218, 51.8525062686194 ], [ 6.085333146161718, 51.854509848313462 ], [ 6.077165158305299, 51.859153086419653 ], [ 6.071660016624544, 51.861855874979035 ], [ 6.065609154142755, 51.864557647361863 ], [ 6.063534673501324, 51.865326378200841 ], [ 6.063524864694568, 51.865543174651656 ], [ 6.058153037857494, 51.867824993173585 ], [ 6.053822442336849, 51.869432584101119 ], [ 6.046312201772631, 51.87100971855137 ], [ 6.04300153103113, 51.872372951362976 ], [ 6.040041458658859, 51.873887158539738 ], [ 6.0348074364328, 51.87699347500854 ], [ 6.031415559261904, 51.879570617096306 ], [ 6.029528979541963, 51.88158669142814 ], [ 6.027359797771938, 51.885592139160437 ], [ 6.023745050282898, 51.893969500011934 ], [ 6.022447593670372, 51.895757648593147 ], [ 6.021132699894395, 51.89720121327786 ], [ 6.020023946091474, 51.898142407970369 ], [ 6.016988358148048, 51.900124269951419 ], [ 6.013747386584933, 51.901701449635695 ], [ 6.003079657783373, 51.904964938010878 ], [ 5.998484860113174, 51.90673437933232 ], [ 5.996566898953422, 51.905093444626353 ], [ 5.992608652229669, 51.907587821935095 ], [ 5.988625497353092, 51.909719687287271 ], [ 5.986843792131412, 51.911796300253542 ], [ 5.988245348057266, 51.912312998192803 ], [ 5.988282014255234, 51.91246271818374 ], [ 5.984556842982864, 51.915695276059189 ], [ 5.980064221614241, 51.920566813811774 ], [ 5.978705287268428, 51.921761056573757 ], [ 5.975936357051919, 51.923803304365279 ], [ 5.968667130426098, 51.928296501499084 ], [ 5.968405797943328, 51.928306797408496 ], [ 5.966139531669246, 51.930090775611099 ], [ 5.963586788229387, 51.933384868737143 ], [ 5.962378201115182, 51.93577767126358 ], [ 5.961615727025809, 51.938337994205035 ], [ 5.961579699592438, 51.938693648849863 ], [ 5.961894007876624, 51.938799489665712 ], [ 5.961397677506718, 51.941233360733627 ], [ 5.961103078951568, 51.942294642837595 ], [ 5.96037619080273, 51.943838896314816 ], [ 5.958871008885529, 51.945883830996713 ], [ 5.957615709931787, 51.947088377320689 ], [ 5.954250100595789, 51.949720383913068 ], [ 5.951402361391223, 51.952532317128622 ], [ 5.950198908812504, 51.954274152870319 ], [ 5.949502735366691, 51.956172648734643 ], [ 5.949349435456725, 51.95745261109694 ], [ 5.949589496509406, 51.95943824447189 ], [ 5.950200116307329, 51.961245546317897 ], [ 5.951323260998811, 51.963164331964364 ], [ 5.953019961444526, 51.964977002239451 ], [ 5.955159861345809, 51.966674328970754 ], [ 5.958988629485864, 51.969113060680449 ], [ 5.962419271241206, 51.970622085323541 ], [ 5.965191366615746, 51.971439591872524 ], [ 5.969612776585995, 51.97213405569395 ], [ 5.974298289599462, 51.972566020064512 ], [ 5.980017845746523, 51.973451202026055 ], [ 5.987775614822048, 51.9739711826304 ], [ 5.990178273178763, 51.974270429964157 ], [ 5.994186415282231, 51.975349648141851 ], [ 5.997349991590995, 51.976499071574402 ], [ 5.999835793714057, 51.977930603027453 ], [ 6.001514050324814, 51.979730324345688 ], [ 6.004174148192889, 51.984358247385472 ], [ 6.00565304354216, 51.989257176105603 ], [ 6.006296424922372, 51.990700633816225 ], [ 6.007793437989983, 51.992617411998317 ], [ 6.00985370335516, 51.994291331256917 ], [ 6.012041393227664, 51.995555878916903 ], [ 6.015355365225663, 51.996770164883706 ], [ 6.017320431896689, 51.997003377043143 ], [ 6.020337543693033, 51.996814363776963 ], [ 6.020453024135499, 51.997806502686863 ], [ 6.026032099712835, 51.997336469417753 ], [ 6.029913568015302, 51.997588867423225 ], [ 6.031618215769596, 51.997906297881777 ], [ 6.035498882950428, 51.999079965615756 ], [ 6.039166968573018, 52.001093667196891 ], [ 6.040578363486609, 52.000618806907298 ], [ 6.042681075717567, 52.001781172484627 ], [ 6.044031117480658, 52.003048701655771 ], [ 6.044877577505535, 52.004334967818359 ], [ 6.045700309935801, 52.007274024617352 ], [ 6.046187886565023, 52.008008827700671 ], [ 6.047619279278983, 52.009353995223705 ], [ 6.049258177542918, 52.010336359770122 ], [ 6.053324729776073, 52.011884097156781 ], [ 6.0574731670953, 52.013927644358724 ], [ 6.058919120822542, 52.014369822493116 ], [ 6.060962995427, 52.01478013350556 ], [ 6.063045931306055, 52.014924443989123 ], [ 6.064677900979697, 52.014851858065185 ], [ 6.066477698458842, 52.014545599953877 ], [ 6.068246957796992, 52.014072945315242 ], [ 6.074039718733988, 52.011836329255978 ], [ 6.076413584575083, 52.010569480196359 ], [ 6.077774205082523, 52.009303492436246 ], [ 6.078261324337001, 52.008618311239516 ], [ 6.078690580882777, 52.007449111401378 ], [ 6.078592956318192, 52.005964510640375 ], [ 6.077570531742243, 52.003824946344459 ], [ 6.077488572457074, 52.00326333792389 ], [ 6.077544842955332, 52.002299156662303 ], [ 6.07809405448389, 52.001008553167701 ], [ 6.079225327199625, 51.99976942235012 ], [ 6.080968815506267, 51.998370302209452 ], [ 6.083513950884871, 51.995470209336638 ], [ 6.084956189763055, 51.994471964933517 ], [ 6.086901519124942, 51.99366677362687 ], [ 6.08789982381434, 51.993332177473704 ], [ 6.090682186364255, 51.992793935933392 ], [ 6.092731006456551, 51.992651184906997 ], [ 6.094343006941018, 51.9927415473243 ], [ 6.104340403194373, 51.994626373690267 ], [ 6.107557127851815, 51.995476052081976 ], [ 6.109742081586347, 51.996431983630828 ], [ 6.109871751529202, 51.996310850087724 ] ], [ [ 6.103706351954655, 51.892458979849323 ], [ 6.103744830253498, 51.892431567386801 ], [ 6.103811834806241, 51.892496799832166 ], [ 6.103706351954655, 51.892458979849323 ] ] ] } }
]
}
