{
"type": "FeatureCollection",
"name": "SWVPO2502",
"crs": { "type": "name", "properties": { "name": "urn:ogc:def:crs:OGC:1.3:CRS84" } },
"features": [
{ "type": "Feature", "properties": { "PO SWV": "PO2502", "strokeColor": "#A9A9A9", "strokeWidth": 2, "fillColor": "#ADD8E6" }, "geometry": { "type": "Polygon", "coordinates": [ [ [ 6.457597925203457, 52.022442882211472 ], [ 6.463251943405786, 52.021653120623199 ], [ 6.463273750642323, 52.021401465423651 ], [ 6.464927871869562, 52.020717111142964 ], [ 6.475813941443095, 52.03010978599788 ], [ 6.477229128130475, 52.031250050139683 ], [ 6.477438773294628, 52.03122053243321 ], [ 6.480022145868897, 52.033035313043847 ], [ 6.483372851038159, 52.031464282014888 ], [ 6.485905642509973, 52.033464301930614 ], [ 6.486789853076847, 52.033888604619214 ], [ 6.487927064673899, 52.032448225340104 ], [ 6.489797905670398, 52.033934872073026 ], [ 6.489694089249361, 52.034204141741213 ], [ 6.490945512921137, 52.03522506933048 ], [ 6.490575798881452, 52.035687499358346 ], [ 6.491605512171875, 52.036458361868405 ], [ 6.492773453496932, 52.03600972195904 ], [ 6.494285139361207, 52.037950575268752 ], [ 6.49957400600563, 52.035935158191052 ], [ 6.508702646389692, 52.044366180530453 ], [ 6.514821931331117, 52.040615013933397 ], [ 6.517342444304187, 52.042498192445251 ], [ 6.522674516376478, 52.038246366007073 ], [ 6.522819000879724, 52.03828719947299 ], [ 6.524256874939802, 52.037152827949974 ], [ 6.539015182478514, 52.025304499523408 ], [ 6.547602469473661, 52.030529009393874 ], [ 6.552474975168378, 52.027881839564067 ], [ 6.56926656732503, 52.031056609003812 ], [ 6.570028425642939, 52.030261160405082 ], [ 6.571603286488739, 52.030513408278601 ], [ 6.571422457267436, 52.030968452690232 ], [ 6.571530697492632, 52.031491384788637 ], [ 6.574281933172643, 52.032028966769801 ], [ 6.586846966186414, 52.038083805711082 ], [ 6.588761140264626, 52.038903047540494 ], [ 6.589861970112036, 52.039122588703599 ], [ 6.589697986037729, 52.039410339725933 ], [ 6.59022520667749, 52.039590507899625 ], [ 6.590208079862969, 52.040050943463001 ], [ 6.590419746085463, 52.04054261688249 ], [ 6.590065776630682, 52.040702524739167 ], [ 6.59003714456679, 52.040877685901393 ], [ 6.590749231863175, 52.041369554512762 ], [ 6.590692969661937, 52.041660761206138 ], [ 6.59608019446957, 52.042867398219911 ], [ 6.595841067117671, 52.043264322286802 ], [ 6.595456081677823, 52.043482703113867 ], [ 6.596015079092467, 52.044095787574371 ], [ 6.596356115562385, 52.044157989129701 ], [ 6.5958036323184, 52.046197458620433 ], [ 6.596522131117918, 52.047324093648882 ], [ 6.597359518818132, 52.047879598879867 ], [ 6.59873285778018, 52.049261510134031 ], [ 6.601013477008144, 52.049938878625454 ], [ 6.601422303440872, 52.050374926000245 ], [ 6.602949709694138, 52.050291322905828 ], [ 6.603512067496811, 52.050958912165015 ], [ 6.605316363656645, 52.051846827266907 ], [ 6.604170511277868, 52.055622262229292 ], [ 6.60631471936937, 52.060426007834145 ], [ 6.606073962125711, 52.065206582696348 ], [ 6.613092347497007, 52.068140096558388 ], [ 6.615727132348806, 52.067199564079566 ], [ 6.621408109265378, 52.065668700185384 ], [ 6.623764358948343, 52.063720113570156 ], [ 6.628764197396506, 52.064361840839325 ], [ 6.629172299878237, 52.064238819971443 ], [ 6.628841778940719, 52.063671972107883 ], [ 6.631986336268153, 52.063522931599501 ], [ 6.631811411555318, 52.06270188456002 ], [ 6.631063602819827, 52.061311484581111 ], [ 6.63110649444898, 52.061084057448674 ], [ 6.630717387527984, 52.060228852792676 ], [ 6.629198981052601, 52.057563789458577 ], [ 6.634798552340831, 52.056268348216271 ], [ 6.635169890133881, 52.05595189826078 ], [ 6.635850395505198, 52.055720276858018 ], [ 6.638525186850063, 52.060580493928526 ], [ 6.643158083128586, 52.060308890094902 ], [ 6.64684942832895, 52.065510173494438 ], [ 6.651158997203533, 52.063697085134471 ], [ 6.652485473064413, 52.063713125413479 ], [ 6.656047966504101, 52.063203218832129 ], [ 6.659051561708829, 52.063112100535193 ], [ 6.659979483483713, 52.061634799748632 ], [ 6.66056255244092, 52.061256364231632 ], [ 6.661501320287416, 52.060125052774922 ], [ 6.663078706296622, 52.059284764371391 ], [ 6.663906311119471, 52.057724394911176 ], [ 6.664023050783747, 52.05441306547192 ], [ 6.66188942426205, 52.052179170436226 ], [ 6.661877820389869, 52.051672101899477 ], [ 6.66560673806481, 52.050222207142468 ], [ 6.666780779980033, 52.050412668316213 ], [ 6.670096232859528, 52.049694875705512 ], [ 6.670221901752479, 52.049530140843025 ], [ 6.671457203103542, 52.04933830516562 ], [ 6.672581319471696, 52.048912438734149 ], [ 6.674731976979484, 52.048655183059594 ], [ 6.678755146853033, 52.04739475304001 ], [ 6.684061329090291, 52.044926879796378 ], [ 6.688021366723115, 52.044457006282798 ], [ 6.687955496792107, 52.039957241534893 ], [ 6.714152285458898, 52.040163067113845 ], [ 6.753005884495732, 52.028501376419023 ], [ 6.764145276154539, 52.022393061459567 ], [ 6.766367020232754, 52.018874900638998 ], [ 6.772190037182013, 52.017985738147189 ], [ 6.776294989595379, 52.015719444940778 ], [ 6.811485998629411, 51.998162057943937 ], [ 6.808046329949497, 51.995048669928565 ], [ 6.826651463375318, 51.993617157145437 ], [ 6.828410940720016, 51.989822743118246 ], [ 6.830447124088009, 51.986222363654669 ], [ 6.829706254055196, 51.979452342901517 ], [ 6.830322337690925, 51.976460334738931 ], [ 6.83239553754658, 51.974393202584267 ], [ 6.832851863001157, 51.972959778146823 ], [ 6.832899415829299, 51.971789115448978 ], [ 6.832515808601167, 51.969998387487131 ], [ 6.828567379971584, 51.964013142074407 ], [ 6.821771188922179, 51.964025811819177 ], [ 6.813889017148766, 51.963536087810105 ], [ 6.812492681930303, 51.961738431382081 ], [ 6.798959605564144, 51.958661316049927 ], [ 6.796347330276403, 51.943984145335868 ], [ 6.796530442801173, 51.943470774085249 ], [ 6.797365443091845, 51.942520153419366 ], [ 6.794059875587503, 51.935221239379011 ], [ 6.786195808581152, 51.931188947454721 ], [ 6.788990565521017, 51.929745442405682 ], [ 6.78901033069873, 51.929581166412433 ], [ 6.77007684072514, 51.916107716757807 ], [ 6.766008120971969, 51.915965426440586 ], [ 6.763534433071296, 51.915296349795334 ], [ 6.762491970843477, 51.914623799658052 ], [ 6.761675185853773, 51.914327279953348 ], [ 6.759507742035307, 51.913885115353331 ], [ 6.75693205699743, 51.913699384291824 ], [ 6.754675359320086, 51.913003643862005 ], [ 6.75415494789392, 51.912596848946251 ], [ 6.754276210158634, 51.912349062976254 ], [ 6.754145675300745, 51.91203848296837 ], [ 6.754233102712098, 51.910500995330807 ], [ 6.754487222317895, 51.910019430031959 ], [ 6.752710420516689, 51.908646985864785 ], [ 6.752125360750362, 51.908466949799518 ], [ 6.751294587702808, 51.907144572835662 ], [ 6.745565537422425, 51.905624907548599 ], [ 6.740517428858687, 51.905170009922358 ], [ 6.737805324441207, 51.904580929679227 ], [ 6.737181746508615, 51.90458104760252 ], [ 6.732480052272513, 51.89860420563263 ], [ 6.721931422153553, 51.895970870290761 ], [ 6.703164703126215, 51.906312818337632 ], [ 6.703692641811756, 51.9093529354815 ], [ 6.703277719059045, 51.90961838245542 ], [ 6.701480099935493, 51.909635537668734 ], [ 6.69982565197288, 51.908958807546149 ], [ 6.69761045651992, 51.909787784203495 ], [ 6.695570628499173, 51.915012730626039 ], [ 6.695723633163353, 51.915202472757635 ], [ 6.695577545803776, 51.915595480050456 ], [ 6.695335723238336, 51.915755263710935 ], [ 6.692750154993307, 51.91461961645355 ], [ 6.690204817255747, 51.914818049048073 ], [ 6.689872981414619, 51.914988598335235 ], [ 6.689617479839889, 51.914857715835645 ], [ 6.689393967198126, 51.915072658416058 ], [ 6.688700625325064, 51.915234974805976 ], [ 6.684202679668834, 51.916008121720743 ], [ 6.684148441308507, 51.91630474769525 ], [ 6.684578807981623, 51.917294661528445 ], [ 6.684007139040864, 51.917477217982629 ], [ 6.674814219662671, 51.915840598256239 ], [ 6.668773163403128, 51.913771296525034 ], [ 6.662082127038871, 51.911096916733463 ], [ 6.648810692065911, 51.907091399161295 ], [ 6.637762048079304, 51.904362801381431 ], [ 6.634194792447343, 51.900907623379503 ], [ 6.627688663461261, 51.900757752488985 ], [ 6.625299911700174, 51.901836705439969 ], [ 6.604338018196848, 51.897159950840589 ], [ 6.585802683462306, 51.893984295142872 ], [ 6.569557199618242, 51.888213099096085 ], [ 6.563957813614908, 51.885421718528654 ], [ 6.562821965612255, 51.884321320984945 ], [ 6.561837372596683, 51.883958588081192 ], [ 6.561016919566867, 51.884010270640395 ], [ 6.561071560081274, 51.883700027075804 ], [ 6.56079783274533, 51.88337349191675 ], [ 6.56077044466144, 51.882950860852503 ], [ 6.561098092599409, 51.882510907568381 ], [ 6.560630101968856, 51.882121068049692 ], [ 6.558788271150714, 51.882426847280549 ], [ 6.557829397855471, 51.882306963658735 ], [ 6.557869825939955, 51.881969959655251 ], [ 6.557563667167877, 51.881741333994626 ], [ 6.556140983859298, 51.881599176294358 ], [ 6.555816464991179, 51.881716108457972 ], [ 6.555141092284077, 51.882614291971535 ], [ 6.555262621184696, 51.88336184236104 ], [ 6.55263669876185, 51.883991998990467 ], [ 6.552338176713612, 51.886079137257269 ], [ 6.549817157494918, 51.885396287754332 ], [ 6.548495594926725, 51.885248809620791 ], [ 6.549043398290758, 51.884120528014464 ], [ 6.549987093905202, 51.883434727926293 ], [ 6.549602695887393, 51.883050849632099 ], [ 6.547506595490012, 51.88317155582466 ], [ 6.545701553276368, 51.884397452075127 ], [ 6.545276681039386, 51.884532448751081 ], [ 6.544177152994461, 51.884510852875778 ], [ 6.542569168931202, 51.883567068999426 ], [ 6.542285220154975, 51.883103960223984 ], [ 6.542451422746806, 51.88299715605973 ], [ 6.542352394825246, 51.88267086170346 ], [ 6.541746470096194, 51.88226594340847 ], [ 6.541492180453668, 51.881904092834731 ], [ 6.540858765736434, 51.881669031667961 ], [ 6.539947870922127, 51.880829162298809 ], [ 6.538871804533792, 51.88069443303106 ], [ 6.538579684523877, 51.880192530403001 ], [ 6.537171970969215, 51.879457874927652 ], [ 6.535394438373531, 51.879109997333444 ], [ 6.533499736132831, 51.878500818241449 ], [ 6.531709100109222, 51.877531160447838 ], [ 6.529388557576247, 51.876885004127764 ], [ 6.529324026249257, 51.876693861356841 ], [ 6.529982371628479, 51.87611565363823 ], [ 6.529966130850589, 51.875921654987579 ], [ 6.5274997339743, 51.874951605775081 ], [ 6.524593264045942, 51.87404126611009 ], [ 6.524720580434916, 51.873728809280273 ], [ 6.524606197468768, 51.873598098667536 ], [ 6.518120908900289, 51.8730087618681 ], [ 6.516978266683107, 51.87331607978102 ], [ 6.515518983799055, 51.873397329250459 ], [ 6.514210113156135, 51.87287463924018 ], [ 6.512567568885332, 51.87192226193131 ], [ 6.51220497318647, 51.871310358311355 ], [ 6.511646043322036, 51.870792877298747 ], [ 6.504542460721725, 51.868476331726015 ], [ 6.503184614767818, 51.867520966221413 ], [ 6.502989205719722, 51.867543653805278 ], [ 6.502726217731061, 51.867886729364905 ], [ 6.501845900501155, 51.867737963724998 ], [ 6.501195391603019, 51.868024194724278 ], [ 6.501148886306649, 51.866906969395707 ], [ 6.502181561132478, 51.865728520326265 ], [ 6.502346235304892, 51.865245958992098 ], [ 6.50230027925579, 51.864666953634277 ], [ 6.500908837851468, 51.862584798351385 ], [ 6.500334219917521, 51.862182219223435 ], [ 6.498877696090247, 51.861582277704265 ], [ 6.496399350689106, 51.860866390470171 ], [ 6.491322828981547, 51.859714330930636 ], [ 6.490221772613685, 51.859214557683785 ], [ 6.487667266118433, 51.858897070109002 ], [ 6.485296431801972, 51.858036692720887 ], [ 6.482558409664477, 51.856800901207023 ], [ 6.478439590304309, 51.856809471662025 ], [ 6.47722892830074, 51.856611128267438 ], [ 6.473947017407254, 51.855388951960748 ], [ 6.473419296449468, 51.854939365700616 ], [ 6.473426569533788, 51.854647850292487 ], [ 6.472967054704117, 51.854512931429475 ], [ 6.472528211530839, 51.853725125687632 ], [ 6.46912653524942, 51.854012015989106 ], [ 6.466971893828094, 51.854400979823303 ], [ 6.466042203858507, 51.854652301982689 ], [ 6.465084525621606, 51.854943469488639 ], [ 6.464651438196294, 51.855084412007741 ], [ 6.464648439029819, 51.855085440970477 ], [ 6.464497151437903, 51.85514004096293 ], [ 6.464497151437842, 51.855140040962958 ], [ 6.466794020948209, 51.857902044126199 ], [ 6.468369076658174, 51.860154450402852 ], [ 6.468811574640228, 51.86186222109562 ], [ 6.468718928696115, 51.864000168739103 ], [ 6.471448710345302, 51.864402589324335 ], [ 6.471622059928873, 51.865235285696976 ], [ 6.47203690476666, 51.86601950834568 ], [ 6.471835201644597, 51.867131867834487 ], [ 6.472019814369399, 51.868879234572965 ], [ 6.474374339784429, 51.869369284654169 ], [ 6.4754407588791, 51.870640790406114 ], [ 6.477710636522317, 51.87149610387354 ], [ 6.479566727238005, 51.873185785124072 ], [ 6.481231321296651, 51.874121589406009 ], [ 6.482018190674395, 51.874912862446536 ], [ 6.482597229497665, 51.875986530203654 ], [ 6.484118889331908, 51.878112954283097 ], [ 6.484351689267366, 51.878841777260902 ], [ 6.483586778347128, 51.880447408252316 ], [ 6.48228902813289, 51.881996003109144 ], [ 6.481953392041072, 51.882299299690047 ], [ 6.481589783872716, 51.882366149470542 ], [ 6.482208442448282, 51.882701502355232 ], [ 6.482006060015543, 51.883118757669543 ], [ 6.482002595726626, 51.883409554071612 ], [ 6.482236425107902, 51.883755367837388 ], [ 6.482040210229951, 51.884165402993652 ], [ 6.48092844805566, 51.88403885636523 ], [ 6.480691760236462, 51.884346428958622 ], [ 6.480510092372714, 51.8851187041938 ], [ 6.48072548865952, 51.885614084261064 ], [ 6.480137808748011, 51.886099150641954 ], [ 6.480039664547487, 51.886710746462882 ], [ 6.480175232324397, 51.887199393538317 ], [ 6.480451788863133, 51.887309187668599 ], [ 6.480336385571659, 51.887997051898793 ], [ 6.479183563425843, 51.888260935546931 ], [ 6.479498215973392, 51.888352045061922 ], [ 6.479549889302849, 51.888675603341447 ], [ 6.479181028545185, 51.889133123697569 ], [ 6.480084455615965, 51.889513729505154 ], [ 6.47993229345772, 51.890151588824146 ], [ 6.480195529104664, 51.891462896269452 ], [ 6.480112235786642, 51.892803700976899 ], [ 6.48042885852735, 51.892827388631474 ], [ 6.4805718853541, 51.893177202346941 ], [ 6.480507464786578, 51.894023730774286 ], [ 6.479983455107634, 51.894469489696 ], [ 6.47888563240083, 51.897366121383804 ], [ 6.476449012935181, 51.901177772538063 ], [ 6.475850043445721, 51.901737311299044 ], [ 6.476150166166819, 51.902023931944306 ], [ 6.475209585161486, 51.902851939312356 ], [ 6.473837137950005, 51.905129489683205 ], [ 6.473401950780402, 51.905145704014693 ], [ 6.472720937080439, 51.907099354663394 ], [ 6.472497685266375, 51.907357386544085 ], [ 6.47278939969685, 51.907564522722943 ], [ 6.474149539682466, 51.907760476504556 ], [ 6.475188242271227, 51.908263927797158 ], [ 6.476720468238232, 51.90870956959084 ], [ 6.477392103770256, 51.909014689185632 ], [ 6.477416698692291, 51.909186903882059 ], [ 6.477755539334867, 51.909376691024505 ], [ 6.478752804248713, 51.909674962364612 ], [ 6.479534293360681, 51.909834518995012 ], [ 6.481057966348362, 51.909798133318183 ], [ 6.482620097331718, 51.910195825294096 ], [ 6.484465841892408, 51.911295478429004 ], [ 6.488009659444304, 51.912293205851554 ], [ 6.488799409960631, 51.912780011281995 ], [ 6.488798028645701, 51.912930724979503 ], [ 6.48730037576186, 51.914065368982037 ], [ 6.491227637666731, 51.915556453790302 ], [ 6.490903247449175, 51.916098648455886 ], [ 6.490960848780746, 51.916691367272428 ], [ 6.490661109202521, 51.917021673772553 ], [ 6.490732117055104, 51.917102448423556 ], [ 6.491845628533027, 51.917278447844453 ], [ 6.492877658354084, 51.917207001298465 ], [ 6.493371808337923, 51.917983336824904 ], [ 6.493181593346378, 51.918571673705365 ], [ 6.492566899286491, 51.919216168444429 ], [ 6.493429411805903, 51.920055405118141 ], [ 6.492683186241097, 51.923858276668568 ], [ 6.492866155776354, 51.923933811290098 ], [ 6.492927197690538, 51.924373069454838 ], [ 6.492689669219515, 51.924944167967375 ], [ 6.492248557787326, 51.925042940186245 ], [ 6.492480684797384, 51.925315309067607 ], [ 6.492594977709952, 51.92620406391972 ], [ 6.493670632879557, 51.925991786059171 ], [ 6.494121304771573, 51.926615999825202 ], [ 6.497176212487411, 51.929549929660382 ], [ 6.497133754926263, 51.929689215219483 ], [ 6.495750295018047, 51.930338348998433 ], [ 6.497558102472449, 51.932700017075341 ], [ 6.497852967610156, 51.93281908214 ], [ 6.49885499090888, 51.934398899846961 ], [ 6.503212156779438, 51.939259891687854 ], [ 6.503146005603653, 51.939411406402591 ], [ 6.500970320683509, 51.939605461275768 ], [ 6.501785398159397, 51.940500322379293 ], [ 6.503000023112163, 51.941146422450984 ], [ 6.503156733613046, 51.942248006589381 ], [ 6.503598536152865, 51.943508777865667 ], [ 6.5034648402625, 51.943808701722851 ], [ 6.504856681168185, 51.945893748320408 ], [ 6.511473558769405, 51.946734261980396 ], [ 6.515371673301775, 51.947514789599218 ], [ 6.516205046801474, 51.948149995396669 ], [ 6.517506932310126, 51.947820503958326 ], [ 6.517991469237927, 51.948376963168243 ], [ 6.517887745576835, 51.948522215691767 ], [ 6.518739216483539, 51.951148834169068 ], [ 6.518962733918511, 51.952815160739853 ], [ 6.518730788754027, 51.953228941502495 ], [ 6.518709767528185, 51.953699164181963 ], [ 6.519121293334265, 51.954634222214942 ], [ 6.519895328120252, 51.95548324385468 ], [ 6.521539541874265, 51.956405557931078 ], [ 6.527692462815214, 51.959089882312178 ], [ 6.532310815744604, 51.961756827464512 ], [ 6.532928640011892, 51.962361744551238 ], [ 6.524666645172001, 51.967897463217078 ], [ 6.505975586404166, 51.969239234939131 ], [ 6.494819605485263, 51.970689148358488 ], [ 6.488258516116637, 51.972849515332449 ], [ 6.488189941487096, 51.973125428059689 ], [ 6.487027015967624, 51.9732292720687 ], [ 6.486571710531435, 51.972432097523992 ], [ 6.482876766643036, 51.973768586994595 ], [ 6.481446100357383, 51.973969036865995 ], [ 6.479167666436103, 51.974600610419614 ], [ 6.476438892801231, 51.975559339873818 ], [ 6.473170560179652, 51.976082123889732 ], [ 6.469182710508321, 51.977616988250261 ], [ 6.467090687267121, 51.978662663982718 ], [ 6.468891965809575, 51.981125372490581 ], [ 6.471588890896094, 51.983590979350595 ], [ 6.472185835775181, 51.983467497585984 ], [ 6.475871034237808, 51.988155289170507 ], [ 6.460184149675952, 51.995203537599728 ], [ 6.46015545884095, 51.996479224810926 ], [ 6.459327219900451, 51.997695149308029 ], [ 6.46758791663959, 52.000764200505003 ], [ 6.461175718611612, 52.005219179612851 ], [ 6.460417578827823, 52.006117343680167 ], [ 6.46573039011953, 52.007711654948324 ], [ 6.463758907723601, 52.009463904274092 ], [ 6.463086077847536, 52.010847155303622 ], [ 6.461968926320361, 52.012067316442149 ], [ 6.461992985853131, 52.013116058716932 ], [ 6.462733474888928, 52.01323068890828 ], [ 6.462780304793626, 52.013383754296058 ], [ 6.460496620938375, 52.014573465737506 ], [ 6.461623309236743, 52.01535486749367 ], [ 6.460855105213962, 52.015848572244529 ], [ 6.462146569701755, 52.016961357477193 ], [ 6.46115641751495, 52.017405223000324 ], [ 6.461257210747026, 52.017659801191712 ], [ 6.459454747529796, 52.018453726438104 ], [ 6.457597925203457, 52.022442882211472 ] ] ] } }
]
}
