{
"type": "FeatureCollection",
"name": "SWVPO2510",
"crs": { "type": "name", "properties": { "name": "urn:ogc:def:crs:OGC:1.3:CRS84" } },
"features": [
{ "type": "Feature", "properties": { "PO SWV": "PO2510", "strokeColor": "#A9A9A9", "strokeWidth": 2, "fillColor": "#ADD8E6" }, "geometry": { "type": "MultiPolygon", "coordinates": [ [ [ [ 5.46482837347238, 52.083781610609066 ], [ 5.466204516778968, 52.084893414318955 ], [ 5.471404111885863, 52.088412317985096 ], [ 5.471842868472399, 52.08947174220468 ], [ 5.472772103695722, 52.08926883361476 ], [ 5.474803478323884, 52.090350948308853 ], [ 5.476710603991697, 52.090447075937966 ], [ 5.480592943196916, 52.0921229655602 ], [ 5.485957006658621, 52.093724325338627 ], [ 5.484640664482644, 52.096609466106386 ], [ 5.485136704014713, 52.099221312510039 ], [ 5.484896836831014, 52.103263145217092 ], [ 5.484208530578239, 52.105578329358977 ], [ 5.493763405653851, 52.111153233644671 ], [ 5.493841126072256, 52.112510688783033 ], [ 5.493617129497555, 52.113007721533073 ], [ 5.493330927785478, 52.112913277861722 ], [ 5.492906806592003, 52.113502275132547 ], [ 5.491766825454458, 52.114014397183986 ], [ 5.491794538367524, 52.114413192206364 ], [ 5.491184890607284, 52.114498486616611 ], [ 5.490920128861323, 52.114387813104116 ], [ 5.489224727465612, 52.114893582612225 ], [ 5.489001091264401, 52.114774350974372 ], [ 5.487392517384153, 52.114953539119689 ], [ 5.486402860341761, 52.115270049489595 ], [ 5.486391367168757, 52.115442774311532 ], [ 5.488077609030665, 52.116201017262711 ], [ 5.490760973042027, 52.116154381865904 ], [ 5.491958416485291, 52.115821933346034 ], [ 5.495616282271135, 52.115686228931054 ], [ 5.496443783633557, 52.11604412378091 ], [ 5.49701287769245, 52.115951015550429 ], [ 5.498920514036569, 52.116117558300665 ], [ 5.502653351337047, 52.11518267383731 ], [ 5.502636236210428, 52.114960747736397 ], [ 5.503965510564583, 52.113820006166819 ], [ 5.506164095700709, 52.114409749548344 ], [ 5.507591408104082, 52.114036474581155 ], [ 5.507459075457193, 52.115531935566899 ], [ 5.507142313547498, 52.11551131704428 ], [ 5.507015082901632, 52.115750389242073 ], [ 5.505867990236999, 52.115887349597607 ], [ 5.503664308385164, 52.116545707681425 ], [ 5.504646819915188, 52.118257791926517 ], [ 5.505210541247042, 52.119661553869321 ], [ 5.501679489793901, 52.119470703160971 ], [ 5.500043846596689, 52.119100024052869 ], [ 5.496874717686908, 52.119467187700721 ], [ 5.496555601843998, 52.120099447385428 ], [ 5.49656822496187, 52.12043982851236 ], [ 5.494967080754255, 52.121956606834651 ], [ 5.495028293191305, 52.122325164119296 ], [ 5.494598838696539, 52.124725581168335 ], [ 5.496348172520515, 52.124705625355944 ], [ 5.49644178915394, 52.12493143751869 ], [ 5.496689646233204, 52.124923816271171 ], [ 5.497865506840821, 52.130370863132534 ], [ 5.498316772861887, 52.130321924052062 ], [ 5.499098214846275, 52.130642117795695 ], [ 5.499256117428012, 52.130511522740285 ], [ 5.499216504261748, 52.13033704098136 ], [ 5.501414881590046, 52.13002647246163 ], [ 5.50157388923234, 52.130181497691858 ], [ 5.50209338993891, 52.130191029817794 ], [ 5.504086627335855, 52.130760569427153 ], [ 5.505023845128242, 52.131212262944956 ], [ 5.506108871473796, 52.131013905315001 ], [ 5.506706053522769, 52.131079189109009 ], [ 5.507273393971503, 52.131418218602967 ], [ 5.507589347124374, 52.131324048853891 ], [ 5.508512707486545, 52.13174416784463 ], [ 5.508786682118918, 52.131688396521035 ], [ 5.509180903277799, 52.132042776112854 ], [ 5.511897327993224, 52.132200044467446 ], [ 5.511941434195803, 52.133712179981593 ], [ 5.511793223539485, 52.13416311473614 ], [ 5.512309172097529, 52.134314720650792 ], [ 5.513461583173202, 52.135839971037264 ], [ 5.513854852916667, 52.135964039804051 ], [ 5.512431539695799, 52.136985034630364 ], [ 5.510276926543839, 52.137903252218564 ], [ 5.507416484405415, 52.138437509931045 ], [ 5.507447073904146, 52.138780419305924 ], [ 5.502578291171248, 52.139438743254537 ], [ 5.501168685809457, 52.140419745002845 ], [ 5.499966243839948, 52.140949401974346 ], [ 5.497242273279602, 52.141366638354697 ], [ 5.497910546458201, 52.143180005079302 ], [ 5.497971823120882, 52.143964209566533 ], [ 5.498349330223778, 52.144739675571913 ], [ 5.498889273442063, 52.147291508641025 ], [ 5.496242000179354, 52.147250734329489 ], [ 5.489459230573848, 52.148120572255948 ], [ 5.484767479977894, 52.149069788776586 ], [ 5.48129205930926, 52.150414203784784 ], [ 5.481273522804548, 52.150574070615612 ], [ 5.482532895781278, 52.151547583909682 ], [ 5.483155578041304, 52.154055768406074 ], [ 5.483671419044158, 52.154087365362798 ], [ 5.48351130614933, 52.15540109027981 ], [ 5.48401475038552, 52.155500657431077 ], [ 5.48403293532301, 52.157147332806019 ], [ 5.484222836471868, 52.158015259732139 ], [ 5.483644428970882, 52.15818950764902 ], [ 5.481446235751794, 52.158210306982141 ], [ 5.481363551724566, 52.158406895840969 ], [ 5.481968909260358, 52.159716537517546 ], [ 5.480928633636184, 52.160012468645206 ], [ 5.479890595469334, 52.160888111925736 ], [ 5.478578838437953, 52.161475565566178 ], [ 5.475517367114419, 52.162061389334831 ], [ 5.47277838442692, 52.161799773583063 ], [ 5.472333412879036, 52.162855531869745 ], [ 5.473315572379388, 52.163198967762391 ], [ 5.4728951911495, 52.163772184886867 ], [ 5.472937333765144, 52.163912144325238 ], [ 5.47446821771128, 52.163974749269592 ], [ 5.475543105604055, 52.164488681051871 ], [ 5.477739929240873, 52.164340570522242 ], [ 5.478780298540713, 52.164487168412045 ], [ 5.478867873348966, 52.164800622266327 ], [ 5.480139498328083, 52.166167733995508 ], [ 5.480310286565625, 52.167177803329075 ], [ 5.480769762469309, 52.168019193739504 ], [ 5.482265441342245, 52.169207415317018 ], [ 5.48306279406579, 52.170331589278909 ], [ 5.484955277048704, 52.171748870632854 ], [ 5.484592255880959, 52.172019754059569 ], [ 5.485089684557646, 52.17337616342666 ], [ 5.485372205550122, 52.181649630109455 ], [ 5.485701798241472, 52.182175834140224 ], [ 5.49068566493828, 52.184004644961966 ], [ 5.490627752025317, 52.184152923990581 ], [ 5.490854403896341, 52.184315557882094 ], [ 5.491053772261973, 52.18424018023299 ], [ 5.492461963127548, 52.184874067296334 ], [ 5.494386997077902, 52.18608358402453 ], [ 5.494701142970855, 52.185882528489621 ], [ 5.495356244540311, 52.186340116178222 ], [ 5.495735279113362, 52.186361491072205 ], [ 5.49723416309573, 52.187159483839764 ], [ 5.500803195656673, 52.188674773189291 ], [ 5.504179179060878, 52.189234770029309 ], [ 5.504973143092176, 52.188673501113065 ], [ 5.509328042293088, 52.188502061150324 ], [ 5.509394321026044, 52.188699480750572 ], [ 5.512074193906773, 52.188674033637859 ], [ 5.520038693498646, 52.191365881305884 ], [ 5.521039879711979, 52.19174039517295 ], [ 5.521195630364044, 52.191933663943736 ], [ 5.522367040928375, 52.191850622480906 ], [ 5.52380509540578, 52.191496897498496 ], [ 5.528390464833637, 52.191177326671173 ], [ 5.528881837406647, 52.190911830954711 ], [ 5.53084162459207, 52.191587752916 ], [ 5.531697238007426, 52.190162801338943 ], [ 5.532939600524313, 52.18871816484377 ], [ 5.53355360268292, 52.187454232123116 ], [ 5.53374526871008, 52.187447259159555 ], [ 5.535025618271075, 52.185557165426502 ], [ 5.535288949495163, 52.185592668683313 ], [ 5.537468606443265, 52.182507540954589 ], [ 5.539934402023235, 52.180154386099076 ], [ 5.539825718912343, 52.179985010901937 ], [ 5.542110398313334, 52.1778447550452 ], [ 5.543204055548839, 52.177367605790465 ], [ 5.546638318824884, 52.176876191957845 ], [ 5.548955353061416, 52.175420929788395 ], [ 5.552272742255704, 52.17574412969168 ], [ 5.554296610888818, 52.175730346642474 ], [ 5.557261668248338, 52.17652009581137 ], [ 5.565139575822148, 52.178194007488834 ], [ 5.568712198800009, 52.178000370406188 ], [ 5.5685440302289, 52.178266768244576 ], [ 5.568688083510357, 52.178622083616141 ], [ 5.568603415121908, 52.179050306126648 ], [ 5.568300068042829, 52.179631263650094 ], [ 5.566953944024246, 52.18071035154545 ], [ 5.565142731382385, 52.180674000680398 ], [ 5.564765802890769, 52.181766711489111 ], [ 5.564441611994653, 52.185391025390281 ], [ 5.566481247266251, 52.18662073632489 ], [ 5.570708920794019, 52.186691928272154 ], [ 5.57079465109382, 52.186557712794588 ], [ 5.573372484794451, 52.186164766097804 ], [ 5.57491294766871, 52.186274633836987 ], [ 5.575270166137368, 52.187003172259701 ], [ 5.575500275837324, 52.187097100595288 ], [ 5.577792450363456, 52.186383339363992 ], [ 5.577352765378492, 52.188634295489123 ], [ 5.577021340617504, 52.189444941415701 ], [ 5.576830346464458, 52.191622966971813 ], [ 5.575073896821724, 52.192662239181494 ], [ 5.5776397157812, 52.194893282639569 ], [ 5.580419064025733, 52.194583875309583 ], [ 5.581942779794849, 52.19494770132868 ], [ 5.582019207782119, 52.195140326677191 ], [ 5.583199101864482, 52.195510609057344 ], [ 5.585642578411051, 52.195425474454929 ], [ 5.587963023355265, 52.194989766724355 ], [ 5.587805823252537, 52.195164775894597 ], [ 5.587974403704669, 52.195585589965638 ], [ 5.589534117626116, 52.195529035066031 ], [ 5.589848009748372, 52.196049754136439 ], [ 5.59287363119341, 52.196281082400844 ], [ 5.594265396791278, 52.196539409625331 ], [ 5.595545518135344, 52.196441251241161 ], [ 5.600307618584288, 52.197749462014187 ], [ 5.601443449303164, 52.197129588576608 ], [ 5.601923730624577, 52.196596153189255 ], [ 5.607787215328092, 52.195254220203608 ], [ 5.607862990475827, 52.194393794819604 ], [ 5.617481517304251, 52.194451562807345 ], [ 5.617568384284873, 52.192632969575662 ], [ 5.616831221004047, 52.192309967955012 ], [ 5.617852354138426, 52.19128165806552 ], [ 5.618519878990086, 52.191282764876568 ], [ 5.619611433665176, 52.193216703462532 ], [ 5.624287924435959, 52.193426140569208 ], [ 5.625625345355239, 52.192844853416382 ], [ 5.63474403293238, 52.203819393202011 ], [ 5.633482482895105, 52.206368925953619 ], [ 5.633214453042644, 52.208251436780742 ], [ 5.665486505045045, 52.22279917251619 ], [ 5.670850155591843, 52.224067529248828 ], [ 5.681183093923264, 52.225425505267886 ], [ 5.68291880452292, 52.236446754779116 ], [ 5.680932439244859, 52.236568781143205 ], [ 5.680907666241684, 52.237189578386399 ], [ 5.679269943914904, 52.237600774138855 ], [ 5.676892900685129, 52.237220953455463 ], [ 5.676801712295632, 52.237909870581419 ], [ 5.674153931129426, 52.242696343627458 ], [ 5.675419775592337, 52.243506826249188 ], [ 5.677979168916322, 52.244628293532905 ], [ 5.679148596348034, 52.245576679241026 ], [ 5.679345256724794, 52.245505543795737 ], [ 5.6812905983746, 52.242847140642255 ], [ 5.681517429045699, 52.241797426078413 ], [ 5.68376807607621, 52.240684099108549 ], [ 5.686013201949184, 52.240511703416644 ], [ 5.688060159485786, 52.240602106644936 ], [ 5.687951917583159, 52.240993093891525 ], [ 5.68807065467759, 52.241099705129848 ], [ 5.689214919696782, 52.240562184911248 ], [ 5.690692201440669, 52.240483986363138 ], [ 5.693946505225366, 52.239812163085908 ], [ 5.709861955874619, 52.239425449808806 ], [ 5.711075387164801, 52.239743598941857 ], [ 5.715242470436295, 52.240234252396782 ], [ 5.718467733576458, 52.241548477343471 ], [ 5.719424598222539, 52.241671913028007 ], [ 5.719325714287084, 52.242356096305798 ], [ 5.720310311923636, 52.243423945140499 ], [ 5.720725949225675, 52.243537844759508 ], [ 5.720733211676031, 52.243878360258073 ], [ 5.721285167462981, 52.244481923626807 ], [ 5.721899879535164, 52.244695224228678 ], [ 5.721806559253121, 52.245001516385159 ], [ 5.721952410576407, 52.245206260240856 ], [ 5.722640542528317, 52.245425019991323 ], [ 5.723306196999465, 52.245903544476199 ], [ 5.723990863427846, 52.246478646104158 ], [ 5.725206363332678, 52.247906541441864 ], [ 5.727300434880779, 52.248374709360029 ], [ 5.729191298867383, 52.249948373790957 ], [ 5.729332385249097, 52.249802072339094 ], [ 5.730758522610699, 52.249920087476099 ], [ 5.730053087003074, 52.247936708508085 ], [ 5.730903353023748, 52.245460155238916 ], [ 5.728999563407151, 52.245081113703698 ], [ 5.728114158856746, 52.242692437845662 ], [ 5.726584979104762, 52.242432239425874 ], [ 5.72963880197056, 52.238973543391005 ], [ 5.730197772795106, 52.235977079149833 ], [ 5.731008447965592, 52.235859917749309 ], [ 5.731916145363105, 52.235265741422936 ], [ 5.732060438114493, 52.23415621134297 ], [ 5.732976589535437, 52.233850505480468 ], [ 5.733177487335539, 52.233643971702257 ], [ 5.73309524916364, 52.233406202640218 ], [ 5.731552023193786, 52.23340322320923 ], [ 5.731114991140027, 52.233048698997678 ], [ 5.730755982195842, 52.232970062931457 ], [ 5.730997529532369, 52.231671881474952 ], [ 5.734107424862205, 52.232008581618366 ], [ 5.738227314451364, 52.231677770475763 ], [ 5.738460418091392, 52.231548091443571 ], [ 5.738618962930024, 52.230553722384187 ], [ 5.743128448282207, 52.223498070917366 ], [ 5.741599559256139, 52.219646253161777 ], [ 5.73263456946745, 52.21945620436513 ], [ 5.727617057776735, 52.219054378948904 ], [ 5.730078887737849, 52.211126483791389 ], [ 5.729884341038934, 52.21096345189877 ], [ 5.73084519163942, 52.208665727485048 ], [ 5.741129377340075, 52.201963075896778 ], [ 5.74983258444781, 52.194506022523839 ], [ 5.752524869605698, 52.194812755134166 ], [ 5.757669086931751, 52.19509590206281 ], [ 5.757911537526462, 52.195928913506364 ], [ 5.759824635365716, 52.196381771903937 ], [ 5.761263777874119, 52.196281211540985 ], [ 5.762150291296752, 52.195668476127928 ], [ 5.76252419159114, 52.195585814274757 ], [ 5.763671949718549, 52.195761033415842 ], [ 5.762289701966174, 52.19671340402116 ], [ 5.762350640452733, 52.196914117390932 ], [ 5.778790421968695, 52.198779639353816 ], [ 5.77963198418667, 52.196342766568492 ], [ 5.782825121883655, 52.196581154649714 ], [ 5.782747004380988, 52.196204307016473 ], [ 5.797428861170317, 52.197486947547304 ], [ 5.797623929887848, 52.19577405277056 ], [ 5.7997195111469, 52.194729989531041 ], [ 5.813134975264187, 52.184115313838404 ], [ 5.814126493743413, 52.183134025243568 ], [ 5.814625716065718, 52.181955842463921 ], [ 5.814635308879035, 52.181572831986195 ], [ 5.813233364289295, 52.181507380111334 ], [ 5.812935814639694, 52.181049496782876 ], [ 5.812628109749918, 52.180940553382847 ], [ 5.811669433700874, 52.180875267546597 ], [ 5.809321595739501, 52.180163600792504 ], [ 5.807789860223968, 52.180041753951066 ], [ 5.80740386751832, 52.179759795872172 ], [ 5.806440153534053, 52.179506174591097 ], [ 5.805074363292024, 52.179586185198694 ], [ 5.802097377580962, 52.177342801553202 ], [ 5.804399391458319, 52.174095188738676 ], [ 5.80109333962847, 52.172071174660026 ], [ 5.808883745650499, 52.167897737394611 ], [ 5.809625379826251, 52.166830177295331 ], [ 5.805849914628667, 52.166130937680137 ], [ 5.806329825109572, 52.165678903966914 ], [ 5.806302175325038, 52.165510985688925 ], [ 5.798888784049476, 52.163031231792125 ], [ 5.80219384442591, 52.160155657490009 ], [ 5.802821167918171, 52.158811338365503 ], [ 5.80425839193525, 52.158968822413833 ], [ 5.806591970780056, 52.158576573907638 ], [ 5.809102668221448, 52.157340100402031 ], [ 5.809396063559952, 52.157560636573521 ], [ 5.809840911499917, 52.157513455753268 ], [ 5.809941851459088, 52.151515440312885 ], [ 5.845771490809472, 52.151708974939794 ], [ 5.859582877473187, 52.148842136009861 ], [ 5.861279473375885, 52.145396631828341 ], [ 5.868752942853158, 52.147106409474269 ], [ 5.868232337070983, 52.143666274624778 ], [ 5.867333080164109, 52.142127899406574 ], [ 5.866601493959068, 52.141915069224787 ], [ 5.866179479507986, 52.140958554956164 ], [ 5.870011716657547, 52.135880936478515 ], [ 5.871525370910607, 52.136199312191835 ], [ 5.87185878168823, 52.134434809802471 ], [ 5.872009792215543, 52.134267205300397 ], [ 5.870250217406705, 52.132530038015418 ], [ 5.870248408199823, 52.129422043313696 ], [ 5.870935563111105, 52.127743704926573 ], [ 5.869357528350335, 52.125789659697283 ], [ 5.867595806378064, 52.126342335488538 ], [ 5.867595806378064, 52.123098146168282 ], [ 5.874215242448427, 52.116832638239963 ], [ 5.874675322222017, 52.115938850305966 ], [ 5.874938383785866, 52.115947656535596 ], [ 5.876373426500391, 52.114497064284635 ], [ 5.883500392087245, 52.106435289607361 ], [ 5.900119375126333, 52.10388350661281 ], [ 5.911739514322243, 52.100333061746099 ], [ 5.922329697589483, 52.100496138535291 ], [ 5.926819152738322, 52.100379637349846 ], [ 5.934522005638916, 52.099817368586208 ], [ 5.946179658994557, 52.099399949671955 ], [ 5.951597382088185, 52.100016533113177 ], [ 5.951704021709913, 52.099921656242891 ], [ 5.950782258160436, 52.096438614596956 ], [ 5.950300385305614, 52.096020820491127 ], [ 5.948311252832009, 52.090804551332702 ], [ 5.947031767981591, 52.08458020255982 ], [ 5.946625216150233, 52.082526796389828 ], [ 5.948276669252124, 52.082364948409946 ], [ 5.948399613458669, 52.082242715355015 ], [ 5.94768075974894, 52.080958425117316 ], [ 5.947053361445122, 52.078550278033852 ], [ 5.946918310069449, 52.077806461983585 ], [ 5.94722759506413, 52.077556030933401 ], [ 5.947206011428329, 52.077393588414814 ], [ 5.946174673057452, 52.07775155953739 ], [ 5.94607415951949, 52.077631193441327 ], [ 5.945078051626681, 52.077731015293885 ], [ 5.90976919259767, 52.061999487898149 ], [ 5.898250692682842, 52.063247184535982 ], [ 5.89854887919184, 52.061807242531025 ], [ 5.898131440363757, 52.061409141616096 ], [ 5.89816572834595, 52.061020425427763 ], [ 5.899433212069166, 52.049863391807499 ], [ 5.882058954755068, 52.049310874235211 ], [ 5.865509611455678, 52.051240269055683 ], [ 5.865995959497649, 52.052458186410512 ], [ 5.863942182468671, 52.05249952256402 ], [ 5.862471482069152, 52.051591242574148 ], [ 5.859664249556846, 52.051917167577109 ], [ 5.850016993348748, 52.051494975059711 ], [ 5.848168936684084, 52.053508733356786 ], [ 5.845014235309577, 52.052159682771958 ], [ 5.84594572717711, 52.051126053358878 ], [ 5.842638831112568, 52.0496844232024 ], [ 5.843379032722995, 52.048890950104294 ], [ 5.843334000973871, 52.048726945074101 ], [ 5.838016501898355, 52.046451981228181 ], [ 5.838855752908426, 52.046169524027249 ], [ 5.838736698452757, 52.045469933171091 ], [ 5.837098705264986, 52.044781703116541 ], [ 5.836242939642783, 52.044045944557141 ], [ 5.837344034161577, 52.043141938612436 ], [ 5.837080262670108, 52.042892419153546 ], [ 5.836820569571425, 52.04224828345702 ], [ 5.838145737044544, 52.041969958626183 ], [ 5.838249435832594, 52.04182157366828 ], [ 5.835341061667739, 52.036324974322241 ], [ 5.830925236085187, 52.037179442680639 ], [ 5.829387008473537, 52.037086194316785 ], [ 5.828335558717768, 52.036630439286235 ], [ 5.826564422303709, 52.035168150557482 ], [ 5.827797554372692, 52.034832547203081 ], [ 5.828502206788909, 52.034879956537026 ], [ 5.8294678345245, 52.034458438417175 ], [ 5.830437529692055, 52.034312170544766 ], [ 5.830516691191635, 52.034148749206523 ], [ 5.83029921423032, 52.033660230050749 ], [ 5.824253167129962, 52.034755954541119 ], [ 5.821100420115076, 52.032008246279432 ], [ 5.815700815896404, 52.026399687743435 ], [ 5.814287453605188, 52.027383889019163 ], [ 5.813715409921431, 52.026729251971261 ], [ 5.810915590157179, 52.027776068751344 ], [ 5.810981968549642, 52.028429644970252 ], [ 5.811870376539154, 52.029251526260502 ], [ 5.810154079111849, 52.030540070100095 ], [ 5.808665704763348, 52.029139937437485 ], [ 5.805472269739615, 52.030851822697663 ], [ 5.804345424215131, 52.029984457339218 ], [ 5.801813894665786, 52.027214800655976 ], [ 5.798520976934206, 52.024570455110876 ], [ 5.80020225373551, 52.023557214589168 ], [ 5.800973236698751, 52.023983101847364 ], [ 5.801280194093348, 52.023846667725408 ], [ 5.801387602483975, 52.023611933395031 ], [ 5.801177480714626, 52.023059445164918 ], [ 5.802676589060447, 52.0219940744092 ], [ 5.802045056404196, 52.021554768351798 ], [ 5.800205197421173, 52.021271935980543 ], [ 5.798124390234891, 52.021914947562166 ], [ 5.792641163595978, 52.021718301427832 ], [ 5.787529130584154, 52.021783707447426 ], [ 5.787414302140229, 52.021248886817766 ], [ 5.784256775728964, 52.021860128022702 ], [ 5.777660742595335, 52.021778333794948 ], [ 5.770941995759144, 52.0214858426489 ], [ 5.770583952896281, 52.021037051778428 ], [ 5.770194923383486, 52.021120246303425 ], [ 5.770192713650739, 52.021459003472714 ], [ 5.764218060479648, 52.021142283641375 ], [ 5.756767711909365, 52.021002268532584 ], [ 5.753783148291414, 52.020572910441885 ], [ 5.752976533345251, 52.020804234715115 ], [ 5.751741116981734, 52.020564246678248 ], [ 5.75183032673235, 52.020237231691944 ], [ 5.750847553983801, 52.019780712001307 ], [ 5.747685117410552, 52.019488081591923 ], [ 5.747294078096229, 52.019911756712823 ], [ 5.745292705235774, 52.019685140683507 ], [ 5.745179464913397, 52.019236735296623 ], [ 5.744490947411438, 52.019027060365389 ], [ 5.74420476731382, 52.018505011580892 ], [ 5.743644869414102, 52.018357594563966 ], [ 5.743404369248719, 52.017716682100968 ], [ 5.742262308746272, 52.017370694920473 ], [ 5.741236009922429, 52.016370732395451 ], [ 5.741586020002666, 52.015758597798033 ], [ 5.741378743868339, 52.015217304398632 ], [ 5.741418813689784, 52.014750582807231 ], [ 5.741001919127154, 52.014633791222302 ], [ 5.740149676447011, 52.014774732356294 ], [ 5.739869839290256, 52.014634154467714 ], [ 5.739695933924909, 52.014195797316148 ], [ 5.739970070630213, 52.013357914872394 ], [ 5.73866335340792, 52.012847250538847 ], [ 5.738275368225263, 52.01220298056338 ], [ 5.740027328864338, 52.01156172987654 ], [ 5.739841823837432, 52.010600711022107 ], [ 5.740413719195604, 52.010199471575426 ], [ 5.741643065286486, 52.010133038493784 ], [ 5.742670947965967, 52.009826739260092 ], [ 5.7430262779888, 52.009563451381673 ], [ 5.743337916659917, 52.009190147809946 ], [ 5.742840716444698, 52.008541463727283 ], [ 5.745695531342498, 52.007702654852245 ], [ 5.744644039593937, 52.006262798781016 ], [ 5.743363082634044, 52.006481942392774 ], [ 5.741397022043529, 52.004076838837811 ], [ 5.740621166471142, 52.00405007707792 ], [ 5.738205901086532, 52.002142011924924 ], [ 5.7379867916774, 52.002259772731584 ], [ 5.735198996055207, 52.001675361216911 ], [ 5.733667043608434, 52.001897516321762 ], [ 5.733341090079548, 52.001715320007982 ], [ 5.73278837397507, 52.000640764469559 ], [ 5.731709687986599, 52.000832370177953 ], [ 5.731576401062701, 52.000693550945648 ], [ 5.724625761373007, 52.000614903296182 ], [ 5.724280364305999, 51.999681900650344 ], [ 5.724037747501288, 51.999626923019314 ], [ 5.722978393981914, 51.997039102133769 ], [ 5.717673059185467, 51.983700539819125 ], [ 5.718779182670604, 51.983175968446268 ], [ 5.719643509972011, 51.982421689965641 ], [ 5.721805230831736, 51.981526158035052 ], [ 5.721365257026132, 51.980828428029426 ], [ 5.72113542156612, 51.980711558619866 ], [ 5.721402048636998, 51.980415378710667 ], [ 5.717940077650572, 51.975428931800494 ], [ 5.718554930405262, 51.975206020282734 ], [ 5.718582650249842, 51.975059232873882 ], [ 5.721779514073981, 51.973899817720749 ], [ 5.720591402068337, 51.971443079729561 ], [ 5.720309398871811, 51.971439875350832 ], [ 5.72017241098976, 51.971265867961463 ], [ 5.720239928033006, 51.970109044113777 ], [ 5.719856840818271, 51.969288313928679 ], [ 5.72001597283408, 51.969253563934934 ], [ 5.720115179459488, 51.968903543329276 ], [ 5.719368065516485, 51.968596881550155 ], [ 5.717485803869016, 51.968416656441541 ], [ 5.717436473412116, 51.966997024821836 ], [ 5.72027074482292, 51.967278577881309 ], [ 5.720935005154698, 51.966992453671153 ], [ 5.722666315351817, 51.963971343002648 ], [ 5.717469973414024, 51.963138383196267 ], [ 5.715001962771378, 51.962996607841532 ], [ 5.710998391192964, 51.963036576496734 ], [ 5.702477165427907, 51.962104557988539 ], [ 5.681936979037951, 51.959060602065598 ], [ 5.679182423807958, 51.958388461902686 ], [ 5.676416986751276, 51.957412205869034 ], [ 5.674758015222464, 51.956652929104536 ], [ 5.670004602755387, 51.953851068281708 ], [ 5.668033635078998, 51.953098500691617 ], [ 5.666420174573711, 51.952747374152885 ], [ 5.662182524376852, 51.95254356317821 ], [ 5.659846577763378, 51.952737640954794 ], [ 5.653748024783266, 51.953811108508397 ], [ 5.652155129061114, 51.953894855899605 ], [ 5.64893572283909, 51.953901496931124 ], [ 5.646416116893045, 51.953235272719731 ], [ 5.644216705482666, 51.952205817565876 ], [ 5.64625143876035, 51.950685880968713 ], [ 5.647072318071404, 51.950714585562878 ], [ 5.649606715899625, 51.950152900649499 ], [ 5.649717012434851, 51.949991094354282 ], [ 5.647965026712128, 51.949310076147299 ], [ 5.646558251721608, 51.947479740702491 ], [ 5.645391571692559, 51.946613558425334 ], [ 5.645126129399256, 51.945188707315722 ], [ 5.645306723196208, 51.944643244620671 ], [ 5.645088981839693, 51.94417980369257 ], [ 5.644043687579928, 51.943040279157771 ], [ 5.643584694907317, 51.942856733092675 ], [ 5.64318796556585, 51.942172825022489 ], [ 5.642744331417711, 51.941784539812822 ], [ 5.642688283783395, 51.941504899181069 ], [ 5.641460074549876, 51.940473621937187 ], [ 5.64104709035927, 51.939694197987492 ], [ 5.640790552336635, 51.939527270041793 ], [ 5.641907900284899, 51.937655175636756 ], [ 5.63956951984196, 51.937116107750271 ], [ 5.637484995221575, 51.9367740016461 ], [ 5.637306783404895, 51.936906876460647 ], [ 5.636253265263244, 51.936594672211669 ], [ 5.634112648964092, 51.936308774676291 ], [ 5.631909935906556, 51.93642930556382 ], [ 5.630286031261587, 51.936309532605854 ], [ 5.628883911664146, 51.936578080861338 ], [ 5.628050145630833, 51.936920833340224 ], [ 5.625565279668549, 51.938422795921674 ], [ 5.622683366852258, 51.939690806941528 ], [ 5.619730073529262, 51.93997571437221 ], [ 5.618958881263973, 51.940406309825356 ], [ 5.618959981808753, 51.941227441673966 ], [ 5.610105982414502, 51.942134837133572 ], [ 5.605753374504613, 51.943063992312574 ], [ 5.601961950278688, 51.944532846069841 ], [ 5.597386587023689, 51.947006099212047 ], [ 5.594401848078749, 51.948401867252528 ], [ 5.59096312893522, 51.949679898455813 ], [ 5.58834200581783, 51.950349170983991 ], [ 5.575561063749724, 51.952727408796996 ], [ 5.56234096580343, 51.954229039350281 ], [ 5.558309216418528, 51.955173292446965 ], [ 5.554356547901909, 51.956563413560154 ], [ 5.551014869378085, 51.958185714526927 ], [ 5.549508407065757, 51.959111886958475 ], [ 5.548152793155729, 51.960060188610122 ], [ 5.545642802945146, 51.962181588009912 ], [ 5.542341858076145, 51.965778473681489 ], [ 5.541295165332992, 51.966557579732516 ], [ 5.538907107829494, 51.96773325126636 ], [ 5.53606616669562, 51.968503322699789 ], [ 5.516931666630935, 51.97184124897349 ], [ 5.51245559328148, 51.972984768637339 ], [ 5.50800326474007, 51.974822145953667 ], [ 5.500711267563256, 51.978500181369412 ], [ 5.491846104868567, 51.981760702691119 ], [ 5.488657029197367, 51.982739793089912 ], [ 5.485882111759282, 51.98319123236039 ], [ 5.486050140107299, 51.983734468196204 ], [ 5.48161864390467, 51.983793882090673 ], [ 5.477601459437101, 51.983395045387446 ], [ 5.477761429189496, 51.987738484307222 ], [ 5.478992374360229, 51.987505544074956 ], [ 5.479574776417471, 51.988156146058046 ], [ 5.479410281084942, 51.988377815488441 ], [ 5.480487069144715, 51.988831396251854 ], [ 5.480012802012586, 51.989096762391668 ], [ 5.480146175761726, 51.989317260783345 ], [ 5.47961357822344, 51.989587749430228 ], [ 5.479090487637579, 51.990109797039864 ], [ 5.4801474651209, 51.991096591480634 ], [ 5.479550440662913, 51.991647745859517 ], [ 5.479560905816612, 51.99179123782627 ], [ 5.47992430770541, 51.991893601524097 ], [ 5.483871341124779, 51.988352519758088 ], [ 5.484576049626345, 51.98788023856693 ], [ 5.48595983479871, 51.990761420708274 ], [ 5.485262284918042, 51.990870135635483 ], [ 5.485206143404688, 51.991013093581927 ], [ 5.488496444905731, 51.994297961446748 ], [ 5.488257733948295, 51.994352883086826 ], [ 5.488277572483129, 51.994543500466278 ], [ 5.490649453859133, 51.996747070515404 ], [ 5.492255134009047, 51.996616292967495 ], [ 5.493059110871346, 51.997209285590486 ], [ 5.49306683091398, 51.997426826387709 ], [ 5.493930792641857, 51.998277204895373 ], [ 5.493190005914024, 51.998840795396866 ], [ 5.49328413002957, 51.999247569975104 ], [ 5.492195040069863, 52.000618448534446 ], [ 5.492980002023756, 52.002690079041557 ], [ 5.496371029261657, 52.004226117967029 ], [ 5.498920935253409, 52.00516010761519 ], [ 5.507469813575951, 52.007779641889144 ], [ 5.506761250586226, 52.011007007779426 ], [ 5.518182538642409, 52.025842049635884 ], [ 5.518040133084924, 52.026013505232818 ], [ 5.518118095739943, 52.026289417154864 ], [ 5.520124719429536, 52.028841770552724 ], [ 5.520478102335521, 52.028836316362984 ], [ 5.529225979619015, 52.04020791253285 ], [ 5.528512935056325, 52.040605473946854 ], [ 5.526799588175039, 52.040954327088542 ], [ 5.525946200516265, 52.041283990712095 ], [ 5.517368996928446, 52.046666990202141 ], [ 5.517367487347118, 52.046837948351524 ], [ 5.516359164470444, 52.047694108182853 ], [ 5.515825931529817, 52.052514146666041 ], [ 5.514974031950045, 52.052608320320324 ], [ 5.515662591497489, 52.054175661978981 ], [ 5.513688970596601, 52.054893814391818 ], [ 5.507828124742742, 52.055576646196812 ], [ 5.499925441217346, 52.056781851348553 ], [ 5.497803438277505, 52.056956168302527 ], [ 5.496570767107033, 52.064564494737596 ], [ 5.496082081869754, 52.065899312190894 ], [ 5.496242260942958, 52.066523002704834 ], [ 5.495459160875949, 52.070784249952887 ], [ 5.495568909929666, 52.071405830711981 ], [ 5.495937104822536, 52.071632410028364 ], [ 5.494255371240864, 52.071826272177105 ], [ 5.490717122533521, 52.071312551736845 ], [ 5.487849196482157, 52.070154314359272 ], [ 5.485903799573079, 52.070164089077068 ], [ 5.484705865003618, 52.069573595307439 ], [ 5.484004393967303, 52.069533069102043 ], [ 5.481701858978932, 52.070369758257392 ], [ 5.479941844429945, 52.071286179579268 ], [ 5.477189150989376, 52.071918563845855 ], [ 5.476156441212813, 52.072616257779778 ], [ 5.473790480884452, 52.072956553784934 ], [ 5.470273424768322, 52.074853622456537 ], [ 5.467104412866497, 52.075477657972428 ], [ 5.466298084907533, 52.076136245235773 ], [ 5.466015760780466, 52.077692704554622 ], [ 5.465384784182539, 52.078342442748834 ], [ 5.464594600978352, 52.078659559524979 ], [ 5.461301433550778, 52.079215105846266 ], [ 5.459147515405012, 52.080195795655008 ], [ 5.460024188346443, 52.080983595486067 ], [ 5.459628745566742, 52.082090383520971 ], [ 5.463343393302996, 52.083539164732912 ], [ 5.464049825343818, 52.083178670258086 ], [ 5.46482837347238, 52.083781610609066 ] ] ], [ [ [ 4.458722320783786, 51.915502133101022 ], [ 4.458758533329324, 51.915763067151197 ], [ 4.45900037560595, 51.915749977379448 ], [ 4.458982157986942, 51.915427696317828 ], [ 4.458722320783786, 51.915502133101022 ] ] ] ] } }
]
}
