{
"type": "FeatureCollection",
"name": "SWVPO2803",
"crs": { "type": "name", "properties": { "name": "urn:ogc:def:crs:OGC:1.3:CRS84" } },
"features": [
{ "type": "Feature", "properties": { "PO SWV": "PO2803", "strokeColor": "#A9A9A9", "strokeWidth": 2, "fillColor": "#ADD8E6" }, "geometry": { "type": "Polygon", "coordinates": [ [ [ 4.04699873097962, 51.994760782130356 ], [ 4.047449878645616, 51.994844328379052 ], [ 4.048052225128986, 51.994376713882382 ], [ 4.053842065126042, 51.993146605942798 ], [ 4.095016086241602, 51.984703543871547 ], [ 4.096399475658052, 51.985219995936944 ], [ 4.102562575375042, 51.988441253160914 ], [ 4.108904548703248, 51.992202264247084 ], [ 4.11094305265847, 51.993321305706502 ], [ 4.112823286934298, 51.99413661943197 ], [ 4.115832204541916, 51.995963681127591 ], [ 4.119430794374658, 51.998336494384581 ], [ 4.122018163250591, 51.999817039938293 ], [ 4.126755467551673, 52.003196713097211 ], [ 4.127575765574718, 52.003581569715969 ], [ 4.1309356059347, 52.005761119950193 ], [ 4.138108362672311, 52.010748929288354 ], [ 4.143324883856569, 52.0150011957533 ], [ 4.141966713546019, 52.015645000162756 ], [ 4.141831858208159, 52.015823625532981 ], [ 4.141941058026833, 52.016101681893858 ], [ 4.14236913672348, 52.016067281243764 ], [ 4.143794868739253, 52.01541569305936 ], [ 4.146826061281271, 52.017700065955388 ], [ 4.145287393772593, 52.018361219721093 ], [ 4.145300696932362, 52.018601768773365 ], [ 4.14554205347553, 52.018626823729498 ], [ 4.147123985682279, 52.017938836812583 ], [ 4.150025241890146, 52.020407402449287 ], [ 4.148470498087161, 52.021124201029558 ], [ 4.148434019157307, 52.021419236813152 ], [ 4.148668176194044, 52.021444275312561 ], [ 4.150327668798729, 52.020658064699788 ], [ 4.151375585505771, 52.021852148998349 ], [ 4.151143631969463, 52.022141222482482 ], [ 4.151883947191477, 52.022206915619542 ], [ 4.152974876795252, 52.023208643073183 ], [ 4.151808070247482, 52.023755362832759 ], [ 4.151707517763412, 52.023904425910494 ], [ 4.151842355284786, 52.024103332163627 ], [ 4.153326207409455, 52.023510512903442 ], [ 4.15460280906979, 52.024568918062904 ], [ 4.154437994196424, 52.024717656650459 ], [ 4.154501372596314, 52.024886736126007 ], [ 4.155160187181579, 52.024797595337731 ], [ 4.156451452517879, 52.025797836904168 ], [ 4.154949695399805, 52.02646837433668 ], [ 4.154987401197366, 52.026810094926198 ], [ 4.156779061805771, 52.026102577109079 ], [ 4.161591891384924, 52.03030523654904 ], [ 4.162725241103677, 52.030951856761945 ], [ 4.166923271325492, 52.033958416864806 ], [ 4.170599759989831, 52.036905718557776 ], [ 4.171920444855363, 52.038298129710277 ], [ 4.173972251036158, 52.03983780998319 ], [ 4.175204174033997, 52.041689651895616 ], [ 4.175725209780358, 52.041710107789783 ], [ 4.175825425732383, 52.041205932547747 ], [ 4.176790329372354, 52.042097669840629 ], [ 4.177435518674686, 52.042234414654516 ], [ 4.177531988626357, 52.041877594646856 ], [ 4.177101330948694, 52.041278143741721 ], [ 4.178772400815214, 52.042453799185594 ], [ 4.179491293341606, 52.043378068797622 ], [ 4.179718281962595, 52.043964272112788 ], [ 4.178715508034617, 52.043977567878272 ], [ 4.177752017087928, 52.043388873231287 ], [ 4.177021579993835, 52.043522783102013 ], [ 4.177041590148454, 52.044560000194814 ], [ 4.177321766470467, 52.045909289646382 ], [ 4.178437619949297, 52.048495153962364 ], [ 4.181261300516994, 52.053306428571176 ], [ 4.182767923944905, 52.055312362134693 ], [ 4.183577437438671, 52.056040741536947 ], [ 4.18719187712925, 52.058275164605242 ], [ 4.190118057976801, 52.058899961326823 ], [ 4.193062193305741, 52.058966995886955 ], [ 4.1933067049369, 52.058745785889435 ], [ 4.193218766590109, 52.058524347876563 ], [ 4.191195152430273, 52.057287417474676 ], [ 4.188828790898334, 52.054880803733781 ], [ 4.187207495959974, 52.053749447035585 ], [ 4.186861611463168, 52.053275011963031 ], [ 4.18693805742799, 52.05264624127669 ], [ 4.188108543435185, 52.051890167342492 ], [ 4.189011820888171, 52.051631798470432 ], [ 4.189746604100566, 52.051694726216496 ], [ 4.191255117971918, 52.052378632673182 ], [ 4.191894257905747, 52.052474572233379 ], [ 4.196136493076772, 52.055819986901973 ], [ 4.199590688928795, 52.050854609549191 ], [ 4.199219039364683, 52.050658247930976 ], [ 4.198774141769615, 52.049941574197575 ], [ 4.20019524615885, 52.048382833327345 ], [ 4.201361924646233, 52.047746828431883 ], [ 4.202109813904205, 52.047046607754815 ], [ 4.212272817406718, 52.034105320404755 ], [ 4.209484585052629, 52.033651263196653 ], [ 4.212257304609672, 52.030617918955507 ], [ 4.213830686822685, 52.031695752328915 ], [ 4.215134135093412, 52.032045432802242 ], [ 4.217197298552419, 52.033020959273095 ], [ 4.219251280768183, 52.033639825266839 ], [ 4.22323968569554, 52.034296095184082 ], [ 4.227404784650119, 52.034566080815011 ], [ 4.228482044173722, 52.034427945461744 ], [ 4.235104207930969, 52.039056479848433 ], [ 4.243618083281267, 52.029303367545168 ], [ 4.244209563054393, 52.028779072432322 ], [ 4.244858420670963, 52.02858069716028 ], [ 4.248294563451132, 52.025074867967618 ], [ 4.258888286675802, 52.029855632962224 ], [ 4.25923538485208, 52.02950895137765 ], [ 4.262652116849472, 52.031051091241693 ], [ 4.262688147418631, 52.031192117846608 ], [ 4.262427992603659, 52.031442646483498 ], [ 4.266765366650921, 52.033370258976596 ], [ 4.267412930080475, 52.033024838961396 ], [ 4.267775938405736, 52.033162691630686 ], [ 4.272635039722236, 52.035790286488051 ], [ 4.275836733360865, 52.031476669916664 ], [ 4.276441482721427, 52.031570353759058 ], [ 4.27787480961265, 52.032269639649058 ], [ 4.281657129056248, 52.027346599254983 ], [ 4.282761281403793, 52.027509724546299 ], [ 4.28347709458887, 52.026600253813982 ], [ 4.285213886265533, 52.02729948173284 ], [ 4.285721138749193, 52.026607513604368 ], [ 4.284948248199562, 52.0263811533626 ], [ 4.284981578578549, 52.02619123604061 ], [ 4.28545627429274, 52.025918112655454 ], [ 4.285067150162479, 52.025554197115319 ], [ 4.288034383886809, 52.023774094480075 ], [ 4.286679042371948, 52.023068314453198 ], [ 4.286669155891619, 52.022908219355323 ], [ 4.29412500339686, 52.019353027175384 ], [ 4.294221349217249, 52.019184158105453 ], [ 4.292166444346374, 52.018423831132452 ], [ 4.291945464216322, 52.018570401579062 ], [ 4.289667887874486, 52.017720950080417 ], [ 4.289932036425755, 52.017430663768266 ], [ 4.295518554789718, 52.014748639944145 ], [ 4.298660884988011, 52.016787713769702 ], [ 4.30105612423462, 52.0177532010511 ], [ 4.302671597961746, 52.016388334509571 ], [ 4.305801109864199, 52.017610322857649 ], [ 4.30602001094144, 52.017477093057259 ], [ 4.307607161787035, 52.018034319775332 ], [ 4.309858720359005, 52.015542263142017 ], [ 4.302444432041861, 52.01236139558484 ], [ 4.302579731166109, 52.012191079770851 ], [ 4.30245493636613, 52.012044197535296 ], [ 4.298998468649144, 52.010501549117507 ], [ 4.298705946946876, 52.010655225068824 ], [ 4.292782588432778, 52.007847569046696 ], [ 4.291384740826988, 52.007386605005976 ], [ 4.281808771427888, 52.002948028554044 ], [ 4.273158589709023, 51.999158834850441 ], [ 4.272755143795901, 51.999335424762371 ], [ 4.261347062044865, 51.994379027560321 ], [ 4.260117454477934, 51.994090030520283 ], [ 4.258463501749397, 51.993986049036124 ], [ 4.257830282334464, 51.993129556851926 ], [ 4.257946439009815, 51.992666861119595 ], [ 4.265276138634243, 51.995931322746969 ], [ 4.267334362309821, 51.993641279770152 ], [ 4.267067915734639, 51.993365965616682 ], [ 4.267534572574655, 51.993200471195017 ], [ 4.268082865614947, 51.993484510462444 ], [ 4.269313308780196, 51.992697540194719 ], [ 4.269736548958978, 51.99299950267168 ], [ 4.271101639355718, 51.992364287215572 ], [ 4.271914678262882, 51.992989544455561 ], [ 4.273942310702786, 51.992115802599002 ], [ 4.280367208731472, 51.990436478441445 ], [ 4.280452923374573, 51.988596761439496 ], [ 4.280817055722633, 51.988520538781792 ], [ 4.281439649425178, 51.988019629167276 ], [ 4.28241327436398, 51.986915083981472 ], [ 4.282552137126761, 51.986569479334591 ], [ 4.282960764933652, 51.986475562860797 ], [ 4.283803800754313, 51.985935590432845 ], [ 4.284761487203895, 51.986303023157035 ], [ 4.287487512146336, 51.989102789003958 ], [ 4.288718430876687, 51.988919069474733 ], [ 4.290282587099266, 51.987440299131833 ], [ 4.291978338218236, 51.983082018098656 ], [ 4.295651832257723, 51.983694587590008 ], [ 4.29638538507476, 51.981891957930621 ], [ 4.298670915353531, 51.982230484374952 ], [ 4.29894037557385, 51.982114621703239 ], [ 4.299317777426391, 51.981204386166475 ], [ 4.300023645407748, 51.981032056230717 ], [ 4.301834867573479, 51.981298548637184 ], [ 4.302068325944055, 51.981192578377566 ], [ 4.302509151847659, 51.980528405486659 ], [ 4.303134927954042, 51.980459500964002 ], [ 4.302982912539713, 51.979978092937145 ], [ 4.298396527135854, 51.977609837939326 ], [ 4.297788302496995, 51.977467581960596 ], [ 4.295902112342515, 51.977554857893196 ], [ 4.287912724757263, 51.973641355549269 ], [ 4.287984450625244, 51.973475602196366 ], [ 4.287736047393319, 51.973334275553988 ], [ 4.289421646357798, 51.971941661468854 ], [ 4.289393052005086, 51.971780342546367 ], [ 4.285115091005951, 51.96979238721056 ], [ 4.284114706910247, 51.970510501611137 ], [ 4.282502700711075, 51.969763790584288 ], [ 4.29713859566253, 51.957576211172722 ], [ 4.299760444247939, 51.959610627271246 ], [ 4.312529543615816, 51.961379371371656 ], [ 4.316294706931584, 51.955399857404089 ], [ 4.317411980370718, 51.953055511852014 ], [ 4.32285246474416, 51.94360735351313 ], [ 4.32307796291478, 51.942825945537017 ], [ 4.322831250226309, 51.94279073402376 ], [ 4.317878953978177, 51.939064125881764 ], [ 4.315510308966587, 51.937696119095285 ], [ 4.314389707730826, 51.936404850070723 ], [ 4.31363669277099, 51.934972891821964 ], [ 4.307549188430892, 51.931231135518161 ], [ 4.292652394293259, 51.921384934437661 ], [ 4.281711024211493, 51.922792853486726 ], [ 4.280569344375631, 51.922959796533249 ], [ 4.280432533039765, 51.923114432613545 ], [ 4.279945361432767, 51.922950162194667 ], [ 4.27344700645935, 51.923659656227237 ], [ 4.27097113566173, 51.92357721487717 ], [ 4.265377014255348, 51.925690767410529 ], [ 4.265515437728012, 51.925861051173371 ], [ 4.26525550632948, 51.925995701995028 ], [ 4.264263700660909, 51.925644538182688 ], [ 4.263773804199785, 51.926178681853578 ], [ 4.259782615189289, 51.927884201868153 ], [ 4.260445951475009, 51.927870073881259 ], [ 4.260025145571317, 51.92818210145257 ], [ 4.260003610748061, 51.928774665171083 ], [ 4.258324556779072, 51.929741025260256 ], [ 4.257417356485266, 51.930456498724205 ], [ 4.256545994044307, 51.930047674876995 ], [ 4.252694886634959, 51.933182508718268 ], [ 4.252761555469998, 51.933374871477312 ], [ 4.252516647837071, 51.933325722585685 ], [ 4.241337816017772, 51.942275271936452 ], [ 4.239125162343826, 51.943720107214524 ], [ 4.237574428852757, 51.94400850551866 ], [ 4.235122444828365, 51.9439724993629 ], [ 4.231734121014826, 51.943092536760346 ], [ 4.230413573530792, 51.944649882431051 ], [ 4.22934192850202, 51.946608141823518 ], [ 4.228305811929264, 51.948090548960522 ], [ 4.219887446641041, 51.941604224635043 ], [ 4.219368459013666, 51.941458278530277 ], [ 4.212689513871001, 51.9338470724839 ], [ 4.209385936657491, 51.935200282613884 ], [ 4.191304148121337, 51.941843460088329 ], [ 4.177704444532026, 51.947546819247009 ], [ 4.169547050239596, 51.951400427316663 ], [ 4.134027398265854, 51.969366031172527 ], [ 4.125442224019526, 51.972993267916181 ], [ 4.116242915441346, 51.9760486044811 ], [ 4.101820463970983, 51.979857486604821 ], [ 4.085435868537025, 51.983596913325499 ], [ 4.045517715753648, 51.991971731677189 ], [ 4.047004993252881, 51.994298532942246 ], [ 4.046886418768107, 51.994583117760854 ], [ 4.04699873097962, 51.994760782130356 ] ] ] } }
]
}
