{
"type": "FeatureCollection",
"name": "SWVPO2810",
"crs": { "type": "name", "properties": { "name": "urn:ogc:def:crs:OGC:1.3:CRS84" } },
"features": [
{ "type": "Feature", "properties": { "PO SWV": "PO2810", "strokeColor": "#A9A9A9", "strokeWidth": 2, "fillColor": "#ADD8E6" }, "geometry": { "type": "Polygon", "coordinates": [ [ [ 4.625674889622598, 51.72046080038136 ], [ 4.623499327094247, 51.721417126651183 ], [ 4.627175705621016, 51.729875729040607 ], [ 4.628891179827077, 51.734211399231 ], [ 4.630466658910117, 51.739370205652136 ], [ 4.63102789082645, 51.741764731148564 ], [ 4.631472336345317, 51.744693266618711 ], [ 4.631494868055641, 51.747240102774811 ], [ 4.63125703121992, 51.749166331906324 ], [ 4.630641988428181, 51.75159646032931 ], [ 4.628149331482653, 51.757217400415087 ], [ 4.62701022401937, 51.760282473275112 ], [ 4.629220014187833, 51.760611402963839 ], [ 4.628587159506375, 51.763952765068268 ], [ 4.628601124632425, 51.766116119590755 ], [ 4.628881275284686, 51.767029431147144 ], [ 4.628951415003765, 51.767998438562657 ], [ 4.629558152056819, 51.769719806985066 ], [ 4.629383478627457, 51.771629834937194 ], [ 4.629146378367979, 51.771663602577469 ], [ 4.629084817930122, 51.77184886045675 ], [ 4.629948038767361, 51.776196155788149 ], [ 4.630123995583377, 51.778009292062166 ], [ 4.630081999227638, 51.780064030427653 ], [ 4.629801529128469, 51.782236073690719 ], [ 4.629255509910779, 51.783883890112101 ], [ 4.629282680716484, 51.784270961007643 ], [ 4.629510487810292, 51.784589833511937 ], [ 4.62676694172367, 51.784683444678116 ], [ 4.626009676966003, 51.786593228915301 ], [ 4.623757757962866, 51.790871349553058 ], [ 4.622369755902722, 51.794597664389109 ], [ 4.621129467807294, 51.800842620587282 ], [ 4.623291529044501, 51.800860080729358 ], [ 4.626024582516533, 51.80112144291067 ], [ 4.630140166385519, 51.801786307271406 ], [ 4.634879096705174, 51.802910517955951 ], [ 4.63829399663338, 51.804086648440013 ], [ 4.643056784526882, 51.806455833231617 ], [ 4.643289412919486, 51.806326602799182 ], [ 4.645635407812949, 51.807530004946109 ], [ 4.653144865977401, 51.813536786535934 ], [ 4.6560341817774, 51.815386850306538 ], [ 4.661850377515647, 51.818599276087859 ], [ 4.664969448794706, 51.819790405555665 ], [ 4.667350594364193, 51.820454293811906 ], [ 4.670426639878325, 51.820921417731839 ], [ 4.671715959531668, 51.820953711370279 ], [ 4.676911056041569, 51.820494277632946 ], [ 4.684618723693542, 51.820874609532346 ], [ 4.695362915647443, 51.822547033887069 ], [ 4.697696135165918, 51.822678499235955 ], [ 4.697547226073095, 51.824386932028467 ], [ 4.702675577930804, 51.824316017834022 ], [ 4.703432509607139, 51.824464989888028 ], [ 4.704064376011172, 51.824874093367654 ], [ 4.705476344751041, 51.825208062514569 ], [ 4.70581657073607, 51.823376854127638 ], [ 4.713862778352028, 51.823397195707614 ], [ 4.729642660392865, 51.822268668609951 ], [ 4.735947847182417, 51.822133465417963 ], [ 4.745063192272708, 51.822395330612288 ], [ 4.748974223709632, 51.822157062592282 ], [ 4.751913562944887, 51.821603365635646 ], [ 4.754650394419605, 51.820778171492044 ], [ 4.762154335513021, 51.817400787822379 ], [ 4.765062110165271, 51.816446493126158 ], [ 4.76795771425875, 51.815818173785097 ], [ 4.772096632283933, 51.815418979892058 ], [ 4.782540203700051, 51.815232646149568 ], [ 4.786793531652625, 51.815413189315308 ], [ 4.798010279645911, 51.817356025195785 ], [ 4.805235340973393, 51.818100973006388 ], [ 4.807973100452906, 51.818564651651286 ], [ 4.811314621726656, 51.818752597810743 ], [ 4.811421617969365, 51.818558365416607 ], [ 4.820117828851486, 51.818957907972276 ], [ 4.827363427328129, 51.818864892573551 ], [ 4.835079076269208, 51.819144997505937 ], [ 4.843481424261985, 51.819054958995139 ], [ 4.8712462710115, 51.817485619239193 ], [ 4.876747052408636, 51.817623538048515 ], [ 4.88327360573266, 51.818516478979937 ], [ 4.884499700377704, 51.81651350720886 ], [ 4.881975268541968, 51.815294856308711 ], [ 4.87600544937261, 51.811970074432139 ], [ 4.871308746960765, 51.80897644269789 ], [ 4.865761413432554, 51.805700073030287 ], [ 4.859628039575292, 51.802776415160963 ], [ 4.854384387364505, 51.80077906455373 ], [ 4.845968503032081, 51.798855917202566 ], [ 4.836105054945135, 51.797939214939284 ], [ 4.828879939193267, 51.798120452208956 ], [ 4.816384798502912, 51.799758957875568 ], [ 4.80688290269985, 51.800436027199751 ], [ 4.797188295817493, 51.799869793832364 ], [ 4.781783474598899, 51.796031955444569 ], [ 4.773501909818641, 51.793417195893333 ], [ 4.765381795623151, 51.789448582880986 ], [ 4.758347561527322, 51.784497912834532 ], [ 4.755167170873471, 51.781680281933596 ], [ 4.75048403617288, 51.775814435217612 ], [ 4.744703472348946, 51.763542277267661 ], [ 4.740700569933997, 51.758890835646014 ], [ 4.73657183883522, 51.755649231980527 ], [ 4.729392236650003, 51.750795173257274 ], [ 4.717234236117455, 51.743907290751302 ], [ 4.703702699899368, 51.737017806461587 ], [ 4.693226830495318, 51.732375025116227 ], [ 4.681557936218227, 51.728510531159834 ], [ 4.675185032062445, 51.72430442467035 ], [ 4.644578908717967, 51.719073380211356 ], [ 4.644416599016735, 51.718900641299477 ], [ 4.641513062790346, 51.723279843431506 ], [ 4.641239507262381, 51.723300114720949 ], [ 4.644117286689766, 51.718918018795769 ], [ 4.643814097706612, 51.718919404418699 ], [ 4.643768771765483, 51.718771999452862 ], [ 4.640814794404494, 51.723258559582355 ], [ 4.639773558025502, 51.72309059358868 ], [ 4.637345329815674, 51.722500579613303 ], [ 4.6371383060905, 51.72241467805096 ], [ 4.637310437524633, 51.722236957332363 ], [ 4.637196582737352, 51.722057900750769 ], [ 4.636891704982011, 51.722073745920397 ], [ 4.636782189851883, 51.722330316954952 ], [ 4.63513072840625, 51.721950985849482 ], [ 4.634995517078093, 51.72162883219093 ], [ 4.63451422978287, 51.721471906456919 ], [ 4.636939323066771, 51.717487816101837 ], [ 4.636401454679592, 51.717446194287128 ], [ 4.636345275490573, 51.717298197394733 ], [ 4.633854840290923, 51.72133480324058 ], [ 4.633332907307516, 51.721254187862222 ], [ 4.632795062878313, 51.721418672060999 ], [ 4.631286329375897, 51.721071751250442 ], [ 4.631407076728553, 51.720821776096209 ], [ 4.63131509452545, 51.720674292696913 ], [ 4.630942097217816, 51.720990142687093 ], [ 4.628428895851969, 51.720402593763581 ], [ 4.628547402036694, 51.720112654506075 ], [ 4.628234145705351, 51.720047309379424 ], [ 4.627928097039896, 51.720702436679865 ], [ 4.627564719170239, 51.723556473026257 ], [ 4.628624325444004, 51.725449954592086 ], [ 4.628069704561239, 51.725486088461729 ], [ 4.62742207256497, 51.724553160798109 ], [ 4.626845965257218, 51.723268762109662 ], [ 4.626580714543802, 51.722437018430739 ], [ 4.626527079413505, 51.72159815881114 ], [ 4.626515705104535, 51.720885499838346 ], [ 4.627498339565006, 51.720629138943714 ], [ 4.6278660131847, 51.719939343747399 ], [ 4.62664050341391, 51.719855693157392 ], [ 4.626053109006278, 51.720164399419332 ], [ 4.625877789388222, 51.720466292097797 ], [ 4.625674889622598, 51.72046080038136 ] ] ] } }
]
}
