{
"type": "FeatureCollection",
"name": "SWVPO2302",
"crs": { "type": "name", "properties": { "name": "urn:ogc:def:crs:OGC:1.3:CRS84" } },
"features": [
{ "type": "Feature", "properties": { "PO SWV": "PO2302", "strokeColor": "#A9A9A9", "strokeWidth": 2, "fillColor": "#ADD8E6" }, "geometry": { "type": "Polygon", "coordinates": [ [ [ 6.416459593611632, 52.242327042579007 ], [ 6.417923697365286, 52.243569094792356 ], [ 6.420692492742381, 52.245016743940468 ], [ 6.426180913970948, 52.248951595247284 ], [ 6.428457232810713, 52.248315884074891 ], [ 6.429322710339657, 52.249153334864644 ], [ 6.431603851192996, 52.250862518434445 ], [ 6.429559486046697, 52.251423513693744 ], [ 6.429475737507443, 52.251562104302778 ], [ 6.429636782566374, 52.251785849459864 ], [ 6.435665281659207, 52.253744918597562 ], [ 6.435822109610383, 52.253651664961701 ], [ 6.4364751032238, 52.253848505076277 ], [ 6.436715374139656, 52.254146430140523 ], [ 6.438996337224435, 52.25482005332497 ], [ 6.441453419783768, 52.256690068824888 ], [ 6.447777645843061, 52.257938263340428 ], [ 6.448934783626969, 52.258546478139287 ], [ 6.461758097185005, 52.263495507383929 ], [ 6.466284659019983, 52.265483800043008 ], [ 6.470909963601224, 52.26775254858012 ], [ 6.471171042747665, 52.269389800658857 ], [ 6.475524821373875, 52.271375713525956 ], [ 6.476757941678887, 52.271692308008085 ], [ 6.477133210578653, 52.272017534734779 ], [ 6.477617339431812, 52.271960829276892 ], [ 6.478072068961595, 52.272270094163886 ], [ 6.479839729627186, 52.272876730990298 ], [ 6.480074308449552, 52.272701148905938 ], [ 6.480771049045138, 52.272923903909856 ], [ 6.480806831130228, 52.273160422729212 ], [ 6.481788856204961, 52.273344471717522 ], [ 6.485228444791156, 52.274701478144351 ], [ 6.489732215524443, 52.275660549480172 ], [ 6.49000288002416, 52.276010900460399 ], [ 6.504439967439532, 52.279734474020579 ], [ 6.504633835871545, 52.279639508539141 ], [ 6.507167134253579, 52.280044928552734 ], [ 6.50837123469227, 52.280805211044708 ], [ 6.510067310300894, 52.279234336094021 ], [ 6.509967420512406, 52.278944866489837 ], [ 6.514818407017095, 52.279226736911653 ], [ 6.515674777329206, 52.282276388724867 ], [ 6.517245873669538, 52.283146221090874 ], [ 6.518397338039009, 52.282919727918532 ], [ 6.520284487455454, 52.283062697031511 ], [ 6.521952146102687, 52.283485066584348 ], [ 6.523536626463092, 52.283399931136088 ], [ 6.525816456789434, 52.28359888779206 ], [ 6.529316720258527, 52.283391368241389 ], [ 6.532839953024395, 52.282937976016363 ], [ 6.534890990278295, 52.283091692869128 ], [ 6.535816119411336, 52.282803945052493 ], [ 6.541568600684475, 52.282783006372149 ], [ 6.541650701194937, 52.282378034173391 ], [ 6.551986149178241, 52.283369211107711 ], [ 6.554033022584568, 52.283409944189984 ], [ 6.562295990579096, 52.27445984131127 ], [ 6.564448249015605, 52.272492425941913 ], [ 6.56822349718952, 52.270241249924197 ], [ 6.57525438381334, 52.269229428092366 ], [ 6.575379099881847, 52.269416104210663 ], [ 6.580684631468277, 52.269617893680582 ], [ 6.583502570984999, 52.270147413715982 ], [ 6.595138996535373, 52.271298106306126 ], [ 6.605326696754124, 52.270790802585871 ], [ 6.625964259111661, 52.289993025036942 ], [ 6.627132077829809, 52.292335433601814 ], [ 6.629764550175738, 52.291766512510684 ], [ 6.636316443279815, 52.293098321483789 ], [ 6.637940945373895, 52.293749279214666 ], [ 6.638835382575232, 52.293884306021873 ], [ 6.639053003919916, 52.29291986230885 ], [ 6.639518156579761, 52.292092037651933 ], [ 6.64075050928819, 52.292115265530057 ], [ 6.64157145809077, 52.291851837195367 ], [ 6.642255584965717, 52.292623222258548 ], [ 6.647442307496764, 52.293808477406031 ], [ 6.650995957623738, 52.294317826133387 ], [ 6.65238195741862, 52.294008178174508 ], [ 6.657454840043125, 52.294944938592941 ], [ 6.658032237890361, 52.295981009329928 ], [ 6.660982265236599, 52.296673562650483 ], [ 6.667863957051026, 52.29894803496817 ], [ 6.674990922615137, 52.30207347782234 ], [ 6.675308847062604, 52.301882111745634 ], [ 6.675310156834395, 52.302184781610507 ], [ 6.679978485898284, 52.30432842510379 ], [ 6.682313532214581, 52.30557606011417 ], [ 6.682335831432412, 52.305760675349184 ], [ 6.683597476237129, 52.306296890490337 ], [ 6.684761233422906, 52.306729833046816 ], [ 6.685136854217525, 52.306585340919419 ], [ 6.685526737341812, 52.306902635214186 ], [ 6.686867184466461, 52.307418056609379 ], [ 6.687147443959805, 52.307331079637997 ], [ 6.688048557598028, 52.307843975163614 ], [ 6.690703961250022, 52.308455613010004 ], [ 6.689383396558116, 52.309568318324857 ], [ 6.690586719919618, 52.31058262234351 ], [ 6.690603261759065, 52.311516860333924 ], [ 6.690982002594892, 52.311580300240095 ], [ 6.690638314235073, 52.312476893343963 ], [ 6.689944362837214, 52.313029745066828 ], [ 6.692046778851982, 52.313961339658846 ], [ 6.690115720327761, 52.314640100098622 ], [ 6.690165174288423, 52.314869022604178 ], [ 6.691849871413666, 52.314988325791703 ], [ 6.694760259181349, 52.314852403314745 ], [ 6.694841061183614, 52.315090159291636 ], [ 6.705715923054966, 52.318011911422765 ], [ 6.704259901399301, 52.319770595025126 ], [ 6.70675060376562, 52.320990180022029 ], [ 6.694978639821022, 52.32679692686046 ], [ 6.696800439535497, 52.329917379172713 ], [ 6.706836863754901, 52.332358664815203 ], [ 6.709386435527171, 52.330757341787262 ], [ 6.709616886863996, 52.330814145508029 ], [ 6.712107248179414, 52.333322661913655 ], [ 6.713378394519012, 52.334279158214152 ], [ 6.714978057949841, 52.336263944930423 ], [ 6.715544559878823, 52.336660543759905 ], [ 6.718630512195251, 52.338078517498118 ], [ 6.720917313749153, 52.34017968023069 ], [ 6.721055540896535, 52.34101739373066 ], [ 6.72076986123054, 52.341142312273689 ], [ 6.720812201492872, 52.341301772720172 ], [ 6.734532293778154, 52.339448446462697 ], [ 6.743738345222636, 52.336194006463494 ], [ 6.745484618192432, 52.334790075284459 ], [ 6.750015785944761, 52.330163774886095 ], [ 6.750700198431363, 52.329768672905367 ], [ 6.753747965282467, 52.330142040459208 ], [ 6.75900828111519, 52.332156865482915 ], [ 6.75944724125525, 52.331996559504034 ], [ 6.759914823793572, 52.332688507280473 ], [ 6.759624644391156, 52.333693792297055 ], [ 6.759087555608328, 52.334182993189501 ], [ 6.759459117298635, 52.339008728702701 ], [ 6.760508117578499, 52.342015132773454 ], [ 6.76260272886791, 52.343531965387982 ], [ 6.773931060605952, 52.346653940089411 ], [ 6.778242441404421, 52.350275372648348 ], [ 6.783365252072806, 52.36021239652046 ], [ 6.793739800106026, 52.361011603557472 ], [ 6.806815510648603, 52.362316177916654 ], [ 6.817687651884038, 52.365197408722715 ], [ 6.83580083462381, 52.362724391039009 ], [ 6.840929675107712, 52.362453202778163 ], [ 6.851798146805527, 52.362268261959684 ], [ 6.853925179950564, 52.361224414647779 ], [ 6.855099273948465, 52.361462991969724 ], [ 6.855666995202065, 52.360393671155499 ], [ 6.863483665317407, 52.363796141478097 ], [ 6.863357250190169, 52.369723878297769 ], [ 6.863078808813619, 52.372791278993319 ], [ 6.863514556479772, 52.38803575350876 ], [ 6.862241637114717, 52.407750228429805 ], [ 6.856539492564206, 52.41036597737174 ], [ 6.851398543136066, 52.414555429503679 ], [ 6.853344370778212, 52.427137007672464 ], [ 6.870454951740922, 52.429588063074306 ], [ 6.891390544852236, 52.432089283004885 ], [ 6.897111674853446, 52.432915333505463 ], [ 6.904711207866815, 52.433258110239656 ], [ 6.904792140575793, 52.432943034860756 ], [ 6.909034779929571, 52.432815280672102 ], [ 6.91029012354097, 52.432965776719335 ], [ 6.91237400524712, 52.433654387760662 ], [ 6.924275153033396, 52.434230384184211 ], [ 6.928524274423987, 52.434248355598605 ], [ 6.938780114170194, 52.43282245633479 ], [ 6.949060952208336, 52.432962926597114 ], [ 6.947224047982816, 52.436686025998455 ], [ 6.961020586127446, 52.444079502676949 ], [ 6.961768335356187, 52.443743121483678 ], [ 6.962041070220502, 52.443986022198551 ], [ 6.961876626535873, 52.444688417116183 ], [ 6.96685771197884, 52.44998226837042 ], [ 6.970515362170773, 52.455332319334588 ], [ 6.974345905528316, 52.459760342557551 ], [ 6.975951201718469, 52.462873236903562 ], [ 6.975908389315834, 52.463090885808725 ], [ 6.976135307881851, 52.463237466925932 ], [ 6.977462651787709, 52.465751068628983 ], [ 6.987605115402519, 52.469865143682483 ], [ 6.991858320750923, 52.467456696578736 ], [ 6.993991994732884, 52.465538227856932 ], [ 6.994666905186527, 52.462171992004201 ], [ 7.000111889479113, 52.454761323087773 ], [ 7.005210808960633, 52.445278131538338 ], [ 7.01086448043891, 52.429214542232074 ], [ 7.022061465685455, 52.423053828163759 ], [ 7.028081355898646, 52.41378709316259 ], [ 7.032645457460122, 52.407311590458171 ], [ 7.033539446151175, 52.406514211030483 ], [ 7.034885602910264, 52.403766340249774 ], [ 7.036121232017656, 52.402751166469471 ], [ 7.038697826543848, 52.40280094909788 ], [ 7.041551068839434, 52.402638148804215 ], [ 7.046725689721354, 52.400935634105885 ], [ 7.050806375431717, 52.400810388688683 ], [ 7.051689940003911, 52.400040037103224 ], [ 7.053730225045174, 52.400782561531848 ], [ 7.055336954056789, 52.401132082828383 ], [ 7.056019181191649, 52.400665836852554 ], [ 7.058793771694208, 52.399485746848462 ], [ 7.059193945117496, 52.397109407979507 ], [ 7.059075935716713, 52.39642090411602 ], [ 7.058741286830198, 52.396137044341963 ], [ 7.064106803321445, 52.390380360141258 ], [ 7.072252083370485, 52.373627897999114 ], [ 7.072357702538328, 52.36803047377952 ], [ 7.072863200386394, 52.366808749181196 ], [ 7.072150184502154, 52.356518335238164 ], [ 7.072340786817302, 52.351827123211358 ], [ 7.056336000241032, 52.337913264916985 ], [ 7.056242670746871, 52.33492481842076 ], [ 7.055021429205107, 52.333148970846807 ], [ 7.055060725426694, 52.332767360607171 ], [ 7.055574644377301, 52.332111389486649 ], [ 7.054660037108503, 52.331333354740003 ], [ 7.05220268619289, 52.328622449302848 ], [ 7.048100355109677, 52.324864540020322 ], [ 7.047269856623767, 52.32369936581528 ], [ 7.047056246559485, 52.322834245710979 ], [ 7.047330050719137, 52.321335813841721 ], [ 7.048207938072101, 52.319928385918757 ], [ 7.047762706513446, 52.319469299836399 ], [ 7.047561717410242, 52.318393078070521 ], [ 7.04608488852858, 52.316641117716799 ], [ 7.046434028068141, 52.316688928281039 ], [ 7.047506997840713, 52.31515585966212 ], [ 7.047140221837623, 52.314874960950696 ], [ 7.04345097023577, 52.313821081537824 ], [ 7.043603861992101, 52.3133772125612 ], [ 7.038990293351333, 52.312346198526001 ], [ 7.041411442540695, 52.31115972595174 ], [ 7.040624928653622, 52.310171863520132 ], [ 7.039577480182909, 52.307573403893784 ], [ 7.033912441914783, 52.302438044523235 ], [ 7.026552064512535, 52.29193431055203 ], [ 7.026340436652705, 52.287349232093575 ], [ 7.029646499730409, 52.281540287115128 ], [ 7.029701487255534, 52.280130675212092 ], [ 7.028872066125826, 52.279309907796573 ], [ 7.028059973281877, 52.278863138334117 ], [ 7.027625444256187, 52.277974591710667 ], [ 7.028672190107343, 52.273684767230399 ], [ 7.032140382597865, 52.271727000706115 ], [ 7.042466369997024, 52.256216946674151 ], [ 7.065865876045044, 52.241299583141412 ], [ 7.061360086074748, 52.234646710623551 ], [ 7.039116615252187, 52.227476780369031 ], [ 7.026412243731695, 52.225615501044288 ], [ 7.020485156866982, 52.225837513185908 ], [ 7.019762754135959, 52.225233541730518 ], [ 7.019162464432379, 52.224952242080434 ], [ 7.017664678606423, 52.225677980626664 ], [ 7.014691771222314, 52.226376885935863 ], [ 7.01307704493699, 52.22722776629125 ], [ 7.012576696386532, 52.227025760658343 ], [ 7.012748237770313, 52.22683529197149 ], [ 7.012684545251157, 52.226711378230327 ], [ 7.01176980192676, 52.226784648546769 ], [ 7.011168206054569, 52.227497646019486 ], [ 7.003481397291623, 52.228488260490508 ], [ 6.997010157001463, 52.226959906786433 ], [ 6.994570723052014, 52.226868530518978 ], [ 6.992155941834396, 52.227153383376617 ], [ 6.989972271303255, 52.226905212056288 ], [ 6.989186896124042, 52.226755448570437 ], [ 6.988916780746317, 52.226218984498928 ], [ 6.988039572085071, 52.225948971526165 ], [ 6.987150452464703, 52.225346031608055 ], [ 6.985734247234501, 52.225099027864623 ], [ 6.985357069218844, 52.225225452684256 ], [ 6.985069375925884, 52.224944129669488 ], [ 6.985165461326834, 52.224556751086183 ], [ 6.985570903067122, 52.224169704197834 ], [ 6.985604600378161, 52.223752271171314 ], [ 6.985423864518608, 52.223407520030982 ], [ 6.984515634971754, 52.223109570525388 ], [ 6.984452907998916, 52.222753613503215 ], [ 6.982752781222153, 52.222242347279959 ], [ 6.981364787058525, 52.221127234519493 ], [ 6.980683491691426, 52.219308700128195 ], [ 6.97981171016474, 52.218183468446988 ], [ 6.980097610695411, 52.217889475084483 ], [ 6.979672363813333, 52.216840130548846 ], [ 6.979577842838328, 52.215984097453735 ], [ 6.979792447155783, 52.214653736043815 ], [ 6.97961395210704, 52.214175940729127 ], [ 6.97908597589221, 52.213373090783648 ], [ 6.978539014053792, 52.212087290049944 ], [ 6.976387651765997, 52.210119492318356 ], [ 6.976099884450435, 52.209517336630888 ], [ 6.976171723853787, 52.209365478766976 ], [ 6.974779327346862, 52.206895966606375 ], [ 6.974915455132648, 52.20674389555667 ], [ 6.974163441935466, 52.205340943196049 ], [ 6.973331640957865, 52.204574139386537 ], [ 6.97097941430524, 52.202910653975337 ], [ 6.970434573656821, 52.201913811221942 ], [ 6.969471917608448, 52.200872404035422 ], [ 6.967381494065105, 52.198048064402577 ], [ 6.967463976801862, 52.197819756664622 ], [ 6.964757686598632, 52.196167515222264 ], [ 6.964215282662233, 52.195299769984153 ], [ 6.962484965998931, 52.194238472075071 ], [ 6.962233297946558, 52.192266563005965 ], [ 6.962578292246947, 52.191369571362934 ], [ 6.962094173837671, 52.190822166819174 ], [ 6.95745861316929, 52.186960694357424 ], [ 6.956516989677995, 52.185489925951735 ], [ 6.954652892198571, 52.184097828577485 ], [ 6.954796292794568, 52.18388210436148 ], [ 6.951309534093835, 52.180981234966715 ], [ 6.950398309098673, 52.181026491899324 ], [ 6.949514279531479, 52.180404999021277 ], [ 6.937902275403284, 52.179368617289107 ], [ 6.936301851816737, 52.1786505524422 ], [ 6.933753517535795, 52.178348988967585 ], [ 6.915638843161605, 52.17751442847154 ], [ 6.911869367602812, 52.17704628244325 ], [ 6.90816741155791, 52.175887986603762 ], [ 6.9081749719866, 52.175393017604371 ], [ 6.906804506070896, 52.17498630513299 ], [ 6.905934112306197, 52.173758854324184 ], [ 6.906058341941171, 52.172653229583354 ], [ 6.905695034692797, 52.172170074265139 ], [ 6.905976428517461, 52.171513008207164 ], [ 6.905689171065601, 52.170649345557877 ], [ 6.905994095262043, 52.170068155993526 ], [ 6.905779089148997, 52.169834518059346 ], [ 6.90088234521958, 52.166969777323757 ], [ 6.896708065272414, 52.16488590472408 ], [ 6.880831939511559, 52.156101344331901 ], [ 6.882060143164561, 52.155970458829756 ], [ 6.873396283423884, 52.132942701795379 ], [ 6.873138367959156, 52.131941118075332 ], [ 6.873630881530043, 52.130673514624121 ], [ 6.873529528108362, 52.130213274346907 ], [ 6.871937833599007, 52.129908526595166 ], [ 6.871105620554959, 52.129439845827505 ], [ 6.870908851898589, 52.129076254217445 ], [ 6.8671326191839, 52.127980056384516 ], [ 6.862958437086569, 52.124971072904103 ], [ 6.85549310728149, 52.120363946927526 ], [ 6.843203515336154, 52.119097197646475 ], [ 6.822713665220114, 52.118304316131592 ], [ 6.760658934389467, 52.118679456215446 ], [ 6.760571519831479, 52.118879931254789 ], [ 6.739505163005168, 52.118656413555641 ], [ 6.739395789061464, 52.118203401301955 ], [ 6.737911203364734, 52.118171393963969 ], [ 6.73780150451373, 52.118297683543233 ], [ 6.730735898933699, 52.118517527217953 ], [ 6.7162927906386, 52.118370490345839 ], [ 6.713992426062308, 52.11935880524954 ], [ 6.711529552117709, 52.119740975364905 ], [ 6.707552318430697, 52.120876095342169 ], [ 6.703199913946211, 52.122339697238694 ], [ 6.697833748018748, 52.123650814969857 ], [ 6.677709971183777, 52.126057348876991 ], [ 6.662600540752179, 52.130215645839968 ], [ 6.667964311146716, 52.13585074182491 ], [ 6.668865725908629, 52.137032290582155 ], [ 6.670668502627633, 52.138152697223461 ], [ 6.671919818704779, 52.138673320779176 ], [ 6.672672756582732, 52.139229765962 ], [ 6.673974678307578, 52.141172604405931 ], [ 6.674494742746555, 52.142778297692132 ], [ 6.67384374404056, 52.148316233994358 ], [ 6.671528294285941, 52.150397886048758 ], [ 6.672805909064799, 52.150442375928506 ], [ 6.673912356042909, 52.152066781442159 ], [ 6.673063145076225, 52.152487346492812 ], [ 6.673030272808187, 52.152957313988288 ], [ 6.672562253752789, 52.153096033363944 ], [ 6.672932524258785, 52.154001473274178 ], [ 6.673366824356122, 52.154416550822383 ], [ 6.673171527033797, 52.154682233763225 ], [ 6.673566608406848, 52.154993954110985 ], [ 6.672594207574471, 52.15565846008645 ], [ 6.670692835861966, 52.155898810160444 ], [ 6.670496894908195, 52.156324203340013 ], [ 6.670855440182257, 52.156109749510158 ], [ 6.671388482871688, 52.156190003291599 ], [ 6.671390776349905, 52.156625220149749 ], [ 6.671685251708388, 52.157113161705105 ], [ 6.672807917536083, 52.158006421437804 ], [ 6.672854121228784, 52.158196795605313 ], [ 6.674371301866368, 52.158496830434217 ], [ 6.674354713590085, 52.158679640749305 ], [ 6.673943469525235, 52.158924458634239 ], [ 6.673724247802495, 52.159916715803938 ], [ 6.673264616760894, 52.160152854406512 ], [ 6.673672267210412, 52.160510077362744 ], [ 6.673691259926996, 52.16080869229161 ], [ 6.674142847065413, 52.161130924284322 ], [ 6.674151438661339, 52.161318191762525 ], [ 6.673415800731025, 52.161575809489733 ], [ 6.673087581051933, 52.161299601658122 ], [ 6.67290329450157, 52.161396960957212 ], [ 6.673489333773647, 52.163278935905325 ], [ 6.671375694507494, 52.165776183526724 ], [ 6.666891575499495, 52.166579721663851 ], [ 6.665243173925669, 52.167032091850743 ], [ 6.665628617984236, 52.167362689251618 ], [ 6.664625129765612, 52.168021945264584 ], [ 6.645070149040304, 52.174289821635298 ], [ 6.641765989146837, 52.170431934727652 ], [ 6.640242119870551, 52.167573506614985 ], [ 6.634914748049197, 52.172249391169579 ], [ 6.631221060923865, 52.173182068888721 ], [ 6.630714104241518, 52.173426847390658 ], [ 6.630526059771962, 52.173697683053717 ], [ 6.630227647870492, 52.173522971137011 ], [ 6.630400790421036, 52.172914093507714 ], [ 6.629070974613944, 52.172138306170091 ], [ 6.627415084462798, 52.17249442635859 ], [ 6.627040223133766, 52.172283086282299 ], [ 6.626751291182294, 52.172312372776275 ], [ 6.625845423056863, 52.172599091284539 ], [ 6.625090605096965, 52.17217946528622 ], [ 6.625109893146893, 52.172012397484124 ], [ 6.626454497936344, 52.171445377458227 ], [ 6.626236995721738, 52.170662261558768 ], [ 6.625700037711225, 52.169977153079245 ], [ 6.62579331616714, 52.169533951791884 ], [ 6.624940844881761, 52.169094168639162 ], [ 6.624866966073384, 52.168731893942962 ], [ 6.623609507933862, 52.168387731413475 ], [ 6.621649042243823, 52.168507280142222 ], [ 6.617158975892232, 52.165281551457028 ], [ 6.615456439065537, 52.164553442894928 ], [ 6.614846369890757, 52.164400312922879 ], [ 6.614679373290018, 52.164554092520163 ], [ 6.614039511777061, 52.164306525352927 ], [ 6.612150597985147, 52.163280982060918 ], [ 6.611288475977627, 52.163945570036866 ], [ 6.610702815391191, 52.164134374371301 ], [ 6.609296377069029, 52.165239843315341 ], [ 6.60738025891531, 52.164733340551656 ], [ 6.605544260552593, 52.16620224768311 ], [ 6.605059571293211, 52.166243597455114 ], [ 6.605138594357795, 52.166714299618377 ], [ 6.603059812571336, 52.169011430254209 ], [ 6.603525124859709, 52.169198571701529 ], [ 6.603099919129279, 52.169675590216002 ], [ 6.603268082285783, 52.17062941455373 ], [ 6.603558469998399, 52.170564766543421 ], [ 6.60383780919588, 52.170754555033724 ], [ 6.604357781707506, 52.171271725404061 ], [ 6.60431578862532, 52.171441285063153 ], [ 6.60473117114395, 52.171695772465334 ], [ 6.606269010819641, 52.172290345009721 ], [ 6.606391407091095, 52.173158800078376 ], [ 6.598790673524935, 52.177978131229011 ], [ 6.596170769586493, 52.179918379184436 ], [ 6.595405996964641, 52.180047157196654 ], [ 6.594250769448904, 52.180534063504979 ], [ 6.593647571041761, 52.180477117380185 ], [ 6.593511875546991, 52.180872399906043 ], [ 6.592194716717227, 52.181786700101576 ], [ 6.591356097623337, 52.181843287753033 ], [ 6.591646482643875, 52.181925190423293 ], [ 6.591665143873964, 52.18206406494317 ], [ 6.59042871789906, 52.182562585103788 ], [ 6.589939425371368, 52.182586811353616 ], [ 6.589472287651688, 52.182313920653314 ], [ 6.588459633818904, 52.182278281075824 ], [ 6.574642257954313, 52.179876608383495 ], [ 6.555344705062581, 52.177356291471312 ], [ 6.530236596749238, 52.180032616700494 ], [ 6.524368090670496, 52.180401017264195 ], [ 6.522395668111615, 52.180823202183554 ], [ 6.517896883015529, 52.181184912623884 ], [ 6.51768952767153, 52.181367360467256 ], [ 6.514159436818429, 52.181411272699982 ], [ 6.511586208266559, 52.181012688218324 ], [ 6.50451465780731, 52.179488673333012 ], [ 6.496011023394705, 52.177273299186304 ], [ 6.49331032559545, 52.177285284565635 ], [ 6.492504283889199, 52.17745717582639 ], [ 6.492504762221366, 52.178124413003545 ], [ 6.490682598870893, 52.17995640469033 ], [ 6.488486672829133, 52.180669159583303 ], [ 6.486406180558215, 52.180533244775759 ], [ 6.484893057474584, 52.181445645237673 ], [ 6.483275983891409, 52.18181760632568 ], [ 6.479221170727222, 52.182365024906588 ], [ 6.477624504753853, 52.185263155776177 ], [ 6.474284450236922, 52.187772907381145 ], [ 6.47304780623983, 52.188388114850447 ], [ 6.472322182326581, 52.190007129001081 ], [ 6.471241280090267, 52.191112722810445 ], [ 6.470080371465387, 52.192751252192458 ], [ 6.469424092067876, 52.1944529866417 ], [ 6.469795504211159, 52.195148318028721 ], [ 6.469627548605891, 52.195634315051606 ], [ 6.469865508553736, 52.196800997563059 ], [ 6.469571351261513, 52.198333028442988 ], [ 6.470337550829821, 52.199096759914603 ], [ 6.470352040905748, 52.199454553237857 ], [ 6.468864917193205, 52.199830618337003 ], [ 6.468651814478127, 52.200227817298682 ], [ 6.467485237368049, 52.200509504041058 ], [ 6.46622024895734, 52.200299186851666 ], [ 6.46517476367277, 52.200657652384997 ], [ 6.463056199641205, 52.200851074955409 ], [ 6.462432917512309, 52.200803658659787 ], [ 6.462075436837621, 52.200492860739281 ], [ 6.460755303860876, 52.200503502194955 ], [ 6.458456696872971, 52.201021994312931 ], [ 6.457065489377781, 52.201156025593193 ], [ 6.456599536641505, 52.20159660282755 ], [ 6.454905836867809, 52.202489870114647 ], [ 6.454358868110136, 52.203438478090128 ], [ 6.453504782183157, 52.204342493530895 ], [ 6.453809245434345, 52.205298816786438 ], [ 6.453286325831129, 52.206315936779724 ], [ 6.451246719874549, 52.20771498094927 ], [ 6.450754645331273, 52.208258326647019 ], [ 6.449954818723628, 52.209759984591578 ], [ 6.449283715693255, 52.210008291447664 ], [ 6.448986290411005, 52.21076351856879 ], [ 6.448046383753635, 52.211357695403962 ], [ 6.446536358971903, 52.212778307427705 ], [ 6.445694486796709, 52.213115737920674 ], [ 6.443722327127463, 52.214689085108084 ], [ 6.44186537751026, 52.21575667883846 ], [ 6.440541363003998, 52.216201662671899 ], [ 6.440114682957216, 52.217047704883285 ], [ 6.439639314173856, 52.217441395871191 ], [ 6.438321950000422, 52.218088079222497 ], [ 6.437771526897657, 52.218155860793466 ], [ 6.436635441094383, 52.218898607971205 ], [ 6.431999816470687, 52.221019976829865 ], [ 6.428677228405279, 52.223799722667088 ], [ 6.428243684793711, 52.224270822280324 ], [ 6.427575468867129, 52.225521640417135 ], [ 6.425917142904006, 52.227414668459957 ], [ 6.42486883445008, 52.229765184144092 ], [ 6.42321224813238, 52.232075365428237 ], [ 6.416892891646352, 52.23718381978513 ], [ 6.416685165128174, 52.238002577068286 ], [ 6.416413330251999, 52.238188229573261 ], [ 6.416739685959918, 52.24213303278777 ], [ 6.41637256228913, 52.242255047613391 ], [ 6.416459593611632, 52.242327042579007 ] ] ] } }
]
}
