{
"type": "FeatureCollection",
"name": "SWVPO2704",
"crs": { "type": "name", "properties": { "name": "urn:ogc:def:crs:OGC:1.3:CRS84" } },
"features": [
{ "type": "Feature", "properties": { "PO SWV": "PO2704", "strokeColor": "#A9A9A9", "strokeWidth": 2, "fillColor": "#ADD8E6" }, "geometry": { "type": "Polygon", "coordinates": [ [ [ 4.508289951493877, 52.349925166686219 ], [ 4.510773947439881, 52.353973840607424 ], [ 4.512451342725997, 52.356232446908962 ], [ 4.51569230059139, 52.361560392915891 ], [ 4.52054270524128, 52.368769777937132 ], [ 4.522373140109591, 52.371880230939567 ], [ 4.532470168312323, 52.386971317625715 ], [ 4.536036312146389, 52.39298564613609 ], [ 4.551044659332117, 52.416016309118874 ], [ 4.55169207836312, 52.417575325693484 ], [ 4.55264997740818, 52.418861053146522 ], [ 4.553115793964248, 52.420011190848385 ], [ 4.554616172132279, 52.422444867914272 ], [ 4.554890341486896, 52.423271976326234 ], [ 4.556158335588231, 52.425534654702354 ], [ 4.557356761149876, 52.428807117191148 ], [ 4.55834259447941, 52.432533417765654 ], [ 4.560348516885692, 52.438039317310832 ], [ 4.56042977690235, 52.43790665190955 ], [ 4.587801440430749, 52.434338378407389 ], [ 4.611232503611436, 52.427091816538841 ], [ 4.610327978745816, 52.42670544017453 ], [ 4.611895434333954, 52.426644678482411 ], [ 4.6116530752024, 52.426077030408671 ], [ 4.61196759780603, 52.425573630224413 ], [ 4.613474641940413, 52.426158196029988 ], [ 4.614022970708623, 52.426190137249613 ], [ 4.614954392240382, 52.425520575034582 ], [ 4.615126477176798, 52.425799101777763 ], [ 4.618015157006734, 52.424752929503768 ], [ 4.618872233218115, 52.425015940294706 ], [ 4.620842605008352, 52.424284491092727 ], [ 4.62148649460282, 52.424789271803569 ], [ 4.624816525641502, 52.423454889358005 ], [ 4.624533015461666, 52.423387266397192 ], [ 4.623487000188729, 52.422030121065511 ], [ 4.624424900772816, 52.421544293248147 ], [ 4.62575136515106, 52.420537142758896 ], [ 4.6253453011162, 52.420048102194507 ], [ 4.625765439989259, 52.419782154590656 ], [ 4.626057894802492, 52.419163046191379 ], [ 4.625918216012248, 52.419015261186168 ], [ 4.62608518072444, 52.418654892433658 ], [ 4.626308103456465, 52.418643244525803 ], [ 4.626520878586662, 52.418257209700563 ], [ 4.626893908879048, 52.418163917286577 ], [ 4.626625083416107, 52.417985926692872 ], [ 4.626913525726999, 52.417412383221468 ], [ 4.6264097492684, 52.417399243230768 ], [ 4.626453216237221, 52.417117273920823 ], [ 4.626237193966527, 52.416842303532626 ], [ 4.626324250174872, 52.41646248917781 ], [ 4.62734946848635, 52.415979044047106 ], [ 4.628563605228144, 52.41577311771308 ], [ 4.627742906039416, 52.414695264417531 ], [ 4.62869984874294, 52.414291766867898 ], [ 4.628395149025929, 52.414183457653515 ], [ 4.627693249887304, 52.413283502910232 ], [ 4.627883168478445, 52.4130798873692 ], [ 4.627546721178027, 52.412527430579047 ], [ 4.629535384519513, 52.411837445566306 ], [ 4.630006965498773, 52.411861062337167 ], [ 4.635984172121019, 52.410756018798665 ], [ 4.635722311276835, 52.410141581550135 ], [ 4.635814263884343, 52.410020535591322 ], [ 4.636294237621703, 52.41006848986801 ], [ 4.637610869080352, 52.411876233905843 ], [ 4.637789313710835, 52.411874309629397 ], [ 4.639955280192932, 52.414336172277217 ], [ 4.640204965570444, 52.41479817531863 ], [ 4.640100863932721, 52.414928657850766 ], [ 4.642900217625144, 52.417916406441798 ], [ 4.644982913092276, 52.420720523415397 ], [ 4.6452498690519, 52.421865844735798 ], [ 4.645793584989809, 52.42190070497378 ], [ 4.64673058374535, 52.423207743455087 ], [ 4.648035424150157, 52.423318094035736 ], [ 4.647616678879175, 52.42444505749588 ], [ 4.647413182422786, 52.424603503633762 ], [ 4.648243044324671, 52.425915210612402 ], [ 4.649427537723628, 52.427245800700852 ], [ 4.649742248337218, 52.427278574024051 ], [ 4.65071747443861, 52.42863680387407 ], [ 4.653115115427108, 52.428097903044609 ], [ 4.653126861350465, 52.427901627821271 ], [ 4.661442025991863, 52.425919292278948 ], [ 4.665842401881132, 52.425356400450802 ], [ 4.669576923446662, 52.423688232187416 ], [ 4.672007457367213, 52.422395666342865 ], [ 4.671556750663589, 52.42035441248084 ], [ 4.673653876429099, 52.419076003310352 ], [ 4.675032268368094, 52.417107811140717 ], [ 4.677482144822942, 52.417764067091184 ], [ 4.677584623060676, 52.418871583120691 ], [ 4.678099403584135, 52.418930463073593 ], [ 4.678045022497924, 52.418473791208626 ], [ 4.678313107215026, 52.417837544854585 ], [ 4.678149425519576, 52.417474453842658 ], [ 4.678767750725043, 52.417375070740974 ], [ 4.679061188450529, 52.416997446300343 ], [ 4.679762877450841, 52.416945509585041 ], [ 4.680863872268065, 52.417862669778486 ], [ 4.681711608756951, 52.417695634351816 ], [ 4.682482638499296, 52.413748909977286 ], [ 4.685834681694792, 52.415765475757276 ], [ 4.689202092057903, 52.417356924700563 ], [ 4.691540097099063, 52.418729881834828 ], [ 4.694177148245108, 52.420524397546764 ], [ 4.700578637436547, 52.425418703001256 ], [ 4.707620423831188, 52.42666763413721 ], [ 4.710687823223874, 52.427598301799136 ], [ 4.712724050133116, 52.42849837393841 ], [ 4.72199988620938, 52.433232525488691 ], [ 4.739073317892503, 52.430980644301748 ], [ 4.73837671683884, 52.429278438095238 ], [ 4.738445171060944, 52.428897374813175 ], [ 4.738200780609884, 52.428155606727337 ], [ 4.728669600014944, 52.400666398067656 ], [ 4.755922323261798, 52.397107198962615 ], [ 4.757423289259278, 52.396796111396469 ], [ 4.757760055636109, 52.396558158203014 ], [ 4.757906848577384, 52.393610913732509 ], [ 4.755995968538134, 52.393590087574104 ], [ 4.754825436733202, 52.393319672325489 ], [ 4.753290147064166, 52.392550084069093 ], [ 4.753063601211585, 52.392573714103179 ], [ 4.752521457751639, 52.391981345893555 ], [ 4.753453411164403, 52.39159719078571 ], [ 4.755312783287027, 52.391334576770213 ], [ 4.754659141989324, 52.389468499967421 ], [ 4.754041913851, 52.389472709116724 ], [ 4.753904003847424, 52.38904194588509 ], [ 4.754054952728429, 52.388863615498906 ], [ 4.753997115988936, 52.388569096881454 ], [ 4.758222376833602, 52.387808807092256 ], [ 4.758415821244984, 52.387170682695711 ], [ 4.758843434631528, 52.384411963588505 ], [ 4.758959026408467, 52.381450065199019 ], [ 4.759383439247618, 52.381102634079127 ], [ 4.758979301866503, 52.3809567101667 ], [ 4.759023060996596, 52.379379153595032 ], [ 4.757213043332659, 52.37807053595408 ], [ 4.756754134118566, 52.377950600083892 ], [ 4.75489264296648, 52.379846820421044 ], [ 4.753512266830692, 52.380663173355714 ], [ 4.753091327011049, 52.380848208442778 ], [ 4.752583101020887, 52.38048823075372 ], [ 4.749831704826321, 52.381909593507196 ], [ 4.747257729560777, 52.382919057255634 ], [ 4.733934816104687, 52.385832499843545 ], [ 4.734015392117461, 52.386239178768342 ], [ 4.730103173665164, 52.386515262851987 ], [ 4.728754802729396, 52.38640010876658 ], [ 4.70771448395751, 52.38275513742235 ], [ 4.707690048555031, 52.382292430873861 ], [ 4.692658839295663, 52.379731829171128 ], [ 4.691982295416458, 52.379491162684459 ], [ 4.691451089984469, 52.378812486974589 ], [ 4.690863378661078, 52.37859855426963 ], [ 4.689753044194667, 52.378479144179686 ], [ 4.688556116231102, 52.378811964491426 ], [ 4.687679592870921, 52.378846114460153 ], [ 4.679534671102865, 52.377423197392822 ], [ 4.677636887857628, 52.376916553314182 ], [ 4.67555596118658, 52.376011932430558 ], [ 4.674187038742462, 52.375079336598276 ], [ 4.672977623020446, 52.373878776858959 ], [ 4.672082632097839, 52.37215321109889 ], [ 4.671889616408018, 52.370531565742866 ], [ 4.672565743296147, 52.368326119006554 ], [ 4.671996501919982, 52.368128942031355 ], [ 4.67636862189365, 52.356163259731396 ], [ 4.676348594971999, 52.354311975923437 ], [ 4.675793908367814, 52.353259136325377 ], [ 4.675070609512785, 52.352400652490431 ], [ 4.673432895679685, 52.351158477867557 ], [ 4.670511675498679, 52.349858997224054 ], [ 4.670842562303155, 52.35029948344954 ], [ 4.669498679310758, 52.352965484411989 ], [ 4.666774111094594, 52.35239640944431 ], [ 4.660839034971444, 52.350151683029267 ], [ 4.660496027221302, 52.349553729696787 ], [ 4.658623835168592, 52.348618450549225 ], [ 4.660158991467141, 52.347657231178111 ], [ 4.660682854098788, 52.347555390944308 ], [ 4.659336100886346, 52.345767389650774 ], [ 4.660621219401175, 52.345566228281932 ], [ 4.659168385377283, 52.344944922361947 ], [ 4.659409262761695, 52.344590762316059 ], [ 4.656810585342644, 52.343442388075268 ], [ 4.656381210330201, 52.343734189606835 ], [ 4.649013183133019, 52.340559452006843 ], [ 4.646469287641145, 52.339964812495857 ], [ 4.631032264689037, 52.337755049748218 ], [ 4.629705554994862, 52.337403797420393 ], [ 4.620315708586491, 52.333911870436509 ], [ 4.618159663664029, 52.33286959679802 ], [ 4.616522033521554, 52.331575601248908 ], [ 4.612588698001767, 52.3272694911714 ], [ 4.611567159084125, 52.325451922898402 ], [ 4.61128806049576, 52.32414894350913 ], [ 4.611286378443224, 52.322248456904418 ], [ 4.611930913973401, 52.322167301496243 ], [ 4.612050213874641, 52.318058748204855 ], [ 4.61147467082106, 52.317976437124791 ], [ 4.611565410808612, 52.313692054422589 ], [ 4.603087560212173, 52.315927108116533 ], [ 4.601349913122599, 52.316665432069577 ], [ 4.599005932545937, 52.317344173916062 ], [ 4.596560312583704, 52.3178225400409 ], [ 4.587680065208464, 52.317980719595482 ], [ 4.587562997573975, 52.317533485892596 ], [ 4.587791498012519, 52.316957132043278 ], [ 4.587490152595292, 52.316862079137429 ], [ 4.586233106457568, 52.317346283188179 ], [ 4.586013040465379, 52.317626621497674 ], [ 4.586313567731628, 52.317935047579752 ], [ 4.585831144011556, 52.318289613905009 ], [ 4.583261617393607, 52.31849446066385 ], [ 4.573250721872093, 52.31546285726283 ], [ 4.568912810823426, 52.316603199203215 ], [ 4.566751642543427, 52.312943729402761 ], [ 4.566154542611019, 52.312432794623291 ], [ 4.563671647298654, 52.309411905987908 ], [ 4.557695478070027, 52.311154702848768 ], [ 4.553979298860882, 52.312038432601717 ], [ 4.5473812723005, 52.314084638276675 ], [ 4.493889409470851, 52.328255720674754 ], [ 4.497674959617878, 52.333420798726515 ], [ 4.508289951493877, 52.349925166686219 ] ] ] } }
]
}
