{
"type": "FeatureCollection",
"name": "SWVPO2201",
"crs": { "type": "name", "properties": { "name": "urn:ogc:def:crs:OGC:1.3:CRS84" } },
"features": [
{ "type": "Feature", "properties": { "PO SWV": "PO2201", "strokeColor": "#A9A9A9", "strokeWidth": 2, "fillColor": "#ADD8E6" }, "geometry": { "type": "Polygon", "coordinates": [ [ [ 6.413592203763368, 52.985710805289067 ], [ 6.505908875839583, 53.01022659556817 ], [ 6.512882872912296, 53.010647025804687 ], [ 6.509958613127889, 53.016849919877473 ], [ 6.503989385910114, 53.015887832766133 ], [ 6.503797415130699, 53.015976160164762 ], [ 6.495427863011443, 53.030902318161473 ], [ 6.502747343530533, 53.032288295030796 ], [ 6.499853269640835, 53.038451651685023 ], [ 6.511680539775755, 53.056504656607231 ], [ 6.514361263227507, 53.065076028269473 ], [ 6.513261790413145, 53.072238940053175 ], [ 6.511896464204454, 53.073915279182366 ], [ 6.5121024683898, 53.074188683271693 ], [ 6.51057172192537, 53.075236628346019 ], [ 6.51028769312775, 53.0756180730246 ], [ 6.51035487418905, 53.075768419058186 ], [ 6.506076777961797, 53.080976816672667 ], [ 6.503910011229939, 53.083342468139762 ], [ 6.503401294517031, 53.083275540315988 ], [ 6.502298773522279, 53.084865469896535 ], [ 6.490135270664865, 53.097602039920986 ], [ 6.48474063506648, 53.106284627162921 ], [ 6.48430134713383, 53.111475862834162 ], [ 6.480199706725332, 53.120792216160972 ], [ 6.498430527118798, 53.123459248868834 ], [ 6.49944006737728, 53.121996769217084 ], [ 6.500909765327283, 53.1206925283565 ], [ 6.512379965468211, 53.125660163322671 ], [ 6.510834446281557, 53.130663486469594 ], [ 6.510918076358459, 53.13079234438851 ], [ 6.515079687217763, 53.131284821720378 ], [ 6.515789309999367, 53.130951367962226 ], [ 6.517504291326177, 53.131518381088135 ], [ 6.527956317283036, 53.131961932920419 ], [ 6.529426498474662, 53.13213896539218 ], [ 6.535410939874148, 53.130637613540223 ], [ 6.53823671621415, 53.130251815098973 ], [ 6.538097077565219, 53.131066272374589 ], [ 6.538235743533618, 53.131438048327375 ], [ 6.539396164926754, 53.133081327801449 ], [ 6.539612197390118, 53.133644323722294 ], [ 6.539375804104338, 53.136325217730302 ], [ 6.539975014106668, 53.138863135011142 ], [ 6.539449605594106, 53.139724844592465 ], [ 6.537274040422189, 53.14130602666161 ], [ 6.536718014199457, 53.142186524596553 ], [ 6.536646579652366, 53.142971539509468 ], [ 6.536860496847879, 53.143638962670224 ], [ 6.538223950194117, 53.145523477547471 ], [ 6.537036640306778, 53.149004898093558 ], [ 6.536622713511762, 53.149365921275965 ], [ 6.535307394932179, 53.150006637436178 ], [ 6.534752698120973, 53.150934711950207 ], [ 6.533991124099725, 53.151473254913228 ], [ 6.533815807801314, 53.151913663963718 ], [ 6.534060982600592, 53.152425165538688 ], [ 6.535032904710214, 53.153020550293235 ], [ 6.53576478291246, 53.154471297941946 ], [ 6.537488197511958, 53.155667775522794 ], [ 6.537653497752977, 53.156006593517411 ], [ 6.53691761815192, 53.157052283671867 ], [ 6.537043673311213, 53.157591997812148 ], [ 6.537716556571738, 53.158391446919943 ], [ 6.535910297173735, 53.159082444245968 ], [ 6.535775392346379, 53.159299736793045 ], [ 6.535903749380746, 53.159527850195246 ], [ 6.535673587227271, 53.159816565110162 ], [ 6.534971002271404, 53.159979515696115 ], [ 6.534027963558849, 53.160913785462625 ], [ 6.534296679601067, 53.161440636379339 ], [ 6.535074476271852, 53.161516576190401 ], [ 6.536337275342143, 53.162373363800576 ], [ 6.53645778681549, 53.162623440408574 ], [ 6.536145634084344, 53.162770460816859 ], [ 6.535918138855724, 53.163210338720027 ], [ 6.536094739323319, 53.163558097675264 ], [ 6.536024950836076, 53.164048283186709 ], [ 6.536256604747302, 53.1643788650345 ], [ 6.536638934889186, 53.164538122356412 ], [ 6.537341092075295, 53.164482543723317 ], [ 6.537304569281925, 53.164912470690986 ], [ 6.53684564893191, 53.165384932722866 ], [ 6.535656665968638, 53.166181704249219 ], [ 6.535633878050991, 53.167466589266752 ], [ 6.5361692166758, 53.168044039376859 ], [ 6.53398456881415, 53.168526589277825 ], [ 6.53369077903399, 53.168717636403073 ], [ 6.533439528024449, 53.169187187577663 ], [ 6.533767011413409, 53.169809084777164 ], [ 6.533498197164852, 53.170000204677969 ], [ 6.533490311270979, 53.170230417317548 ], [ 6.535312892772075, 53.171005022549288 ], [ 6.535097944692525, 53.171314504400335 ], [ 6.535229710103049, 53.171603496346165 ], [ 6.533546271581626, 53.171994222621073 ], [ 6.532107683633404, 53.171416917557359 ], [ 6.531207247809883, 53.172070695005587 ], [ 6.530375579324357, 53.172277017004561 ], [ 6.526012244069197, 53.169559746303271 ], [ 6.525073968716573, 53.170386960590655 ], [ 6.524845460578059, 53.17107855908813 ], [ 6.521747364106583, 53.175013037468048 ], [ 6.51819944234296, 53.174183712746704 ], [ 6.517066603441756, 53.175566102951024 ], [ 6.51273033289646, 53.183529700622294 ], [ 6.5123276530726, 53.183719914394111 ], [ 6.5112498729636, 53.183543435290616 ], [ 6.510960489565774, 53.18369898205458 ], [ 6.512677495931298, 53.186158966110071 ], [ 6.512962247404754, 53.189402787764386 ], [ 6.513862527924298, 53.194003497610787 ], [ 6.511913007319754, 53.196244404304856 ], [ 6.514739136247671, 53.197700464184706 ], [ 6.515710216296542, 53.198408026391554 ], [ 6.515900568806018, 53.198207664914257 ], [ 6.520092863762986, 53.197236191492969 ], [ 6.527001509870273, 53.195921429142963 ], [ 6.52731123339028, 53.196062460417174 ], [ 6.53054881421117, 53.195641553069372 ], [ 6.530544626323167, 53.195474254741555 ], [ 6.529625734323334, 53.19512546320788 ], [ 6.534294755594214, 53.184234683426141 ], [ 6.535576437992169, 53.183385799487802 ], [ 6.537927374773545, 53.182486534257187 ], [ 6.539714009418853, 53.181303141468554 ], [ 6.541208294016251, 53.179742905709816 ], [ 6.541804039976348, 53.178716496123755 ], [ 6.543086052517197, 53.178900935504345 ], [ 6.544971608942631, 53.179876073734896 ], [ 6.548256224227596, 53.181171033057929 ], [ 6.553593553178875, 53.175248317577122 ], [ 6.554213938332812, 53.175356192183628 ], [ 6.556388005831761, 53.172642017221534 ], [ 6.559579106400354, 53.169162555107789 ], [ 6.561225230192327, 53.16443418541472 ], [ 6.562950269806096, 53.160244729835618 ], [ 6.563253139927511, 53.158759019540312 ], [ 6.563734114807309, 53.157759312093312 ], [ 6.581578370206287, 53.163661555369991 ], [ 6.581430539705214, 53.162873289738734 ], [ 6.580835371522554, 53.16229373601908 ], [ 6.581778177826445, 53.162310352134313 ], [ 6.58210162573323, 53.162143332439946 ], [ 6.581794647174504, 53.161282003404736 ], [ 6.583338263571036, 53.159536824993054 ], [ 6.583640296162804, 53.157945583330431 ], [ 6.58486049012574, 53.15772789873877 ], [ 6.585621847852241, 53.157044493640711 ], [ 6.586955480717401, 53.156575884934185 ], [ 6.587183888961454, 53.156258497095358 ], [ 6.587186058493391, 53.155990712107588 ], [ 6.584596575471356, 53.154159238817805 ], [ 6.584628539835042, 53.153583087082147 ], [ 6.584821579996355, 53.153597839944041 ], [ 6.586108615328389, 53.152226911890601 ], [ 6.585827683489727, 53.15193593566007 ], [ 6.586253907589756, 53.151174562965842 ], [ 6.586302446665385, 53.150717045993595 ], [ 6.587323287020249, 53.149332666609496 ], [ 6.587838689079339, 53.147832811016158 ], [ 6.588006050364312, 53.146926283428336 ], [ 6.587855305967757, 53.145766790081581 ], [ 6.588028275867118, 53.145514525115821 ], [ 6.58947696889762, 53.145119569425646 ], [ 6.590542473225513, 53.145046881411133 ], [ 6.595700669905381, 53.145578490825777 ], [ 6.596216902357619, 53.145266764145525 ], [ 6.595974233538692, 53.144396465677332 ], [ 6.597292044706379, 53.144115397974609 ], [ 6.600023448557835, 53.144815620069032 ], [ 6.606578547817596, 53.139395964483043 ], [ 6.607478857361394, 53.139341054891091 ], [ 6.61026843828466, 53.137986416379832 ], [ 6.610820298663954, 53.13799749235681 ], [ 6.614463089400465, 53.135634904361119 ], [ 6.614299927634434, 53.134383642858502 ], [ 6.613900042552787, 53.134071346765516 ], [ 6.613787712437092, 53.133737963219758 ], [ 6.613710453714822, 53.132769047043048 ], [ 6.614237661622298, 53.132640602367559 ], [ 6.616554173777774, 53.133078877156407 ], [ 6.616981634681992, 53.132828880525963 ], [ 6.617197709409647, 53.132204393395327 ], [ 6.618336914525728, 53.132011126087015 ], [ 6.619083184559773, 53.131629623602727 ], [ 6.61914043970989, 53.131430519638606 ], [ 6.618677366073498, 53.130695323554207 ], [ 6.618729565695163, 53.130424059865604 ], [ 6.619409700172053, 53.129597015512665 ], [ 6.621352237931934, 53.12847245564285 ], [ 6.62138419355884, 53.127668146878442 ], [ 6.621742798698181, 53.127138564771307 ], [ 6.62197303030608, 53.126267227907462 ], [ 6.623145366745996, 53.125250928390045 ], [ 6.624301387664738, 53.124727974134345 ], [ 6.625054110753703, 53.124078080316892 ], [ 6.626088750126793, 53.123839187975413 ], [ 6.626524462715785, 53.123345181118907 ], [ 6.627708919407428, 53.122784960349222 ], [ 6.628064975723508, 53.121772868354419 ], [ 6.627551220938077, 53.121203524864349 ], [ 6.628143374048679, 53.12066782661428 ], [ 6.628707795784382, 53.119574419184957 ], [ 6.62893136430647, 53.119551448787512 ], [ 6.62939898744358, 53.119937642440945 ], [ 6.630914146684579, 53.119266083752727 ], [ 6.63093277591332, 53.119062393726878 ], [ 6.630734395373343, 53.118892503033841 ], [ 6.629653019981635, 53.118427977995026 ], [ 6.629038547217348, 53.117613247203757 ], [ 6.627722823391562, 53.116990094113881 ], [ 6.628496401508686, 53.116559561838422 ], [ 6.628471782707818, 53.116242860728384 ], [ 6.628124407984608, 53.115721859812069 ], [ 6.629144814567975, 53.11550469487328 ], [ 6.629854781620877, 53.114780538759561 ], [ 6.63133871004264, 53.114532130831464 ], [ 6.633666130338132, 53.114442915883401 ], [ 6.634215926769552, 53.113916027757647 ], [ 6.636002541818558, 53.113445480584168 ], [ 6.636678608440842, 53.112901009792616 ], [ 6.636491337076037, 53.112576245916159 ], [ 6.63587066316102, 53.112520001339306 ], [ 6.635680399418182, 53.112018259828986 ], [ 6.635210190313993, 53.111472790867317 ], [ 6.635339066164403, 53.111227556330341 ], [ 6.636938532097267, 53.11032095175235 ], [ 6.637181962727253, 53.10827156585264 ], [ 6.635734773691625, 53.107769429546998 ], [ 6.636080419527273, 53.107243908268266 ], [ 6.636067700279627, 53.106991287019582 ], [ 6.635719417352114, 53.10658628978635 ], [ 6.635090185812676, 53.106579410351152 ], [ 6.634967974736274, 53.106300396873223 ], [ 6.637292645582458, 53.106926467331853 ], [ 6.637644449635372, 53.1072563676138 ], [ 6.638050129133608, 53.107151536318902 ], [ 6.651883515390137, 53.111256147004987 ], [ 6.665136773916536, 53.114702120974208 ], [ 6.665121082490876, 53.114975206248452 ], [ 6.670685822290428, 53.116299497112777 ], [ 6.67050751723745, 53.116484973312488 ], [ 6.670581418321096, 53.116614065516814 ], [ 6.673439526611096, 53.117227369310307 ], [ 6.673626357623792, 53.117118683303644 ], [ 6.675384060453682, 53.117748464538437 ], [ 6.681192705078626, 53.118569614104523 ], [ 6.695351353949407, 53.121274795763753 ], [ 6.709872708989234, 53.120354242151556 ], [ 6.711472118705473, 53.120318818425218 ], [ 6.712766937801242, 53.120505716503331 ], [ 6.721099900877854, 53.120284937964044 ], [ 6.737485421589223, 53.119555602003118 ], [ 6.742414185689832, 53.116477374006607 ], [ 6.743306256794154, 53.116653419087982 ], [ 6.743827876861378, 53.115822830365552 ], [ 6.747862547768827, 53.113561100532024 ], [ 6.749110544482036, 53.111677473205013 ], [ 6.751409033575643, 53.111519724766751 ], [ 6.751662559031963, 53.11083320506134 ], [ 6.752019179695432, 53.110747026484219 ], [ 6.751957924848861, 53.110455141640998 ], [ 6.853319385828853, 53.046090192812315 ], [ 6.890862955137773, 53.022152564027522 ], [ 6.914930451664692, 53.006757325128717 ], [ 6.926142146656893, 52.999581553381688 ], [ 6.930508324700948, 52.996786169142126 ], [ 6.932695983401151, 52.995385341642894 ], [ 6.934733857923931, 52.994080314655719 ], [ 6.935588050387254, 52.993533278805735 ], [ 6.93570720088157, 52.993456954191629 ], [ 6.872389988791311, 52.983532697770748 ], [ 6.870781580190696, 52.987160037011293 ], [ 6.856592448853496, 52.984889482468787 ], [ 6.856514136564054, 52.984756766796544 ], [ 6.857784729283625, 52.981238006008375 ], [ 6.839489053063748, 52.978258074464698 ], [ 6.79078498920948, 52.963449918018277 ], [ 6.790605143613719, 52.963066524655524 ], [ 6.790278012746366, 52.963306455020543 ], [ 6.788738837172064, 52.962872880475722 ], [ 6.72765250850745, 52.954800295685168 ], [ 6.731299424215125, 52.937650560530855 ], [ 6.724075223846321, 52.937285059092666 ], [ 6.72624795001935, 52.927394355029612 ], [ 6.72690252285846, 52.915875700310288 ], [ 6.728126809791409, 52.907054492069783 ], [ 6.728924887930505, 52.90362707156703 ], [ 6.726855835110113, 52.903548870977026 ], [ 6.726701284085535, 52.903155269571627 ], [ 6.723950554561693, 52.903159892811658 ], [ 6.723859041645537, 52.903023972716582 ], [ 6.724048106817853, 52.902501490092185 ], [ 6.720948311868122, 52.901836366570151 ], [ 6.718985837355977, 52.901850838969651 ], [ 6.718900410141289, 52.901706967642255 ], [ 6.719089184220612, 52.901329375125592 ], [ 6.718582273741657, 52.901088665333454 ], [ 6.714287323893693, 52.902876249176359 ], [ 6.71414891805993, 52.902780847497148 ], [ 6.715037531934131, 52.899102980449193 ], [ 6.717636851958467, 52.899046279082945 ], [ 6.717472200767605, 52.898669397370504 ], [ 6.716128643812832, 52.898349103941371 ], [ 6.716051825458257, 52.89817924741898 ], [ 6.718017273545699, 52.896523093630996 ], [ 6.720137230486628, 52.894011689166142 ], [ 6.720716930837322, 52.893755476818257 ], [ 6.722095298831337, 52.891736596083909 ], [ 6.722353716033743, 52.891650257806887 ], [ 6.723395045141656, 52.888942458946197 ], [ 6.724116902621023, 52.887543000749602 ], [ 6.725881834042824, 52.88668206471587 ], [ 6.733514869749705, 52.887663216118774 ], [ 6.736215767043353, 52.878744658533826 ], [ 6.725494520904863, 52.873576069093502 ], [ 6.725224835266401, 52.873215477124475 ], [ 6.725636982958522, 52.872647899091788 ], [ 6.715938879677661, 52.867811363425815 ], [ 6.716009151365695, 52.867681689410546 ], [ 6.721724025421987, 52.866248641478592 ], [ 6.719793056697791, 52.861495924875456 ], [ 6.725893140953055, 52.857238065878185 ], [ 6.726163109414096, 52.85641748428921 ], [ 6.727144380552186, 52.855565167599607 ], [ 6.728439479662551, 52.853973199382544 ], [ 6.719640509965673, 52.848926665469108 ], [ 6.704234667964911, 52.847069988454578 ], [ 6.704099694415281, 52.846690483005453 ], [ 6.704329627133549, 52.846290792098564 ], [ 6.704689395449046, 52.84614217265154 ], [ 6.704640467379208, 52.845834416370771 ], [ 6.706336011236701, 52.842379524275941 ], [ 6.70748839747662, 52.83643011596709 ], [ 6.700232689309304, 52.830160090515669 ], [ 6.696005298683891, 52.826727528588144 ], [ 6.695127562273162, 52.827092545948737 ], [ 6.694018883857573, 52.827933016652878 ], [ 6.69092225997756, 52.826003289190666 ], [ 6.689943505151489, 52.826043558176451 ], [ 6.689919932620455, 52.824694393027713 ], [ 6.689745418715829, 52.824060445575782 ], [ 6.689467029817725, 52.823989622252455 ], [ 6.688867175830238, 52.822988207689264 ], [ 6.690139663582027, 52.822585877530059 ], [ 6.693852959657667, 52.814586746912802 ], [ 6.693483816814145, 52.814542291074702 ], [ 6.693160565317315, 52.814162168678337 ], [ 6.691490062946243, 52.811417255769463 ], [ 6.691539497700353, 52.811238078126053 ], [ 6.692361105684126, 52.810920921445707 ], [ 6.691864059158624, 52.809958803900052 ], [ 6.694244317093645, 52.809890184348689 ], [ 6.694714923315727, 52.808867610923102 ], [ 6.694218111428711, 52.808824935673414 ], [ 6.690144261314524, 52.81022231884242 ], [ 6.681133071638939, 52.807818774437038 ], [ 6.68015507194214, 52.806597266652901 ], [ 6.678961696535758, 52.802870449499537 ], [ 6.677516743112884, 52.802752979037599 ], [ 6.676538062041085, 52.80190694438226 ], [ 6.675521496873227, 52.800358663256333 ], [ 6.677811278164553, 52.799071032435712 ], [ 6.675128567550297, 52.797236597770471 ], [ 6.667770156043194, 52.799799680772956 ], [ 6.660826858657003, 52.801317721581128 ], [ 6.61645352134102, 52.763307224043352 ], [ 6.613724860920541, 52.760580690479266 ], [ 6.61223248204133, 52.75944509155859 ], [ 6.587444750453015, 52.735806267449441 ], [ 6.58660230268668, 52.736133908575866 ], [ 6.586277576973394, 52.735870273238675 ], [ 6.574163502241525, 52.740580604397422 ], [ 6.573304552798548, 52.739848877576996 ], [ 6.559694850233391, 52.745159483700526 ], [ 6.557670920523983, 52.745314776908536 ], [ 6.558006905220016, 52.746138910591945 ], [ 6.557920431339559, 52.746289938840512 ], [ 6.56250798854218, 52.756624126992349 ], [ 6.564096149116158, 52.757642842028346 ], [ 6.565142786996395, 52.758068767565248 ], [ 6.565046346085525, 52.758208705358619 ], [ 6.563080554914063, 52.757924013549541 ], [ 6.566431847881855, 52.765667486822778 ], [ 6.537570442345301, 52.765334893366941 ], [ 6.53536042840541, 52.768204109560187 ], [ 6.528600887648592, 52.766278699636146 ], [ 6.512847787756241, 52.76214346956391 ], [ 6.507924800738428, 52.76898405832241 ], [ 6.506959216389238, 52.769518681884854 ], [ 6.506533013263688, 52.770029406412107 ], [ 6.505639047041748, 52.76995682895145 ], [ 6.503416727779288, 52.769341672671288 ], [ 6.493183865373068, 52.77103549240887 ], [ 6.490811199415136, 52.77098277497624 ], [ 6.496264156516419, 52.786220256000043 ], [ 6.491853356694848, 52.79321086687402 ], [ 6.447077234262182, 52.80240509555999 ], [ 6.446383555729993, 52.803378518223106 ], [ 6.446902751123554, 52.803772081915284 ], [ 6.446992045634, 52.804012198719832 ], [ 6.446452016369115, 52.805116117904092 ], [ 6.446825540395038, 52.806520261493155 ], [ 6.44684977866499, 52.807538607615378 ], [ 6.446703718404137, 52.808151706422535 ], [ 6.446305294279344, 52.808377624129733 ], [ 6.446931197691824, 52.812728209084334 ], [ 6.443000141545504, 52.812254009436842 ], [ 6.443583114427216, 52.813559673049411 ], [ 6.445075358296459, 52.815403742798217 ], [ 6.445075244746021, 52.815574797134829 ], [ 6.439159256125714, 52.817366683073111 ], [ 6.438229111442498, 52.817137831677115 ], [ 6.438045003011614, 52.817329670001627 ], [ 6.438227230048047, 52.817626962513479 ], [ 6.43810706904568, 52.818471432721438 ], [ 6.437935908275942, 52.81878770432516 ], [ 6.437567916064249, 52.818945691175621 ], [ 6.439658965590139, 52.819885732645595 ], [ 6.440232532527803, 52.819917868657619 ], [ 6.438788635867371, 52.822596514546774 ], [ 6.439818499069795, 52.82405690524331 ], [ 6.444939398521999, 52.823044562743583 ], [ 6.447231426822135, 52.826399640300153 ], [ 6.456458816024512, 52.823619787469696 ], [ 6.459246168988457, 52.826580114536377 ], [ 6.462254973778869, 52.827392487190089 ], [ 6.463439454419087, 52.828166327207747 ], [ 6.462664671146582, 52.828891484472571 ], [ 6.462486160696574, 52.829452797167569 ], [ 6.461273262584671, 52.830347254269903 ], [ 6.467179235059328, 52.832554295709215 ], [ 6.468074720928482, 52.833829518295019 ], [ 6.469439914881468, 52.833356939509798 ], [ 6.470850109081863, 52.833840082931872 ], [ 6.472823553716902, 52.834227702107896 ], [ 6.474903928725127, 52.835948289880299 ], [ 6.470074041026223, 52.837333008975357 ], [ 6.470027350585668, 52.837538548537168 ], [ 6.469845046519812, 52.837456034479189 ], [ 6.468411439164234, 52.837850774384442 ], [ 6.468171122726576, 52.838369615974536 ], [ 6.462849301216899, 52.83875659721302 ], [ 6.463063647049879, 52.83910733250795 ], [ 6.461259992085823, 52.845095333779199 ], [ 6.462187427420671, 52.846538595367001 ], [ 6.46199701523572, 52.848453735842774 ], [ 6.463249121472951, 52.848906270716377 ], [ 6.460745561344416, 52.853161646519659 ], [ 6.458952165676892, 52.852779321367343 ], [ 6.457220598510596, 52.852197529800286 ], [ 6.453618745374942, 52.850586358433084 ], [ 6.451263976109171, 52.850115039174497 ], [ 6.441209112570364, 52.850017722914181 ], [ 6.439644049208916, 52.850308709523866 ], [ 6.437506800521603, 52.850993114438424 ], [ 6.435450041578412, 52.851246954833059 ], [ 6.433940047069869, 52.851156572186838 ], [ 6.43094370301212, 52.850496871699647 ], [ 6.430262195346947, 52.851839034937193 ], [ 6.430289377349863, 52.854016446741419 ], [ 6.429664712324445, 52.854531583715506 ], [ 6.429538596540323, 52.854986608114089 ], [ 6.429692774684494, 52.855103073049541 ], [ 6.429328015892869, 52.856400415627185 ], [ 6.431438549479169, 52.856517101584302 ], [ 6.431871297985859, 52.856707260439357 ], [ 6.434444994913569, 52.856994634118443 ], [ 6.431152484866886, 52.867570901047088 ], [ 6.432242145448789, 52.867751347870602 ], [ 6.431542725037418, 52.869979380442587 ], [ 6.430859740860829, 52.871921009069439 ], [ 6.429794797398935, 52.871917235343304 ], [ 6.429357514517507, 52.873193906249945 ], [ 6.427713282767384, 52.872643617635028 ], [ 6.420315209838425, 52.877961078617709 ], [ 6.421634878991856, 52.879081016144639 ], [ 6.421833974489719, 52.879325384782085 ], [ 6.421949675688406, 52.879982455582201 ], [ 6.422363317141097, 52.880319426688949 ], [ 6.419889270312009, 52.88147447468058 ], [ 6.420302086597733, 52.881701630133087 ], [ 6.420046744092524, 52.882406105701186 ], [ 6.384092635773286, 52.889183348979302 ], [ 6.38409106300081, 52.889368567808781 ], [ 6.382066103583099, 52.890071508908889 ], [ 6.381608066952171, 52.889671609360143 ], [ 6.38132586538169, 52.889857994149892 ], [ 6.379867002451689, 52.888493710859201 ], [ 6.376916816781098, 52.886689571128784 ], [ 6.374346752708131, 52.883491120238226 ], [ 6.371983659891357, 52.881361484248856 ], [ 6.372580259413374, 52.877896657679649 ], [ 6.372558469539391, 52.876026820277239 ], [ 6.368902328991615, 52.876805353514278 ], [ 6.366670585892979, 52.881650354642687 ], [ 6.367913745542866, 52.883286266384644 ], [ 6.367149360124897, 52.883621427266931 ], [ 6.366329917201003, 52.884669014834891 ], [ 6.369141544369612, 52.884829159028115 ], [ 6.370449816488079, 52.886644145174337 ], [ 6.366956814257606, 52.887300447850549 ], [ 6.365657606594599, 52.886851477725081 ], [ 6.364508516700322, 52.886994957181479 ], [ 6.36325858270583, 52.887505759754923 ], [ 6.363152952776905, 52.888036323994626 ], [ 6.360206699884693, 52.888565784006857 ], [ 6.358795838602984, 52.888072064165783 ], [ 6.355612619040036, 52.88920125952577 ], [ 6.355269361866557, 52.889158388147919 ], [ 6.354813475032935, 52.889463728795491 ], [ 6.355248495295787, 52.890194500827732 ], [ 6.355353282851357, 52.890910850042857 ], [ 6.352554088676579, 52.892110721162354 ], [ 6.350985305681463, 52.892152462337044 ], [ 6.349174028468274, 52.893430197344202 ], [ 6.347713012546146, 52.89220009202571 ], [ 6.346799298137164, 52.895138092812161 ], [ 6.343081735275184, 52.897806497017946 ], [ 6.344789544458553, 52.898678332224335 ], [ 6.345352104614025, 52.899915358593731 ], [ 6.345540066398272, 52.900820999410094 ], [ 6.35193628321054, 52.903102713731393 ], [ 6.353112187114157, 52.904525862722963 ], [ 6.352965222144376, 52.904652092263923 ], [ 6.350850235604464, 52.90461541077088 ], [ 6.35161965320169, 52.90551152835814 ], [ 6.352045248648702, 52.906533195837234 ], [ 6.353034561885654, 52.907352666247775 ], [ 6.353019762179129, 52.907537617739607 ], [ 6.343830358196425, 52.910636984276529 ], [ 6.393495094410171, 52.932762945768211 ], [ 6.427689857790496, 52.971749426292831 ], [ 6.413307821431124, 52.985634057225276 ], [ 6.413592203763368, 52.985710805289067 ] ] ] } }
]
}
