{
"type": "FeatureCollection",
"name": "SWVPO2508",
"crs": { "type": "name", "properties": { "name": "urn:ogc:def:crs:OGC:1.3:CRS84" } },
"features": [
{ "type": "Feature", "properties": { "PO SWV": "PO2508", "strokeColor": "#A9A9A9", "strokeWidth": 2, "fillColor": "#ADD8E6", "fillOpacity":0.5 }, "geometry": { "type": "Polygon", "coordinates": [ [ [ 5.665176200667669, 51.95220225364443 ], [ 5.662902664213612, 51.950856322959901 ], [ 5.657347988373624, 51.948206511661525 ], [ 5.653430523593933, 51.945391162452509 ], [ 5.652441466379757, 51.94422725327302 ], [ 5.65350585567167, 51.943086376131909 ], [ 5.653420637984497, 51.942876449760981 ], [ 5.654385932084468, 51.941527409796677 ], [ 5.661179304294189, 51.943701009785599 ], [ 5.663268727528929, 51.940850242041215 ], [ 5.665763627762614, 51.941496190836958 ], [ 5.667844991698203, 51.938942118012562 ], [ 5.667778992152281, 51.938793911400765 ], [ 5.659741467478486, 51.937006435154977 ], [ 5.660581222883958, 51.933890678248602 ], [ 5.660343627322479, 51.933578541174406 ], [ 5.660069791541988, 51.933514681425422 ], [ 5.660572388154492, 51.929886875655136 ], [ 5.660361210776991, 51.929747853830854 ], [ 5.664211949984593, 51.930311317911638 ], [ 5.670906458734025, 51.930642655795857 ], [ 5.674899714766953, 51.931555417966408 ], [ 5.688760428652456, 51.935239683132032 ], [ 5.688888666081652, 51.935115662012102 ], [ 5.690172245560735, 51.935059389924568 ], [ 5.692019158345188, 51.934552899809049 ], [ 5.693134822732686, 51.934686016042832 ], [ 5.696347397207631, 51.931446925675914 ], [ 5.696390621349495, 51.931178099480732 ], [ 5.694559740091242, 51.931252242824726 ], [ 5.690756847503356, 51.932337135758146 ], [ 5.689824034863682, 51.932393322398767 ], [ 5.687247130649319, 51.93106335003386 ], [ 5.686270945279066, 51.930739220903781 ], [ 5.68448548576839, 51.929705133498828 ], [ 5.682196238729302, 51.929182621732984 ], [ 5.678545232676825, 51.929054742117572 ], [ 5.678399233607703, 51.928790610044544 ], [ 5.678484782135375, 51.927981666205113 ], [ 5.677310549260429, 51.927356678278635 ], [ 5.676612771331242, 51.926571779247347 ], [ 5.675970053943238, 51.926132530983921 ], [ 5.677730534073292, 51.924292325813134 ], [ 5.675942276438668, 51.923278848876457 ], [ 5.677164396949034, 51.922239508222113 ], [ 5.677171315368972, 51.921692564250392 ], [ 5.676282812888055, 51.921180480665541 ], [ 5.677531596014308, 51.920824928708228 ], [ 5.681227801935393, 51.918428415943424 ], [ 5.684786931298788, 51.919430005772064 ], [ 5.692780054103019, 51.920808577932831 ], [ 5.693622336329586, 51.921026408715484 ], [ 5.693717831370813, 51.921276641203256 ], [ 5.694873247930839, 51.921471209575472 ], [ 5.696323008779244, 51.920941343311135 ], [ 5.696361107748332, 51.920757612954709 ], [ 5.692414211333363, 51.918404957073122 ], [ 5.695056085344202, 51.91733810981885 ], [ 5.695551209632131, 51.917004660032184 ], [ 5.703147993327994, 51.916620644823809 ], [ 5.702938759795946, 51.916338026285764 ], [ 5.700515319916403, 51.916217296213397 ], [ 5.698074273506395, 51.916365859332792 ], [ 5.69592789925265, 51.916706916133471 ], [ 5.696289576544394, 51.915850884652095 ], [ 5.696844092800551, 51.915400499774691 ], [ 5.699370056369697, 51.914612881079911 ], [ 5.700790101444477, 51.913567081202309 ], [ 5.703133220253603, 51.910989593528711 ], [ 5.706249567755235, 51.90799503816153 ], [ 5.706507724561989, 51.906313130349538 ], [ 5.706218588319042, 51.90622426419246 ], [ 5.705442279053301, 51.904123688321448 ], [ 5.706717732367153, 51.903730914860716 ], [ 5.707666832291472, 51.902921991438916 ], [ 5.708242704201536, 51.901246339808765 ], [ 5.706535018614876, 51.898875752050643 ], [ 5.706452945202984, 51.898025019962546 ], [ 5.706664796101816, 51.897782193564034 ], [ 5.707991600108517, 51.898053623253162 ], [ 5.709226760845493, 51.898014265873961 ], [ 5.709849044056912, 51.897870274088632 ], [ 5.710723985915844, 51.897336791354292 ], [ 5.711029144057092, 51.896958586407308 ], [ 5.711112364096786, 51.8965480131248 ], [ 5.710058517215718, 51.895822574655845 ], [ 5.709719141940089, 51.895367505879499 ], [ 5.706655379952573, 51.893191648027447 ], [ 5.699020881492989, 51.894694657978185 ], [ 5.692151414859026, 51.895421105053025 ], [ 5.687092926102567, 51.895572652102601 ], [ 5.675206750452788, 51.895343168146368 ], [ 5.666941320462407, 51.895571044854336 ], [ 5.656873973609506, 51.896425634830194 ], [ 5.642896770274327, 51.898331284552484 ], [ 5.634855497581379, 51.899012988547469 ], [ 5.628104863081149, 51.899304872229642 ], [ 5.613974180086255, 51.899196254882938 ], [ 5.60514723753685, 51.898937312252492 ], [ 5.599082165545557, 51.89902107138186 ], [ 5.595225446531135, 51.899213307812019 ], [ 5.587456687362485, 51.899935249373932 ], [ 5.578890124363491, 51.901102266436048 ], [ 5.573595477001616, 51.901585238105163 ], [ 5.565276230748689, 51.901667763401719 ], [ 5.560166602342682, 51.901360984500343 ], [ 5.55392119106958, 51.900678308002398 ], [ 5.549980846520691, 51.900053887586992 ], [ 5.5444717081423, 51.898908064322086 ], [ 5.538697089164152, 51.897256245891121 ], [ 5.529088224653075, 51.893878525875074 ], [ 5.522557078456121, 51.892141163589287 ], [ 5.515887451837772, 51.890743985555254 ], [ 5.51396581410183, 51.895334426344469 ], [ 5.512803868320979, 51.895281422721439 ], [ 5.507585316352081, 51.895755865891232 ], [ 5.507038713703945, 51.896392406707193 ], [ 5.503226064458648, 51.895349185296062 ], [ 5.498741873873714, 51.894853148731507 ], [ 5.497452255451778, 51.895034647417575 ], [ 5.497650751977072, 51.891699021499768 ], [ 5.497616207112151, 51.888949452180171 ], [ 5.492851206119234, 51.888981564798868 ], [ 5.482129702723117, 51.889468963267547 ], [ 5.47216378296847, 51.889446329282187 ], [ 5.462686729220511, 51.888791443545919 ], [ 5.458125141345652, 51.888270438915818 ], [ 5.453460154860612, 51.887340815201277 ], [ 5.450630617644446, 51.886482576861376 ], [ 5.446919403139072, 51.885040988373653 ], [ 5.440755541500832, 51.881923276001402 ], [ 5.434152723867606, 51.877558641543999 ], [ 5.430466285707518, 51.874429671771253 ], [ 5.426097672377176, 51.870048325910446 ], [ 5.423333869821677, 51.866741698992755 ], [ 5.420951694664137, 51.863465779921974 ], [ 5.417865375354289, 51.857945823626096 ], [ 5.417028513387299, 51.855410807274502 ], [ 5.415291791965041, 51.85171928653984 ], [ 5.411501355643578, 51.852622861779004 ], [ 5.409866586163382, 51.853646910035515 ], [ 5.409617539567707, 51.853603854995221 ], [ 5.406069813703842, 51.849309941742433 ], [ 5.405832686614369, 51.847823112483191 ], [ 5.405336679593084, 51.846937602063406 ], [ 5.403499729401573, 51.845808986371935 ], [ 5.400662495084653, 51.845307951796649 ], [ 5.397773096083999, 51.844520685286454 ], [ 5.3975961967, 51.844591455500002 ], [ 5.3968697913, 51.843427701899998 ], [ 5.3964088524, 51.843327393300001 ], [ 5.3970500127, 51.842281608500002 ], [ 5.3965898632, 51.841941921699998 ], [ 5.3947444569, 51.841201885099998 ], [ 5.3933661327, 51.840876930599997 ], [ 5.3912403632, 51.840693530300001 ], [ 5.3921280724, 51.843464741399998 ], [ 5.3889612395, 51.843821019700002 ], [ 5.3889142785, 51.843598247300001 ], [ 5.3899076391, 51.840470593799999 ], [ 5.3898971846, 51.839609000800003 ], [ 5.3906243463, 51.837854079700001 ], [ 5.3897692667, 51.837422126 ], [ 5.3886488077, 51.836044004199998 ], [ 5.3835756373, 51.8375011595 ], [ 5.3831249285, 51.836937970699999 ], [ 5.383320817, 51.836279062300001 ], [ 5.3802177329, 51.836860049800002 ], [ 5.3796141197, 51.837194534799998 ], [ 5.3791313765, 51.837071665400003 ], [ 5.3787311264, 51.836651772300002 ], [ 5.3778388817, 51.834176495599998 ], [ 5.3784410907, 51.833726203499999 ], [ 5.3787179403, 51.8303901082 ], [ 5.3791630054, 51.829048010800001 ], [ 5.3791744137, 51.827912230599999 ], [ 5.3782244878, 51.825796023499997 ], [ 5.3763509956, 51.8241684961 ], [ 5.3731347254, 51.821946901700002 ], [ 5.370672947, 51.819037447500001 ], [ 5.3699622411, 51.819038556400002 ], [ 5.3697707343, 51.817681520400001 ], [ 5.3694212404, 51.816688376199998 ], [ 5.3686170897, 51.815160817100001 ], [ 5.3676558597, 51.8142860755 ], [ 5.3694262102, 51.812950604500003 ], [ 5.3693730706, 51.812751988899997 ], [ 5.3705237727, 51.811942134100001 ], [ 5.365741303, 51.808037085099997 ], [ 5.3641464095, 51.807116024499997 ], [ 5.3610632805, 51.805814252700003 ], [ 5.3571666482, 51.804734562900002 ], [ 5.3540721708, 51.804305925400001 ], [ 5.3504086806, 51.804062619900002 ], [ 5.3470242537, 51.804324653099997 ], [ 5.3467864131, 51.801823777400003 ], [ 5.3468964236, 51.800715432099999 ], [ 5.3466253021, 51.800628369400002 ], [ 5.3464829864, 51.801430949199997 ], [ 5.3454143106, 51.801934950499998 ], [ 5.3437690343, 51.802366834700003 ], [ 5.3420613558, 51.802547771599997 ], [ 5.3420086442, 51.802768890400003 ], [ 5.341840619, 51.802572276299998 ], [ 5.3406591868, 51.802799932799999 ], [ 5.3389972234, 51.803574077299999 ], [ 5.3371888762, 51.803982871899997 ], [ 5.3340110345, 51.805561381700002 ], [ 5.332382104, 51.807693654399998 ], [ 5.3313209427, 51.808697114 ], [ 5.3297830065, 51.809854264499997 ], [ 5.327463065, 51.8111570234 ], [ 5.3246212854, 51.813983606400001 ], [ 5.3245663353, 51.814072230800001 ], [ 5.3283956024, 51.815277176199999 ], [ 5.3261670869, 51.8170871158 ], [ 5.3235347671, 51.818751929500003 ], [ 5.3198397051, 51.820657326300001 ], [ 5.3156288293, 51.822150741100003 ], [ 5.3112817405, 51.823243671900002 ], [ 5.3046012359, 51.824063349699998 ], [ 5.297847435, 51.824157271600001 ], [ 5.2924737981, 51.8237544439 ], [ 5.2792124996, 51.820778284699998 ], [ 5.2779943709, 51.823209393100001 ], [ 5.2765141376, 51.822959577500001 ], [ 5.2762786352, 51.823132534599999 ], [ 5.2701594164, 51.824047372300001 ], [ 5.2678572481, 51.823382846599998 ], [ 5.2653000266, 51.823072910299999 ], [ 5.2624140442, 51.822110050900001 ], [ 5.2605914011, 51.8231387883 ], [ 5.2605000933, 51.823021109300001 ], [ 5.2612666398, 51.818814709800002 ], [ 5.2536917052, 51.818264368900003 ], [ 5.2472411493, 51.817232440200002 ], [ 5.2465813517, 51.819586646300003 ], [ 5.247315844, 51.820157187299998 ], [ 5.2481207801, 51.821258559699999 ], [ 5.2480526166, 51.821889782299998 ], [ 5.2488353282, 51.822265826200002 ], [ 5.2495675492, 51.822902423899997 ], [ 5.2495099116, 51.823223229299998 ], [ 5.2396309978, 51.8211172882 ], [ 5.2368469536, 51.820723602500003 ], [ 5.2355761817, 51.8190059557 ], [ 5.2351793361, 51.816978238099999 ], [ 5.2340802768, 51.816148475200002 ], [ 5.2352861411, 51.814539284 ], [ 5.2275373916, 51.812386191500003 ], [ 5.2203655024, 51.810923694400003 ], [ 5.2247288727, 51.808096696200003 ], [ 5.2232795642, 51.807446149 ], [ 5.222889357, 51.8073773773 ], [ 5.2226510248, 51.807561861799996 ], [ 5.2189538302, 51.806535087 ], [ 5.20777414, 51.804453278499999 ], [ 5.2023774115, 51.804178761700001 ], [ 5.199018743, 51.8045013192 ], [ 5.1933817605, 51.805638221599999 ], [ 5.192778324, 51.805534147899998 ], [ 5.192726955, 51.806538497299996 ], [ 5.1929275543, 51.807359256600002 ], [ 5.1927987218, 51.808245347700002 ], [ 5.1917651684, 51.808963902400002 ], [ 5.1926395903, 51.809570254100002 ], [ 5.1926348623, 51.809725324399999 ], [ 5.1911492809, 51.809065651399997 ], [ 5.1877260449, 51.8105289254 ], [ 5.1853446926, 51.8120728476 ], [ 5.1854688096, 51.81246426 ], [ 5.1829515493, 51.813477719600002 ], [ 5.181548519, 51.813590343199998 ], [ 5.1798487484, 51.813119020099997 ], [ 5.179078429, 51.813215574399997 ], [ 5.1790159141, 51.812934239100002 ], [ 5.1775912966, 51.8126708319 ], [ 5.1753943607, 51.811859410700002 ], [ 5.1723642267, 51.811152164399999 ], [ 5.171315697, 51.8114421999 ], [ 5.1712279639, 51.811305810699999 ], [ 5.1714601172, 51.810982165299997 ], [ 5.1641604185, 51.809901564100002 ], [ 5.1603482982, 51.809976818400003 ], [ 5.1601250822, 51.809769630200002 ], [ 5.1591732916, 51.809588893300003 ], [ 5.1572737175, 51.8094559528 ], [ 5.1562101399, 51.809574814 ], [ 5.1544655792, 51.810075161900002 ], [ 5.1516247271, 51.810138976399998 ], [ 5.1517028528, 51.810976752 ], [ 5.148877176893023, 51.814940610650666 ], [ 5.159380306671469, 51.816482482944629 ], [ 5.159257724862575, 51.820589746303511 ], [ 5.158582684133867, 51.823129453664656 ], [ 5.15757470603861, 51.82517107709166 ], [ 5.155532790329789, 51.827905418179888 ], [ 5.155639671280104, 51.828349888291967 ], [ 5.155206370474572, 51.828485601028753 ], [ 5.154323680088464, 51.829407722928529 ], [ 5.152551737632507, 51.831657142526559 ], [ 5.153065705418432, 51.838168678843068 ], [ 5.154185351637593, 51.847440823737145 ], [ 5.149681205545344, 51.847407385219299 ], [ 5.149672664370375, 51.847814921976948 ], [ 5.149374820837368, 51.848212446395365 ], [ 5.150633452867559, 51.861411166848278 ], [ 5.140562978568593, 51.870702504198853 ], [ 5.138619124969755, 51.872659650172189 ], [ 5.13715892587658, 51.872128528176923 ], [ 5.135378260772375, 51.87123149405744 ], [ 5.133431442562634, 51.870866879150412 ], [ 5.129727417606059, 51.870534457725796 ], [ 5.128331494915888, 51.870136420802986 ], [ 5.127623468199932, 51.869473581210734 ], [ 5.126149041720545, 51.869106148373604 ], [ 5.123965085059057, 51.869156281559292 ], [ 5.123015908125623, 51.86898813147036 ], [ 5.122134847124467, 51.869339377361847 ], [ 5.121983406568152, 51.869514197887604 ], [ 5.12230900054312, 51.86967867151656 ], [ 5.12213142929551, 51.870849724091933 ], [ 5.121506883544539, 51.871068284263117 ], [ 5.120532568034719, 51.871742371680632 ], [ 5.119152223213219, 51.873450242613522 ], [ 5.118605806084656, 51.874802832551609 ], [ 5.118211514093296, 51.87753075184844 ], [ 5.118982280970218, 51.877677710607585 ], [ 5.120640915698957, 51.879693641162817 ], [ 5.120492090603492, 51.87985224145752 ], [ 5.120600669080521, 51.880958422184115 ], [ 5.1208558424877, 51.881040323156938 ], [ 5.121044675364773, 51.882783576044979 ], [ 5.120947405309177, 51.883329662852347 ], [ 5.119756167035464, 51.884627206068508 ], [ 5.119102508041738, 51.885059873818932 ], [ 5.118350019625429, 51.886006384737719 ], [ 5.115960181940965, 51.887346638098791 ], [ 5.114204870819528, 51.889038095035595 ], [ 5.115512602048645, 51.890409685306587 ], [ 5.117172404473984, 51.891658601287169 ], [ 5.117766390156256, 51.892538968689891 ], [ 5.118598357417898, 51.896386697675695 ], [ 5.117054758641959, 51.896984454767527 ], [ 5.117020605401193, 51.898034872828511 ], [ 5.117386971399486, 51.898160841195491 ], [ 5.119082825320092, 51.898171111154909 ], [ 5.119480119929483, 51.898535102286033 ], [ 5.13232062328246, 51.914777779729079 ], [ 5.135708810021895, 51.914096091365273 ], [ 5.136509710575721, 51.914441120146115 ], [ 5.136750694020568, 51.914818027038514 ], [ 5.136265143742411, 51.917758451106003 ], [ 5.135800710780819, 51.918212888620872 ], [ 5.142284678355008, 51.924676869693592 ], [ 5.14853671828898, 51.929421231188286 ], [ 5.149106861403068, 51.930546177954334 ], [ 5.148115816569142, 51.931831434164792 ], [ 5.14806048389018, 51.932128740063519 ], [ 5.148353154087621, 51.932671480797488 ], [ 5.149445282616815, 51.933426462648292 ], [ 5.15069338565388, 51.933221461760212 ], [ 5.151541025162022, 51.933547873984651 ], [ 5.154038786734478, 51.937226022807046 ], [ 5.162597322290496, 51.946069856134592 ], [ 5.163505833600673, 51.946793854167481 ], [ 5.169739726963717, 51.955409572031485 ], [ 5.18025257161896, 51.967327607237479 ], [ 5.189681708404544, 51.962822117532625 ], [ 5.193330610242925, 51.961499506207645 ], [ 5.196078224554887, 51.960709948651299 ], [ 5.200230559461149, 51.959840479705747 ], [ 5.203076435664306, 51.95946269173762 ], [ 5.207436759266306, 51.959377991185512 ], [ 5.210296694059675, 51.959749001355995 ], [ 5.213453384451092, 51.960553666364028 ], [ 5.215482210168714, 51.961355292025132 ], [ 5.217714863621222, 51.962490268020019 ], [ 5.219798413901962, 51.963791049237578 ], [ 5.221576612648111, 51.96521296613318 ], [ 5.22444754784183, 51.968217874821249 ], [ 5.227272893915889, 51.972544518725179 ], [ 5.228501953744847, 51.974087883632542 ], [ 5.229976594216302, 51.975571996513004 ], [ 5.231945389886082, 51.976906500494081 ], [ 5.233048827285525, 51.977459696644679 ], [ 5.235490058953632, 51.978373418584695 ], [ 5.236882099867536, 51.978658478394955 ], [ 5.239779256168589, 51.978839554190301 ], [ 5.241156490369273, 51.978769284815158 ], [ 5.242646556825034, 51.978576242296967 ], [ 5.245227269782133, 51.977904956516426 ], [ 5.247521646986047, 51.976820767592343 ], [ 5.254134519054431, 51.972043940073469 ], [ 5.258504807182984, 51.969672779981245 ], [ 5.264528410126745, 51.967191586807772 ], [ 5.272385652816191, 51.964752923506943 ], [ 5.276505254100967, 51.963920934267563 ], [ 5.284071868176946, 51.962881977240016 ], [ 5.289115027477602, 51.962411961711219 ], [ 5.296641215023325, 51.962048965038925 ], [ 5.300871483395343, 51.96147109185916 ], [ 5.304553084547291, 51.960187417136446 ], [ 5.310784852445309, 51.95718844443109 ], [ 5.310725827042205, 51.956958998231826 ], [ 5.314823940028512, 51.955525597010883 ], [ 5.31831044454634, 51.954919954184845 ], [ 5.321608217057705, 51.954819216178358 ], [ 5.323455899886674, 51.9549985201186 ], [ 5.329097883789425, 51.956042681408015 ], [ 5.33272832494747, 51.956970513399945 ], [ 5.335261844944155, 51.957952962502546 ], [ 5.338379127249704, 51.959870311891557 ], [ 5.343618246193624, 51.963860339814346 ], [ 5.347149590394824, 51.966913740088302 ], [ 5.350277452478515, 51.968576759166233 ], [ 5.354063403875201, 51.969885145868354 ], [ 5.357687130775472, 51.97059538714359 ], [ 5.361844454717708, 51.970866376848598 ], [ 5.366199314830485, 51.970572323991938 ], [ 5.372505502108697, 51.969487303842428 ], [ 5.376903698441957, 51.969061523142337 ], [ 5.382002292002239, 51.969099449788658 ], [ 5.387086603385784, 51.969732152393298 ], [ 5.391000861034238, 51.970633319836963 ], [ 5.395921928516047, 51.972145422060073 ], [ 5.399358294810169, 51.97300493467641 ], [ 5.413533559662596, 51.975331447056462 ], [ 5.418185344633505, 51.976510238086973 ], [ 5.420635767744844, 51.977390944544808 ], [ 5.423413218757657, 51.978668571213362 ], [ 5.431345504681985, 51.983633840757598 ], [ 5.433897902136134, 51.984642441484326 ], [ 5.437340277888387, 51.985462977121266 ], [ 5.44060604442274, 51.98581784062155 ], [ 5.44464634417994, 51.985702121009531 ], [ 5.448379645494862, 51.985064263607669 ], [ 5.452345360018641, 51.983910621146556 ], [ 5.453873749886268, 51.983610183577603 ], [ 5.462681642286986, 51.983433224028047 ], [ 5.470987799141768, 51.982887250609345 ], [ 5.473229119341911, 51.982891160529817 ], [ 5.481514353785919, 51.983788909221495 ], [ 5.485026782260763, 51.983805581635131 ], [ 5.486050140107299, 51.983734468196204 ], [ 5.485882111759282, 51.98319123236039 ], [ 5.488657029197367, 51.982739793089912 ], [ 5.491846104868567, 51.981760702691119 ], [ 5.500711267563256, 51.978500181369412 ], [ 5.50800326474007, 51.974822145953667 ], [ 5.51245559328148, 51.972984768637339 ], [ 5.516931666630935, 51.97184124897349 ], [ 5.53606616669562, 51.968503322699789 ], [ 5.538907107829494, 51.96773325126636 ], [ 5.541295165332992, 51.966557579732516 ], [ 5.542341858076145, 51.965778473681489 ], [ 5.545642802945146, 51.962181588009912 ], [ 5.548152793155729, 51.960060188610122 ], [ 5.549503783554615, 51.959114931772412 ], [ 5.552701317815603, 51.957308798703551 ], [ 5.556903639210326, 51.955615674560192 ], [ 5.561236940051454, 51.954403013547783 ], [ 5.575561063749724, 51.952727408796996 ], [ 5.586117432170698, 51.950826895146342 ], [ 5.59096312893522, 51.949679898455813 ], [ 5.594401848078749, 51.948401867252528 ], [ 5.597386587023689, 51.947006099212047 ], [ 5.601961950278688, 51.944532846069841 ], [ 5.605753374504613, 51.943063992312574 ], [ 5.610105982414502, 51.942134837133572 ], [ 5.618959981808753, 51.941227441673966 ], [ 5.618958881263973, 51.940406309825356 ], [ 5.619730073529262, 51.93997571437221 ], [ 5.622683366852258, 51.939690806941528 ], [ 5.625565279668549, 51.938422795921674 ], [ 5.628305756300536, 51.936791842342927 ], [ 5.629875746690667, 51.936363033504243 ], [ 5.635077510831132, 51.936392765464106 ], [ 5.637306783404895, 51.936906876460647 ], [ 5.637494589431776, 51.936775129547179 ], [ 5.641895227674027, 51.937640315655855 ], [ 5.640790552336635, 51.939527270041793 ], [ 5.64104709035927, 51.939694197987492 ], [ 5.641460074549876, 51.940473621937187 ], [ 5.642688283783395, 51.941504899181069 ], [ 5.642744331417711, 51.941784539812822 ], [ 5.64318796556585, 51.942172825022489 ], [ 5.643584694907317, 51.942856733092675 ], [ 5.644043687579928, 51.943040279157771 ], [ 5.645088981839693, 51.94417980369257 ], [ 5.645306723196208, 51.944643244620671 ], [ 5.645126129399256, 51.945188707315722 ], [ 5.645391571692559, 51.946613558425334 ], [ 5.646558251721608, 51.947479740702491 ], [ 5.647965026712128, 51.949310076147299 ], [ 5.649717012434851, 51.949991094354282 ], [ 5.649606715899625, 51.950152900649499 ], [ 5.647072318071404, 51.950714585562878 ], [ 5.64625143876035, 51.950685880968713 ], [ 5.644216705482666, 51.952205817565876 ], [ 5.646416116893045, 51.953235272719731 ], [ 5.64893572283909, 51.953901496931124 ], [ 5.652155129061114, 51.953894855899605 ], [ 5.653748024783266, 51.953811108508397 ], [ 5.660856471392517, 51.952650329280409 ], [ 5.662192222741195, 51.952543254600023 ], [ 5.666021475357783, 51.952702501636622 ], [ 5.665176200667669, 51.95220225364443 ] ], [ [ 5.507279027191445, 51.896608467789299 ], [ 5.509391403119576, 51.897232884848236 ], [ 5.511771325942608, 51.897471772346435 ], [ 5.510195526735716, 51.899595796354859 ], [ 5.506870618619088, 51.899218693738121 ], [ 5.507279027191445, 51.896608467789299 ] ] ] } }
]
}
