{
"type": "FeatureCollection",
"name": "SWVPO3104",
"crs": { "type": "name", "properties": { "name": "urn:ogc:def:crs:OGC:1.3:CRS84" } },
"features": [
{ "type": "Feature", "properties": { "PO SWV": "PO3104", "strokeColor": "#A9A9A9", "strokeWidth": 2, "fillColor": "#ADD8E6" }, "geometry": { "type": "Polygon", "coordinates": [ [ [ 5.734220057433489, 50.972807345116443 ], [ 5.735293639828221, 50.97440955123006 ], [ 5.736290012233066, 50.977963560575368 ], [ 5.7372306693861, 50.978767359032155 ], [ 5.738276740513644, 50.979468350238022 ], [ 5.739761475067573, 50.979896834700199 ], [ 5.745261834571875, 50.980367273019361 ], [ 5.746607660573373, 50.980757555202132 ], [ 5.749826318938948, 50.982618540443148 ], [ 5.750748226609114, 50.983355040874869 ], [ 5.751413866714327, 50.98419815049737 ], [ 5.752301114013178, 50.985827815061796 ], [ 5.752566585948959, 50.986783071757756 ], [ 5.753709503539024, 50.987448508897756 ], [ 5.755028525216024, 50.989011255148704 ], [ 5.754922676010057, 50.990143814714564 ], [ 5.75567474790367, 50.990930877100183 ], [ 5.757415819725862, 50.992416684766347 ], [ 5.759627326801363, 50.993552260346178 ], [ 5.763682946361543, 50.996081154153728 ], [ 5.764881404566079, 50.996603944373554 ], [ 5.766421264540511, 50.998168933282756 ], [ 5.767529655153028, 50.999768664620326 ], [ 5.767540758090662, 51.002486197155683 ], [ 5.767342028275238, 51.004323803935634 ], [ 5.765970291000922, 51.006899385178201 ], [ 5.765868080429911, 51.009642017626192 ], [ 5.766183968019714, 51.010598364152592 ], [ 5.766877375576234, 51.01241054569347 ], [ 5.767421959852399, 51.013325523835661 ], [ 5.768110305402732, 51.014018240446696 ], [ 5.76926441897999, 51.014783732577641 ], [ 5.769779396982864, 51.015662202429219 ], [ 5.771482507647492, 51.017061329281049 ], [ 5.771961445222874, 51.01795148234892 ], [ 5.775558913619008, 51.020742142913122 ], [ 5.776333526230728, 51.022470102437879 ], [ 5.776310438650571, 51.023279006116589 ], [ 5.774838073129003, 51.025918260828632 ], [ 5.772809641427773, 51.027340163103347 ], [ 5.769199576277813, 51.028682458063933 ], [ 5.762417768340291, 51.029930803717932 ], [ 5.760799033789489, 51.029908174077136 ], [ 5.759679593049167, 51.030534463546253 ], [ 5.758830247811791, 51.031226694992888 ], [ 5.758212922289088, 51.032006038390115 ], [ 5.757902824710349, 51.033675677562655 ], [ 5.758297608672706, 51.035060750138001 ], [ 5.75954104286751, 51.036806923747747 ], [ 5.762323292449228, 51.038816612314079 ], [ 5.76269797470751, 51.039712723680758 ], [ 5.763385368269623, 51.040540792292049 ], [ 5.765519866730991, 51.041796866853758 ], [ 5.766331364512568, 51.042591590158949 ], [ 5.767967281627568, 51.045019111359231 ], [ 5.768186069347845, 51.045937501935697 ], [ 5.769042124281981, 51.046726609452719 ], [ 5.770663142345806, 51.049224172586577 ], [ 5.77080872026032, 51.050169048228945 ], [ 5.771712070158506, 51.051875551480478 ], [ 5.772173724337499, 51.054563364342997 ], [ 5.77197412969302, 51.055482638991684 ], [ 5.772458684645494, 51.056313570839762 ], [ 5.772289575059278, 51.05716064103855 ], [ 5.772401598308954, 51.05807162758299 ], [ 5.77221401956186, 51.058936751753905 ], [ 5.771569532780495, 51.059896285291515 ], [ 5.772492057947181, 51.061681798898846 ], [ 5.774625953050654, 51.063072303380679 ], [ 5.776212111953838, 51.063209083029953 ], [ 5.777698954722433, 51.063129409347823 ], [ 5.780495676311499, 51.062688880284888 ], [ 5.783275499267422, 51.061955244180105 ], [ 5.786839748424873, 51.060464157979382 ], [ 5.787882036564345, 51.059796481081818 ], [ 5.789225202190824, 51.059564251892674 ], [ 5.79049221007469, 51.059002082849865 ], [ 5.793180203684805, 51.058626986151914 ], [ 5.796106942345418, 51.058950597826247 ], [ 5.79742426781101, 51.059252861221005 ], [ 5.798723884813638, 51.05975738271168 ], [ 5.799346331814855, 51.06017152395723 ], [ 5.800552394160324, 51.059412725400371 ], [ 5.800637405872163, 51.059577732715297 ], [ 5.801828714958832, 51.059314716424737 ], [ 5.802996170439768, 51.058643994577601 ], [ 5.80293343194846, 51.058378213388366 ], [ 5.80328812308589, 51.057705218875533 ], [ 5.806190980675257, 51.058186285915816 ], [ 5.80657264555316, 51.05755387602342 ], [ 5.806940990357552, 51.057614377499135 ], [ 5.807589440069183, 51.058194201569961 ], [ 5.808084577620497, 51.059226616154838 ], [ 5.808656027056921, 51.05941987951546 ], [ 5.809298289553332, 51.059259361805637 ], [ 5.813440388582984, 51.065606401695803 ], [ 5.819547717337643, 51.072675572662334 ], [ 5.820498189315477, 51.072689869706508 ], [ 5.823322835938304, 51.075916564831736 ], [ 5.824047038848071, 51.075746787047549 ], [ 5.824680665136385, 51.076806879682849 ], [ 5.825431544476293, 51.076474825728191 ], [ 5.826779787815619, 51.078978041770014 ], [ 5.827050782618548, 51.078789896235172 ], [ 5.825972505260609, 51.076726689636935 ], [ 5.826005282073059, 51.075927980564657 ], [ 5.828052870642068, 51.074180412910216 ], [ 5.83139733877075, 51.073244869056218 ], [ 5.833552310313963, 51.07077075758113 ], [ 5.833258106607533, 51.070634033177583 ], [ 5.832253107019434, 51.07069060037125 ], [ 5.830763195556673, 51.070515433312103 ], [ 5.828673275313477, 51.0693771921568 ], [ 5.827421466234988, 51.070039612602386 ], [ 5.826071538767502, 51.068996260755505 ], [ 5.824551556174391, 51.068147509787799 ], [ 5.824413387400545, 51.067920690243035 ], [ 5.825129624533365, 51.064607808810429 ], [ 5.82653335364703, 51.062346174725398 ], [ 5.826255970302935, 51.06011917804345 ], [ 5.826300027204824, 51.05913495756154 ], [ 5.827181856558502, 51.05523890820276 ], [ 5.827495897453524, 51.054418320475989 ], [ 5.82735553452397, 51.053874617688592 ], [ 5.827544150166287, 51.050147787018226 ], [ 5.82735029141035, 51.047946033318397 ], [ 5.829244980172518, 51.048397188686835 ], [ 5.835066295869058, 51.049125180896397 ], [ 5.838019062072136, 51.046770519131421 ], [ 5.839747665925289, 51.046511753545602 ], [ 5.841282271341961, 51.045846353247768 ], [ 5.842406573574472, 51.046554105533744 ], [ 5.843643377186415, 51.045723823294388 ], [ 5.844149400843015, 51.045916480892089 ], [ 5.84398817968389, 51.046442089992098 ], [ 5.846208426085616, 51.046889136828469 ], [ 5.846168492224443, 51.047243742395153 ], [ 5.848519592273017, 51.047791729687354 ], [ 5.851659143594684, 51.047763050911435 ], [ 5.851664321603794, 51.047236366973401 ], [ 5.851989718730488, 51.047264111717531 ], [ 5.854631352972371, 51.044863260433146 ], [ 5.854896809492996, 51.043653187070184 ], [ 5.855333431131683, 51.042862269668632 ], [ 5.855105050146481, 51.041408489108804 ], [ 5.854711009047934, 51.041223080335264 ], [ 5.854933697962672, 51.040526233385776 ], [ 5.851726351602857, 51.040382152236781 ], [ 5.85284274115006, 51.038121705195358 ], [ 5.851658195218373, 51.037464123924494 ], [ 5.850417241968928, 51.038979297337264 ], [ 5.849743295663255, 51.03939026395571 ], [ 5.847553463900413, 51.038973325621683 ], [ 5.850212844935946, 51.033940541089876 ], [ 5.850427985791019, 51.033925682719662 ], [ 5.852691705002261, 51.029426726778063 ], [ 5.85267723211051, 51.029240515919675 ], [ 5.852430488177506, 51.029217522815181 ], [ 5.852552803931453, 51.02908730795837 ], [ 5.852394079601771, 51.028979857863931 ], [ 5.852458127928053, 51.028847148387328 ], [ 5.853045897070883, 51.028713105071823 ], [ 5.853938253266933, 51.028959588745565 ], [ 5.855567903262444, 51.028407863982331 ], [ 5.85751410597617, 51.028230999238346 ], [ 5.862218163516137, 51.028593146860125 ], [ 5.862225975417627, 51.029084138693818 ], [ 5.861488655779386, 51.03147838099504 ], [ 5.861597052165354, 51.031757410227179 ], [ 5.861418781192731, 51.032329649244303 ], [ 5.86460685241266, 51.032987040608035 ], [ 5.866356287596826, 51.032182454289021 ], [ 5.866978903726522, 51.032705607214233 ], [ 5.871834921812043, 51.030707211165712 ], [ 5.876947996545815, 51.031646917320273 ], [ 5.876839613350857, 51.031328122875273 ], [ 5.874703495397292, 51.029204974721466 ], [ 5.875452700218718, 51.026857400488886 ], [ 5.876703315819795, 51.024766931306836 ], [ 5.876781634281005, 51.023809548841555 ], [ 5.879021366288719, 51.020595402020398 ], [ 5.879079767351855, 51.019912331465321 ], [ 5.87866201024512, 51.018693232809945 ], [ 5.878984111833492, 51.017908466129349 ], [ 5.884280130159311, 51.013494883352529 ], [ 5.885448170333189, 51.013915988551624 ], [ 5.888363032866899, 51.013570511411388 ], [ 5.892723499028454, 51.012401103317046 ], [ 5.895804127179526, 51.011095430834985 ], [ 5.895579222880162, 51.004608834708542 ], [ 5.905613331720275, 51.002200253359888 ], [ 5.904450546736077, 50.996126254626709 ], [ 5.903810103299158, 50.987144596176286 ], [ 5.900378003175853, 50.984676013134944 ], [ 5.899573639615043, 50.984260981264569 ], [ 5.89577645371909, 50.98128944422573 ], [ 5.893833626838869, 50.98100039757928 ], [ 5.892973083033085, 50.980539176495014 ], [ 5.892814188116377, 50.980295303961881 ], [ 5.893854891357689, 50.979630590292921 ], [ 5.89572487836273, 50.977380370631195 ], [ 5.89622970500847, 50.977179994708116 ], [ 5.896873685632999, 50.976550031804678 ], [ 5.897168800937434, 50.97496194101906 ], [ 5.902433550926001, 50.974681533032495 ], [ 5.90469071470675, 50.974652580114224 ], [ 5.905578864197616, 50.97481791950981 ], [ 5.911698336943706, 50.976504971825179 ], [ 5.915997077736921, 50.978007950539919 ], [ 5.917177544777815, 50.978183387277532 ], [ 5.918546361548275, 50.977851435594943 ], [ 5.922890830920815, 50.97961221317825 ], [ 5.922867933519835, 50.979439884619694 ], [ 5.925239129385529, 50.977778540807613 ], [ 5.925773552952495, 50.977093428280646 ], [ 5.92574858000336, 50.976440879257098 ], [ 5.918498574522155, 50.972931001468822 ], [ 5.916758296952471, 50.972479921889864 ], [ 5.914471923628694, 50.972298655015599 ], [ 5.914460399103486, 50.972098230523997 ], [ 5.914815555269017, 50.971856891315156 ], [ 5.913992781001054, 50.971309563147507 ], [ 5.913979761253044, 50.971134625787009 ], [ 5.915409186137564, 50.970520347863129 ], [ 5.916159302180763, 50.970405284096287 ], [ 5.91595502122271, 50.970075959732704 ], [ 5.915199625971141, 50.970044190434386 ], [ 5.912697686635053, 50.967991664114379 ], [ 5.914315397152914, 50.967512608867906 ], [ 5.915573604126275, 50.967331801411611 ], [ 5.917489716388542, 50.967517849674969 ], [ 5.921108525974921, 50.963685742680504 ], [ 5.922536541403406, 50.962902314208797 ], [ 5.918615182120008, 50.960017187054163 ], [ 5.918918430859598, 50.959668503356447 ], [ 5.920412729448801, 50.959169758977666 ], [ 5.921506437314447, 50.958592770743863 ], [ 5.918120447260451, 50.957266581899049 ], [ 5.912190815176039, 50.95968323516027 ], [ 5.911293734866771, 50.959959579058513 ], [ 5.911053179435458, 50.959914927497628 ], [ 5.910994522535575, 50.959722758300956 ], [ 5.91399296724637, 50.958711742405846 ], [ 5.917783400078476, 50.95706409302143 ], [ 5.917520789382865, 50.956894489666972 ], [ 5.917542225690229, 50.956755082599152 ], [ 5.922048093186892, 50.954660505862499 ], [ 5.922407202416439, 50.954898279782903 ], [ 5.926334470458273, 50.953147735902753 ], [ 5.92996374164797, 50.951915479931628 ], [ 5.92990173921851, 50.951597014797315 ], [ 5.942134541839491, 50.948965286529869 ], [ 5.941738107447333, 50.948506454498762 ], [ 5.94082758634301, 50.94799097720788 ], [ 5.935968964652334, 50.946404943838708 ], [ 5.931319900366812, 50.94161629797437 ], [ 5.933746476068297, 50.938790055909152 ], [ 5.934816991533048, 50.938540229390497 ], [ 5.931613325082689, 50.937359278898356 ], [ 5.926413406250343, 50.935909540624046 ], [ 5.922062811444206, 50.934098500323422 ], [ 5.919471478656456, 50.932742146182619 ], [ 5.918846869322061, 50.93366788975775 ], [ 5.917540214036769, 50.934510294111718 ], [ 5.915845144209438, 50.934164152244833 ], [ 5.912419621474295, 50.93509074424653 ], [ 5.908240757908023, 50.933560465126405 ], [ 5.905223148520896, 50.932956798055677 ], [ 5.903798314170403, 50.932834320077141 ], [ 5.901965072827247, 50.932987545670954 ], [ 5.900029377117909, 50.932880960388459 ], [ 5.898609112372753, 50.932368616899005 ], [ 5.89708404774972, 50.932077513391512 ], [ 5.89477166480678, 50.931084303785163 ], [ 5.893732419247807, 50.931028452911796 ], [ 5.892087390255091, 50.930345896888717 ], [ 5.891628457713054, 50.932443769284987 ], [ 5.890096223615727, 50.934798368671657 ], [ 5.888260851325192, 50.934382188309577 ], [ 5.884244163778415, 50.933015684736617 ], [ 5.882039722468033, 50.932563383393145 ], [ 5.877401500797137, 50.931205586765074 ], [ 5.872898294958992, 50.929446662328743 ], [ 5.869457283270743, 50.928341488998029 ], [ 5.869426331961318, 50.928180083678249 ], [ 5.87048370014279, 50.927290001952159 ], [ 5.868068294789611, 50.926387321492257 ], [ 5.86658763492549, 50.92494207696739 ], [ 5.864738110682751, 50.92552685814551 ], [ 5.864531277564683, 50.925387977339909 ], [ 5.861224665632599, 50.9256148503285 ], [ 5.856853790668634, 50.92676655768679 ], [ 5.85524870119899, 50.926532557088791 ], [ 5.852803236399748, 50.925406066228504 ], [ 5.852559490873319, 50.925470254939725 ], [ 5.851176149542746, 50.924890839954003 ], [ 5.84972721711849, 50.92413799393865 ], [ 5.84720607282525, 50.925869921500798 ], [ 5.842820381909154, 50.920794958536312 ], [ 5.841291501103925, 50.919717549167679 ], [ 5.834015131234024, 50.920118787137554 ], [ 5.83325012828601, 50.92054749576404 ], [ 5.83332160701381, 50.920017686429588 ], [ 5.831156403056847, 50.91943663516836 ], [ 5.831795336435999, 50.917430674995991 ], [ 5.831525251123165, 50.917277148558014 ], [ 5.819375621138263, 50.915828319415461 ], [ 5.818933907502819, 50.916227049757744 ], [ 5.80173093089935, 50.914232649476396 ], [ 5.800593402309013, 50.914757116329028 ], [ 5.792667121031797, 50.910656734152944 ], [ 5.790655883287468, 50.91023655623124 ], [ 5.789646677623554, 50.911147876060546 ], [ 5.787950395483801, 50.911921578921785 ], [ 5.78668291805169, 50.911977099358509 ], [ 5.77770711511727, 50.910946564676664 ], [ 5.775911474469418, 50.911676746921465 ], [ 5.774621204191191, 50.911366776219175 ], [ 5.773866000377414, 50.910605087684146 ], [ 5.773688721976345, 50.910597228270525 ], [ 5.768417047497829, 50.906504710860631 ], [ 5.767013584636186, 50.905736451576637 ], [ 5.764451964487682, 50.903244366618615 ], [ 5.763328267053087, 50.902618001123138 ], [ 5.760447627828762, 50.899831598527577 ], [ 5.758948052383481, 50.898727408619699 ], [ 5.758164053172063, 50.898605116274567 ], [ 5.755596118221635, 50.899667036240643 ], [ 5.756446598090414, 50.900465459171016 ], [ 5.757778125690413, 50.902648925869883 ], [ 5.759017392375229, 50.905332173967913 ], [ 5.758509898065645, 50.905750466241628 ], [ 5.75879539389018, 50.906270422149134 ], [ 5.76246661083768, 50.910901230910056 ], [ 5.765907632655072, 50.914706865241897 ], [ 5.76712420479437, 50.914932720463135 ], [ 5.76817929842972, 50.915814932286892 ], [ 5.768330349058329, 50.916171962328171 ], [ 5.768613578463094, 50.916197965332508 ], [ 5.768535480966627, 50.916410573383878 ], [ 5.769508201026948, 50.917066422475813 ], [ 5.770710842731337, 50.918338063486019 ], [ 5.775344677639373, 50.925885831374153 ], [ 5.773573547661201, 50.926420349805852 ], [ 5.772886557773496, 50.926896477883965 ], [ 5.77254124255019, 50.927340350594051 ], [ 5.771139352489995, 50.927804718902472 ], [ 5.771065057649286, 50.92797866264889 ], [ 5.769048361385456, 50.92892703956489 ], [ 5.768499411826872, 50.928307639327016 ], [ 5.761269347054119, 50.930519815060933 ], [ 5.761621069978333, 50.93114065484972 ], [ 5.761555839227969, 50.931272876487242 ], [ 5.75746809260742, 50.932401870843378 ], [ 5.757017652899187, 50.931565092142726 ], [ 5.755501834300567, 50.931842284878748 ], [ 5.754954095716702, 50.932291666539186 ], [ 5.754867024164335, 50.932908890426305 ], [ 5.753900695854308, 50.933850155227681 ], [ 5.752865743542839, 50.934294492675249 ], [ 5.752540884398349, 50.934278416298262 ], [ 5.748698295179942, 50.93596854271761 ], [ 5.750216910594407, 50.93922647739506 ], [ 5.748488776278918, 50.939111617223574 ], [ 5.749097992991755, 50.940179349444399 ], [ 5.748999259083947, 50.941042721061919 ], [ 5.748192829384745, 50.942107975927378 ], [ 5.746740420852904, 50.943236719552445 ], [ 5.746597634044488, 50.943105105388078 ], [ 5.745925026374572, 50.943484745671313 ], [ 5.746065445723135, 50.94361343149825 ], [ 5.746228726382363, 50.945410596677839 ], [ 5.745790504469359, 50.946545228258287 ], [ 5.746545574949773, 50.947393847644676 ], [ 5.751542035418854, 50.94933585728468 ], [ 5.75293379932312, 50.949703765966625 ], [ 5.755649257926582, 50.949940571871466 ], [ 5.75804554733694, 50.950832656122863 ], [ 5.758734385683609, 50.951707760021002 ], [ 5.759084139516912, 50.952558845967069 ], [ 5.759024952068383, 50.953546677637782 ], [ 5.758709496258123, 50.954377018959825 ], [ 5.756726575528694, 50.956832998184964 ], [ 5.755985016572184, 50.957644118464195 ], [ 5.752790590140791, 50.959569636082563 ], [ 5.7504908606964, 50.960645706022127 ], [ 5.747599976081605, 50.961335436955601 ], [ 5.746222716225308, 50.961544350730833 ], [ 5.744653681932462, 50.961439970112288 ], [ 5.742083087978838, 50.960471093324159 ], [ 5.74008731245189, 50.959120462462479 ], [ 5.739400727662497, 50.958368729715353 ], [ 5.739061806948061, 50.957346728553105 ], [ 5.735315232424965, 50.955970992143136 ], [ 5.734188793213823, 50.955355387105911 ], [ 5.731248489612598, 50.954776651883556 ], [ 5.728089756955357, 50.954865043710775 ], [ 5.725292922569442, 50.95546316188716 ], [ 5.723023427931805, 50.956367964307795 ], [ 5.721948900308004, 50.957057229408584 ], [ 5.721179279035585, 50.957851468486119 ], [ 5.71981858764113, 50.959534365858843 ], [ 5.719534237129738, 50.960499701575984 ], [ 5.719689248360462, 50.961535759239752 ], [ 5.720054820449704, 50.962490048047279 ], [ 5.721709027399662, 50.964169415780319 ], [ 5.724214272520462, 50.966291764409441 ], [ 5.72561401700267, 50.966772982785145 ], [ 5.726381558530946, 50.967507361267756 ], [ 5.726972757471438, 50.968384568770425 ], [ 5.727942252937457, 50.969096799986822 ], [ 5.728488057749334, 50.96995581102496 ], [ 5.731884367438346, 50.971672531668453 ], [ 5.733311367404411, 50.971955621688501 ], [ 5.734220057433489, 50.972807345116443 ] ] ] } }
]
}
