{
"type": "FeatureCollection",
"name": "SWVPO3007",
"crs": { "type": "name", "properties": { "name": "urn:ogc:def:crs:OGC:1.3:CRS84" } },
"features": [
{ "type": "Feature", "properties": { "PO SWV": "PO3007", "strokeColor": "#A9A9A9", "strokeWidth": 2, "fillColor": "#ADD8E6" }, "geometry": { "type": "Polygon", "coordinates": [ [ [ 5.357356715148686, 51.544805782757471 ], [ 5.365175216920785, 51.545102933986385 ], [ 5.367780563484028, 51.544352882125665 ], [ 5.368554083880849, 51.543910886168192 ], [ 5.368610982443569, 51.543623973093524 ], [ 5.382671614850037, 51.543881964290463 ], [ 5.382849865833865, 51.543598189518029 ], [ 5.388071422098164, 51.544364428889033 ], [ 5.390192931767186, 51.545304681510366 ], [ 5.389697666755312, 51.549687293421542 ], [ 5.393428141921234, 51.549386683671329 ], [ 5.396877826505006, 51.550493288682866 ], [ 5.398061872545311, 51.54888982364902 ], [ 5.403539308020838, 51.550046760326836 ], [ 5.401460008911078, 51.550950737458834 ], [ 5.4045435418378, 51.551601078081013 ], [ 5.404487821077927, 51.550116590630374 ], [ 5.404128132174528, 51.550034591442376 ], [ 5.404321631080632, 51.548396646908067 ], [ 5.405427375144504, 51.548427428592277 ], [ 5.410963193165327, 51.542387023372648 ], [ 5.412078962492334, 51.542794025962799 ], [ 5.414629012147465, 51.540754624082318 ], [ 5.415288813192597, 51.540626013186589 ], [ 5.416408547365474, 51.540721708438049 ], [ 5.417901795408027, 51.539780596794714 ], [ 5.419992357698018, 51.538966312109736 ], [ 5.422071822733802, 51.537346669377406 ], [ 5.422436898167776, 51.536705565293701 ], [ 5.422631057874396, 51.535791568377604 ], [ 5.425717727725926, 51.534573541333003 ], [ 5.429851279123739, 51.535068769680699 ], [ 5.431599082045208, 51.533457711322178 ], [ 5.433387324863878, 51.533943881775272 ], [ 5.434590849363315, 51.534510188819425 ], [ 5.435639287763973, 51.534151259539797 ], [ 5.437404654239875, 51.53407324253147 ], [ 5.465667875580497, 51.539895703502488 ], [ 5.46824257845419, 51.540772050617868 ], [ 5.473372732289985, 51.540948573072384 ], [ 5.487158196574825, 51.541947590797861 ], [ 5.487741655108697, 51.541446688774769 ], [ 5.488022859578746, 51.541424868009067 ], [ 5.488340829987718, 51.5403462046607 ], [ 5.48833490526018, 51.539698514713514 ], [ 5.488105681116019, 51.538979332823317 ], [ 5.488577804757201, 51.537454496922066 ], [ 5.488678148861591, 51.534739894203355 ], [ 5.488906808976361, 51.53334580821182 ], [ 5.490815401345854, 51.530912770646957 ], [ 5.493473298467094, 51.526832010136758 ], [ 5.493853747000806, 51.527181433221031 ], [ 5.494256038757011, 51.527308520967075 ], [ 5.496422678712407, 51.527153372667463 ], [ 5.498271686329334, 51.528629645352709 ], [ 5.502040073334572, 51.527497177106184 ], [ 5.502073517540483, 51.527362299093227 ], [ 5.501657399537078, 51.526887424792022 ], [ 5.501844290146951, 51.526834744209864 ], [ 5.502582779480394, 51.527392543350786 ], [ 5.503808849852727, 51.526551170166741 ], [ 5.503750863262749, 51.526001514562068 ], [ 5.50315174887809, 51.525612074156733 ], [ 5.501149583258257, 51.525199980748269 ], [ 5.500026529751445, 51.525210500880569 ], [ 5.500359034569066, 51.523995142469893 ], [ 5.499928208487073, 51.522850494346386 ], [ 5.500377853830464, 51.521842304993271 ], [ 5.500279472490105, 51.521496647916152 ], [ 5.503056823241403, 51.521396243807708 ], [ 5.505315837238065, 51.521744551525806 ], [ 5.505270087657331, 51.522133459517967 ], [ 5.506540366853234, 51.52252355551142 ], [ 5.506469164204708, 51.523100299236468 ], [ 5.508311050766099, 51.523923103776326 ], [ 5.508980850446837, 51.52280195673373 ], [ 5.511016025129258, 51.523346436732162 ], [ 5.512870309033898, 51.52433349610002 ], [ 5.514593767963825, 51.523288245924675 ], [ 5.518876391441892, 51.522227878791249 ], [ 5.521130240555904, 51.522962786880512 ], [ 5.521600362699229, 51.522585189402392 ], [ 5.52263215072653, 51.523529077255773 ], [ 5.525039766153054, 51.521993227778339 ], [ 5.526262020989266, 51.523026439134682 ], [ 5.530728591490173, 51.525155719010478 ], [ 5.53084477745182, 51.525159915980481 ], [ 5.530852963393727, 51.524957776613491 ], [ 5.532881199407407, 51.52475962923117 ], [ 5.53674930778535, 51.524953241192797 ], [ 5.53690367019178, 51.525905853580809 ], [ 5.538396578645602, 51.52590028402593 ], [ 5.538466975454914, 51.525497076276245 ], [ 5.540162429356061, 51.525911874273874 ], [ 5.542932825997621, 51.523921408559438 ], [ 5.543198369990946, 51.523569520465387 ], [ 5.544649696840946, 51.523445689461809 ], [ 5.544643486735807, 51.522635342864952 ], [ 5.543932279884686, 51.5217372985975 ], [ 5.545028002730738, 51.520979033159399 ], [ 5.545468360504997, 51.520063828726578 ], [ 5.540636409788009, 51.52078805876485 ], [ 5.540530478310217, 51.520668864239802 ], [ 5.541202351945424, 51.51871583642555 ], [ 5.542901814236803, 51.516530250367317 ], [ 5.543661854358212, 51.515889134695939 ], [ 5.544120739434143, 51.515769031390683 ], [ 5.545623867656916, 51.51340566160853 ], [ 5.547715212183564, 51.510548676370625 ], [ 5.541010954332634, 51.50992016919902 ], [ 5.54030939502911, 51.509366536700526 ], [ 5.540433605481264, 51.508831480290368 ], [ 5.538817310504137, 51.50775871818653 ], [ 5.536054390284438, 51.506839243380078 ], [ 5.53548865250509, 51.506237361422556 ], [ 5.533870646245131, 51.505995219181791 ], [ 5.532687134393257, 51.505262385565622 ], [ 5.532065732011989, 51.505274380837037 ], [ 5.531619576425667, 51.505660754496994 ], [ 5.530981677586951, 51.505334941628725 ], [ 5.528961687816333, 51.5038403693693 ], [ 5.528241619763325, 51.503144894391355 ], [ 5.527778131614423, 51.502416866098123 ], [ 5.525910970032674, 51.502370387235388 ], [ 5.526056296328282, 51.501565209323935 ], [ 5.524173699630134, 51.502019054762975 ], [ 5.522857339707231, 51.502136789153681 ], [ 5.521080809537775, 51.502151551461687 ], [ 5.520110808032255, 51.50175665677132 ], [ 5.518581669278841, 51.502094255100893 ], [ 5.516950137386923, 51.501455244979219 ], [ 5.514594996163196, 51.499929870667899 ], [ 5.512658404275552, 51.499606484708977 ], [ 5.512402979798209, 51.49944709834363 ], [ 5.511951553982405, 51.499493175335552 ], [ 5.511359227761677, 51.499141041165537 ], [ 5.511359728680979, 51.498982460898901 ], [ 5.510675385619187, 51.499108888001409 ], [ 5.509718919890891, 51.498737316212349 ], [ 5.509958542190019, 51.497651212207828 ], [ 5.510296500452025, 51.497057910974839 ], [ 5.513208965849257, 51.49622379820665 ], [ 5.513240018876036, 51.495570861688755 ], [ 5.513504591807265, 51.495098261469252 ], [ 5.514366843281117, 51.494225220043113 ], [ 5.515513547693299, 51.493454108008635 ], [ 5.512935488060805, 51.491747255301597 ], [ 5.512379158556112, 51.491015017183848 ], [ 5.512461219114605, 51.490084199132646 ], [ 5.512236065810005, 51.489196679402269 ], [ 5.511476526519165, 51.488971308206182 ], [ 5.511281948558246, 51.488325072249069 ], [ 5.510641578251693, 51.487521881295066 ], [ 5.50990229583053, 51.487480449977674 ], [ 5.508870719589301, 51.487862005157119 ], [ 5.508341653274361, 51.487752717073057 ], [ 5.507837890658664, 51.486878984963283 ], [ 5.508122055799883, 51.485937027654813 ], [ 5.507961578387816, 51.485185059114329 ], [ 5.50721660344283, 51.485178236612036 ], [ 5.506669524943108, 51.484511388367345 ], [ 5.505986646101453, 51.484452352470846 ], [ 5.505992073987794, 51.484148423349964 ], [ 5.50660102711826, 51.484180312037005 ], [ 5.506294208320039, 51.483885847375788 ], [ 5.505522539911645, 51.483811458541979 ], [ 5.505316882098035, 51.483418136487366 ], [ 5.505469798593196, 51.482740421603481 ], [ 5.506202696868584, 51.481877680378304 ], [ 5.50797389193947, 51.48027069404548 ], [ 5.50946955237933, 51.479192028719964 ], [ 5.50944645903709, 51.479004988393356 ], [ 5.509116341252351, 51.478813299038272 ], [ 5.508064728710143, 51.478733394206081 ], [ 5.507757820785039, 51.478485819478884 ], [ 5.507762016941894, 51.477888389135856 ], [ 5.508098689230542, 51.477395779873483 ], [ 5.508729294828603, 51.476928362171009 ], [ 5.508288331345145, 51.475655529728549 ], [ 5.507661456875172, 51.475741535719202 ], [ 5.503981663049187, 51.474981446189396 ], [ 5.503590482971254, 51.474757458766092 ], [ 5.503320717511682, 51.474783386714286 ], [ 5.502178346159848, 51.473965791767547 ], [ 5.503031486452195, 51.471974543571051 ], [ 5.505767940428812, 51.46907842466495 ], [ 5.506029491790263, 51.467607809640256 ], [ 5.511534096863979, 51.467405838947805 ], [ 5.512664742447771, 51.466558512564532 ], [ 5.514023863273366, 51.466453548361834 ], [ 5.514244123230914, 51.466166942007185 ], [ 5.514168875676451, 51.46561572302069 ], [ 5.514836054570406, 51.465288181013172 ], [ 5.514897772548828, 51.46486527299664 ], [ 5.515290870205536, 51.464797384425836 ], [ 5.515945675793325, 51.465041311574119 ], [ 5.516644059996352, 51.464507592493227 ], [ 5.516825244829909, 51.464171830608912 ], [ 5.517509905512851, 51.464273913299344 ], [ 5.518022620332316, 51.46328842393639 ], [ 5.518868420037807, 51.462917402595885 ], [ 5.518074472530091, 51.463044202783983 ], [ 5.517978291242951, 51.46285167176481 ], [ 5.518120758179513, 51.462618042241154 ], [ 5.519072128743182, 51.462095248052847 ], [ 5.519535363782873, 51.462233074309005 ], [ 5.520224533328189, 51.461716916325805 ], [ 5.520855129096157, 51.461539742193686 ], [ 5.520984474036508, 51.460944431751521 ], [ 5.52190442974293, 51.460980543354118 ], [ 5.522819407154945, 51.460177299408372 ], [ 5.524892646092472, 51.459397598358152 ], [ 5.529740794826665, 51.458605955752844 ], [ 5.529895791367081, 51.45830737474143 ], [ 5.530514402009919, 51.458134588275733 ], [ 5.531033273663674, 51.457105291730194 ], [ 5.532454059810504, 51.457128356959153 ], [ 5.531677101610159, 51.456757804549547 ], [ 5.531981889396884, 51.456177922920652 ], [ 5.531342580660012, 51.455406568347634 ], [ 5.531418089605166, 51.454878484428434 ], [ 5.532666576085777, 51.454601101318367 ], [ 5.532636825332559, 51.454297503044685 ], [ 5.532995329028385, 51.453947802260132 ], [ 5.533213229284243, 51.453092473073987 ], [ 5.534194184824752, 51.452490017034592 ], [ 5.53413909556733, 51.452002194209264 ], [ 5.534315635783977, 51.451576926496941 ], [ 5.534612228288345, 51.451425675035402 ], [ 5.535092190182688, 51.45148763155747 ], [ 5.535676914674758, 51.451000277723807 ], [ 5.536343327865315, 51.450786400891865 ], [ 5.536039116081667, 51.450477355726896 ], [ 5.536053238404858, 51.450269926898365 ], [ 5.537033731833519, 51.450304822002558 ], [ 5.537679696673853, 51.449747002810767 ], [ 5.538588458992312, 51.449627816308144 ], [ 5.538708371659506, 51.449487637919177 ], [ 5.532585150527981, 51.448685936968062 ], [ 5.532518551217184, 51.448525701562858 ], [ 5.536812912195781, 51.445668593365191 ], [ 5.53840770193645, 51.445824244673602 ], [ 5.538521776411469, 51.445326507164602 ], [ 5.539319457162348, 51.444617152912656 ], [ 5.539026239113568, 51.444201735877932 ], [ 5.539224164984365, 51.443918961210642 ], [ 5.538459785402789, 51.443805831675448 ], [ 5.538429196979306, 51.443479741798527 ], [ 5.539381239439042, 51.44277435699 ], [ 5.53957954574985, 51.442327961181185 ], [ 5.54044852482027, 51.442017777472387 ], [ 5.540587044715345, 51.441527752272897 ], [ 5.541322443384174, 51.440980487262408 ], [ 5.541392989378647, 51.44061398014744 ], [ 5.540761856666887, 51.440642922125207 ], [ 5.540576279445735, 51.440451117808941 ], [ 5.541443200263455, 51.43942205291328 ], [ 5.542799151857787, 51.439160490930647 ], [ 5.542910622596034, 51.439417464644201 ], [ 5.542577133737558, 51.439784463489964 ], [ 5.542831616746588, 51.439932249892706 ], [ 5.543175629103687, 51.439805606669331 ], [ 5.5432780983462, 51.43946167038775 ], [ 5.543916492566712, 51.439503124734003 ], [ 5.543481342728756, 51.438645583105533 ], [ 5.544247391855635, 51.438030483795863 ], [ 5.544338473452168, 51.437090096725584 ], [ 5.545205144089937, 51.436629185194604 ], [ 5.545770476520057, 51.436620823441601 ], [ 5.546099893032953, 51.435853171360364 ], [ 5.54578895746901, 51.435112016303606 ], [ 5.546540238988898, 51.434476495113316 ], [ 5.546641131052494, 51.433834491440699 ], [ 5.548673453636614, 51.43454104260816 ], [ 5.545768431211066, 51.433398769445773 ], [ 5.544235027817635, 51.432562917836492 ], [ 5.544091062017181, 51.432630250219297 ], [ 5.543561824839133, 51.432328631371206 ], [ 5.542875219085022, 51.432430015282726 ], [ 5.5409702067535, 51.431723312489581 ], [ 5.540922229869214, 51.431577076105413 ], [ 5.54023660960314, 51.431433967889227 ], [ 5.539167303820943, 51.431385205206603 ], [ 5.531772998846013, 51.432099424849461 ], [ 5.531343358848678, 51.430511639444909 ], [ 5.531476441166587, 51.430384005586092 ], [ 5.531147284752776, 51.429005668959064 ], [ 5.530963166199458, 51.428836392176187 ], [ 5.531138941983412, 51.428125933505342 ], [ 5.530881244794468, 51.427489509631506 ], [ 5.530625061716022, 51.42731444885986 ], [ 5.525117070627283, 51.428042478202308 ], [ 5.525637927739003, 51.404670499103268 ], [ 5.530817067218592, 51.404629802422875 ], [ 5.530227193840291, 51.404219728357162 ], [ 5.529619078994638, 51.403412907266542 ], [ 5.529096699671955, 51.403343660813839 ], [ 5.529101071286464, 51.403095522447018 ], [ 5.527175109607168, 51.40198339045142 ], [ 5.524260280128212, 51.399770659173498 ], [ 5.522288965236547, 51.399777002303544 ], [ 5.521464472059588, 51.400003059171773 ], [ 5.519618927015852, 51.399921682854178 ], [ 5.519633486053811, 51.399732098913297 ], [ 5.520924209493304, 51.398967400719854 ], [ 5.521388434913793, 51.398208491597174 ], [ 5.520687060448042, 51.397873642571554 ], [ 5.515324349876554, 51.400294248115792 ], [ 5.513103977278675, 51.399357489177504 ], [ 5.512883969174545, 51.399776921230298 ], [ 5.514486930847641, 51.401205280761708 ], [ 5.51377420261632, 51.402145448680365 ], [ 5.515499015823777, 51.403684027193968 ], [ 5.515545088603702, 51.404843702306486 ], [ 5.515395182887808, 51.404991916929113 ], [ 5.514842224770656, 51.404807780167872 ], [ 5.507600331313142, 51.404631433694711 ], [ 5.50592701898385, 51.404090380077619 ], [ 5.502158816931125, 51.404365635289302 ], [ 5.501652237595273, 51.404282785460836 ], [ 5.500920608717544, 51.40459823434265 ], [ 5.499428455137963, 51.404746545391234 ], [ 5.49709195004233, 51.404434283847742 ], [ 5.493751101677008, 51.404532734466308 ], [ 5.490171452981114, 51.404854264944547 ], [ 5.490128337051288, 51.405409228492175 ], [ 5.48793507947676, 51.4055177317192 ], [ 5.48654309027717, 51.404865610411761 ], [ 5.485579757294166, 51.404894088891098 ], [ 5.484086602318955, 51.405687244690611 ], [ 5.481340074724293, 51.405670586940893 ], [ 5.48051732705829, 51.405441409637611 ], [ 5.480373341484007, 51.405156903183403 ], [ 5.468690817062869, 51.405520226214826 ], [ 5.462178968693762, 51.405453086015768 ], [ 5.461961563738034, 51.405976535677866 ], [ 5.455618150661389, 51.405879483450306 ], [ 5.454794120652448, 51.405349124020198 ], [ 5.45153962562922, 51.405261055103921 ], [ 5.449283643703029, 51.404769998198169 ], [ 5.448742872930672, 51.404887556439711 ], [ 5.448675344404205, 51.405317488153756 ], [ 5.435483300670692, 51.404988730747839 ], [ 5.435667046239551, 51.405067780518173 ], [ 5.43557611889241, 51.405363968280156 ], [ 5.434046772213719, 51.405305718687842 ], [ 5.432246187377351, 51.406135057151481 ], [ 5.432117208601255, 51.406475837567562 ], [ 5.43076958558674, 51.40791168697573 ], [ 5.430508459699978, 51.409049263350191 ], [ 5.430466203745632, 51.410387722839367 ], [ 5.4300472991338, 51.411441065783194 ], [ 5.430631664720017, 51.411597086065925 ], [ 5.429959056072716, 51.415276327745154 ], [ 5.42953598506586, 51.41544361249931 ], [ 5.429274613530522, 51.417245905225059 ], [ 5.428732757637341, 51.417183358581418 ], [ 5.428607262059763, 51.417851891655324 ], [ 5.427874789044997, 51.41814121832202 ], [ 5.428176291060681, 51.419508592093635 ], [ 5.428153836080766, 51.421979485754498 ], [ 5.428443394279426, 51.42214528164201 ], [ 5.428134197774165, 51.422236517890966 ], [ 5.427409233420451, 51.426727139041255 ], [ 5.427809181736853, 51.427001387079251 ], [ 5.42770219122982, 51.427885117677121 ], [ 5.427852558445128, 51.428500833680182 ], [ 5.427687365554572, 51.429805987161842 ], [ 5.425226774667873, 51.431348215137064 ], [ 5.423123460135229, 51.431906289703747 ], [ 5.423046791450557, 51.432088827130251 ], [ 5.422581525886106, 51.432243516349175 ], [ 5.421882765018331, 51.432281931088191 ], [ 5.421002523341746, 51.432612620581061 ], [ 5.420943907293929, 51.432800936243709 ], [ 5.419353514651951, 51.433378329762149 ], [ 5.418941246017944, 51.432707079110983 ], [ 5.417164403906701, 51.431603286272235 ], [ 5.416789527725212, 51.431748334050475 ], [ 5.414480479803422, 51.430176899394617 ], [ 5.412154260140333, 51.431411617620029 ], [ 5.410678512351085, 51.435347249070354 ], [ 5.408848978629967, 51.434749170797673 ], [ 5.407348162419259, 51.436065436152575 ], [ 5.404928534635927, 51.437227822392934 ], [ 5.403022221702265, 51.435321182308691 ], [ 5.402699329768955, 51.43539631829853 ], [ 5.402594166166462, 51.434933091006599 ], [ 5.400845903000727, 51.433187540961107 ], [ 5.393922295227532, 51.434714558064563 ], [ 5.393885165648272, 51.434991394109986 ], [ 5.389886576155025, 51.437601135153024 ], [ 5.38909558795693, 51.438377123236904 ], [ 5.388349683671508, 51.438258657254337 ], [ 5.387571658134737, 51.437856819244054 ], [ 5.382534063690432, 51.436202163671567 ], [ 5.373239057097394, 51.437702429418465 ], [ 5.371234977241991, 51.439007802079772 ], [ 5.36775958240082, 51.438456651026613 ], [ 5.366733518174549, 51.437494367395885 ], [ 5.366579829100588, 51.437096380778591 ], [ 5.366697165319292, 51.436330893900106 ], [ 5.364596768454501, 51.435830261753139 ], [ 5.36390518815245, 51.435880608031106 ], [ 5.362488593452347, 51.436435050327468 ], [ 5.362245829488229, 51.436322628151714 ], [ 5.357227401664203, 51.438281916865343 ], [ 5.357367249014999, 51.439290995139885 ], [ 5.35764996581272, 51.4397865007886 ], [ 5.36083475711152, 51.442710781845093 ], [ 5.361080106353633, 51.443587989263939 ], [ 5.36132359012027, 51.447987335750753 ], [ 5.361233300519427, 51.448953461886106 ], [ 5.360615870471455, 51.450062644713626 ], [ 5.358345537927222, 51.451979788853173 ], [ 5.357108064747441, 51.453502132821924 ], [ 5.358072256024831, 51.454054520468979 ], [ 5.361437978554054, 51.456941345047028 ], [ 5.363757526399205, 51.460220321365057 ], [ 5.367234251086846, 51.459355212733229 ], [ 5.369511493506989, 51.465205592933145 ], [ 5.37916663657973, 51.463743613300267 ], [ 5.381245962987029, 51.465376451309176 ], [ 5.38440346279338, 51.467419969917913 ], [ 5.385532936208483, 51.467821222378362 ], [ 5.387594405845993, 51.468032861687043 ], [ 5.387619701059523, 51.468538850229123 ], [ 5.387236156700657, 51.469090356953494 ], [ 5.387267439301304, 51.469350981758268 ], [ 5.388876358121641, 51.469927707865267 ], [ 5.38967573232787, 51.470536924294059 ], [ 5.390661764252445, 51.470488204630662 ], [ 5.390811779458399, 51.470737263786283 ], [ 5.390694539419266, 51.470986196474421 ], [ 5.391283055792122, 51.471728985395799 ], [ 5.391131276256524, 51.474240509361664 ], [ 5.391325345097298, 51.474307121949579 ], [ 5.392428286291478, 51.475936995947713 ], [ 5.392111391839, 51.482519727019039 ], [ 5.39585717852948, 51.480793204578269 ], [ 5.395546089248083, 51.480142308834715 ], [ 5.395619910739502, 51.48000664012487 ], [ 5.39771303639604, 51.480789715177998 ], [ 5.397893261393818, 51.480982629959904 ], [ 5.395617292460861, 51.483158661850126 ], [ 5.395867800428784, 51.483365122438677 ], [ 5.395326413536642, 51.483777609860653 ], [ 5.392695382590877, 51.484652627259614 ], [ 5.392466281450361, 51.484985688452426 ], [ 5.392178224596227, 51.485041258397104 ], [ 5.392097462153354, 51.484915114521115 ], [ 5.391137794334164, 51.485119091352715 ], [ 5.391082172969981, 51.485630296330505 ], [ 5.390241313394005, 51.485869901917219 ], [ 5.390150223902418, 51.485494298769638 ], [ 5.387543829668697, 51.485999354229172 ], [ 5.385532636662818, 51.484646035604655 ], [ 5.384755894285894, 51.484924133072475 ], [ 5.382744354625076, 51.485245739796156 ], [ 5.378490799386744, 51.483578018623014 ], [ 5.37657093233838, 51.484555779333824 ], [ 5.374549942709097, 51.485078468305183 ], [ 5.375615123859345, 51.48558032120318 ], [ 5.375651230494446, 51.485722564824719 ], [ 5.374554744025607, 51.486329952734657 ], [ 5.374533379247721, 51.486634678762158 ], [ 5.373870903613579, 51.48676482442572 ], [ 5.372923656898704, 51.487335649865784 ], [ 5.373257484841839, 51.488413336235546 ], [ 5.374233989763878, 51.488963633633659 ], [ 5.374380591112252, 51.489227876084065 ], [ 5.372253642600602, 51.489752849525146 ], [ 5.371074035745771, 51.49094565868343 ], [ 5.371188927863117, 51.491266780594479 ], [ 5.372664291231808, 51.490981758373756 ], [ 5.373236103727646, 51.491889834245121 ], [ 5.371777424068045, 51.492913563235739 ], [ 5.371882862582998, 51.49344497421491 ], [ 5.371350233229233, 51.493528478103805 ], [ 5.370420077818577, 51.493208675562073 ], [ 5.370158420400124, 51.492948858404226 ], [ 5.367606029629639, 51.492783457032772 ], [ 5.367082424440686, 51.493049171020587 ], [ 5.366543894325575, 51.493846768849338 ], [ 5.362958584760782, 51.492575580019704 ], [ 5.361330058619179, 51.492976155465186 ], [ 5.355968641122242, 51.496174840076819 ], [ 5.355629924346513, 51.497070628675928 ], [ 5.355726497878147, 51.497212055048919 ], [ 5.354820799507747, 51.498787474923525 ], [ 5.355272000154452, 51.49920169902866 ], [ 5.353429851221497, 51.501767108088885 ], [ 5.352768649032748, 51.504523856306605 ], [ 5.352698222709844, 51.506032444363122 ], [ 5.351417066430331, 51.506147313391367 ], [ 5.351119349159867, 51.507386011298749 ], [ 5.350839067643649, 51.507612628233943 ], [ 5.350611701020633, 51.508474233466877 ], [ 5.350923612146336, 51.509285484551455 ], [ 5.350767555511259, 51.510123912365266 ], [ 5.350909979923217, 51.511061266387898 ], [ 5.350775290572067, 51.511319379114617 ], [ 5.351025824837591, 51.512437197145935 ], [ 5.350337747495375, 51.512883141778595 ], [ 5.350553179078337, 51.513624950479198 ], [ 5.350209626373283, 51.51502291856395 ], [ 5.349504884639162, 51.516415166966496 ], [ 5.349493215215374, 51.517014833858667 ], [ 5.349623126310208, 51.517181072400568 ], [ 5.35040855929233, 51.517251796086519 ], [ 5.350549661175116, 51.517873090496373 ], [ 5.351578753744636, 51.51793742112379 ], [ 5.352140936505302, 51.519174623268974 ], [ 5.352338529811678, 51.52007238155133 ], [ 5.353581883560527, 51.520006913751644 ], [ 5.354319087062114, 51.520432133198561 ], [ 5.353766746884864, 51.521407322305713 ], [ 5.353673520920894, 51.522994900694954 ], [ 5.353807824258381, 51.523099375824224 ], [ 5.353539224336865, 51.524421763063629 ], [ 5.353729349027761, 51.526086469825117 ], [ 5.355260403653932, 51.528197181284575 ], [ 5.355436245189283, 51.528879185676523 ], [ 5.361075739375667, 51.529283869977142 ], [ 5.363150111725546, 51.529640443712708 ], [ 5.368505768123899, 51.531339856645559 ], [ 5.368686117961968, 51.53144682137858 ], [ 5.368737047877331, 51.531864003826456 ], [ 5.362885787145516, 51.538336402115746 ], [ 5.362974896842616, 51.538523501311225 ], [ 5.357356715148686, 51.544805782757471 ] ] ] } }
]
}
