{
"type": "FeatureCollection",
"name": "SWVPO3103",
"crs": { "type": "name", "properties": { "name": "urn:ogc:def:crs:OGC:1.3:CRS84" } },
"features": [
{ "type": "Feature", "properties": { "PO SWV": "PO3103", "strokeColor": "#A9A9A9", "strokeWidth": 2, "fillColor": "#ADD8E6" }, "geometry": { "type": "Polygon", "coordinates": [ [ [ 5.689787957521265, 51.185243308600654 ], [ 5.68791226983158, 51.185300610859613 ], [ 5.687241277193315, 51.184669989113019 ], [ 5.682865266932819, 51.183863979270136 ], [ 5.681011716931261, 51.184349173863204 ], [ 5.680538451209242, 51.183429419733244 ], [ 5.67654651555142, 51.182625717548049 ], [ 5.676159636061145, 51.184570256904024 ], [ 5.673271004425519, 51.185350005690111 ], [ 5.671025916850617, 51.185668740126523 ], [ 5.669133384973964, 51.185482211426887 ], [ 5.667857091580569, 51.185824973365456 ], [ 5.666104651380748, 51.185823913308433 ], [ 5.665304605008139, 51.186092188984205 ], [ 5.664312440206359, 51.186185160381527 ], [ 5.662217910499302, 51.185587839699018 ], [ 5.660829530641256, 51.185632087777051 ], [ 5.658517669879005, 51.184639931189231 ], [ 5.658011668673299, 51.184650273684255 ], [ 5.649646230861291, 51.193582845728073 ], [ 5.649725735216819, 51.193716693678581 ], [ 5.653943677187722, 51.194322694651746 ], [ 5.652657242554524, 51.197582439891839 ], [ 5.646436496363436, 51.199849004663129 ], [ 5.636681490680975, 51.202681436710613 ], [ 5.566020702589613, 51.220812472593792 ], [ 5.565950511459256, 51.220941346175309 ], [ 5.594312612129614, 51.226173371702906 ], [ 5.594508425453084, 51.224302949311543 ], [ 5.618698968309392, 51.229509798533861 ], [ 5.623374964698231, 51.249041322878107 ], [ 5.625161069730805, 51.271468258891247 ], [ 5.625884930285689, 51.273650437323845 ], [ 5.633625572090065, 51.281242851366628 ], [ 5.656032136253671, 51.301655308651476 ], [ 5.672018888773361, 51.315177718922001 ], [ 5.824014518015567, 51.344054117235821 ], [ 5.840195174835064, 51.346977053585995 ], [ 5.840267514431194, 51.34680961360624 ], [ 5.832219487398069, 51.338056048063436 ], [ 5.852172180945088, 51.320805997348991 ], [ 5.877903932627683, 51.31663693738966 ], [ 5.877855398636338, 51.316482962727704 ], [ 5.860796025636665, 51.310723380090373 ], [ 5.856141288815797, 51.301877899662749 ], [ 5.855769691945251, 51.301748546659745 ], [ 5.855273141097713, 51.300855897913571 ], [ 5.85548933073388, 51.300759344302612 ], [ 5.855392192278781, 51.300482441933084 ], [ 5.850739935898784, 51.291487829454361 ], [ 5.841405367480714, 51.282438452383467 ], [ 5.840659087690021, 51.282354121941218 ], [ 5.838027570799531, 51.279684428764348 ], [ 5.839490213523157, 51.277650985061641 ], [ 5.833969385918791, 51.274877092667992 ], [ 5.842431072721999, 51.262490715555636 ], [ 5.845045665860445, 51.258415030343762 ], [ 5.845339799512882, 51.257611823881014 ], [ 5.846913000037219, 51.255638095424544 ], [ 5.849273055333218, 51.256695315174056 ], [ 5.849883616677406, 51.256717208503872 ], [ 5.854158036172329, 51.254404791137588 ], [ 5.855080496138533, 51.253705166072223 ], [ 5.855196415014352, 51.252267080616676 ], [ 5.855821745270836, 51.250724211790569 ], [ 5.855803758805957, 51.249959501853134 ], [ 5.855467423824116, 51.248984843165829 ], [ 5.854729745657461, 51.248842275544995 ], [ 5.855010247958347, 51.247866540999617 ], [ 5.853456736041765, 51.244763249555255 ], [ 5.853451696594636, 51.244393016728296 ], [ 5.852076035158262, 51.243402210260527 ], [ 5.850225574715164, 51.244941295376798 ], [ 5.849675513243858, 51.245223259453098 ], [ 5.845916875004479, 51.2454722142839 ], [ 5.842354255148392, 51.244589983951585 ], [ 5.839552291101204, 51.244589612697723 ], [ 5.837660412590346, 51.242770111706996 ], [ 5.835749865025406, 51.241367824675052 ], [ 5.835156950111887, 51.241165911787789 ], [ 5.828770753174166, 51.240891074814343 ], [ 5.825099265181525, 51.241444526313138 ], [ 5.822701764947526, 51.241416807329557 ], [ 5.817483303358081, 51.241868374930071 ], [ 5.814734836556328, 51.241108971786062 ], [ 5.812136568762748, 51.240943802902329 ], [ 5.81094573956843, 51.240597771536834 ], [ 5.808352387719824, 51.240366056924167 ], [ 5.803537049960741, 51.237926384433358 ], [ 5.80298521638123, 51.237773401722606 ], [ 5.797853728196277, 51.23727036221436 ], [ 5.796089904983893, 51.237582218202938 ], [ 5.795224337782763, 51.237140034281531 ], [ 5.796460043880336, 51.235721648420871 ], [ 5.796436102643897, 51.235179117454223 ], [ 5.792753778669818, 51.235396917281214 ], [ 5.789936789365624, 51.23538548198087 ], [ 5.789987120189767, 51.23456906082879 ], [ 5.789828067079924, 51.233840243221849 ], [ 5.78324062224748, 51.223069808594467 ], [ 5.782216638761835, 51.220496299203475 ], [ 5.781665875170252, 51.219935631784772 ], [ 5.780697857017212, 51.219577103263852 ], [ 5.77766735056012, 51.219605404149668 ], [ 5.775644720471778, 51.218771943654176 ], [ 5.77487221030971, 51.217966730446264 ], [ 5.774866265122985, 51.216272664408436 ], [ 5.774521555801538, 51.215682876923353 ], [ 5.774101913485094, 51.215353280824452 ], [ 5.772478714821005, 51.214893159693425 ], [ 5.76881764954266, 51.214726440651795 ], [ 5.764721473407818, 51.21571443994457 ], [ 5.761264622244743, 51.216350733068964 ], [ 5.757182573710982, 51.216092657059548 ], [ 5.756364975739586, 51.215855916251037 ], [ 5.75184967631046, 51.213542670488764 ], [ 5.750973519632812, 51.212120919412946 ], [ 5.750924081324917, 51.209631459800868 ], [ 5.749163083882213, 51.208213259116363 ], [ 5.750214195388278, 51.208041786782779 ], [ 5.751240169223932, 51.207462696072213 ], [ 5.753359648173289, 51.208040930197789 ], [ 5.753346700916604, 51.207562747800701 ], [ 5.753726768260881, 51.206695268191133 ], [ 5.755852592000831, 51.206929976873035 ], [ 5.755947380620539, 51.20678813153134 ], [ 5.753793330898614, 51.205704991338912 ], [ 5.7537992070604, 51.205538941571625 ], [ 5.753048037703712, 51.205139515255077 ], [ 5.75394423830051, 51.203553341401403 ], [ 5.752370640385039, 51.200536639873334 ], [ 5.746415014953209, 51.19403529207495 ], [ 5.745968377114306, 51.193826357731375 ], [ 5.746057197411791, 51.193562097355134 ], [ 5.747463255088696, 51.192486242510569 ], [ 5.747395002129708, 51.192327425167463 ], [ 5.746911181474701, 51.192338101365202 ], [ 5.746628831949978, 51.190500152637533 ], [ 5.745798348054572, 51.190472783288357 ], [ 5.745777543729116, 51.189496165747784 ], [ 5.743366560390228, 51.188191745346067 ], [ 5.743130264377137, 51.187451284056223 ], [ 5.742144777327709, 51.187550269901905 ], [ 5.740187343764782, 51.186486547556463 ], [ 5.739770841650481, 51.184652461415858 ], [ 5.739556527339947, 51.184693239846311 ], [ 5.73861670207521, 51.186135213017948 ], [ 5.738268486500551, 51.186364891118131 ], [ 5.736435178736153, 51.186102469445402 ], [ 5.733860553988152, 51.186106650072169 ], [ 5.733480812578006, 51.185191953732193 ], [ 5.731795603752629, 51.185133457237662 ], [ 5.730076007077347, 51.184820983279593 ], [ 5.72941013816546, 51.185535008133606 ], [ 5.728513502125405, 51.185629490451895 ], [ 5.72834571571141, 51.185463519761157 ], [ 5.726687664577694, 51.185397576527656 ], [ 5.726829317081968, 51.184845932980181 ], [ 5.725311714332157, 51.184544370631599 ], [ 5.725106684040311, 51.18516859223525 ], [ 5.721934705565915, 51.184803249185286 ], [ 5.72171954498589, 51.184418903190846 ], [ 5.719680323209448, 51.184598894130879 ], [ 5.717928736418764, 51.184302220628112 ], [ 5.717897776083867, 51.184111153493227 ], [ 5.717302185585146, 51.184125685570308 ], [ 5.716185986849664, 51.183667563084434 ], [ 5.714513540477378, 51.183412926112567 ], [ 5.709342992948239, 51.180320766485664 ], [ 5.708619623582584, 51.180986830698565 ], [ 5.708908032050414, 51.181415209149591 ], [ 5.707908882863083, 51.181766547060072 ], [ 5.707880051947487, 51.181957674191871 ], [ 5.701251618144306, 51.182385229552374 ], [ 5.701483014282023, 51.183690181815564 ], [ 5.699351964144088, 51.18364427344396 ], [ 5.699277754731178, 51.183817338613608 ], [ 5.698248888359291, 51.183879326400238 ], [ 5.697852544842039, 51.183495546317168 ], [ 5.696474460694486, 51.183832000935318 ], [ 5.695266865108206, 51.182462921770522 ], [ 5.694142448788673, 51.182790157588386 ], [ 5.694011022140859, 51.182997765691113 ], [ 5.692629253136828, 51.183253158604856 ], [ 5.691497519037232, 51.183653240391614 ], [ 5.691447998772544, 51.183785166440636 ], [ 5.691634312827254, 51.183944403801533 ], [ 5.690310482374574, 51.18457126122486 ], [ 5.690344526276799, 51.185033106068701 ], [ 5.689787957521265, 51.185243308600654 ] ] ] } }
]
}
