{
"type": "FeatureCollection",
"name": "SWVPO2506",
"crs": { "type": "name", "properties": { "name": "urn:ogc:def:crs:OGC:1.3:CRS84" } },
"features": [
{ "type": "Feature", "properties": { "PO SWV": "PO2506", "strokeColor": "#A9A9A9", "strokeWidth": 2, "fillColor": "#ADD8E6" }, "geometry": { "type": "MultiPolygon", "coordinates": [ [ [ [ 5.947269844489455, 52.077505685433678 ], [ 5.955938324929823, 52.073446888811411 ], [ 5.964621650604738, 52.076419218970429 ], [ 5.975935265811342, 52.078274661879213 ], [ 5.981827681504762, 52.078813661987503 ], [ 5.981579993996551, 52.078375503527397 ], [ 5.981179948089755, 52.078069948451038 ], [ 5.978898892977108, 52.07426895414288 ], [ 5.979212642090568, 52.072255862766376 ], [ 5.979422691907154, 52.072039564013011 ], [ 5.979260181364838, 52.071402938888681 ], [ 5.979499486135134, 52.071176351793554 ], [ 5.979141472208049, 52.070914443899156 ], [ 5.979526117660472, 52.070171989831735 ], [ 5.979321388776573, 52.069266415593141 ], [ 5.97975221323925, 52.068826213274377 ], [ 5.980249304932983, 52.064657429158885 ], [ 5.978381294890281, 52.060963802589619 ], [ 5.977838320895863, 52.054595383951067 ], [ 5.978365301896219, 52.053904586165402 ], [ 5.982065794007489, 52.047419351031508 ], [ 5.982489393230759, 52.047165234425385 ], [ 5.987140512652568, 52.041271926837325 ], [ 5.987732244536194, 52.040145410271784 ], [ 5.982506103344645, 52.03989671672413 ], [ 5.981877589383041, 52.039054581694671 ], [ 5.981275195931654, 52.038082291309152 ], [ 5.981207291946773, 52.037386562707361 ], [ 5.980605228361837, 52.035646945314511 ], [ 5.978167060419691, 52.032745522595881 ], [ 5.978031698999288, 52.032088811659577 ], [ 5.978309543584076, 52.031542035333331 ], [ 5.977822233541602, 52.031193982764322 ], [ 5.979087580602111, 52.030037396801724 ], [ 5.978027373611342, 52.029456528217771 ], [ 5.977901888817859, 52.029151353353271 ], [ 5.978080148897388, 52.028992086617642 ], [ 5.979750321897055, 52.029452421504303 ], [ 5.980612684981747, 52.028729972710956 ], [ 5.981558549130672, 52.028956905897708 ], [ 5.98207426421685, 52.029844508356604 ], [ 5.984812294455732, 52.032369142773589 ], [ 5.990053561467843, 52.03328603109032 ], [ 5.991383352191784, 52.033382565396835 ], [ 5.994675643325724, 52.028154187615158 ], [ 5.994881076049038, 52.02857995425741 ], [ 5.994299203434288, 52.02935757007446 ], [ 5.994326743782458, 52.029589317739031 ], [ 5.996371653759728, 52.03045596904122 ], [ 5.996707362960412, 52.031007625977864 ], [ 5.997064530726519, 52.031201887430015 ], [ 5.998134685239727, 52.030412711635556 ], [ 5.999907246630909, 52.030986460190285 ], [ 6.001327329419899, 52.03176004304391 ], [ 6.00380863539718, 52.031682148871113 ], [ 6.005512354952693, 52.031343324040364 ], [ 6.003578080651471, 52.034003700369617 ], [ 6.003588746027686, 52.034190354392862 ], [ 6.008140653025342, 52.034577996830855 ], [ 6.008485477927652, 52.034303053201683 ], [ 6.009701647306421, 52.033911096323067 ], [ 6.009991037016276, 52.034218642982104 ], [ 6.010907266234887, 52.034526921058742 ], [ 6.013152875124549, 52.034853608316659 ], [ 6.013081568005373, 52.035359883454355 ], [ 6.013480306923913, 52.035515134229136 ], [ 6.013198075004761, 52.035733161611837 ], [ 6.013360187048765, 52.036078344326818 ], [ 6.013692699836619, 52.03645756900562 ], [ 6.014660295389367, 52.037034621793623 ], [ 6.014349730000195, 52.037936780534011 ], [ 6.014566522113863, 52.038849479739078 ], [ 6.014859136779393, 52.039211624279993 ], [ 6.017252189898844, 52.040815377885473 ], [ 6.018231628278746, 52.04166328281989 ], [ 6.019408139619387, 52.042020036873353 ], [ 6.020182379025048, 52.042457721306114 ], [ 6.021017256353655, 52.042573531382544 ], [ 6.021419365267277, 52.042932777395642 ], [ 6.023294740133817, 52.043772509532161 ], [ 6.023542410641578, 52.044057223976615 ], [ 6.023950256116625, 52.045552672033438 ], [ 6.024116139121197, 52.045537072175058 ], [ 6.024685073153913, 52.044765092664342 ], [ 6.024865748091572, 52.045540324703452 ], [ 6.025517160841344, 52.046225010510163 ], [ 6.026120263433948, 52.046455358190855 ], [ 6.025218218582994, 52.046882304915087 ], [ 6.025617722398021, 52.047434357569507 ], [ 6.024866873798373, 52.048789155974646 ], [ 6.024957457702192, 52.050052451111206 ], [ 6.025184989513112, 52.050849633469042 ], [ 6.025390937295811, 52.05091660312025 ], [ 6.026314350577191, 52.050651654454434 ], [ 6.028454097555586, 52.051499880044972 ], [ 6.02609531857299, 52.05677227356729 ], [ 6.017240215282176, 52.055903162707622 ], [ 6.016096207817134, 52.057242161867919 ], [ 6.012421779658908, 52.058699265646325 ], [ 6.005974609656532, 52.062059265973105 ], [ 6.006099939636981, 52.063224961166185 ], [ 6.006027754398264, 52.066431012858658 ], [ 6.009644231407344, 52.066102216448485 ], [ 6.023714225930039, 52.067380752390761 ], [ 6.027977005494714, 52.069108084710869 ], [ 6.030941551377023, 52.07126928125912 ], [ 6.038364167782182, 52.075104627331179 ], [ 6.044879659800864, 52.079729985079652 ], [ 6.050996771516481, 52.081621597916374 ], [ 6.055275531395959, 52.08363521813817 ], [ 6.058468819738175, 52.085418460090452 ], [ 6.063306240329656, 52.087092142666428 ], [ 6.06758861376909, 52.088303275326595 ], [ 6.068379069918613, 52.088340026427957 ], [ 6.076074568647083, 52.087586922803645 ], [ 6.077196768926123, 52.083882240987343 ], [ 6.077730767005571, 52.083629682156349 ], [ 6.080776511728692, 52.083929563181748 ], [ 6.081406554093802, 52.082388469810418 ], [ 6.084645177384193, 52.081767210256515 ], [ 6.08617308294, 52.076913174034004 ], [ 6.086674628118602, 52.076865069939188 ], [ 6.086897946139654, 52.076138002356473 ], [ 6.08693161538682, 52.076142552817913 ], [ 6.085338944846045, 52.080863811994369 ], [ 6.085381313508374, 52.081631637006865 ], [ 6.103461118062928, 52.07823617036069 ], [ 6.103511129426111, 52.078095784328163 ], [ 6.103115145384721, 52.077610766365673 ], [ 6.109169168270908, 52.075025002577412 ], [ 6.111481054769597, 52.072730192964173 ], [ 6.113739523863915, 52.072048125610628 ], [ 6.114328074737019, 52.071282905355183 ], [ 6.115755765541095, 52.068338105496274 ], [ 6.120443757379204, 52.068854068920587 ], [ 6.121081220759923, 52.068655317874075 ], [ 6.120751061764228, 52.067956555638183 ], [ 6.120003698874954, 52.06737192099758 ], [ 6.120036722415874, 52.06681695255638 ], [ 6.120681188561464, 52.06581997712329 ], [ 6.121578977876038, 52.06526749349576 ], [ 6.121759290788005, 52.064332289714649 ], [ 6.122731408999692, 52.063602356155677 ], [ 6.122833654594118, 52.063348418341363 ], [ 6.124210495435178, 52.063678455305002 ], [ 6.124502704503777, 52.063544682800753 ], [ 6.124896236075675, 52.063879035850583 ], [ 6.127352685515104, 52.064409591049596 ], [ 6.128743099491066, 52.064374856078032 ], [ 6.129294188407997, 52.063982852664068 ], [ 6.12927771313167, 52.063408872559151 ], [ 6.128896847401202, 52.062882519534924 ], [ 6.132252160557708, 52.0628401477721 ], [ 6.132608307210168, 52.061958892489173 ], [ 6.135798297508021, 52.062146708856304 ], [ 6.136524861281752, 52.06038600951738 ], [ 6.135579149592144, 52.059755512243882 ], [ 6.137558266992042, 52.059226634049146 ], [ 6.137228518786987, 52.058813787984263 ], [ 6.135381586641634, 52.057381545238634 ], [ 6.132436897622363, 52.055791544450543 ], [ 6.129369333496596, 52.054432029053757 ], [ 6.121797282337254, 52.051965827627861 ], [ 6.118215064283375, 52.050199858602127 ], [ 6.115772732691199, 52.048631129763457 ], [ 6.11365739021035, 52.046969687545534 ], [ 6.112121092295861, 52.04526115629178 ], [ 6.111400561906195, 52.044116734243467 ], [ 6.111014350777773, 52.042939966178032 ], [ 6.110913760197938, 52.042037318575034 ], [ 6.111152504218642, 52.040691750212858 ], [ 6.111807168315963, 52.039307186182157 ], [ 6.112665973584716, 52.038309675776908 ], [ 6.114046066598902, 52.037317971528495 ], [ 6.116428903388318, 52.036158192843423 ], [ 6.118737602225411, 52.035338496346348 ], [ 6.123951787807233, 52.033979312369134 ], [ 6.126372188021639, 52.032891209342772 ], [ 6.127961320933008, 52.031882072187955 ], [ 6.130102681572173, 52.030014789329456 ], [ 6.131388066032715, 52.028262109419948 ], [ 6.132168970644629, 52.02638476170231 ], [ 6.132356426384636, 52.024285906085026 ], [ 6.131934848594124, 52.022314873820662 ], [ 6.13081197496522, 52.020293308990041 ], [ 6.130150474030106, 52.01944024373104 ], [ 6.128794062423211, 52.018347878533326 ], [ 6.12773038931016, 52.016663232541816 ], [ 6.127457841821379, 52.015761985962847 ], [ 6.127704581329021, 52.013970353746039 ], [ 6.127497206292697, 52.012692115362277 ], [ 6.126642322335154, 52.010895772104611 ], [ 6.126040617068311, 52.010067704893437 ], [ 6.124437096475062, 52.008543256588517 ], [ 6.1223803492707, 52.007261769215219 ], [ 6.11991628510059, 52.006264281703615 ], [ 6.116322844147811, 52.005328388680788 ], [ 6.114832799856888, 52.004490616041558 ], [ 6.113905662576721, 52.003275061854353 ], [ 6.113374059002722, 52.000940997959226 ], [ 6.112366872796576, 51.998922307445348 ], [ 6.111175075988911, 51.997587462496362 ], [ 6.109523503115317, 51.9962536351929 ], [ 6.107552428280291, 51.99547449547007 ], [ 6.104340403194373, 51.994626373690267 ], [ 6.094343006941018, 51.9927415473243 ], [ 6.092731006456551, 51.992651184906997 ], [ 6.090682186364255, 51.992793935933392 ], [ 6.08789982381434, 51.993332177473704 ], [ 6.086901519124942, 51.99366677362687 ], [ 6.084956189763055, 51.994471964933517 ], [ 6.083513950884871, 51.995470209336638 ], [ 6.080968815506267, 51.998370302209452 ], [ 6.079225327199625, 51.99976942235012 ], [ 6.07809405448389, 52.001008553167701 ], [ 6.077544842955332, 52.002299156662303 ], [ 6.077488572457074, 52.00326333792389 ], [ 6.077570531742243, 52.003824946344459 ], [ 6.078592956318192, 52.005964510640375 ], [ 6.078690580882777, 52.007449111401378 ], [ 6.078261324337001, 52.008618311239516 ], [ 6.077774205082523, 52.009303492436246 ], [ 6.076413584575083, 52.010569480196359 ], [ 6.074039718733988, 52.011836329255978 ], [ 6.068246957796992, 52.014072945315242 ], [ 6.066477698458842, 52.014545599953877 ], [ 6.064677900979697, 52.014851858065185 ], [ 6.063045931306055, 52.014924443989123 ], [ 6.061789754707149, 52.014881968320992 ], [ 6.059468639000615, 52.014497786858662 ], [ 6.056777619927701, 52.013632175373665 ], [ 6.053324729776073, 52.011884097156781 ], [ 6.049258177542918, 52.010336359770122 ], [ 6.047619279278983, 52.009353995223705 ], [ 6.046187886565023, 52.008008827700671 ], [ 6.045700309935801, 52.007274024617352 ], [ 6.044877577505535, 52.004334967818359 ], [ 6.044031117480658, 52.003048701655771 ], [ 6.042681075717567, 52.001781172484627 ], [ 6.040578363486609, 52.000618806907298 ], [ 6.039166968573018, 52.001093667196891 ], [ 6.035498882950428, 51.999079965615756 ], [ 6.031618215769596, 51.997906297881777 ], [ 6.029913568015302, 51.997588867423225 ], [ 6.026032099712835, 51.997336469417753 ], [ 6.020453024135499, 51.997806502686863 ], [ 6.020337543693033, 51.996814363776963 ], [ 6.017320431896689, 51.997003377043143 ], [ 6.015355365225663, 51.996770164883706 ], [ 6.012041393227664, 51.995555878916903 ], [ 6.00985370335516, 51.994291331256917 ], [ 6.007793437989983, 51.992617411998317 ], [ 6.006296424922372, 51.990700633816225 ], [ 6.00565304354216, 51.989257176105603 ], [ 6.004174148192889, 51.984358247385472 ], [ 6.001514050324814, 51.979730324345688 ], [ 6.000157285414291, 51.97819128134131 ], [ 5.997981983893065, 51.976795148795027 ], [ 5.994670812886209, 51.975504555688609 ], [ 5.990178273178763, 51.974270429964157 ], [ 5.979184062433397, 51.973351837184055 ], [ 5.973881030448637, 51.972512788961389 ], [ 5.968427047242848, 51.971983855634754 ], [ 5.963658583337091, 51.971047741489492 ], [ 5.958988629485864, 51.969113060680449 ], [ 5.955515828595042, 51.966936777446996 ], [ 5.953019961444526, 51.964977002239451 ], [ 5.951827914294382, 51.963793889713635 ], [ 5.951056973437842, 51.962777270997115 ], [ 5.950200116307329, 51.961245546317897 ], [ 5.949589496509406, 51.95943824447189 ], [ 5.949349435456725, 51.95745261109694 ], [ 5.949626508782265, 51.955695185860144 ], [ 5.950198908812504, 51.954274152870319 ], [ 5.951402361391223, 51.952532317128622 ], [ 5.954250100595789, 51.949720383913068 ], [ 5.957615709931787, 51.947088377320689 ], [ 5.958871008885529, 51.945883830996713 ], [ 5.96037619080273, 51.943838896314816 ], [ 5.961103078951568, 51.942294642837595 ], [ 5.961397677506718, 51.941233360733627 ], [ 5.961894007876624, 51.938799489665712 ], [ 5.961579699592438, 51.938693648849863 ], [ 5.961615727025809, 51.938337994205035 ], [ 5.962378201115182, 51.93577767126358 ], [ 5.963586788229387, 51.933384868737143 ], [ 5.966139531669246, 51.930090775611099 ], [ 5.968405797943328, 51.928306797408496 ], [ 5.968667130426098, 51.928296501499084 ], [ 5.975936357051919, 51.923803304365279 ], [ 5.978705287268428, 51.921761056573757 ], [ 5.980064221614241, 51.920566813811774 ], [ 5.984556842982864, 51.915695276059189 ], [ 5.988282014255234, 51.91246271818374 ], [ 5.988245348057266, 51.912312998192803 ], [ 5.986843792131412, 51.911796300253542 ], [ 5.988625497353092, 51.909719687287271 ], [ 5.992608652229669, 51.907587821935095 ], [ 5.996566898953422, 51.905093444626353 ], [ 5.998484860113174, 51.90673437933232 ], [ 6.003079657783373, 51.904964938010878 ], [ 6.013747386584933, 51.901701449635695 ], [ 6.016853629422943, 51.900199711895844 ], [ 6.019716673001164, 51.898372912215876 ], [ 6.021430601025795, 51.8968903748437 ], [ 6.023745050282898, 51.893969500011934 ], [ 6.027359797771938, 51.885592139160437 ], [ 6.029419881368843, 51.881756697944333 ], [ 6.030655782135557, 51.880307563810106 ], [ 6.032572588324307, 51.878635388486721 ], [ 6.0348074364328, 51.87699347500854 ], [ 6.037205638472726, 51.875504558327634 ], [ 6.041707822495226, 51.873007465841745 ], [ 6.046312201772631, 51.87100971855137 ], [ 6.040830342429046, 51.871661590562915 ], [ 6.035606703809633, 51.873102955365361 ], [ 6.032395393402447, 51.874201123502317 ], [ 6.029210403500437, 51.875628786898289 ], [ 6.023931239790725, 51.878489624153552 ], [ 6.021973740582466, 51.879385445286331 ], [ 6.016934205428086, 51.881084239081865 ], [ 6.012200769371415, 51.881771470018819 ], [ 6.009284951539233, 51.881703390053026 ], [ 6.004774182426434, 51.881130351047986 ], [ 6.00193144706425, 51.880352779203477 ], [ 5.999667881239066, 51.879424830370098 ], [ 5.994969068844545, 51.876732477446168 ], [ 5.992553256271896, 51.87500552518518 ], [ 5.989497631948365, 51.872500203955767 ], [ 5.986019894743916, 51.868290649843658 ], [ 5.984641382141272, 51.866342258305167 ], [ 5.982908201556405, 51.862653102192866 ], [ 5.981925734141361, 51.860981444047503 ], [ 5.980995118609776, 51.859894727927575 ], [ 5.977694475087266, 51.857313407142733 ], [ 5.976168276901785, 51.856522333290222 ], [ 5.974014167685405, 51.855847958383819 ], [ 5.97160470254704, 51.84974442308512 ], [ 5.964707648246906, 51.850960866428046 ], [ 5.962330096479614, 51.851788484283354 ], [ 5.961082357701865, 51.85239181299233 ], [ 5.957217794519678, 51.853688604641597 ], [ 5.954955719497185, 51.854828975778986 ], [ 5.953708103409241, 51.855668913222644 ], [ 5.955354259268942, 51.856852999450318 ], [ 5.955362138745816, 51.856995276581905 ], [ 5.95298771189043, 51.858443872088742 ], [ 5.951325726684797, 51.859674054973397 ], [ 5.945392453888183, 51.865240999504309 ], [ 5.941649467446074, 51.868345147930015 ], [ 5.937361711134999, 51.871499758109358 ], [ 5.934999414610085, 51.872733306506198 ], [ 5.93220754860211, 51.873651810823461 ], [ 5.923645460161193, 51.874722404473651 ], [ 5.921036945897272, 51.874750466013843 ], [ 5.914459847669019, 51.874322057439677 ], [ 5.909105605943329, 51.873739092676978 ], [ 5.903589091479668, 51.872638914583654 ], [ 5.895931529184123, 51.870626817303062 ], [ 5.892305516115285, 51.86894650217257 ], [ 5.888368746948353, 51.86654815922499 ], [ 5.886762653665121, 51.865332029468284 ], [ 5.884362369465021, 51.86709656658666 ], [ 5.882934007746051, 51.866364461825526 ], [ 5.883025353148704, 51.866793172989766 ], [ 5.881825568055868, 51.867347217944157 ], [ 5.881995294849396, 51.867669092162139 ], [ 5.881884554295771, 51.86785098271293 ], [ 5.881396015173981, 51.868071165190145 ], [ 5.87987363336942, 51.869473097327223 ], [ 5.879158110439708, 51.87191569535203 ], [ 5.87844984270736, 51.873580389363084 ], [ 5.877670975870403, 51.87481543704255 ], [ 5.877116911109922, 51.876590353627684 ], [ 5.876168189953765, 51.87671522907673 ], [ 5.875871081248054, 51.880918813114562 ], [ 5.875117569888036, 51.882208576594252 ], [ 5.87320446676602, 51.88696568488664 ], [ 5.872874934334262, 51.887487148430168 ], [ 5.872102916633383, 51.88738327852392 ], [ 5.871538161981611, 51.888734490704223 ], [ 5.869255973563223, 51.888372397171835 ], [ 5.867656729659014, 51.888354944777156 ], [ 5.865647744233248, 51.888529731389006 ], [ 5.865733803056792, 51.888838459561171 ], [ 5.865422586228044, 51.889047899558761 ], [ 5.864451576584798, 51.888728442953543 ], [ 5.861738688245093, 51.888870875115259 ], [ 5.861240229923689, 51.888748946267405 ], [ 5.861027458342737, 51.888471057588106 ], [ 5.85931068701043, 51.888674784094746 ], [ 5.857719506084269, 51.888494127796612 ], [ 5.857143569212812, 51.894718897799208 ], [ 5.852774607724303, 51.894369339756466 ], [ 5.847444099168195, 51.894229532902486 ], [ 5.847054366638606, 51.894908468230149 ], [ 5.845627708309109, 51.894880438996218 ], [ 5.845394528867021, 51.894577248115205 ], [ 5.842057098624066, 51.894508867175098 ], [ 5.841058820412131, 51.894677044329462 ], [ 5.839329016335125, 51.895389563308242 ], [ 5.838416723986705, 51.895447764869033 ], [ 5.83678038793386, 51.895353310136315 ], [ 5.836639826088523, 51.893773424896537 ], [ 5.836743696273767, 51.89268254647282 ], [ 5.8371408023516, 51.892475782188257 ], [ 5.838389148349195, 51.890111202124579 ], [ 5.837742059353072, 51.890815451817019 ], [ 5.837417959073779, 51.890905485825492 ], [ 5.835313918256846, 51.89064452816919 ], [ 5.835125233359791, 51.890465901864779 ], [ 5.835687091702695, 51.889667133415031 ], [ 5.835187547165542, 51.889234991708264 ], [ 5.836052183531261, 51.887577531056088 ], [ 5.835777791973204, 51.885987058534681 ], [ 5.836557783212264, 51.883701932601589 ], [ 5.837625382187642, 51.883400021403034 ], [ 5.835901792287613, 51.881489395142033 ], [ 5.832725044728035, 51.878481874610529 ], [ 5.832778941222961, 51.878341203276968 ], [ 5.834994165661441, 51.877568615248812 ], [ 5.833947239989046, 51.87563379254253 ], [ 5.83234783898115, 51.873505274120589 ], [ 5.836767649743203, 51.870750026671274 ], [ 5.836975330002764, 51.869626571355965 ], [ 5.836662561456849, 51.869401303009155 ], [ 5.835366452530491, 51.869190530035645 ], [ 5.835167400730388, 51.867440633535622 ], [ 5.83725623785978, 51.866619696404058 ], [ 5.838284758005114, 51.865547071916509 ], [ 5.839390924972279, 51.865527887307778 ], [ 5.838886936643754, 51.865142305989053 ], [ 5.83602099692535, 51.866661599979359 ], [ 5.835688776532018, 51.866710293594871 ], [ 5.831425178860971, 51.863461451107632 ], [ 5.8210573707014, 51.868620158174856 ], [ 5.815886946128683, 51.870900849204396 ], [ 5.81034108260424, 51.872868819225111 ], [ 5.804410409780891, 51.874555388745733 ], [ 5.800326909165576, 51.875485122106447 ], [ 5.792753046635658, 51.876601007662579 ], [ 5.789056107512756, 51.877081396439337 ], [ 5.780021657392044, 51.877884578447365 ], [ 5.769895993045926, 51.879293357369257 ], [ 5.761060422935609, 51.881215941170332 ], [ 5.752957361488966, 51.883267841779336 ], [ 5.747336502092702, 51.884300876755866 ], [ 5.748090877253603, 51.885995417402562 ], [ 5.748450439301841, 51.88784358052196 ], [ 5.748146676037882, 51.887997404883329 ], [ 5.747808761641335, 51.888547299599381 ], [ 5.747255682762665, 51.888827537558257 ], [ 5.743233200622727, 51.889763553923231 ], [ 5.742081433850032, 51.889758326490082 ], [ 5.740456338662068, 51.889242375938899 ], [ 5.738705110901452, 51.889228381770977 ], [ 5.73701796284866, 51.885458985511136 ], [ 5.730999814123773, 51.886232372562631 ], [ 5.72540614692537, 51.887458713548725 ], [ 5.725813937383315, 51.888695906139077 ], [ 5.727156060389722, 51.891378948991459 ], [ 5.720813504155642, 51.893041064343123 ], [ 5.715601488004257, 51.89329212579915 ], [ 5.714974545741567, 51.893865252416013 ], [ 5.712210098485685, 51.895080167782872 ], [ 5.709976936094682, 51.895594392151985 ], [ 5.710058517215718, 51.895822574655845 ], [ 5.711121495528699, 51.896587086357158 ], [ 5.710907239719073, 51.897147490238389 ], [ 5.710103224346411, 51.897752440367725 ], [ 5.708631088853972, 51.898078781118812 ], [ 5.706664796101816, 51.897782193564034 ], [ 5.706481861803717, 51.897977617633217 ], [ 5.706535018614876, 51.898875752050643 ], [ 5.708242704201536, 51.901246339808765 ], [ 5.707666832291472, 51.902921991438916 ], [ 5.706717732367153, 51.903730914860716 ], [ 5.705442279053301, 51.904123688321448 ], [ 5.706218588319042, 51.90622426419246 ], [ 5.706507724561989, 51.906313130349538 ], [ 5.706265377599037, 51.907968254956479 ], [ 5.703133220253603, 51.910989593528711 ], [ 5.700790101444477, 51.913567081202309 ], [ 5.699370056369697, 51.914612881079911 ], [ 5.696844092800551, 51.915400499774691 ], [ 5.696289576544394, 51.915850884652095 ], [ 5.69592789925265, 51.916706916133471 ], [ 5.698074273506395, 51.916365859332792 ], [ 5.700515319916403, 51.916217296213397 ], [ 5.702938759795946, 51.916338026285764 ], [ 5.703147993327994, 51.916620644823809 ], [ 5.695551209632131, 51.917004660032184 ], [ 5.695056085344202, 51.91733810981885 ], [ 5.692414211333363, 51.918404957073122 ], [ 5.696361107748332, 51.920757612954709 ], [ 5.696323008779244, 51.920941343311135 ], [ 5.694873247930839, 51.921471209575472 ], [ 5.693717831370813, 51.921276641203256 ], [ 5.693622336329586, 51.921026408715484 ], [ 5.692780054103019, 51.920808577932831 ], [ 5.684786931298788, 51.919430005772064 ], [ 5.681227801935393, 51.918428415943424 ], [ 5.677531596014308, 51.920824928708228 ], [ 5.676282812888055, 51.921180480665541 ], [ 5.677171315368972, 51.921692564250392 ], [ 5.677164396949034, 51.922239508222113 ], [ 5.675942276438668, 51.923278848876457 ], [ 5.677730534073292, 51.924292325813134 ], [ 5.675970053943238, 51.926132530983921 ], [ 5.676612771331242, 51.926571779247347 ], [ 5.677310549260429, 51.927356678278635 ], [ 5.678484782135375, 51.927981666205113 ], [ 5.678399233607703, 51.928790610044544 ], [ 5.678545232676825, 51.929054742117572 ], [ 5.682196238729302, 51.929182621732984 ], [ 5.68448548576839, 51.929705133498828 ], [ 5.686270945279066, 51.930739220903781 ], [ 5.687247130649319, 51.93106335003386 ], [ 5.689824034863682, 51.932393322398767 ], [ 5.690756847503356, 51.932337135758146 ], [ 5.694559740091242, 51.931252242824726 ], [ 5.696390621349495, 51.931178099480732 ], [ 5.696347397207631, 51.931446925675914 ], [ 5.693134822732686, 51.934686016042832 ], [ 5.692019158345188, 51.934552899809049 ], [ 5.690172245560735, 51.935059389924568 ], [ 5.688888666081652, 51.935115662012102 ], [ 5.688760428652456, 51.935239683132032 ], [ 5.674899714766953, 51.931555417966408 ], [ 5.670906458734025, 51.930642655795857 ], [ 5.664211949984593, 51.930311317911638 ], [ 5.660383928196477, 51.929723489031907 ], [ 5.660572388154492, 51.929886875655136 ], [ 5.660069791541988, 51.933514681425422 ], [ 5.660343627322479, 51.933578541174406 ], [ 5.660581222883958, 51.933890678248602 ], [ 5.659741467478486, 51.937006435154977 ], [ 5.667778992152281, 51.938793911400765 ], [ 5.667844991698203, 51.938942118012562 ], [ 5.665763627762614, 51.941496190836958 ], [ 5.663268727528929, 51.940850242041215 ], [ 5.661179304294189, 51.943701009785599 ], [ 5.654385932084468, 51.941527409796677 ], [ 5.653420637984497, 51.942876449760981 ], [ 5.65350585567167, 51.943086376131909 ], [ 5.652444448839842, 51.944218771990172 ], [ 5.653430523593933, 51.945391162452509 ], [ 5.657347988373624, 51.948206511661525 ], [ 5.662902664213612, 51.950856322959901 ], [ 5.666021475357783, 51.952702501636622 ], [ 5.668019587099588, 51.953094745129277 ], [ 5.669541309931267, 51.953641914148065 ], [ 5.671414138749435, 51.954602260304398 ], [ 5.6748600385521, 51.95670536367853 ], [ 5.677489643542017, 51.957837559369551 ], [ 5.679182423807958, 51.958388461902686 ], [ 5.682148995553579, 51.959097179294361 ], [ 5.699470451284339, 51.961727481648062 ], [ 5.709484457017455, 51.962930943590194 ], [ 5.717469973414024, 51.963138383196267 ], [ 5.722666315351817, 51.963971343002648 ], [ 5.720935005154698, 51.966992453671153 ], [ 5.72027074482292, 51.967278577881309 ], [ 5.717436473412116, 51.966997024821836 ], [ 5.717485803869016, 51.968416656441541 ], [ 5.719368065516485, 51.968596881550155 ], [ 5.720115179459488, 51.968903543329276 ], [ 5.72001597283408, 51.969253563934934 ], [ 5.719856840818271, 51.969288313928679 ], [ 5.720239928033006, 51.970109044113777 ], [ 5.72017241098976, 51.971265867961463 ], [ 5.720309398871811, 51.971439875350832 ], [ 5.720591402068337, 51.971443079729561 ], [ 5.721779514073981, 51.973899817720749 ], [ 5.718582650249842, 51.975059232873882 ], [ 5.718554930405262, 51.975206020282734 ], [ 5.717940077650572, 51.975428931800494 ], [ 5.721402048636998, 51.980415378710667 ], [ 5.72113542156612, 51.980711558619866 ], [ 5.721365257026132, 51.980828428029426 ], [ 5.721805230831736, 51.981526158035052 ], [ 5.719643509972011, 51.982421689965641 ], [ 5.718779182670604, 51.983175968446268 ], [ 5.717673059185467, 51.983700539819125 ], [ 5.722978393981914, 51.997039102133769 ], [ 5.724037747501288, 51.999626923019314 ], [ 5.724280364305999, 51.999681900650344 ], [ 5.724625761373007, 52.000614903296182 ], [ 5.731576401062701, 52.000693550945648 ], [ 5.731709687986599, 52.000832370177953 ], [ 5.73278837397507, 52.000640764469559 ], [ 5.733341090079548, 52.001715320007982 ], [ 5.733667043608434, 52.001897516321762 ], [ 5.735198996055207, 52.001675361216911 ], [ 5.7379867916774, 52.002259772731584 ], [ 5.738205901086532, 52.002142011924924 ], [ 5.740621166471142, 52.00405007707792 ], [ 5.741397022043529, 52.004076838837811 ], [ 5.743363082634044, 52.006481942392774 ], [ 5.744644039593937, 52.006262798781016 ], [ 5.745695531342498, 52.007702654852245 ], [ 5.742840716444698, 52.008541463727283 ], [ 5.743337916659917, 52.009190147809946 ], [ 5.7430262779888, 52.009563451381673 ], [ 5.742670947965967, 52.009826739260092 ], [ 5.741643065286486, 52.010133038493784 ], [ 5.740413719195604, 52.010199471575426 ], [ 5.739841823837432, 52.010600711022107 ], [ 5.740027328864338, 52.01156172987654 ], [ 5.738275368225263, 52.01220298056338 ], [ 5.73866335340792, 52.012847250538847 ], [ 5.739970070630213, 52.013357914872394 ], [ 5.739695933924909, 52.014195797316148 ], [ 5.739869839290256, 52.014634154467714 ], [ 5.740149676447011, 52.014774732356294 ], [ 5.741001919127154, 52.014633791222302 ], [ 5.741418813689784, 52.014750582807231 ], [ 5.741378743868339, 52.015217304398632 ], [ 5.741586020002666, 52.015758597798033 ], [ 5.741236009922429, 52.016370732395451 ], [ 5.742262308746272, 52.017370694920473 ], [ 5.743404369248719, 52.017716682100968 ], [ 5.743644869414102, 52.018357594563966 ], [ 5.74420476731382, 52.018505011580892 ], [ 5.744490947411438, 52.019027060365389 ], [ 5.745179464913397, 52.019236735296623 ], [ 5.745292705235774, 52.019685140683507 ], [ 5.747294078096229, 52.019911756712823 ], [ 5.747685117410552, 52.019488081591923 ], [ 5.750847553983801, 52.019780712001307 ], [ 5.75183032673235, 52.020237231691944 ], [ 5.751741116981734, 52.020564246678248 ], [ 5.752976533345251, 52.020804234715115 ], [ 5.753783148291414, 52.020572910441885 ], [ 5.756767711909365, 52.021002268532584 ], [ 5.764218060479648, 52.021142283641375 ], [ 5.770192713650739, 52.021459003472714 ], [ 5.770194923383486, 52.021120246303425 ], [ 5.770583952896281, 52.021037051778428 ], [ 5.770941995759144, 52.0214858426489 ], [ 5.777660742595335, 52.021778333794948 ], [ 5.784256775728964, 52.021860128022702 ], [ 5.787414302140229, 52.021248886817766 ], [ 5.787529130584154, 52.021783707447426 ], [ 5.792641163595978, 52.021718301427832 ], [ 5.798124390234891, 52.021914947562166 ], [ 5.800205197421173, 52.021271935980543 ], [ 5.802045056404196, 52.021554768351798 ], [ 5.802676589060447, 52.0219940744092 ], [ 5.801177480714626, 52.023059445164918 ], [ 5.801387602483975, 52.023611933395031 ], [ 5.801280194093348, 52.023846667725408 ], [ 5.800973236698751, 52.023983101847364 ], [ 5.80020225373551, 52.023557214589168 ], [ 5.798520976934206, 52.024570455110876 ], [ 5.801813894665786, 52.027214800655976 ], [ 5.804345424215131, 52.029984457339218 ], [ 5.805472269739615, 52.030851822697663 ], [ 5.808665704763348, 52.029139937437485 ], [ 5.810154079111849, 52.030540070100095 ], [ 5.811870376539154, 52.029251526260502 ], [ 5.810981968549642, 52.028429644970252 ], [ 5.810915590157179, 52.027776068751344 ], [ 5.813715409921431, 52.026729251971261 ], [ 5.814287453605188, 52.027383889019163 ], [ 5.815700815896404, 52.026399687743435 ], [ 5.821100420115076, 52.032008246279432 ], [ 5.824253167129962, 52.034755954541119 ], [ 5.83029921423032, 52.033660230050749 ], [ 5.830516691191635, 52.034148749206523 ], [ 5.830437529692055, 52.034312170544766 ], [ 5.8294678345245, 52.034458438417175 ], [ 5.828502206788909, 52.034879956537026 ], [ 5.827797554372692, 52.034832547203081 ], [ 5.826564422303709, 52.035168150557482 ], [ 5.828335558717768, 52.036630439286235 ], [ 5.829387008473537, 52.037086194316785 ], [ 5.830925236085187, 52.037179442680639 ], [ 5.835341061667739, 52.036324974322241 ], [ 5.838249435832594, 52.04182157366828 ], [ 5.838145737044544, 52.041969958626183 ], [ 5.836820569571425, 52.04224828345702 ], [ 5.837080262670108, 52.042892419153546 ], [ 5.837344034161577, 52.043141938612436 ], [ 5.836242939642783, 52.044045944557141 ], [ 5.837098705264986, 52.044781703116541 ], [ 5.838736698452757, 52.045469933171091 ], [ 5.838855752908426, 52.046169524027249 ], [ 5.838016501898355, 52.046451981228181 ], [ 5.843334000973871, 52.048726945074101 ], [ 5.843379032722995, 52.048890950104294 ], [ 5.842638831112568, 52.0496844232024 ], [ 5.84594572717711, 52.051126053358878 ], [ 5.845014235309577, 52.052159682771958 ], [ 5.848168936684084, 52.053508733356786 ], [ 5.850016993348748, 52.051494975059711 ], [ 5.859664249556846, 52.051917167577109 ], [ 5.862471482069152, 52.051591242574148 ], [ 5.863942182468671, 52.05249952256402 ], [ 5.865995959497649, 52.052458186410512 ], [ 5.865509611455678, 52.051240269055683 ], [ 5.882058954755068, 52.049310874235211 ], [ 5.899423824840492, 52.049860738615557 ], [ 5.898131440363757, 52.061409141616096 ], [ 5.89854887919184, 52.061807242531025 ], [ 5.898250692682842, 52.063247184535982 ], [ 5.90976919259767, 52.061999487898149 ], [ 5.945078051626681, 52.077731015293885 ], [ 5.94607415951949, 52.077631193441327 ], [ 5.946174673057452, 52.07775155953739 ], [ 5.947116131187684, 52.077358109731769 ], [ 5.947269844489455, 52.077505685433678 ] ] ], [ [ [ 5.882732865998941, 51.866268011979564 ], [ 5.882730760874189, 51.866269424481189 ], [ 5.882770804220471, 51.866286203805352 ], [ 5.882732865998941, 51.866268011979564 ] ] ] ] } }
]
}
