{
"type": "FeatureCollection",
"name": "SWVPO2403",
"crs": { "type": "name", "properties": { "name": "urn:ogc:def:crs:OGC:1.3:CRS84" } },
"features": [
{ "type": "Feature", "properties": { "PO SWV": "PO2403", "strokeColor": "#A9A9A9", "strokeWidth": 2, "fillColor": "#ADD8E6" }, "geometry": { "type": "MultiPolygon", "coordinates": [ [ [ [ 5.281343541018099, 52.684338913422295 ], [ 5.281776273357754, 52.684741150492826 ], [ 5.282081924800883, 52.684777939393342 ], [ 5.287246298608568, 52.684280997238673 ], [ 5.289407955121186, 52.684413469416839 ], [ 5.291478702663155, 52.684863793799728 ], [ 5.293285581745911, 52.685589971861951 ], [ 5.294787823824135, 52.686577539043206 ], [ 5.295547435807935, 52.687417817197911 ], [ 5.296106742241938, 52.688376410077545 ], [ 5.29643584411595, 52.689756841663211 ], [ 5.295440355285426, 52.689780140285436 ], [ 5.29553195814129, 52.690601898408104 ], [ 5.295324338232876, 52.689965517710689 ], [ 5.295082856304493, 52.690043122144459 ], [ 5.294932494778497, 52.68980955136422 ], [ 5.29149403278659, 52.689841489145728 ], [ 5.289139823856427, 52.689550159427171 ], [ 5.287971863039734, 52.689602116098293 ], [ 5.287216303479034, 52.689719991356228 ], [ 5.287210213754793, 52.689721135625099 ], [ 5.287135861541259, 52.689737506520935 ], [ 5.286862028303128, 52.68979779308453 ], [ 5.286861831431979, 52.689797837090616 ], [ 5.287690981179906, 52.691575646522786 ], [ 5.287576193500628, 52.69125964464989 ], [ 5.288280686163261, 52.691086998662982 ], [ 5.294963295203466, 52.692199515322997 ], [ 5.295513205954722, 52.69213356650414 ], [ 5.295564192804788, 52.691618378454599 ], [ 5.295688637328635, 52.691703403021371 ], [ 5.295805739943942, 52.691559199486449 ], [ 5.296175047333083, 52.692152319214543 ], [ 5.297088107911809, 52.692286354365109 ], [ 5.297146243350824, 52.692794117775961 ], [ 5.297407402836564, 52.69282866351076 ], [ 5.297470641654419, 52.692284471009636 ], [ 5.300469769495612, 52.692009326627598 ], [ 5.303173253586507, 52.691457114306608 ], [ 5.355137538579742, 52.677377195065198 ], [ 5.358268046778445, 52.676085556269278 ], [ 5.361263270374204, 52.674503852772474 ], [ 5.397856756153611, 52.650757599961644 ], [ 5.399616473817897, 52.649456895715566 ], [ 5.401869247139822, 52.647359267465788 ], [ 5.411840583694676, 52.637505140265496 ], [ 5.412665371092078, 52.637404607473641 ], [ 5.412605372878323, 52.636957092890455 ], [ 5.413307256285699, 52.636268588905054 ], [ 5.415831204190401, 52.637192392659813 ], [ 5.417483908065294, 52.63579049366605 ], [ 5.418670041973304, 52.634463611131544 ], [ 5.418652115160643, 52.63432123023297 ], [ 5.418374858988519, 52.634255606878597 ], [ 5.418044360511938, 52.634486374339424 ], [ 5.416066843888851, 52.63619952104527 ], [ 5.414409776914999, 52.635606455230437 ], [ 5.415740968431017, 52.634338473192891 ], [ 5.416774550610313, 52.634717024105846 ], [ 5.417134876836543, 52.63464185330443 ], [ 5.417183228122329, 52.634242426479119 ], [ 5.415921174832092, 52.63372455444707 ], [ 5.417441483405049, 52.6320067811332 ], [ 5.450073929587697, 52.60011021055562 ], [ 5.457111199113803, 52.592996663160591 ], [ 5.458801416712634, 52.590258658926579 ], [ 5.468001846193705, 52.571416088673878 ], [ 5.468368373174245, 52.570207981360738 ], [ 5.468289000687259, 52.569095152348638 ], [ 5.467621922248865, 52.567729719258921 ], [ 5.466739507158997, 52.566887242425402 ], [ 5.465281510780659, 52.565978658785959 ], [ 5.463281194085499, 52.565304475931718 ], [ 5.454042114754751, 52.563411339798435 ], [ 5.450025600989021, 52.562141098550782 ], [ 5.447654213640258, 52.561112377170801 ], [ 5.444919560539295, 52.55963468216644 ], [ 5.442055678953619, 52.557566072038561 ], [ 5.44062088661936, 52.556230555113252 ], [ 5.437914042168527, 52.552681677230332 ], [ 5.428895502670933, 52.539326347680841 ], [ 5.427399969149041, 52.536490119593637 ], [ 5.426796176690009, 52.533898720875769 ], [ 5.426325272446961, 52.528777004831618 ], [ 5.426353996074073, 52.528124216265709 ], [ 5.427048851581242, 52.52806120681452 ], [ 5.427227254453737, 52.527898122629331 ], [ 5.427190894702831, 52.527589173633132 ], [ 5.428979003866458, 52.527519335118434 ], [ 5.429063624982778, 52.527886752081145 ], [ 5.42966990270304, 52.527980679938231 ], [ 5.430174581681801, 52.529476340644827 ], [ 5.432307701432314, 52.529456717216704 ], [ 5.432494501755683, 52.531448451467377 ], [ 5.432782673485739, 52.532607130153536 ], [ 5.436653538007557, 52.537780502899444 ], [ 5.436860838947386, 52.537762044782134 ], [ 5.436952123369331, 52.537530137353365 ], [ 5.433892597049399, 52.533434065145848 ], [ 5.433337565683125, 52.532619713570561 ], [ 5.433017768493611, 52.531818222332994 ], [ 5.432899398469761, 52.530692422782089 ], [ 5.433594994650165, 52.530660565191553 ], [ 5.433774784475077, 52.530379151004738 ], [ 5.434056615978481, 52.530292469324962 ], [ 5.434163266527116, 52.528957606147884 ], [ 5.433987722499906, 52.527320955772446 ], [ 5.434213145948731, 52.528935097900636 ], [ 5.434520811834404, 52.52983445181961 ], [ 5.434701999182296, 52.529815878881116 ], [ 5.434809985840372, 52.528898511112807 ], [ 5.434683758630011, 52.527292342546815 ], [ 5.434860092339469, 52.52898014284677 ], [ 5.435278960307437, 52.530243973854994 ], [ 5.43555578385066, 52.530299560291638 ], [ 5.435843160851778, 52.530840039725639 ], [ 5.436218773300685, 52.53113306268498 ], [ 5.439236345672823, 52.532875366357224 ], [ 5.439698650375482, 52.532910960136526 ], [ 5.440839512643776, 52.533573006616891 ], [ 5.441086087416842, 52.533548756735115 ], [ 5.441146991784092, 52.533388638500796 ], [ 5.440998618624681, 52.533250272882874 ], [ 5.436993318953912, 52.530994980646149 ], [ 5.438564203127707, 52.529989963254515 ], [ 5.441416847146076, 52.53160034039567 ], [ 5.440525940197159, 52.53220464263736 ], [ 5.44050884915737, 52.5324307683019 ], [ 5.440767402807148, 52.532646896423579 ], [ 5.441821387918458, 52.533238539102577 ], [ 5.442940041123904, 52.532508945644565 ], [ 5.445426549705119, 52.533920705090864 ], [ 5.445248399475147, 52.534061949987745 ], [ 5.445269398584225, 52.534290546892798 ], [ 5.446121864811273, 52.534789935484994 ], [ 5.445493780592865, 52.53519271667362 ], [ 5.444724896157537, 52.534759410664101 ], [ 5.444024539057223, 52.53491148220521 ], [ 5.444028272268464, 52.535323547952601 ], [ 5.444672225808821, 52.535720847924679 ], [ 5.444073529314215, 52.536116273656042 ], [ 5.443013690707186, 52.535592369468894 ], [ 5.443273081971625, 52.535204113201139 ], [ 5.440799515361746, 52.533887189308174 ], [ 5.440802154050176, 52.534098727174381 ], [ 5.442264689923951, 52.534975585554051 ], [ 5.441983596173986, 52.535317449982237 ], [ 5.441974540689422, 52.535753517374829 ], [ 5.442051628149295, 52.536011924320306 ], [ 5.442370696355131, 52.536244361771239 ], [ 5.443566659675842, 52.536903297347813 ], [ 5.444451457647706, 52.536947328985178 ], [ 5.447270269149095, 52.535257792901128 ], [ 5.447679137667329, 52.535404378195942 ], [ 5.454558451683734, 52.546271335343803 ], [ 5.45445541140418, 52.546581898165414 ], [ 5.453544684193002, 52.546874680815698 ], [ 5.452969534292914, 52.546809501067479 ], [ 5.452756289385685, 52.546969559918061 ], [ 5.452937956604186, 52.547168613020595 ], [ 5.453904324530511, 52.547153386704188 ], [ 5.454362358339588, 52.547810769817701 ], [ 5.455346393060749, 52.548696673398787 ], [ 5.455901508884324, 52.550008311038937 ], [ 5.45584711606838, 52.550281967295184 ], [ 5.455065262501513, 52.55092973251238 ], [ 5.454635964755516, 52.551087552174096 ], [ 5.454275597679019, 52.551028820657308 ], [ 5.454212227813002, 52.55119619642565 ], [ 5.456591946685558, 52.553434736540844 ], [ 5.457139720848202, 52.553743117868386 ], [ 5.45887826210031, 52.554306441857641 ], [ 5.462563612459777, 52.554556902929477 ], [ 5.463263630668242, 52.554463222977901 ], [ 5.464401604340804, 52.553904246252024 ], [ 5.464191201079984, 52.553741850817929 ], [ 5.463179274418676, 52.554192004124346 ], [ 5.462507638431014, 52.554251214348241 ], [ 5.458690186944292, 52.553938983681327 ], [ 5.456859859315474, 52.553235580941603 ], [ 5.454829169496819, 52.55133440477335 ], [ 5.457927150629753, 52.550197712061987 ], [ 5.45892716720392, 52.550863768504421 ], [ 5.459017070812099, 52.551461997877965 ], [ 5.46004983526329, 52.551921794324805 ], [ 5.461448434048941, 52.551982706504205 ], [ 5.461580699884354, 52.55215320796605 ], [ 5.46208631790534, 52.552250907530997 ], [ 5.462350853404357, 52.552011037592457 ], [ 5.463254615563865, 52.552180285659624 ], [ 5.463098298312887, 52.55336395831884 ], [ 5.463243517394297, 52.553517987297418 ], [ 5.463455549769548, 52.553406333941609 ], [ 5.463667941884039, 52.552136548013898 ], [ 5.490483540040541, 52.55309707640891 ], [ 5.493306899875408, 52.553367876152734 ], [ 5.49600317038277, 52.553969121131189 ], [ 5.49913206208849, 52.555264440905773 ], [ 5.531451121051722, 52.574923085183194 ], [ 5.556413297479221, 52.591131872958364 ], [ 5.558667191297528, 52.592351217499967 ], [ 5.561634851770295, 52.593620556930425 ], [ 5.565097904520195, 52.594734975796754 ], [ 5.568686076314589, 52.595556846986135 ], [ 5.62829119600534, 52.605456092188483 ], [ 5.631530726636047, 52.606375216233936 ], [ 5.633800891413387, 52.60719973494129 ], [ 5.636487048454505, 52.608436401473874 ], [ 5.640646784143474, 52.610697567277981 ], [ 5.64114303890853, 52.610793163864358 ], [ 5.641553491537861, 52.61066479559053 ], [ 5.6491634711734, 52.614692126262398 ], [ 5.649150407534557, 52.615218428403608 ], [ 5.650033653188508, 52.615693682648939 ], [ 5.650232270105336, 52.615458520246634 ], [ 5.649505559796372, 52.615081420376391 ], [ 5.649531308505764, 52.614787412103553 ], [ 5.650141775308175, 52.614518768409958 ], [ 5.651090955025171, 52.614932939748947 ], [ 5.651290557647251, 52.614708000370058 ], [ 5.650421643186561, 52.614252192957572 ], [ 5.649638380866373, 52.614348800894675 ], [ 5.642051254320101, 52.610316115025782 ], [ 5.64219957732798, 52.610042902985896 ], [ 5.642038276818554, 52.609767949985631 ], [ 5.64025882455494, 52.608817779675476 ], [ 5.64007552509609, 52.607896070790488 ], [ 5.642482741225563, 52.606222441744748 ], [ 5.643774571492595, 52.604903710742008 ], [ 5.65086352477373, 52.599400302074777 ], [ 5.653386791624268, 52.597995347972251 ], [ 5.656376387768678, 52.596953143783068 ], [ 5.659271315501565, 52.596407603063049 ], [ 5.706908663337434, 52.589311487276404 ], [ 5.711476018082528, 52.588771082388853 ], [ 5.711558984653037, 52.58861873936943 ], [ 5.712078429237047, 52.588536406367645 ], [ 5.755725287743503, 52.581992756647182 ], [ 5.756475160891575, 52.581701372896227 ], [ 5.756847301509439, 52.581338682270292 ], [ 5.756963950160626, 52.58076158641736 ], [ 5.756807359379431, 52.580141709322106 ], [ 5.757006797546467, 52.57965313269451 ], [ 5.757277711424759, 52.579599614787909 ], [ 5.757599997205158, 52.57965335084581 ], [ 5.758289316563012, 52.581382588691902 ], [ 5.758558311443736, 52.581648120737114 ], [ 5.761692809081399, 52.582821869549718 ], [ 5.761890435643796, 52.582695048723373 ], [ 5.761808426695552, 52.582488725198118 ], [ 5.758864232956262, 52.581309868386448 ], [ 5.758032317957061, 52.579546128571586 ], [ 5.758408154410565, 52.579489075302014 ], [ 5.758877551274908, 52.579829451910399 ], [ 5.759814987300436, 52.579717618194955 ], [ 5.760574956072486, 52.581464335829899 ], [ 5.760895176862787, 52.581653587455314 ], [ 5.761479142367964, 52.581538505661847 ], [ 5.761601111470802, 52.581377398241884 ], [ 5.763793536410594, 52.581367631323509 ], [ 5.76405862884073, 52.581219134235525 ], [ 5.763881580941195, 52.580985545625296 ], [ 5.761497945915496, 52.580983051960722 ], [ 5.760951993209679, 52.579557607137161 ], [ 5.76119548937041, 52.579416434405154 ], [ 5.763558046952639, 52.579411683828653 ], [ 5.763615788280714, 52.580745099533949 ], [ 5.763842034065878, 52.580865537442413 ], [ 5.76402551406868, 52.580712079370521 ], [ 5.764034214285245, 52.579409450676174 ], [ 5.774486371715032, 52.579391512231183 ], [ 5.784354398557847, 52.579950738506 ], [ 5.803010051457417, 52.579819811364061 ], [ 5.804976131171867, 52.579730814145066 ], [ 5.807854573898129, 52.579303323757884 ], [ 5.809957073423563, 52.578770068056805 ], [ 5.811655400265435, 52.578145914010868 ], [ 5.81368483711623, 52.577058806897817 ], [ 5.826636607681539, 52.568419705199055 ], [ 5.849140275248033, 52.553361402044395 ], [ 5.851802165024977, 52.551285302740659 ], [ 5.853265607179736, 52.549287062143037 ], [ 5.854185655574998, 52.546294832231638 ], [ 5.854460032861276, 52.546166607147363 ], [ 5.85461399228419, 52.545381299271639 ], [ 5.855080288323075, 52.54510527929471 ], [ 5.855401570299198, 52.543883015748051 ], [ 5.855065015356439, 52.543112523916115 ], [ 5.855254976864653, 52.542930538336215 ], [ 5.855133367526373, 52.542809328163479 ], [ 5.855298362973136, 52.541992602164534 ], [ 5.855276884997734, 52.540731225212433 ], [ 5.855436059300255, 52.540645398228207 ], [ 5.855476177494445, 52.540238208454518 ], [ 5.855372212241035, 52.539687596279791 ], [ 5.855579332555499, 52.539497326774359 ], [ 5.855431926383324, 52.539106776349797 ], [ 5.855735217635472, 52.53854365603766 ], [ 5.855561804440153, 52.538328667117973 ], [ 5.855817342193139, 52.537980406503259 ], [ 5.855949285925787, 52.536429914118976 ], [ 5.855847699445915, 52.536089889196852 ], [ 5.856032355586862, 52.535688116425781 ], [ 5.855853858723931, 52.534992192674352 ], [ 5.856233238056278, 52.533924652636685 ], [ 5.856036803540548, 52.53341583347251 ], [ 5.856304867412144, 52.532159002790081 ], [ 5.856235641743372, 52.531725875417735 ], [ 5.85640567033481, 52.531448979730222 ], [ 5.855927826701673, 52.530778195315321 ], [ 5.855956716180224, 52.530168685955012 ], [ 5.856473977234567, 52.529462233722803 ], [ 5.85667380258217, 52.528734306381509 ], [ 5.856572520081315, 52.528353085770782 ], [ 5.85635840489792, 52.528209670717381 ], [ 5.856761046353117, 52.527352031695465 ], [ 5.856720385332149, 52.527032758379761 ], [ 5.86075158151638, 52.527934835046516 ], [ 5.860996896934707, 52.527424779599365 ], [ 5.856712346792339, 52.526371653158662 ], [ 5.856810985574639, 52.526153148099795 ], [ 5.856595948909423, 52.525669819667158 ], [ 5.856893560296016, 52.524162662568592 ], [ 5.856859641527779, 52.523870613670645 ], [ 5.856577905279393, 52.523530474886769 ], [ 5.856570825797782, 52.522997080939092 ], [ 5.857223092715925, 52.522188260715822 ], [ 5.857421026423552, 52.51967913071713 ], [ 5.857050424914961, 52.51868899205666 ], [ 5.857075745577124, 52.518137188318434 ], [ 5.856775685605611, 52.51780688424482 ], [ 5.855938982586807, 52.517662848900784 ], [ 5.855840028507227, 52.517485514978596 ], [ 5.854950226979375, 52.514846210396044 ], [ 5.855015046048076, 52.514588204059677 ], [ 5.854824905320023, 52.514417638702071 ], [ 5.854647767950097, 52.513276503691756 ], [ 5.854145799873791, 52.512537252692205 ], [ 5.854022551116326, 52.511881143467789 ], [ 5.853224423627996, 52.510219447717233 ], [ 5.852848185216321, 52.508586807477499 ], [ 5.85340526888139, 52.507240899377578 ], [ 5.853341428647116, 52.506872671215781 ], [ 5.853609986248886, 52.506308373420175 ], [ 5.853460746163948, 52.506041487774517 ], [ 5.853044805836258, 52.505901164757361 ], [ 5.852846001963359, 52.505656959093336 ], [ 5.852081820671233, 52.503420062425903 ], [ 5.851667299102661, 52.503068191585143 ], [ 5.851605210067947, 52.502190287860252 ], [ 5.851014742488891, 52.50142930462119 ], [ 5.850867375425729, 52.50069071052048 ], [ 5.850560564223159, 52.500328466245776 ], [ 5.849930973326664, 52.49892640213293 ], [ 5.849902148930173, 52.498556166755208 ], [ 5.850091033042619, 52.49815853276283 ], [ 5.849797836447288, 52.497773012680994 ], [ 5.849712702654362, 52.497320326027378 ], [ 5.850015415617989, 52.496750077405167 ], [ 5.84996052999507, 52.496600517979495 ], [ 5.850252957288069, 52.496324840479446 ], [ 5.850039455937227, 52.495588524401533 ], [ 5.849241642744837, 52.495120757812941 ], [ 5.849035203242522, 52.494723616038193 ], [ 5.848812500250703, 52.494631458672785 ], [ 5.848885911741386, 52.49423087219045 ], [ 5.848446702555275, 52.494136374805549 ], [ 5.847537944467073, 52.493306325357423 ], [ 5.846180615220173, 52.491579396980093 ], [ 5.845260320899968, 52.49071333323608 ], [ 5.844883281934383, 52.489837470492724 ], [ 5.844147980061439, 52.489384349994644 ], [ 5.838797673277622, 52.483135030622527 ], [ 5.836094401322922, 52.480819070588929 ], [ 5.819566077900126, 52.461466856424728 ], [ 5.816263185792895, 52.458845322362613 ], [ 5.816728515587761, 52.458246341512528 ], [ 5.816530329693771, 52.45772147198609 ], [ 5.817451060447035, 52.457396190276071 ], [ 5.817311675816024, 52.457172456408742 ], [ 5.816341185548761, 52.457512185368643 ], [ 5.815794697757874, 52.456900358456963 ], [ 5.815126888554159, 52.456781873737697 ], [ 5.815303265118653, 52.456421931961373 ], [ 5.815176663140735, 52.456261849135366 ], [ 5.814804288946242, 52.456585512877417 ], [ 5.813987766292306, 52.456732939393625 ], [ 5.81263883282657, 52.456638835300801 ], [ 5.812417702934138, 52.456551683752423 ], [ 5.812617545181645, 52.456286151957258 ], [ 5.812451696846356, 52.45604047931301 ], [ 5.811668046031509, 52.455993100519791 ], [ 5.810955850007304, 52.455681356518667 ], [ 5.810872952830413, 52.45545975112141 ], [ 5.811170979038945, 52.455034615629557 ], [ 5.81103525335791, 52.454823549496965 ], [ 5.81005047293828, 52.454709551912195 ], [ 5.809680230363268, 52.454492592314551 ], [ 5.809590342696125, 52.454351887862067 ], [ 5.810016710635169, 52.45415477019138 ], [ 5.810078321519949, 52.453966365997381 ], [ 5.809060155502408, 52.453443398909144 ], [ 5.80892179754852, 52.453036010483217 ], [ 5.809244151362116, 52.452884620406799 ], [ 5.80928528279714, 52.452609330870352 ], [ 5.808469269534205, 52.452266194957375 ], [ 5.809082550831588, 52.451893557236644 ], [ 5.808991131627806, 52.451505385203156 ], [ 5.808791914021271, 52.451316868034077 ], [ 5.808040539133276, 52.451244656578609 ], [ 5.807614032937112, 52.451015652457031 ], [ 5.807552880463353, 52.450906852346385 ], [ 5.807771484342157, 52.450713237086127 ], [ 5.807708775675279, 52.450280139006452 ], [ 5.806145862858193, 52.448719254899146 ], [ 5.804358279544414, 52.446385349716024 ], [ 5.805134306051205, 52.446123126597179 ], [ 5.805172364560011, 52.445971134240573 ], [ 5.803373791878519, 52.443991659495595 ], [ 5.803147544844334, 52.443997158090802 ], [ 5.803184782863034, 52.444242865605332 ], [ 5.803060942557045, 52.44428494004346 ], [ 5.802012474960492, 52.444217449393804 ], [ 5.800036675736606, 52.441905821588264 ], [ 5.799905796766797, 52.441374705069144 ], [ 5.799018302143124, 52.440935867631318 ], [ 5.797627782058197, 52.439872541348436 ], [ 5.797035614031264, 52.439011505157225 ], [ 5.797355225478384, 52.438761999524708 ], [ 5.797801207484199, 52.43868157191028 ], [ 5.797612526941722, 52.438320983110593 ], [ 5.796996480189788, 52.43801693416647 ], [ 5.796809834855496, 52.438125744069971 ], [ 5.796982702969263, 52.438347765811343 ], [ 5.7964621293592, 52.438415511922535 ], [ 5.795551820020624, 52.438349650079346 ], [ 5.795132145670065, 52.438149218477491 ], [ 5.794714620696063, 52.437816385565348 ], [ 5.795330366673662, 52.437618579664743 ], [ 5.795331567015009, 52.437450935744153 ], [ 5.794111511265823, 52.437583817689685 ], [ 5.79343849501389, 52.437026489306227 ], [ 5.792340699481415, 52.436723783218255 ], [ 5.791474415494305, 52.436041020980873 ], [ 5.78893564920015, 52.434933067748652 ], [ 5.788279620387435, 52.434354540597113 ], [ 5.788377429766651, 52.434132691487541 ], [ 5.788707753053868, 52.434134266099953 ], [ 5.788309231534798, 52.433718402613671 ], [ 5.787733915917413, 52.433922685287875 ], [ 5.787095057759828, 52.433715885751596 ], [ 5.786974838621576, 52.4334319231805 ], [ 5.787035793071253, 52.43330698612418 ], [ 5.787401367126044, 52.433294590306147 ], [ 5.787331832541178, 52.433068538957137 ], [ 5.786612175663426, 52.433028673185817 ], [ 5.786545717996671, 52.433242180314465 ], [ 5.786255895878919, 52.433242019443561 ], [ 5.785611282740143, 52.432799772709195 ], [ 5.785673848526591, 52.43260574700561 ], [ 5.786034516240933, 52.432762414793189 ], [ 5.7861391817858, 52.432570185064627 ], [ 5.785387721494516, 52.432160542119902 ], [ 5.785200653119427, 52.43222380859487 ], [ 5.785296622061888, 52.432424097926699 ], [ 5.784731235409381, 52.432483502502677 ], [ 5.784138054792028, 52.432212210393793 ], [ 5.78420708397139, 52.432019458696736 ], [ 5.784582585866605, 52.432008744372844 ], [ 5.784573391732149, 52.431807830149964 ], [ 5.783825388713556, 52.431706688906445 ], [ 5.783725945787573, 52.431893618696527 ], [ 5.783128574396798, 52.4318372721971 ], [ 5.78312416523808, 52.431656422400863 ], [ 5.783381977356544, 52.431595152193317 ], [ 5.783243664669098, 52.431414696793162 ], [ 5.782484261905206, 52.43097459887931 ], [ 5.782246297389901, 52.431157195355098 ], [ 5.781662346837708, 52.43100729657025 ], [ 5.781388687183648, 52.430686760235368 ], [ 5.781869536376627, 52.430710771470252 ], [ 5.781897287969499, 52.430485281076685 ], [ 5.780935869915593, 52.43027038239714 ], [ 5.780741002429354, 52.429776998384156 ], [ 5.779097035640994, 52.428944803602157 ], [ 5.778716367583535, 52.42902671002858 ], [ 5.778737536030909, 52.429177882675056 ], [ 5.779076766039, 52.429320449668339 ], [ 5.778814747862723, 52.429508513581666 ], [ 5.777835295732993, 52.429104928090183 ], [ 5.778358255436252, 52.428621775079939 ], [ 5.778193759179735, 52.428322463638096 ], [ 5.777133587893568, 52.428042284747917 ], [ 5.776726652020471, 52.428234370203349 ], [ 5.776111585029749, 52.428146944344554 ], [ 5.775896575274807, 52.427930659716914 ], [ 5.776199376210859, 52.427900878976061 ], [ 5.776199604904939, 52.427730901990671 ], [ 5.775651047577671, 52.42748593042505 ], [ 5.775519923576516, 52.427640273024998 ], [ 5.774962193907843, 52.427492296880835 ], [ 5.774857706487166, 52.427286807428921 ], [ 5.775250527042735, 52.427268192827647 ], [ 5.775250187884753, 52.427066477640224 ], [ 5.774726677580196, 52.427006789722093 ], [ 5.774239470502279, 52.426741114447303 ], [ 5.773982276655236, 52.426834516984265 ], [ 5.773379326313403, 52.426654787501121 ], [ 5.773184774690303, 52.426361937963861 ], [ 5.773575365358237, 52.426380894924542 ], [ 5.773629790688593, 52.426202104492589 ], [ 5.772718737963287, 52.425827003922926 ], [ 5.772571558465465, 52.426035886879284 ], [ 5.772205322653709, 52.425991962944856 ], [ 5.772087172132975, 52.425766100903353 ], [ 5.771671760629109, 52.425615788217634 ], [ 5.771636387485739, 52.425479214877775 ], [ 5.771943887493761, 52.42548010373369 ], [ 5.771924223163789, 52.425297914056458 ], [ 5.771060544179187, 52.425305041010091 ], [ 5.769713907353093, 52.424658285870933 ], [ 5.769639855620979, 52.424341154968637 ], [ 5.769166642935061, 52.42444699672604 ], [ 5.768485715193763, 52.424252942847787 ], [ 5.768132593280623, 52.424030517143478 ], [ 5.76868494324042, 52.423947220750875 ], [ 5.768652358359942, 52.423737106341385 ], [ 5.767641727755019, 52.423864755858389 ], [ 5.765614164452583, 52.422919478409767 ], [ 5.765537768290043, 52.422617345008469 ], [ 5.765018862133115, 52.422562348585586 ], [ 5.763189260668178, 52.42174224431983 ], [ 5.761338526679904, 52.420838555923616 ], [ 5.760875184645255, 52.420455385443844 ], [ 5.760121079938751, 52.42019729008625 ], [ 5.759878692387263, 52.419926187526322 ], [ 5.759269325024342, 52.419802242862431 ], [ 5.758055006475981, 52.419066684741644 ], [ 5.757312306606201, 52.418899008939135 ], [ 5.757073649913884, 52.418632874314284 ], [ 5.756644766498505, 52.418656691687623 ], [ 5.756618886487073, 52.418395855391893 ], [ 5.756912718215618, 52.41838435364123 ], [ 5.757064681587914, 52.418178271222551 ], [ 5.756943485580908, 52.417917450288236 ], [ 5.756635963111036, 52.417774229113206 ], [ 5.754948330927571, 52.417783620145869 ], [ 5.751627080909343, 52.41643426615056 ], [ 5.7492770501116, 52.415755162616385 ], [ 5.749422264322826, 52.415321331976102 ], [ 5.748338428096969, 52.415033563281519 ], [ 5.748390725033277, 52.414753842470063 ], [ 5.747952816479756, 52.414827820660186 ], [ 5.74741763996836, 52.414674450719296 ], [ 5.747239637699876, 52.414552022766593 ], [ 5.747163126585362, 52.414022649480657 ], [ 5.746414020941732, 52.413574801585042 ], [ 5.745560212733525, 52.413522888764319 ], [ 5.745451486480227, 52.413697965433357 ], [ 5.746351509801874, 52.413834408221618 ], [ 5.746926696113538, 52.414200757076465 ], [ 5.746952061318325, 52.41448647121193 ], [ 5.745438827933547, 52.414584502375085 ], [ 5.745498819810018, 52.414327358837063 ], [ 5.745160671571473, 52.414196751791629 ], [ 5.745022505240595, 52.414326145951613 ], [ 5.744811223198393, 52.413945383482734 ], [ 5.74371028598025, 52.414020604444389 ], [ 5.743752305141446, 52.414260026745886 ], [ 5.744589378064147, 52.414298140321158 ], [ 5.744699806590155, 52.414957543521822 ], [ 5.744517535396528, 52.415066523665566 ], [ 5.742400584111405, 52.415200626393585 ], [ 5.742126535730598, 52.414613125956691 ], [ 5.743153490230622, 52.413887502955696 ], [ 5.744019168751307, 52.413830081135274 ], [ 5.744158917188543, 52.413669262128501 ], [ 5.744031610632655, 52.413484322784022 ], [ 5.742418345696563, 52.413547179364507 ], [ 5.741528923244635, 52.413722910556906 ], [ 5.740523122317549, 52.414717187212887 ], [ 5.739740568004828, 52.415195369400728 ], [ 5.738830294809206, 52.415422695031481 ], [ 5.736830896810504, 52.415447674421181 ], [ 5.736368280803589, 52.415617176822089 ], [ 5.736193390567472, 52.41549972104324 ], [ 5.734924380234522, 52.415826548148331 ], [ 5.733482303009644, 52.415867348430567 ], [ 5.730969147290478, 52.416392420422959 ], [ 5.730345602640867, 52.416369995189108 ], [ 5.730188879322453, 52.416189850727051 ], [ 5.729450124238534, 52.416492478516751 ], [ 5.728912200971301, 52.416416162436612 ], [ 5.728237507787458, 52.416599758729262 ], [ 5.726957844791911, 52.416617549898056 ], [ 5.726493760787444, 52.416871484429102 ], [ 5.723277056954876, 52.41660770921203 ], [ 5.721199733084762, 52.416266998342508 ], [ 5.716989791753836, 52.415128063937829 ], [ 5.705090453455794, 52.411047629694863 ], [ 5.664909663284966, 52.398919477359385 ], [ 5.65964128267881, 52.397178527142152 ], [ 5.645321257588257, 52.390651561362439 ], [ 5.644572123594303, 52.389972377379721 ], [ 5.644653775408221, 52.389559303833963 ], [ 5.645267897521675, 52.38931634894476 ], [ 5.645199617514315, 52.388906138325133 ], [ 5.644843177161045, 52.388753514248059 ], [ 5.644656466861507, 52.388867799210828 ], [ 5.644803218006802, 52.388450418830146 ], [ 5.642571693480958, 52.388513567459391 ], [ 5.642256415159636, 52.388362329050928 ], [ 5.642331785469649, 52.387846020323799 ], [ 5.642033645654399, 52.387991693134794 ], [ 5.641156916488328, 52.387918543860259 ], [ 5.640747392030939, 52.387740489005566 ], [ 5.640894338442919, 52.387265686468027 ], [ 5.640413340848798, 52.387445623270729 ], [ 5.639786599640985, 52.387375920361819 ], [ 5.638989644949401, 52.387027196201473 ], [ 5.639251862919661, 52.386646820068009 ], [ 5.639157871057396, 52.386504522171947 ], [ 5.638800017610958, 52.386736202690066 ], [ 5.638099688106562, 52.386540946007941 ], [ 5.637467902563972, 52.385778332626003 ], [ 5.638800757393674, 52.384665304874488 ], [ 5.638763588595536, 52.384480262730641 ], [ 5.63634980339009, 52.383451225776327 ], [ 5.636295577928344, 52.383674715633759 ], [ 5.638342423570214, 52.384646100459598 ], [ 5.636687758045614, 52.386069118811044 ], [ 5.63624673880218, 52.385882021200075 ], [ 5.636372511088698, 52.385605762359781 ], [ 5.635384702978917, 52.385166113653689 ], [ 5.635485330932494, 52.384932876504294 ], [ 5.636180429478094, 52.384473090675357 ], [ 5.636321276202485, 52.384153663567929 ], [ 5.636164356130851, 52.383972198915579 ], [ 5.635587458239933, 52.38385537577922 ], [ 5.635347391630318, 52.384137767346473 ], [ 5.634334449034498, 52.384690650376982 ], [ 5.63391086820329, 52.384604351838625 ], [ 5.634146630399981, 52.384349368501972 ], [ 5.633909363473646, 52.384183839332636 ], [ 5.633517986611037, 52.384446015796144 ], [ 5.632792175991493, 52.384107628600361 ], [ 5.634184722402181, 52.382850903894756 ], [ 5.634743872196392, 52.382669145046542 ], [ 5.635735514172159, 52.382805378863594 ], [ 5.636221823286611, 52.383371046451551 ], [ 5.636452780204981, 52.383376448508123 ], [ 5.636417368752665, 52.382997508582804 ], [ 5.635902448147169, 52.382565015220138 ], [ 5.635196497036216, 52.382389688721702 ], [ 5.634358807303612, 52.382474651109575 ], [ 5.63387778568555, 52.382715190475487 ], [ 5.632817871266144, 52.383650593231081 ], [ 5.632303217715982, 52.38380884508468 ], [ 5.627853825492578, 52.381734991834577 ], [ 5.628128989861387, 52.38145534745874 ], [ 5.62786287073138, 52.381216112976105 ], [ 5.627577268739614, 52.381411667207793 ], [ 5.626872763680069, 52.381161576042594 ], [ 5.62653976810544, 52.380673318969222 ], [ 5.626936254123449, 52.38064917334146 ], [ 5.626933033408219, 52.38044944320869 ], [ 5.626586316669162, 52.380414966294992 ], [ 5.626177434647951, 52.380116782596062 ], [ 5.626033871305266, 52.380201760009342 ], [ 5.626097168432774, 52.380345894922989 ], [ 5.625899205969917, 52.380394539050485 ], [ 5.625256814921253, 52.380231488674099 ], [ 5.624965512048625, 52.379748864822055 ], [ 5.625032496934354, 52.379511272873771 ], [ 5.625180348785298, 52.379427813484241 ], [ 5.625617904758156, 52.37958182655408 ], [ 5.625703171367439, 52.379358114695961 ], [ 5.625177574578618, 52.379036268676998 ], [ 5.624702176609562, 52.379305548305346 ], [ 5.623979872010171, 52.379118870536232 ], [ 5.623735269625008, 52.378814647205402 ], [ 5.623765995380954, 52.378298215742589 ], [ 5.623906156110466, 52.378205808353044 ], [ 5.624422582187669, 52.378339012501755 ], [ 5.624491097486673, 52.37812764889923 ], [ 5.623952382201785, 52.37789639194763 ], [ 5.623246349844325, 52.37787328706807 ], [ 5.622980848615152, 52.377573651573897 ], [ 5.623110286843141, 52.376730279714522 ], [ 5.623199301058605, 52.376649921855481 ], [ 5.623617476322797, 52.376864033505051 ], [ 5.623726710422347, 52.376645625691282 ], [ 5.623135289409928, 52.376303289926362 ], [ 5.622015060378615, 52.376286995434519 ], [ 5.620599476332716, 52.375801085158905 ], [ 5.618462505277493, 52.373311873540871 ], [ 5.616211727425992, 52.371656110803158 ], [ 5.616920752712156, 52.371184660106266 ], [ 5.617033496931318, 52.370951614928735 ], [ 5.616811478486436, 52.370688225996595 ], [ 5.615720405684302, 52.370889359227839 ], [ 5.615502142239015, 52.370754565115725 ], [ 5.616347953961201, 52.3697466588171 ], [ 5.616532478288842, 52.36928774650999 ], [ 5.616334854783391, 52.36871957871319 ], [ 5.61573875864454, 52.368339916674216 ], [ 5.615524334409091, 52.368539967202665 ], [ 5.616116101926961, 52.368967581886601 ], [ 5.616193935392991, 52.369286849586089 ], [ 5.616057452094266, 52.369545040467727 ], [ 5.61547397577924, 52.37020024773382 ], [ 5.614230802317205, 52.370738100318398 ], [ 5.616575409889034, 52.372286103240135 ], [ 5.618042991865196, 52.37415193498105 ], [ 5.618441032519796, 52.375151267807205 ], [ 5.61888023233813, 52.379644129557683 ], [ 5.619411135122875, 52.381260326151647 ], [ 5.620483601235301, 52.382666934880298 ], [ 5.621585935007356, 52.383554358562861 ], [ 5.627596296644533, 52.386711314819941 ], [ 5.626987651591793, 52.387772110508998 ], [ 5.626100528543873, 52.388498531032958 ], [ 5.626646760883088, 52.388863915960897 ], [ 5.62699933950668, 52.390009296094419 ], [ 5.6273557762909, 52.39039729859018 ], [ 5.627501186025728, 52.391050714517966 ], [ 5.629270875283219, 52.39129607140557 ], [ 5.629883792740308, 52.394021710107936 ], [ 5.629895085467781, 52.394568740293039 ], [ 5.629462806924696, 52.395443514090736 ], [ 5.629597690345034, 52.396323262839225 ], [ 5.628981538319877, 52.397294945372224 ], [ 5.629205806496669, 52.398219748579592 ], [ 5.628592998186545, 52.398300341467881 ], [ 5.628310858946699, 52.398854021738906 ], [ 5.628753607093402, 52.400253595046479 ], [ 5.626025128588966, 52.400591645271582 ], [ 5.625274115979605, 52.401146106520606 ], [ 5.625331589453916, 52.401725173603104 ], [ 5.624509981324252, 52.40183197998816 ], [ 5.624517177994048, 52.40237820271679 ], [ 5.623829284529464, 52.402544431659059 ], [ 5.62402246500018, 52.402861297452631 ], [ 5.624009152412965, 52.403550321318846 ], [ 5.623009389563196, 52.40414289724233 ], [ 5.623318648657039, 52.404791641499159 ], [ 5.623427613375112, 52.406797853009422 ], [ 5.623237826766917, 52.40718759112827 ], [ 5.616554100823208, 52.407862042381595 ], [ 5.615982644061704, 52.408081457200922 ], [ 5.615823913624105, 52.408020188818305 ], [ 5.615901416384843, 52.407858749779678 ], [ 5.59993468106877, 52.409813732649653 ], [ 5.599127377769753, 52.409362183714066 ], [ 5.592670362201199, 52.410221749200502 ], [ 5.590803410891001, 52.410614511563054 ], [ 5.588055782304766, 52.410866532175838 ], [ 5.587380103672539, 52.411415343921099 ], [ 5.583659087332141, 52.411495829967947 ], [ 5.580484615907108, 52.410980197785847 ], [ 5.577965744854049, 52.410055371902757 ], [ 5.565250369021443, 52.40270447398504 ], [ 5.564379682659312, 52.402392735441829 ], [ 5.564194935768344, 52.402088940031241 ], [ 5.553197956024879, 52.395607906390609 ], [ 5.538619104473875, 52.385861952101713 ], [ 5.538246716487268, 52.385816673075063 ], [ 5.537263094366133, 52.385129521636166 ], [ 5.536754418109227, 52.38530558730632 ], [ 5.534824735119564, 52.384788832769438 ], [ 5.533962848889282, 52.385130232578945 ], [ 5.533001593475934, 52.384494594241019 ], [ 5.508548823241824, 52.398049985105864 ], [ 5.475033778713811, 52.420116684710045 ], [ 5.446240625139906, 52.437058651620056 ], [ 5.438796143525481, 52.442745002610572 ], [ 5.434249169689088, 52.440171312509342 ], [ 5.426837895129034, 52.435591058813728 ], [ 5.427058336269815, 52.434600221356199 ], [ 5.423740258822549, 52.432659335811351 ], [ 5.420969216665437, 52.432175140684777 ], [ 5.409792991735643, 52.42610909528819 ], [ 5.405031756366158, 52.427330289117336 ], [ 5.404558735205512, 52.427221513441744 ], [ 5.404483398015802, 52.427474574723377 ], [ 5.402685256371515, 52.428430571289134 ], [ 5.400621108088387, 52.427537787415069 ], [ 5.401569904851151, 52.426556960014565 ], [ 5.40145758014866, 52.426220649185744 ], [ 5.398906817565255, 52.425105360219867 ], [ 5.396537517424523, 52.427167863431734 ], [ 5.395103123127423, 52.426840113718896 ], [ 5.382652677793801, 52.421492681446466 ], [ 5.382237781034891, 52.421120113986554 ], [ 5.380583954625489, 52.420393357360524 ], [ 5.379815211340997, 52.42023315369142 ], [ 5.373204996687432, 52.417458738936752 ], [ 5.370208041338719, 52.416134963053658 ], [ 5.369388978745262, 52.415574360195919 ], [ 5.368986288126033, 52.415532659352081 ], [ 5.366040223924029, 52.414317060201348 ], [ 5.362360360439854, 52.413718288562819 ], [ 5.357345658912711, 52.411657381983133 ], [ 5.355887130632899, 52.413015942953599 ], [ 5.354655909948749, 52.413870661757137 ], [ 5.353771778694248, 52.414030431433225 ], [ 5.353137724884921, 52.413382990863113 ], [ 5.351855292198107, 52.413890144948276 ], [ 5.35072159610739, 52.413955385456639 ], [ 5.35086026724184, 52.41523753199106 ], [ 5.351965247230279, 52.415629646670695 ], [ 5.35262523488568, 52.415372021095529 ], [ 5.355428070215913, 52.41483261864888 ], [ 5.356252193176033, 52.414898577727172 ], [ 5.392362895532328, 52.430478477076527 ], [ 5.39122756776923, 52.431527596690842 ], [ 5.390594750846879, 52.432437201407254 ], [ 5.39027744113708, 52.433761150231611 ], [ 5.390522162484189, 52.434814394059558 ], [ 5.392580204376369, 52.433886711087865 ], [ 5.400470903208901, 52.433971264613433 ], [ 5.40421432898444, 52.435566884176247 ], [ 5.404700065043409, 52.435904366703419 ], [ 5.405368047753464, 52.436901219839463 ], [ 5.406634793324243, 52.439324859987096 ], [ 5.407340866210709, 52.441344692873137 ], [ 5.40823508301582, 52.445024480901345 ], [ 5.407794877240531, 52.445207699881493 ], [ 5.373597051966392, 52.442744583329763 ], [ 5.350945949767438, 52.446939932164113 ], [ 5.348961707545763, 52.447466681060597 ], [ 5.348254892739876, 52.447953236748482 ], [ 5.331370027133552, 52.466282509874169 ], [ 5.331352992441462, 52.466467332246665 ], [ 5.331704083028886, 52.466634459396552 ], [ 5.331103373910317, 52.466613931511631 ], [ 5.330988784955948, 52.466786727351227 ], [ 5.382887840827467, 52.489158190488162 ], [ 5.38620058209027, 52.490778356957655 ], [ 5.388939448781176, 52.492382341669838 ], [ 5.389389606519707, 52.492382297759399 ], [ 5.389543555599891, 52.491988129541816 ], [ 5.386762639504958, 52.490399001666141 ], [ 5.389177544547039, 52.490659856352373 ], [ 5.393093762774188, 52.490586045993147 ], [ 5.394773177919423, 52.490867916837104 ], [ 5.396048861320563, 52.491306654325165 ], [ 5.406110939588294, 52.497251527361151 ], [ 5.403387242262197, 52.498978119907832 ], [ 5.403359400883235, 52.499203765862433 ], [ 5.403618830970604, 52.499230656877629 ], [ 5.406612379803963, 52.497458271614406 ], [ 5.410950490150169, 52.500027669207071 ], [ 5.416801185436015, 52.50319540486084 ], [ 5.41693226020831, 52.503431731744875 ], [ 5.41471843073465, 52.505020263809968 ], [ 5.414735471966062, 52.505275476817758 ], [ 5.415008589385081, 52.505216130521411 ], [ 5.41747193434839, 52.5034575847803 ], [ 5.418665912900946, 52.503235173503882 ], [ 5.418879511881214, 52.503381995220671 ], [ 5.418398121930812, 52.503801303405517 ], [ 5.418575701629114, 52.504019752368897 ], [ 5.419692958675496, 52.503469473511139 ], [ 5.420014728971291, 52.503609612320524 ], [ 5.419538809278953, 52.504652202899997 ], [ 5.420405662595607, 52.505141570010039 ], [ 5.420172335286509, 52.505308683801942 ], [ 5.420200473720278, 52.505447101481032 ], [ 5.420372395274138, 52.505505395283507 ], [ 5.420694307054433, 52.505291289779493 ], [ 5.424169873080477, 52.507091125626843 ], [ 5.424342144664731, 52.507041058157512 ], [ 5.427926385652534, 52.508752431998495 ], [ 5.426471088630412, 52.509941140388264 ], [ 5.426534691984025, 52.510200710328817 ], [ 5.426829935292924, 52.510161982783103 ], [ 5.428356010005889, 52.508905398380769 ], [ 5.434616468058273, 52.511314540952192 ], [ 5.437334147956284, 52.513961468123412 ], [ 5.439559426070077, 52.516883111954954 ], [ 5.440316259247511, 52.517375352154971 ], [ 5.440475153535593, 52.517916315168826 ], [ 5.440007401341634, 52.518487925423933 ], [ 5.439058856765728, 52.518777442061619 ], [ 5.438177141475128, 52.518718155165743 ], [ 5.436698706914646, 52.518217346566722 ], [ 5.437006740645516, 52.517927836107951 ], [ 5.43693434135791, 52.517784718820643 ], [ 5.43664497609968, 52.517799181225847 ], [ 5.437089255985416, 52.517117696106894 ], [ 5.438249719074668, 52.51627154071587 ], [ 5.437985694034174, 52.515944509400434 ], [ 5.43700249161155, 52.516643870013311 ], [ 5.436403133885547, 52.517380563980382 ], [ 5.436081933254085, 52.518052496313366 ], [ 5.435985079978852, 52.518731573860279 ], [ 5.436586025026182, 52.518671690329199 ], [ 5.437178006464108, 52.51902520028392 ], [ 5.436350509606412, 52.520008052355792 ], [ 5.435763422895465, 52.521252267833177 ], [ 5.435384652102186, 52.524447835954142 ], [ 5.435193392130219, 52.524897093925695 ], [ 5.43474029238735, 52.524994176777049 ], [ 5.434657670143017, 52.527041658389933 ], [ 5.434214192490931, 52.525421356131481 ], [ 5.43404679449297, 52.525475829262078 ], [ 5.433960626322075, 52.527068872170929 ], [ 5.43346268608658, 52.525013064386911 ], [ 5.433141780095515, 52.52497806507111 ], [ 5.43300152293545, 52.524620534130229 ], [ 5.432224199617263, 52.524644202315322 ], [ 5.431775609669486, 52.52015167498493 ], [ 5.431581261578197, 52.520029353792971 ], [ 5.431398793565696, 52.520182463357877 ], [ 5.431831816664369, 52.52465875607821 ], [ 5.429750773084123, 52.524778340339026 ], [ 5.429528883166297, 52.526528151115784 ], [ 5.428944364734634, 52.526693192968075 ], [ 5.428945037608722, 52.52725193957432 ], [ 5.427153016731703, 52.527321877356904 ], [ 5.427074921364411, 52.526745629529337 ], [ 5.426426998828092, 52.526652874411518 ], [ 5.425625629767125, 52.520847102227307 ], [ 5.425353349597936, 52.520618097822705 ], [ 5.424856914750444, 52.520750436069328 ], [ 5.425198708663175, 52.524764971233466 ], [ 5.425034444430031, 52.527083789294892 ], [ 5.42265949208609, 52.52718970701379 ], [ 5.422716717461882, 52.52829679124055 ], [ 5.422915029622609, 52.528916532494158 ], [ 5.42337158744236, 52.52936358082183 ], [ 5.424068009686366, 52.529624890885408 ], [ 5.425450014394057, 52.52975509028861 ], [ 5.425913950467645, 52.534250123618015 ], [ 5.426186226410603, 52.535547966877793 ], [ 5.427095387827641, 52.53799886382204 ], [ 5.438409695950273, 52.554977912897982 ], [ 5.439662378673284, 52.556447569752699 ], [ 5.441187699929758, 52.557889047934729 ], [ 5.443468788215529, 52.559576822923212 ], [ 5.44546193604407, 52.560804511621484 ], [ 5.449915693488207, 52.562803424640407 ], [ 5.454693457179635, 52.564228193982267 ], [ 5.46323704263751, 52.566005438285558 ], [ 5.464767615781258, 52.566564790839315 ], [ 5.466171645417358, 52.56754267754819 ], [ 5.466895896264592, 52.568455173596504 ], [ 5.467253261770459, 52.569272292767572 ], [ 5.467218404544966, 52.570594911969394 ], [ 5.457656323726379, 52.59029314053754 ], [ 5.456468299410417, 52.592168189072432 ], [ 5.455562668018406, 52.5932855757572 ], [ 5.411677131679798, 52.636446954364764 ], [ 5.407174967580319, 52.640740066209794 ], [ 5.406478598747866, 52.640527027143207 ], [ 5.406043399793331, 52.640589401332512 ], [ 5.405606695612962, 52.640914172858828 ], [ 5.404417449756158, 52.642455744512837 ], [ 5.403849274355955, 52.642442120495353 ], [ 5.403526202528451, 52.64267235596558 ], [ 5.402423346873372, 52.644430829461214 ], [ 5.402591289149552, 52.644654273817714 ], [ 5.403016776019658, 52.644797273161856 ], [ 5.399272030079448, 52.648444566668154 ], [ 5.397671300987403, 52.649712829756197 ], [ 5.360290746288245, 52.674093788897324 ], [ 5.356745030611473, 52.675869464605455 ], [ 5.352603569700234, 52.677334426050592 ], [ 5.307454623511973, 52.689507000279782 ], [ 5.306024711508583, 52.689800373253618 ], [ 5.303706582544762, 52.689757510855088 ], [ 5.303434594166598, 52.689963562331855 ], [ 5.304044437593815, 52.690288845474093 ], [ 5.302354618973948, 52.690613031193067 ], [ 5.299659133119741, 52.6904232778083 ], [ 5.297096732763841, 52.689854764819692 ], [ 5.29742103904682, 52.689570348038039 ], [ 5.298532045972087, 52.689507515764497 ], [ 5.299248140427763, 52.689754532968962 ], [ 5.299906933025203, 52.689582548321155 ], [ 5.30023513121788, 52.68928635237291 ], [ 5.300126383224471, 52.68869513888027 ], [ 5.299618713155587, 52.688004230504077 ], [ 5.299034315306701, 52.687712007551418 ], [ 5.298144184729876, 52.686903660139606 ], [ 5.297472868660186, 52.686640092235379 ], [ 5.297096615601766, 52.685914579628133 ], [ 5.294512362882365, 52.68511899685744 ], [ 5.294566166199998, 52.684652205702804 ], [ 5.294282284094232, 52.684295294575648 ], [ 5.293520904320293, 52.684106976143305 ], [ 5.292556686461142, 52.684459293247315 ], [ 5.292116382575578, 52.684435803733393 ], [ 5.291402946907301, 52.683995835099047 ], [ 5.291438778040384, 52.683687792082857 ], [ 5.290665563832993, 52.683434057313171 ], [ 5.290306153922994, 52.682997579278741 ], [ 5.289761271008689, 52.682822264463802 ], [ 5.287665707313627, 52.682944730185454 ], [ 5.287214054029068, 52.683234705210666 ], [ 5.286322783655277, 52.682862415561949 ], [ 5.285709750276069, 52.68278543019791 ], [ 5.286317909753872, 52.682505873213294 ], [ 5.28663584798777, 52.682104500035017 ], [ 5.287132683712863, 52.682171999770496 ], [ 5.289462782189309, 52.68190331194382 ], [ 5.290114654939838, 52.682074266081322 ], [ 5.291702402717445, 52.681969235364498 ], [ 5.292287778521285, 52.682233481443376 ], [ 5.293512423720445, 52.682192772097046 ], [ 5.294986825989799, 52.682605621703104 ], [ 5.29589129752302, 52.682184907853269 ], [ 5.296860810337605, 52.682331491813706 ], [ 5.296641229851051, 52.68258610171479 ], [ 5.296585936944335, 52.6831488861528 ], [ 5.296717540210747, 52.683323893364445 ], [ 5.298605443120374, 52.683968942488406 ], [ 5.299007875074181, 52.684504242523147 ], [ 5.299429920708403, 52.684689312503046 ], [ 5.299253183974383, 52.684990889514069 ], [ 5.299884013767871, 52.685714590689599 ], [ 5.300658700917923, 52.6859262194344 ], [ 5.302114405559113, 52.686756976997827 ], [ 5.302664160708437, 52.686840083199598 ], [ 5.30276055532175, 52.687044653374208 ], [ 5.302510654701676, 52.6878118014845 ], [ 5.302814500560085, 52.68828583059004 ], [ 5.303863404986827, 52.688359111754842 ], [ 5.304381637854227, 52.688831222942319 ], [ 5.304562792100923, 52.688770877817902 ], [ 5.303172771943662, 52.686886120231016 ], [ 5.30043515850138, 52.683934807122064 ], [ 5.298332959501024, 52.682644604058495 ], [ 5.296153638150021, 52.681830106247105 ], [ 5.295087206059166, 52.681522194537074 ], [ 5.292118418289223, 52.681095017845138 ], [ 5.288122753357376, 52.681303008679727 ], [ 5.285751315085855, 52.681851492583455 ], [ 5.284516775511197, 52.682308824107437 ], [ 5.282246010612722, 52.683586365648353 ], [ 5.281343541018099, 52.684338913422295 ] ], [ [ 5.403255252848192, 52.644539093109707 ], [ 5.403299677785903, 52.644466718952238 ], [ 5.403354716548255, 52.644468444280371 ], [ 5.403255262529045, 52.644565516247411 ], [ 5.403255252848192, 52.644539093109707 ] ], [ [ 5.404993131272699, 52.642859196572729 ], [ 5.404983294690783, 52.642826400553261 ], [ 5.405063524412108, 52.642799863241379 ], [ 5.404993724044461, 52.642868265111929 ], [ 5.404993131272699, 52.642859196572729 ] ], [ [ 5.403068470902207, 52.644148897612148 ], [ 5.402843931152961, 52.644434932157132 ], [ 5.403221655266111, 52.643785234994859 ], [ 5.40319359959913, 52.643904271280839 ], [ 5.403068470902207, 52.644148897612148 ] ], [ [ 5.403663487020958, 52.643061913025747 ], [ 5.40387609562646, 52.642809673372604 ], [ 5.404109850503616, 52.64280926308026 ], [ 5.403463663777613, 52.643389043297091 ], [ 5.403663487020958, 52.643061913025747 ] ], [ [ 5.856053356837189, 52.522931211225121 ], [ 5.856065598783625, 52.522698985230342 ], [ 5.856328676360144, 52.522700324756464 ], [ 5.856245765921982, 52.522935523171 ], [ 5.856053356837189, 52.522931211225121 ] ], [ [ 5.855866431993397, 52.533918271137885 ], [ 5.85582859860356, 52.533945631809921 ], [ 5.855812735151123, 52.533944969553751 ], [ 5.855833661145493, 52.533918431247386 ], [ 5.855866431993397, 52.533918271137885 ] ], [ [ 5.804724732116213, 52.445783563933396 ], [ 5.804102892962502, 52.446076287002413 ], [ 5.803774661879192, 52.445757212511317 ], [ 5.802760042212135, 52.446101558313416 ], [ 5.80179048016119, 52.445039260795333 ], [ 5.803384578185946, 52.444488867482981 ], [ 5.804570016602179, 52.445781747341776 ], [ 5.804724732116213, 52.445783563933396 ] ], [ [ 5.644522953479671, 52.388998920328859 ], [ 5.644987144537292, 52.389169264835445 ], [ 5.644325100111062, 52.389358512000953 ], [ 5.644028496683692, 52.389223943610411 ], [ 5.644380851360491, 52.388947751320657 ], [ 5.644522953479671, 52.388998920328859 ] ] ], [ [ [ 5.734452400350996, 52.599547324388588 ], [ 5.734143356159853, 52.601125539931786 ], [ 5.734284086468472, 52.601652627303267 ], [ 5.73477527323434, 52.602362008843443 ], [ 5.735353672315759, 52.602691014291906 ], [ 5.736158217126395, 52.602889363682543 ], [ 5.7366769147898, 52.603325213045331 ], [ 5.737895946878243, 52.603871226414633 ], [ 5.74068758736032, 52.604717766583796 ], [ 5.742385697854125, 52.604999682304211 ], [ 5.742562634463348, 52.604860538525074 ], [ 5.739588670403191, 52.604182472741009 ], [ 5.737010318292891, 52.603178427529762 ], [ 5.736779320792767, 52.60294707431521 ], [ 5.737243109465073, 52.60267238943289 ], [ 5.737922980821136, 52.603143061659225 ], [ 5.739767295440322, 52.603780941716337 ], [ 5.741900092768866, 52.604130967222972 ], [ 5.743456892030727, 52.604131004578669 ], [ 5.746582005350832, 52.603685264935415 ], [ 5.749217399038863, 52.602428589762496 ], [ 5.750393492907468, 52.601367244513376 ], [ 5.751092373446136, 52.600268757062629 ], [ 5.751311198534665, 52.599298106900804 ], [ 5.751283363828571, 52.598632345704274 ], [ 5.750727512212519, 52.597067929120286 ], [ 5.749941383461078, 52.596209070899221 ], [ 5.748970066805336, 52.595450116858302 ], [ 5.74756207374925, 52.594715929507906 ], [ 5.748862547505461, 52.594248905523024 ], [ 5.748756808107821, 52.592893091602093 ], [ 5.747697036561854, 52.592800559862525 ], [ 5.749275519775678, 52.591215434444052 ], [ 5.74989623203958, 52.589525427537204 ], [ 5.750178849766613, 52.589365710138722 ], [ 5.751418663102203, 52.589241214834388 ], [ 5.751586021975654, 52.589073130462005 ], [ 5.751537738779366, 52.588855848035486 ], [ 5.751141595134453, 52.588741789777607 ], [ 5.74902002340234, 52.589132188371558 ], [ 5.748638346255555, 52.590894873908915 ], [ 5.748180421294335, 52.591562991271772 ], [ 5.746844802236407, 52.5926635640744 ], [ 5.744221720780268, 52.593675273698025 ], [ 5.742908146064896, 52.593867394488214 ], [ 5.742204239380357, 52.59306328934904 ], [ 5.74199555277584, 52.593100214219042 ], [ 5.740775873833145, 52.59205182586787 ], [ 5.74020537510996, 52.592041151169234 ], [ 5.739847416345059, 52.59155667118528 ], [ 5.742509371272604, 52.590618341764085 ], [ 5.746510743493206, 52.589987133356921 ], [ 5.746695004616625, 52.589742255371071 ], [ 5.746549393842167, 52.589485865033517 ], [ 5.743715909145269, 52.589801821532454 ], [ 5.741465428844487, 52.590279084357363 ], [ 5.739550674835177, 52.590938011509394 ], [ 5.737546591979727, 52.591972487800902 ], [ 5.736464918910215, 52.592730951922157 ], [ 5.735341944340087, 52.59389097731826 ], [ 5.734408520780058, 52.595420499886217 ], [ 5.734029749794098, 52.596720850402271 ], [ 5.733981948640092, 52.597795195817916 ], [ 5.734452400350996, 52.599547324388588 ] ] ], [ [ [ 5.523874646231362, 52.578186483948357 ], [ 5.523901319050308, 52.578576734844916 ], [ 5.527736438272321, 52.581000871084484 ], [ 5.528012597040873, 52.580868734745316 ], [ 5.527910204649181, 52.580612040462327 ], [ 5.526849856533516, 52.579783711415104 ], [ 5.524521820281244, 52.578360088791101 ], [ 5.525872050370763, 52.577586603509332 ], [ 5.527148855016714, 52.578416294049433 ], [ 5.527059036390909, 52.578630046760949 ], [ 5.527388718835761, 52.578813368067827 ], [ 5.527596772334088, 52.578718387362713 ], [ 5.528044530447503, 52.579014655515827 ], [ 5.527915162000541, 52.579187424654833 ], [ 5.527654911661876, 52.579181111055206 ], [ 5.527535624656596, 52.579520958270635 ], [ 5.528035445037176, 52.579720565838755 ], [ 5.528627285103575, 52.57942012429092 ], [ 5.529706643122441, 52.579933746672218 ], [ 5.533318237580755, 52.577921783120765 ], [ 5.533415643550128, 52.57766249925195 ], [ 5.532132162439162, 52.576649003840863 ], [ 5.531905651894417, 52.576710980014752 ], [ 5.52966033953847, 52.575133168092719 ], [ 5.529346640090542, 52.575076641886341 ], [ 5.523874646231362, 52.578186483948357 ] ] ] ] } }
]
}
