{
"type": "FeatureCollection",
"name": "SWVPO3003",
"crs": { "type": "name", "properties": { "name": "urn:ogc:def:crs:OGC:1.3:CRS84" } },
"features": [
{ "type": "Feature", "properties": { "PO SWV": "PO3003", "strokeColor": "#A9A9A9", "strokeWidth": 2, "fillColor": "#ADD8E6" }, "geometry": { "type": "Polygon", "coordinates": [ [ [ 4.531952656470017, 51.438543524475676 ], [ 4.529807048117459, 51.449565286111458 ], [ 4.54807753828624, 51.473368220663311 ], [ 4.556029509215683, 51.485704468405388 ], [ 4.569217495469462, 51.483028346198736 ], [ 4.570754504214092, 51.482779189031454 ], [ 4.572234686754849, 51.482758699152505 ], [ 4.575644489042713, 51.488067174013437 ], [ 4.573876515826437, 51.488475419901789 ], [ 4.575750233532636, 51.491458276728594 ], [ 4.576114353217144, 51.492616844448001 ], [ 4.577602502585231, 51.492911511208078 ], [ 4.579169064749034, 51.493513310809625 ], [ 4.583646926459336, 51.495850665632801 ], [ 4.586299184618744, 51.496040906184824 ], [ 4.588280391899973, 51.496383690711255 ], [ 4.589554494869365, 51.496786931968643 ], [ 4.58736115986682, 51.499525773848497 ], [ 4.587284505148342, 51.499707861832107 ], [ 4.587462255966543, 51.499794767583118 ], [ 4.586594946552302, 51.500975348983594 ], [ 4.586357754139468, 51.501000599843643 ], [ 4.584463731665843, 51.503526042181278 ], [ 4.579273446548134, 51.510807032510577 ], [ 4.610770825659782, 51.508437654946405 ], [ 4.614886091364243, 51.509026791506678 ], [ 4.615911719108051, 51.508330768572655 ], [ 4.616941966299827, 51.507927780561367 ], [ 4.622879950990197, 51.507434513295209 ], [ 4.629005327261635, 51.508942055227052 ], [ 4.629591057686931, 51.509246922110947 ], [ 4.630460005007062, 51.510079409014637 ], [ 4.630332643891529, 51.510708450210387 ], [ 4.630964630646496, 51.511788270275588 ], [ 4.632502555848244, 51.51253965774476 ], [ 4.632504968308363, 51.512914279788852 ], [ 4.633203886319968, 51.513783627864193 ], [ 4.629219910764274, 51.519158299022187 ], [ 4.628310234616988, 51.519071984186198 ], [ 4.62775993061447, 51.517732878100759 ], [ 4.625488694212254, 51.518480347687131 ], [ 4.625494639251196, 51.518635690896581 ], [ 4.626195693486313, 51.518973170840553 ], [ 4.625681677612924, 51.520053443488003 ], [ 4.624913167052786, 51.521157982645832 ], [ 4.627537769117093, 51.5225337642906 ], [ 4.631222584939259, 51.523451311738391 ], [ 4.634042264294536, 51.523693225649481 ], [ 4.634917453220546, 51.522707630231061 ], [ 4.638536012292239, 51.523383300446682 ], [ 4.639990176783541, 51.543246334060633 ], [ 4.637871080379203, 51.542226013203098 ], [ 4.636095816346664, 51.543071957320379 ], [ 4.635281601813182, 51.542251492938647 ], [ 4.632760715802465, 51.544136241100993 ], [ 4.631703961966897, 51.543788405116082 ], [ 4.630039309022841, 51.547059799613471 ], [ 4.628729161866886, 51.546520435657911 ], [ 4.627004687222993, 51.547966208290468 ], [ 4.626589016664375, 51.54740893821284 ], [ 4.625720077748188, 51.547377109812174 ], [ 4.624721359136502, 51.552238634909052 ], [ 4.620890381691384, 51.55241482274203 ], [ 4.616493050025023, 51.552966065095134 ], [ 4.610940340346943, 51.554255895048996 ], [ 4.610316188537251, 51.553448141731181 ], [ 4.608090010697352, 51.554152989969957 ], [ 4.607555363187831, 51.554599299220513 ], [ 4.606512135384327, 51.55594202887481 ], [ 4.602149430856318, 51.55833413676055 ], [ 4.600624553356294, 51.559003443360119 ], [ 4.598596813086121, 51.559583453840254 ], [ 4.595970558724192, 51.560032216219888 ], [ 4.592529504790063, 51.560182036593417 ], [ 4.590155573813594, 51.559960860045472 ], [ 4.589999371920228, 51.560307329960601 ], [ 4.589657816962823, 51.560336819252456 ], [ 4.589432548007707, 51.560613345231452 ], [ 4.589697915871826, 51.560792569079801 ], [ 4.591580650517034, 51.561103780020169 ], [ 4.591599725611051, 51.561273144032889 ], [ 4.592085940123731, 51.561366083111182 ], [ 4.590900719897832, 51.564456457319878 ], [ 4.59033248463537, 51.564839090565627 ], [ 4.590570931728936, 51.566043697743844 ], [ 4.594561646640566, 51.566746733721942 ], [ 4.595051310115847, 51.56769422913046 ], [ 4.595960255330069, 51.573823119423402 ], [ 4.595826477519189, 51.574598992392716 ], [ 4.595880965097446, 51.575703157392233 ], [ 4.598472163374719, 51.584480554379994 ], [ 4.597858185326547, 51.586834169764764 ], [ 4.597611044976546, 51.587186835383349 ], [ 4.59666522452771, 51.590341476825934 ], [ 4.599466040986392, 51.592526003193946 ], [ 4.602127892387177, 51.595121531844917 ], [ 4.602793416595931, 51.596129816825041 ], [ 4.6045365721996, 51.597837650824445 ], [ 4.604635802845207, 51.59819713033761 ], [ 4.605350915169615, 51.598651706668527 ], [ 4.605637134053153, 51.599227537486549 ], [ 4.606457770905473, 51.599903653213275 ], [ 4.608600438049521, 51.602234494892961 ], [ 4.610519852497364, 51.603197167878591 ], [ 4.612746735579271, 51.60628220510376 ], [ 4.612885952097388, 51.606634897444273 ], [ 4.612734635445574, 51.606819678889742 ], [ 4.61379158778454, 51.608056080580361 ], [ 4.613762139595682, 51.608264924835836 ], [ 4.613052771858095, 51.608619074605549 ], [ 4.611200610394872, 51.608978728540961 ], [ 4.610651814484249, 51.609478462627635 ], [ 4.610485257941924, 51.60994299254191 ], [ 4.610520647438218, 51.610920737614201 ], [ 4.610825485215816, 51.612210801135269 ], [ 4.609553843635102, 51.612800195339304 ], [ 4.608996684087977, 51.61336614219065 ], [ 4.608756364106957, 51.6149757683215 ], [ 4.606576830491576, 51.616567142887376 ], [ 4.603994126661255, 51.616940190566318 ], [ 4.603279906856926, 51.61732859620399 ], [ 4.603301789584181, 51.617788054298188 ], [ 4.60409123994398, 51.618930445436803 ], [ 4.604312410002834, 51.619644311802467 ], [ 4.604168250407223, 51.62141101361243 ], [ 4.603452617710351, 51.622469370075208 ], [ 4.601884396523786, 51.623548616854499 ], [ 4.601408591659609, 51.62408671765246 ], [ 4.60124026582988, 51.624415346131535 ], [ 4.601163745033605, 51.625310855248053 ], [ 4.604820119008031, 51.627256169611336 ], [ 4.606264207348347, 51.627816563414612 ], [ 4.609621824046378, 51.628531445272728 ], [ 4.611323975064765, 51.628602925840042 ], [ 4.614055490388479, 51.628403548661375 ], [ 4.616849176241404, 51.627719342444422 ], [ 4.618397890459016, 51.627037764988934 ], [ 4.621574163577739, 51.625229511726026 ], [ 4.624312500465982, 51.624390967789878 ], [ 4.624426803800462, 51.625010794993536 ], [ 4.624717089451426, 51.62539354614163 ], [ 4.628151763778109, 51.626177639409804 ], [ 4.630861326216962, 51.62776053012292 ], [ 4.633752403729999, 51.625353811440782 ], [ 4.634782495419909, 51.625769171631994 ], [ 4.635623246420394, 51.626361440427303 ], [ 4.636462330408909, 51.628578579976796 ], [ 4.638374412640579, 51.630070037231171 ], [ 4.64045335292638, 51.631258834437908 ], [ 4.642008868402265, 51.631914072814247 ], [ 4.644965355635699, 51.63270869643376 ], [ 4.655456553926303, 51.634382163714484 ], [ 4.661216404610295, 51.634854723598508 ], [ 4.664638925413712, 51.634513184674873 ], [ 4.672271285998829, 51.632721974468495 ], [ 4.675214549012229, 51.632498976870188 ], [ 4.677608598884939, 51.632597498864158 ], [ 4.681539701360104, 51.633297172293133 ], [ 4.683914164022346, 51.634207249818807 ], [ 4.688763320393616, 51.636753825543828 ], [ 4.690937267541972, 51.637455634563409 ], [ 4.693443900005466, 51.637962075798121 ], [ 4.699185881204243, 51.638173643986718 ], [ 4.698957222265213, 51.638304999994958 ], [ 4.695347005705229, 51.643143597865844 ], [ 4.688944359206082, 51.652355606919585 ], [ 4.696609778006108, 51.654693981415903 ], [ 4.694680055634993, 51.658112910173834 ], [ 4.694090042086941, 51.658277803661839 ], [ 4.68481098813187, 51.666405713582819 ], [ 4.70985147555797, 51.673367849499876 ], [ 4.71620330540984, 51.675381957683115 ], [ 4.720974575794543, 51.67037521311682 ], [ 4.723456719240946, 51.669174270572867 ], [ 4.725597739034477, 51.66639836924611 ], [ 4.732444023642133, 51.66839787330904 ], [ 4.736664073892438, 51.669230217466506 ], [ 4.73722237861347, 51.669261208438527 ], [ 4.738723773448969, 51.667331824064497 ], [ 4.751658234104069, 51.66943424824499 ], [ 4.752057280000373, 51.669746618184945 ], [ 4.753036761524304, 51.66972438648002 ], [ 4.772781807240757, 51.673184329278392 ], [ 4.775161985004451, 51.673483989380173 ], [ 4.766129060711531, 51.687924792075322 ], [ 4.765053872509181, 51.688774382233838 ], [ 4.764542157399593, 51.689522222264486 ], [ 4.763352753723653, 51.691861702203553 ], [ 4.763503879367454, 51.692141221688708 ], [ 4.764141197956005, 51.692391361532316 ], [ 4.763205577971827, 51.694283072463023 ], [ 4.763090174458998, 51.694833544664725 ], [ 4.763301069837126, 51.695108741460544 ], [ 4.762995122165039, 51.696090635862141 ], [ 4.768000022516133, 51.697788918289888 ], [ 4.766240027047728, 51.701308621804351 ], [ 4.76481529668742, 51.701309333919141 ], [ 4.763720521642443, 51.702099153346836 ], [ 4.761365564682841, 51.701522244094726 ], [ 4.758918924153289, 51.704617854324745 ], [ 4.769632858312733, 51.707581202457973 ], [ 4.780990702469099, 51.710107074643993 ], [ 4.78036464250741, 51.710863116957221 ], [ 4.776233301777528, 51.712131406443369 ], [ 4.773669606293698, 51.713383731242104 ], [ 4.771600794218099, 51.714600740596026 ], [ 4.765017035922232, 51.717311887810297 ], [ 4.752185509051508, 51.720359766426455 ], [ 4.749463552171576, 51.722022738268876 ], [ 4.747174795488209, 51.722145609228207 ], [ 4.745153586864909, 51.722064526324012 ], [ 4.73215966286725, 51.720366716643476 ], [ 4.730965906303088, 51.721641153423242 ], [ 4.730184704943554, 51.721544610957935 ], [ 4.728912142084127, 51.723488805082255 ], [ 4.722467375405002, 51.722201201096752 ], [ 4.71565665546862, 51.721266748073333 ], [ 4.710233330516528, 51.720855393668401 ], [ 4.698455092934936, 51.721972410221582 ], [ 4.72180498901913, 51.734364604935458 ], [ 4.733595502986642, 51.736598627249066 ], [ 4.737394708463602, 51.741383221003012 ], [ 4.747299098240709, 51.746700188044109 ], [ 4.747957102103414, 51.74743365200186 ], [ 4.747817932377597, 51.74882610085286 ], [ 4.750664716270233, 51.752367493847885 ], [ 4.755067463251028, 51.755132059834594 ], [ 4.75814728891119, 51.756438087676848 ], [ 4.760069077721882, 51.758136248808384 ], [ 4.760886548136095, 51.757737992968636 ], [ 4.764188040965782, 51.759956761285878 ], [ 4.766380797572869, 51.759122499593964 ], [ 4.767540711178023, 51.759391645843394 ], [ 4.772068567072394, 51.759421402987904 ], [ 4.778590394772523, 51.764182164721419 ], [ 4.779204335655685, 51.764360298250011 ], [ 4.779903175022405, 51.764268076080036 ], [ 4.779681196498826, 51.765049153332477 ], [ 4.780127926066422, 51.766314461922981 ], [ 4.780912980575676, 51.766569112592769 ], [ 4.782455658916113, 51.766668096226176 ], [ 4.785478466930887, 51.756039020411762 ], [ 4.796826941229791, 51.75729957194293 ], [ 4.802506950906378, 51.757686216340481 ], [ 4.809944021194922, 51.757229241185932 ], [ 4.81288018671615, 51.756732752164041 ], [ 4.817687543213538, 51.755320350542164 ], [ 4.820197362436073, 51.754395303974 ], [ 4.822287061755039, 51.753956485741988 ], [ 4.828089623471389, 51.753884090747057 ], [ 4.831652332522424, 51.753917359614427 ], [ 4.833630418552455, 51.75410439451197 ], [ 4.835282799069639, 51.754586587654693 ], [ 4.838577178235988, 51.756021181557855 ], [ 4.840156080658426, 51.75649866354312 ], [ 4.841864965316126, 51.756785280442728 ], [ 4.846753219349771, 51.757156395520461 ], [ 4.849639216442172, 51.756744128466295 ], [ 4.85137226988019, 51.75626811743706 ], [ 4.852015520282655, 51.755946841914081 ], [ 4.852219007669251, 51.755417720256908 ], [ 4.852231580904436, 51.754124986694393 ], [ 4.852655407510951, 51.752312955643255 ], [ 4.853207790692579, 51.750842905062385 ], [ 4.853146632009477, 51.750155197554172 ], [ 4.852959527238873, 51.749364962832644 ], [ 4.852565074781334, 51.74862531471306 ], [ 4.850178438187896, 51.746005692651821 ], [ 4.849506734181399, 51.744794810724343 ], [ 4.84937982034225, 51.744209318990542 ], [ 4.849628420911294, 51.742059584681513 ], [ 4.850323198727369, 51.738535381619769 ], [ 4.847032257627899, 51.73584829777888 ], [ 4.847033165744027, 51.725494415885471 ], [ 4.840740714099539, 51.716259549645692 ], [ 4.837199880285677, 51.712762612821599 ], [ 4.843789973074267, 51.714026280616366 ], [ 4.85029459297334, 51.715726206912798 ], [ 4.861812855645719, 51.717719420459126 ], [ 4.868111053754686, 51.719223929315753 ], [ 4.873047158312385, 51.720097966800346 ], [ 4.880373033456647, 51.720247575775971 ], [ 4.890019844870693, 51.719869743282935 ], [ 4.894494595669758, 51.719166953530468 ], [ 4.90026433091003, 51.718767034323143 ], [ 4.904024234452965, 51.718808683671703 ], [ 4.909971174878992, 51.71914627073069 ], [ 4.917977043061549, 51.720058367140041 ], [ 4.917897105943057, 51.719925377621955 ], [ 4.930217300493138, 51.684709977552941 ], [ 4.93015012490691, 51.684580428518231 ], [ 4.930423391988183, 51.684170165824248 ], [ 4.933083486969978, 51.676698836682554 ], [ 4.943001956215176, 51.678759156449168 ], [ 4.944159754456162, 51.678816012745671 ], [ 4.944274962105585, 51.678275349604249 ], [ 4.945065024085153, 51.677892346969685 ], [ 4.945757096467819, 51.676982230355584 ], [ 4.946221840061354, 51.677047123384085 ], [ 4.946497424287323, 51.6766521246428 ], [ 4.947474475384428, 51.676835598626049 ], [ 4.94774530328842, 51.676592226039439 ], [ 4.947881511963553, 51.676449649220885 ], [ 4.946980679493375, 51.674439905928949 ], [ 4.947025733547323, 51.673582810206248 ], [ 4.947519555659301, 51.672838618831022 ], [ 4.950219053995657, 51.670396396829574 ], [ 4.951013958069809, 51.669257169326102 ], [ 4.952342718568584, 51.666705969332028 ], [ 4.953222773609199, 51.663500333566127 ], [ 4.95639813210909, 51.663910594228298 ], [ 4.956700440050523, 51.663448458283149 ], [ 4.957665341848524, 51.659648071324071 ], [ 4.95774077645683, 51.657533360617713 ], [ 4.958266530167735, 51.657454107089841 ], [ 4.957798376380811, 51.657424541878115 ], [ 4.957695941169343, 51.657131632540938 ], [ 4.957697662942279, 51.654048836437063 ], [ 4.957781202480365, 51.653253440622393 ], [ 4.957974005933674, 51.653134338470423 ], [ 4.957833726534177, 51.653049599055755 ], [ 4.95788816695876, 51.652682862874855 ], [ 4.957721686824154, 51.652585990944331 ], [ 4.957828663633439, 51.651458621924448 ], [ 4.987164641183417, 51.65449801007243 ], [ 4.988322626489559, 51.651274445065305 ], [ 4.988504386396706, 51.651219768501939 ], [ 4.989313486697153, 51.648996837704416 ], [ 4.989275126591843, 51.64862668113301 ], [ 4.989448515615448, 51.648534114085123 ], [ 4.993451871187577, 51.637236915536661 ], [ 4.998347632334246, 51.624103872081029 ], [ 4.998199243249727, 51.623640993112424 ], [ 4.998462392751138, 51.623533509342352 ], [ 5.00309941775712, 51.610850265108866 ], [ 5.004246719038056, 51.607857389905504 ], [ 5.004393362678289, 51.607790820240943 ], [ 5.004396221958054, 51.607570177845773 ], [ 5.004325243966369, 51.607456890980174 ], [ 5.00424986908792, 51.60773187243926 ], [ 5.003787241304457, 51.607834507564661 ], [ 4.997538386669857, 51.608110760118571 ], [ 4.991592728419752, 51.608169878691029 ], [ 4.991420777137516, 51.608017818145669 ], [ 4.988687710681654, 51.608132689321366 ], [ 4.988507960032907, 51.607998217001217 ], [ 4.98630569473225, 51.608008918928803 ], [ 4.984016771834857, 51.607603544277254 ], [ 4.983109783231569, 51.608687740617988 ], [ 4.981728631615185, 51.609234287564249 ], [ 4.97757050124508, 51.609189242871878 ], [ 4.970876359038833, 51.611113911499714 ], [ 4.965051164026607, 51.613105412224456 ], [ 4.957992313734572, 51.613766860553035 ], [ 4.955128376820574, 51.614425946168993 ], [ 4.953310126959772, 51.614330758436758 ], [ 4.95232371455748, 51.613985659740997 ], [ 4.951423934042377, 51.613355580723194 ], [ 4.949717113673116, 51.611769556225724 ], [ 4.94793803766251, 51.611052317180487 ], [ 4.948770750313884, 51.610283756437639 ], [ 4.961127907388088, 51.606084374607242 ], [ 4.967782989026101, 51.602779252107155 ], [ 4.968627498810325, 51.60202226191965 ], [ 4.967747596478188, 51.597668371063961 ], [ 4.973804465325156, 51.597202432304115 ], [ 4.973736348432374, 51.595974566890789 ], [ 4.974144590752728, 51.592841874531423 ], [ 4.973918797079191, 51.589352029622155 ], [ 4.969948303162353, 51.572153431404701 ], [ 4.969200019835802, 51.570107798538423 ], [ 4.968803033023389, 51.569278147438034 ], [ 4.968047169724, 51.569406077449337 ], [ 4.967750699588873, 51.568785128540881 ], [ 4.966491046105411, 51.567892568462256 ], [ 4.96680640525936, 51.567338163766344 ], [ 4.96551812415358, 51.567255129418875 ], [ 4.964121725786272, 51.565328659458885 ], [ 4.954331618063938, 51.562346691536767 ], [ 4.954293221126427, 51.562038417059938 ], [ 4.952826491375025, 51.561213206739737 ], [ 4.951913453273115, 51.560308123509905 ], [ 4.951449971928772, 51.560567322646008 ], [ 4.951376106472362, 51.560981463943484 ], [ 4.951114560098302, 51.560976757140921 ], [ 4.950943073174879, 51.559729418583196 ], [ 4.951137566981932, 51.557589935705707 ], [ 4.951315443311613, 51.557552690333708 ], [ 4.951399470624967, 51.557921646204342 ], [ 4.951766234290238, 51.556949606055312 ], [ 4.95305242674943, 51.554592033779343 ], [ 4.953318383673157, 51.553234608532492 ], [ 4.953060162343389, 51.551539973361066 ], [ 4.953489900672031, 51.551421771449597 ], [ 4.953332406884185, 51.550492135712709 ], [ 4.955157347794916, 51.550328476505712 ], [ 4.958998987611619, 51.550308275562593 ], [ 4.965106705949, 51.54971417284554 ], [ 4.968181272037417, 51.549158489604409 ], [ 4.971831714990611, 51.5480293741278 ], [ 4.976376627583006, 51.545989595969026 ], [ 4.977194316843972, 51.546138683627632 ], [ 4.977817915739161, 51.545948978392751 ], [ 4.978702222887208, 51.54616130363992 ], [ 4.979003658976333, 51.545599955175724 ], [ 4.9783611144393, 51.544778906999113 ], [ 4.979391165784779, 51.544183869207231 ], [ 4.978043041055286, 51.543078667812765 ], [ 4.976592492607205, 51.542486817698475 ], [ 4.9759323312696, 51.541464954613978 ], [ 4.975318072448739, 51.540005088442776 ], [ 4.974058894233166, 51.53990407362501 ], [ 4.956589932287554, 51.518768416239858 ], [ 4.914707958000196, 51.51087442576916 ], [ 4.911345607342204, 51.513188097287575 ], [ 4.911593512232148, 51.514403678167206 ], [ 4.910682805999962, 51.514903833868345 ], [ 4.907713299959121, 51.512034848490771 ], [ 4.910481112323852, 51.510221620176679 ], [ 4.90869607801549, 51.508364303897494 ], [ 4.909907851878709, 51.507644154858085 ], [ 4.909655417213239, 51.506439547536687 ], [ 4.910330441294874, 51.506085357174392 ], [ 4.9096029930389, 51.501571657371706 ], [ 4.908494199656277, 51.501586180799677 ], [ 4.9082340808278, 51.501393862499867 ], [ 4.908507691644768, 51.500969046471177 ], [ 4.909501822787478, 51.500362007123194 ], [ 4.908397442946792, 51.494297488733672 ], [ 4.901005151692112, 51.488064485049726 ], [ 4.899792900916299, 51.486120097452527 ], [ 4.898574286314216, 51.486437302422182 ], [ 4.897828000073807, 51.486152863864106 ], [ 4.898663882962105, 51.485188579489318 ], [ 4.896554092079984, 51.484444722593452 ], [ 4.891915626490702, 51.480569558852096 ], [ 4.889273626510212, 51.480916966127928 ], [ 4.889128807872981, 51.480797535213732 ], [ 4.891350459104752, 51.478747135690533 ], [ 4.891336987465109, 51.478447861127947 ], [ 4.891954310193489, 51.477885105794506 ], [ 4.897504862128287, 51.476051029171884 ], [ 4.91399788797783, 51.46893925716553 ], [ 4.915708847264107, 51.468015698072179 ], [ 4.91701663479158, 51.467942119904436 ], [ 4.917971832038281, 51.467315581674356 ], [ 4.91791908908853, 51.466656625897691 ], [ 4.932075962354182, 51.459124097587996 ], [ 4.93701959747822, 51.45827660608397 ], [ 4.94019705983205, 51.457490294925691 ], [ 4.940227352721779, 51.457268512009016 ], [ 4.944889108006129, 51.456678314867276 ], [ 4.947198802000463, 51.458472876399561 ], [ 4.956539158148071, 51.459598239022895 ], [ 4.957197704660341, 51.459796412834002 ], [ 4.958851538045853, 51.458320061329424 ], [ 4.959865732652331, 51.458564290994495 ], [ 4.959548152565466, 51.459180452116172 ], [ 4.9627031514757, 51.459082631167206 ], [ 4.96605548459638, 51.459451014198287 ], [ 4.966216604397979, 51.458946501373987 ], [ 4.968402001570703, 51.458832542211709 ], [ 4.969447037308035, 51.459413766901783 ], [ 4.970086027301029, 51.458641288183678 ], [ 4.972517615829063, 51.459431234279556 ], [ 4.973745060567825, 51.45966335903325 ], [ 4.974816661587191, 51.460527487728214 ], [ 4.976453272356863, 51.461039385605048 ], [ 4.97680389414553, 51.460985856435002 ], [ 4.977312632818327, 51.460387892387566 ], [ 4.980028738224463, 51.460445901277168 ], [ 5.010454960238206, 51.45814469285154 ], [ 5.010557491048379, 51.458276173239796 ], [ 5.010647043682504, 51.457843286305945 ], [ 5.009892008859651, 51.457122558886404 ], [ 5.011056067283179, 51.456072639154748 ], [ 5.011092849441213, 51.455504688432839 ], [ 5.010433603670091, 51.453563083558734 ], [ 5.009484441616418, 51.452584208109265 ], [ 5.008173076778043, 51.452342535021558 ], [ 5.007921277355301, 51.451701248019639 ], [ 5.007509042934042, 51.451375123597906 ], [ 5.006416358166634, 51.451475150995613 ], [ 5.005573168795826, 51.450931153839129 ], [ 5.005162796509053, 51.449985798871751 ], [ 5.005102819624325, 51.449408150592141 ], [ 5.005419165142929, 51.449212812342161 ], [ 5.005455793553701, 51.449019985071345 ], [ 5.004865579746686, 51.446644753419996 ], [ 5.004758723179195, 51.445049434870491 ], [ 5.004515691712212, 51.444670710079755 ], [ 5.005103510323607, 51.444593469902848 ], [ 5.005211710843619, 51.444448617447719 ], [ 5.004636609314203, 51.443841422403025 ], [ 5.003611258819608, 51.443325243445088 ], [ 5.000938459891907, 51.442657535400969 ], [ 4.9981066581391, 51.440263985130414 ], [ 4.978072970789696, 51.430048723404411 ], [ 4.963273039675257, 51.422208699617471 ], [ 4.929023844017782, 51.395961670733776 ], [ 4.928588033536682, 51.395870397765101 ], [ 4.92781924748314, 51.399618715063042 ], [ 4.924552416048138, 51.398708539767703 ], [ 4.924682950934543, 51.397808599638459 ], [ 4.925303938548513, 51.396729872615289 ], [ 4.927904502193876, 51.395524914087822 ], [ 4.927896888579684, 51.395348533569532 ], [ 4.920962207380047, 51.393587023215147 ], [ 4.913802117543899, 51.394988421453434 ], [ 4.913822766483414, 51.395173327419378 ], [ 4.915350805182924, 51.395427987811864 ], [ 4.917789155888903, 51.396941033565007 ], [ 4.923596977994642, 51.396836634836632 ], [ 4.92451001009455, 51.396973462645114 ], [ 4.924193628332118, 51.397756209311439 ], [ 4.92324346947826, 51.398444636176087 ], [ 4.918660317160941, 51.39818687621122 ], [ 4.918120408132538, 51.397832468937786 ], [ 4.918032620546777, 51.398147405384528 ], [ 4.916021709171757, 51.398711071915642 ], [ 4.917683330334626, 51.400438401869188 ], [ 4.910098913955907, 51.40218233038447 ], [ 4.910440968929723, 51.402888847041901 ], [ 4.908571878090411, 51.404363224703587 ], [ 4.908471054046944, 51.404583430988573 ], [ 4.909673890704972, 51.407366152691452 ], [ 4.907852809711041, 51.408109685818872 ], [ 4.906525400227844, 51.40887246778923 ], [ 4.905882514451579, 51.408511936848001 ], [ 4.905960586800987, 51.409120359537354 ], [ 4.905605105999915, 51.409833375138241 ], [ 4.905302918533041, 51.409878276223068 ], [ 4.904887810787645, 51.409629104646136 ], [ 4.903633607551559, 51.409881960317179 ], [ 4.904737256835611, 51.411861711528154 ], [ 4.903883201486393, 51.412287431910215 ], [ 4.902734621522471, 51.410147986775534 ], [ 4.899811317299474, 51.41056978762272 ], [ 4.900100813181318, 51.410988359268835 ], [ 4.900385621818399, 51.411927886840914 ], [ 4.900185958854415, 51.412600901766879 ], [ 4.9024709083127, 51.412593997176721 ], [ 4.902984505463958, 51.413453645875762 ], [ 4.901856776965055, 51.413825296718791 ], [ 4.900622761020811, 51.413194098537424 ], [ 4.900569600249417, 51.413324677183724 ], [ 4.901025506456756, 51.414086171860831 ], [ 4.89998897008579, 51.414558650009219 ], [ 4.898981738728224, 51.414095717364468 ], [ 4.899217746255449, 51.413865610850358 ], [ 4.89917355297647, 51.413725488032533 ], [ 4.897590953022612, 51.413368625075414 ], [ 4.898592138191276, 51.412841058742771 ], [ 4.898677679532295, 51.411861865377681 ], [ 4.897113188537531, 51.411595134283615 ], [ 4.896896649433474, 51.41174186121377 ], [ 4.896414615049733, 51.412775814995747 ], [ 4.894488765497358, 51.412853049632218 ], [ 4.890857562743043, 51.415006991719423 ], [ 4.890299580032094, 51.414643563520507 ], [ 4.889479643820517, 51.415397513496885 ], [ 4.888881298152254, 51.415359016243393 ], [ 4.888447666691736, 51.415063720909629 ], [ 4.886965874616203, 51.414955312637083 ], [ 4.885838754953458, 51.415244144132885 ], [ 4.885958800575228, 51.416528334598155 ], [ 4.883126996923466, 51.416386270971159 ], [ 4.883123457049447, 51.415200082716602 ], [ 4.881351861403827, 51.415362738408604 ], [ 4.879745637327091, 51.414251533044315 ], [ 4.878421431025215, 51.414004599104643 ], [ 4.877737629264822, 51.415225805471643 ], [ 4.876023802723022, 51.415096592038822 ], [ 4.873708163497598, 51.414686927215797 ], [ 4.873916488314358, 51.41422173238665 ], [ 4.873357000906154, 51.4137908128356 ], [ 4.87296705300881, 51.413715218446264 ], [ 4.872910615138412, 51.413521111761298 ], [ 4.871305349726749, 51.413620703675328 ], [ 4.870709775598328, 51.413288814950185 ], [ 4.870416152978743, 51.41288921043347 ], [ 4.868880757014995, 51.412807572075771 ], [ 4.868898451266763, 51.41257517618682 ], [ 4.868080908137019, 51.412450025880482 ], [ 4.867609552611473, 51.411992864055875 ], [ 4.866446228380433, 51.411430690668595 ], [ 4.866352412592345, 51.411020553948553 ], [ 4.866583496484842, 51.410795078226485 ], [ 4.867916106758287, 51.410732591943152 ], [ 4.868270317979473, 51.410545836659686 ], [ 4.868202164072126, 51.410238264003688 ], [ 4.868476140544653, 51.410096224021814 ], [ 4.868271550251088, 51.409609920747329 ], [ 4.867366892780551, 51.409013588135146 ], [ 4.866111885460191, 51.409876532521679 ], [ 4.860306431117571, 51.410414417054938 ], [ 4.859605137895665, 51.411164846796481 ], [ 4.859872160647889, 51.412882482947644 ], [ 4.859601800920684, 51.412905277239702 ], [ 4.859675819216116, 51.413223083936778 ], [ 4.859072778387925, 51.413036625384748 ], [ 4.859007584611555, 51.412775977353 ], [ 4.858570701536207, 51.412885381964081 ], [ 4.858288135009888, 51.412706231004684 ], [ 4.857736856688639, 51.412871234567277 ], [ 4.857683560451854, 51.413027022736635 ], [ 4.857656063015884, 51.412640912958409 ], [ 4.85704477844405, 51.412743320039347 ], [ 4.856692650818379, 51.41258895036755 ], [ 4.85656047625587, 51.412801320727446 ], [ 4.855478691223509, 51.41271598746976 ], [ 4.85536074211649, 51.413030480491663 ], [ 4.854988320411491, 51.413318942381991 ], [ 4.854641861495809, 51.413148150232352 ], [ 4.854435827218346, 51.413571248261583 ], [ 4.853478644503733, 51.413290377243143 ], [ 4.852735336874327, 51.413482219946616 ], [ 4.852549946907845, 51.41336974878881 ], [ 4.852413620694396, 51.41370836847549 ], [ 4.851838964219193, 51.414031750753239 ], [ 4.851336687278854, 51.413966409825406 ], [ 4.850791347192733, 51.414161444271585 ], [ 4.850273711887372, 51.413716853108539 ], [ 4.849858771659906, 51.414189536482567 ], [ 4.848672715364575, 51.412657323724318 ], [ 4.847029126133968, 51.413315126722239 ], [ 4.846273282130166, 51.412756384286844 ], [ 4.839319687394876, 51.414516416657818 ], [ 4.82644283876355, 51.413544533459003 ], [ 4.803531189879073, 51.411194120529593 ], [ 4.795422614357369, 51.410096888893335 ], [ 4.793079768801952, 51.409389940460386 ], [ 4.792676082498116, 51.409689778909545 ], [ 4.792183134222934, 51.410409718152451 ], [ 4.789326230661976, 51.40888734351747 ], [ 4.787210844305648, 51.409299980139473 ], [ 4.786089416239788, 51.410492256638818 ], [ 4.784825141347349, 51.41027859591059 ], [ 4.784646942849466, 51.41058177915184 ], [ 4.782638982859075, 51.410930402711962 ], [ 4.781936464763008, 51.411363877816157 ], [ 4.780191985452515, 51.411976048121034 ], [ 4.777723481937066, 51.413728755570695 ], [ 4.775318789756968, 51.41401202574918 ], [ 4.77466603432716, 51.413440598019491 ], [ 4.77420835961463, 51.413675550166126 ], [ 4.773347024730753, 51.413342577983627 ], [ 4.77294454923217, 51.413647958908008 ], [ 4.773027655916019, 51.414050841354928 ], [ 4.772627773434655, 51.413983666216666 ], [ 4.772392223305902, 51.414109316880534 ], [ 4.772302066307221, 51.414497960714904 ], [ 4.771138405612548, 51.414825705084652 ], [ 4.771168409436362, 51.4151109478818 ], [ 4.772019028741586, 51.415303603364407 ], [ 4.771686666518181, 51.415645659513345 ], [ 4.771788190470959, 51.416549305517769 ], [ 4.771464523244371, 51.416787082455095 ], [ 4.77099297874762, 51.416509851015448 ], [ 4.770668392788111, 51.416552141114209 ], [ 4.770396123019914, 51.417224202185203 ], [ 4.769828568371738, 51.417436179516109 ], [ 4.769617131710503, 51.41791347722674 ], [ 4.769672610353395, 51.418084830311869 ], [ 4.770183666201508, 51.418313711481268 ], [ 4.769811288802697, 51.418660069060557 ], [ 4.769327432200915, 51.418501013199631 ], [ 4.768830395447345, 51.418568924392133 ], [ 4.768792802229904, 51.418743490877574 ], [ 4.769066222450418, 51.419138403516008 ], [ 4.768477689836386, 51.419636256075499 ], [ 4.768662211570664, 51.420250801111749 ], [ 4.768987401761644, 51.420339975617175 ], [ 4.768805816703187, 51.420643936171636 ], [ 4.769143277244263, 51.420862122552336 ], [ 4.768796941723934, 51.421197828034714 ], [ 4.768835623042317, 51.421507124364012 ], [ 4.769492837771409, 51.422313104502344 ], [ 4.770023263745991, 51.422258166568106 ], [ 4.769955710698168, 51.422492552150381 ], [ 4.770424950592817, 51.42265603252018 ], [ 4.770512205804624, 51.422956293845836 ], [ 4.770802497242806, 51.423191018252446 ], [ 4.770134431368505, 51.423094961945566 ], [ 4.770019113579355, 51.423255002524137 ], [ 4.77016358110308, 51.423645281231465 ], [ 4.769631006756574, 51.423478370158747 ], [ 4.76945584535052, 51.423618288844693 ], [ 4.769480824841347, 51.423914260306205 ], [ 4.769868255145378, 51.424445442739632 ], [ 4.769625757421677, 51.424749124671777 ], [ 4.769978914575169, 51.42488556349452 ], [ 4.769430556039227, 51.425269524570936 ], [ 4.769652102847246, 51.425631036082777 ], [ 4.769370471273858, 51.426125690172142 ], [ 4.769864693408298, 51.426275069216679 ], [ 4.770049918638396, 51.426593834476876 ], [ 4.769409341988066, 51.426666788620302 ], [ 4.769300586170528, 51.427011155574192 ], [ 4.769405944493958, 51.427414042725061 ], [ 4.7687459954716, 51.427353686084935 ], [ 4.768434866314676, 51.427585463116976 ], [ 4.768452495284944, 51.427830393586014 ], [ 4.768815716824105, 51.428210768515029 ], [ 4.768314838979774, 51.428227260210683 ], [ 4.768142681984293, 51.428522116165034 ], [ 4.768586199259992, 51.429059910418346 ], [ 4.767814610866941, 51.429468619741883 ], [ 4.767447951221111, 51.429928708684145 ], [ 4.766847750873116, 51.430037688025095 ], [ 4.766496709188432, 51.430557165409617 ], [ 4.767668989819986, 51.430939944748722 ], [ 4.768074527676854, 51.430644230737329 ], [ 4.768755318634669, 51.430445640818824 ], [ 4.769056047070706, 51.430083332502406 ], [ 4.769447127204887, 51.4301237379198 ], [ 4.770022067373439, 51.430236316427454 ], [ 4.770025471447648, 51.43055720362851 ], [ 4.770173532492755, 51.43065456712273 ], [ 4.772315465037113, 51.430889325746875 ], [ 4.772679079374693, 51.431186832104899 ], [ 4.773852513749483, 51.431504002950135 ], [ 4.774110015763296, 51.431722705589522 ], [ 4.777823818201921, 51.431910828391551 ], [ 4.780901964965352, 51.432454338092889 ], [ 4.781971150212797, 51.432375406367655 ], [ 4.786529169057014, 51.432616608678444 ], [ 4.786648400081242, 51.432818999344342 ], [ 4.78690125391712, 51.432199129818372 ], [ 4.787822593039315, 51.432165423117993 ], [ 4.789212461908968, 51.429830444577462 ], [ 4.789508062280056, 51.429688668277755 ], [ 4.790115965787792, 51.429858575025612 ], [ 4.790754855748116, 51.429707673984971 ], [ 4.790910348941688, 51.4298968993457 ], [ 4.791457644254697, 51.42993535349251 ], [ 4.79162402079529, 51.429764527503124 ], [ 4.79145883717811, 51.429505865797069 ], [ 4.7915999626554, 51.429291157379154 ], [ 4.791973773908044, 51.429410824741836 ], [ 4.792467491336129, 51.429237632927126 ], [ 4.79295922474754, 51.428874629067465 ], [ 4.792909401490144, 51.42867009920829 ], [ 4.793605799581283, 51.429072500228287 ], [ 4.794187144513836, 51.4285955212057 ], [ 4.795485298857744, 51.428896027419839 ], [ 4.795776837676125, 51.428764945226327 ], [ 4.795670347943609, 51.42846133935722 ], [ 4.796366945324261, 51.428411303859093 ], [ 4.797155326544516, 51.429165230411968 ], [ 4.797470190163546, 51.429121352422264 ], [ 4.797912188055318, 51.428720613780975 ], [ 4.798224412716716, 51.429031358747515 ], [ 4.798655762277922, 51.429036371852639 ], [ 4.79880497175892, 51.428871387999678 ], [ 4.798713361483799, 51.428674834773695 ], [ 4.800268069588292, 51.429215686233292 ], [ 4.800725523806141, 51.429030665968142 ], [ 4.801376012005474, 51.429028881488428 ], [ 4.801328230626872, 51.42869876127223 ], [ 4.801590629872226, 51.428430726269404 ], [ 4.802024506010158, 51.42856922576923 ], [ 4.802263278456801, 51.428383663868424 ], [ 4.803626919920092, 51.428221996644837 ], [ 4.804225322339845, 51.427965503139482 ], [ 4.804496860497389, 51.428061601289393 ], [ 4.804866516038866, 51.42855833846869 ], [ 4.805690223377663, 51.428720664331763 ], [ 4.80602230007166, 51.428398540967436 ], [ 4.80662662547369, 51.428398275798713 ], [ 4.806817542474653, 51.428261347653731 ], [ 4.806795619991182, 51.428063840529333 ], [ 4.806500719351074, 51.427975431143281 ], [ 4.806312560123236, 51.427706302360129 ], [ 4.806695316291083, 51.427451538149505 ], [ 4.807532169207964, 51.427552940522425 ], [ 4.80785208549691, 51.427196307979791 ], [ 4.808241658566779, 51.427061173578359 ], [ 4.808285958606481, 51.426903112098657 ], [ 4.808083859331997, 51.426690371639566 ], [ 4.808393351643161, 51.426533141092513 ], [ 4.809509511423635, 51.426422629852304 ], [ 4.809648872012414, 51.426139766470008 ], [ 4.810508705882071, 51.426453246732478 ], [ 4.811767299432643, 51.426056707151183 ], [ 4.812056300050946, 51.42612708977817 ], [ 4.812176436583303, 51.426454251633629 ], [ 4.812920776415933, 51.426394979721699 ], [ 4.813775875721496, 51.425779594479074 ], [ 4.814210626601093, 51.425904259745522 ], [ 4.81480306252369, 51.425794474740563 ], [ 4.814728544513871, 51.425518914015775 ], [ 4.815372572991949, 51.425287235740754 ], [ 4.816256107009988, 51.425771444158173 ], [ 4.816928281679476, 51.425095463595405 ], [ 4.817788872431963, 51.424736005626748 ], [ 4.819598192878446, 51.424321251866012 ], [ 4.819846107928834, 51.423920248597277 ], [ 4.820534273017994, 51.423857176744804 ], [ 4.820658813467196, 51.423612773352417 ], [ 4.820530079125225, 51.423384246995603 ], [ 4.820771204344886, 51.423008467073906 ], [ 4.821467889913033, 51.422671810722107 ], [ 4.821907656287949, 51.422709599715155 ], [ 4.821799573838375, 51.423027103041754 ], [ 4.822377534595138, 51.423201611176026 ], [ 4.822997536794164, 51.422914776068779 ], [ 4.824736752122263, 51.423180421524528 ], [ 4.825239153503611, 51.422851718387939 ], [ 4.825662069894664, 51.423209596747441 ], [ 4.826247230302471, 51.42317310145225 ], [ 4.82628971988149, 51.42281762768863 ], [ 4.825981294924511, 51.422607692892441 ], [ 4.827108591495809, 51.422209815062637 ], [ 4.826593879815091, 51.421196464412716 ], [ 4.830023886292953, 51.420861360989882 ], [ 4.833539082553818, 51.419868645492592 ], [ 4.833593980962156, 51.419732777851941 ], [ 4.833190553788582, 51.419156162523528 ], [ 4.834708002692119, 51.418520443978082 ], [ 4.835390481460389, 51.419308988816439 ], [ 4.836794164348832, 51.418942308684883 ], [ 4.836837782208783, 51.418788015152565 ], [ 4.835715991534501, 51.417589271831758 ], [ 4.836460490044363, 51.41736763961628 ], [ 4.837621087019013, 51.418606028031519 ], [ 4.839309598192563, 51.419881461797765 ], [ 4.839554885791546, 51.419898037497084 ], [ 4.839281624173243, 51.420204259447544 ], [ 4.840336489936692, 51.421015159655582 ], [ 4.841307121210646, 51.422386175153036 ], [ 4.840622528908545, 51.42241825991411 ], [ 4.840132409509604, 51.42197068709865 ], [ 4.839391703438643, 51.421686284028603 ], [ 4.838329179684323, 51.421644702130386 ], [ 4.838009048620766, 51.420985445237747 ], [ 4.837672832917553, 51.420749221587677 ], [ 4.836264492947317, 51.421098343634 ], [ 4.836029534468362, 51.420786706988096 ], [ 4.835319051511721, 51.421070612383417 ], [ 4.834937610771878, 51.420814550739614 ], [ 4.834447488062515, 51.421091964005051 ], [ 4.834068896200415, 51.420414064349018 ], [ 4.833561752185725, 51.420466605823933 ], [ 4.833255967677406, 51.420244011570475 ], [ 4.833011991899928, 51.420384450539487 ], [ 4.833142930527001, 51.420654824345839 ], [ 4.832260471412408, 51.420596012222376 ], [ 4.831984306196521, 51.420796618177853 ], [ 4.830174344530845, 51.421120604546026 ], [ 4.829994705833049, 51.421605445275461 ], [ 4.829543318885925, 51.421800674234966 ], [ 4.829302267047541, 51.422218012327853 ], [ 4.828071773417036, 51.422152902705903 ], [ 4.828505717916981, 51.423741744616798 ], [ 4.824771957394644, 51.435301840148121 ], [ 4.824919343372558, 51.43601007933912 ], [ 4.825798117123726, 51.436130944661642 ], [ 4.823265033367596, 51.448639251885282 ], [ 4.825938384746553, 51.45000005423681 ], [ 4.828423744678167, 51.450902460620988 ], [ 4.828116991925244, 51.45140222313676 ], [ 4.829024772161294, 51.451695914130575 ], [ 4.829676100716934, 51.452300924561733 ], [ 4.829656593686349, 51.452962203802848 ], [ 4.830965273012775, 51.453985656492215 ], [ 4.831856216263989, 51.455445566622799 ], [ 4.832232827300075, 51.455693524501548 ], [ 4.833223478479431, 51.45700727951683 ], [ 4.833322894436446, 51.457464213589937 ], [ 4.83516811746892, 51.458826584891142 ], [ 4.835323830843606, 51.458812990760727 ], [ 4.837039783739136, 51.456859194971763 ], [ 4.837876257419045, 51.4562038949773 ], [ 4.838470547736436, 51.45615000012554 ], [ 4.839955939646178, 51.456374190652554 ], [ 4.841304119395509, 51.456858242033235 ], [ 4.842246857297027, 51.457405288407365 ], [ 4.84385069091537, 51.459039222750164 ], [ 4.840946156036223, 51.460369798513554 ], [ 4.838374430026046, 51.461276649322855 ], [ 4.836009111759439, 51.461239044821625 ], [ 4.836852289866002, 51.467896811642163 ], [ 4.836758431841807, 51.468041898374459 ], [ 4.837119563332278, 51.469038072795499 ], [ 4.838517626133218, 51.471329230996744 ], [ 4.83844547511329, 51.471480622193276 ], [ 4.839589666796877, 51.472850374149303 ], [ 4.840229503245554, 51.478556304421701 ], [ 4.841690605617145, 51.480739664244851 ], [ 4.839837692569408, 51.481062501636742 ], [ 4.8376338097881, 51.481855629799163 ], [ 4.83623583281705, 51.481851972322261 ], [ 4.835085101988852, 51.482051331475752 ], [ 4.831260279788974, 51.48167871595259 ], [ 4.82870186987706, 51.481703034628239 ], [ 4.824813453593551, 51.482081822906636 ], [ 4.821111460226803, 51.482975324441135 ], [ 4.820874375888512, 51.483170052419133 ], [ 4.820375945324678, 51.484225740303877 ], [ 4.820111940055155, 51.485937786453448 ], [ 4.818412270621295, 51.487559846304308 ], [ 4.817326810645921, 51.488953265916422 ], [ 4.817477270770993, 51.489225602544671 ], [ 4.817527774836261, 51.490429188119194 ], [ 4.818103921577916, 51.491082377498351 ], [ 4.817471268540192, 51.492892413603606 ], [ 4.816592110102297, 51.493960918232681 ], [ 4.815607434025446, 51.494540094028665 ], [ 4.813494779014812, 51.495343082225013 ], [ 4.812785104083857, 51.495227027201345 ], [ 4.811550212369859, 51.495562622694948 ], [ 4.811158857852416, 51.495512050136604 ], [ 4.81104464607507, 51.495764414211941 ], [ 4.809634145339127, 51.495836258003742 ], [ 4.808805044377789, 51.496435229581657 ], [ 4.808217235660001, 51.496571259205041 ], [ 4.808083992934694, 51.496770055467721 ], [ 4.807799997065319, 51.49654535514091 ], [ 4.80717256384652, 51.496541538433789 ], [ 4.806895481475638, 51.496887300416425 ], [ 4.806576240741783, 51.496788429579041 ], [ 4.806142375146292, 51.497100222024308 ], [ 4.805581590671357, 51.49716564636131 ], [ 4.805469484650303, 51.497488461680526 ], [ 4.804603035170459, 51.497482784712624 ], [ 4.803727563734121, 51.497770535239638 ], [ 4.803582711081875, 51.497630588633676 ], [ 4.803210816636416, 51.497729161487122 ], [ 4.802918036589563, 51.497360665248877 ], [ 4.80239836178176, 51.497420338739282 ], [ 4.801923865706703, 51.497603774561576 ], [ 4.801933561978946, 51.497975305334911 ], [ 4.801743161172966, 51.498222810290599 ], [ 4.801482987672966, 51.498249624910606 ], [ 4.801470159030738, 51.49840485852927 ], [ 4.800670263406072, 51.498385909405378 ], [ 4.800471470154241, 51.498692077986711 ], [ 4.799752036647157, 51.498814507303258 ], [ 4.798899225609842, 51.499465611178437 ], [ 4.79795255725944, 51.499704375717329 ], [ 4.796050881257019, 51.499332789416336 ], [ 4.795362140524828, 51.499423000363691 ], [ 4.794926332898125, 51.499774402913495 ], [ 4.794010802160196, 51.49967521685916 ], [ 4.793597324042315, 51.499480881326086 ], [ 4.793372399879752, 51.498949155663006 ], [ 4.792871538318768, 51.498649584314379 ], [ 4.792599061367179, 51.498251319647295 ], [ 4.792191260348224, 51.498527612036369 ], [ 4.791981196954263, 51.49831851609369 ], [ 4.791318044756981, 51.49834908282422 ], [ 4.790865971785847, 51.498058669701649 ], [ 4.789936519574849, 51.498258090977856 ], [ 4.788971994423957, 51.498715716134342 ], [ 4.788419303082709, 51.498720013120462 ], [ 4.788236767822131, 51.498943744399206 ], [ 4.787804598995425, 51.498942353410726 ], [ 4.787360753486709, 51.498654864437313 ], [ 4.786096861479611, 51.498747857868473 ], [ 4.785554047431703, 51.49924590718642 ], [ 4.785259894415095, 51.499191398270526 ], [ 4.785036604360218, 51.499650863494381 ], [ 4.784504936899427, 51.499452199554611 ], [ 4.78303883083699, 51.499466705681783 ], [ 4.782916612356026, 51.499693933802732 ], [ 4.782982222713114, 51.500073889381746 ], [ 4.782788545558216, 51.500006869654371 ], [ 4.782625406002035, 51.500187240082838 ], [ 4.782851933425209, 51.50040871136067 ], [ 4.782732518459701, 51.500572406540073 ], [ 4.782905429976474, 51.500734330871715 ], [ 4.782441767931849, 51.50061806727026 ], [ 4.78212830891404, 51.500719025388847 ], [ 4.782261380657664, 51.501118822569218 ], [ 4.782478813060519, 51.501224006340408 ], [ 4.78227898686101, 51.501305984189827 ], [ 4.782350262954158, 51.501518219343836 ], [ 4.782226079840187, 51.501709287960665 ], [ 4.781573344933279, 51.501838455308921 ], [ 4.781845021090495, 51.502399078288143 ], [ 4.781652784328343, 51.502528834368682 ], [ 4.780982267973026, 51.502411181681346 ], [ 4.780743060792989, 51.50259689217588 ], [ 4.780900941549319, 51.503117403625971 ], [ 4.781340905304814, 51.503160414388148 ], [ 4.780612546920287, 51.503531878823921 ], [ 4.780758828697845, 51.503976970941999 ], [ 4.774875825031825, 51.504831334712669 ], [ 4.773875967781754, 51.504856677282604 ], [ 4.773760842976073, 51.505013318143746 ], [ 4.759993030560556, 51.502265518037788 ], [ 4.758362633405434, 51.500052737116768 ], [ 4.755369618265516, 51.500264201643269 ], [ 4.755217129073317, 51.500425505015514 ], [ 4.752752533661171, 51.499718700618288 ], [ 4.74907312779218, 51.496661671585386 ], [ 4.750098282154658, 51.495462457935879 ], [ 4.74979216435308, 51.494327415665616 ], [ 4.748001788267787, 51.491665971054992 ], [ 4.746923950179245, 51.490647840126648 ], [ 4.746623277554587, 51.489426056617923 ], [ 4.729708727648313, 51.484151074506926 ], [ 4.72921432926954, 51.483826793729712 ], [ 4.720407715144977, 51.473619829411504 ], [ 4.720670962730761, 51.473528526013283 ], [ 4.720675531540785, 51.473385784334809 ], [ 4.718478223067657, 51.472544285450901 ], [ 4.718641526999202, 51.472164425824197 ], [ 4.71608637352462, 51.471035707550627 ], [ 4.716955129229969, 51.468782475511922 ], [ 4.703320725295537, 51.466889863756421 ], [ 4.7029578600657, 51.466088894698373 ], [ 4.70410884115349, 51.465550311807498 ], [ 4.704139706551228, 51.465410425953543 ], [ 4.702900990390554, 51.464569866898593 ], [ 4.699478737021757, 51.460882108715523 ], [ 4.699397962217009, 51.459917470508344 ], [ 4.693141935373942, 51.45164064948159 ], [ 4.686466723467985, 51.451172387003965 ], [ 4.682502227894828, 51.449527345300218 ], [ 4.680846219208981, 51.449230831694678 ], [ 4.666700236375231, 51.444333300090314 ], [ 4.668216664443825, 51.436330465890819 ], [ 4.66971322441496, 51.426265428179434 ], [ 4.664481754245297, 51.426058913709873 ], [ 4.661566369166002, 51.425622176836917 ], [ 4.661476685342528, 51.425421200136952 ], [ 4.66097858968615, 51.425530528849123 ], [ 4.65944338348295, 51.425147181647311 ], [ 4.656415828022076, 51.424893489274666 ], [ 4.655468465667161, 51.425296836666632 ], [ 4.65367924730251, 51.425739776082132 ], [ 4.651713787358775, 51.426774694493609 ], [ 4.651293592513639, 51.426681383334838 ], [ 4.651005341722336, 51.426404788190993 ], [ 4.650761291990852, 51.426501521391458 ], [ 4.650498690524845, 51.426296390281976 ], [ 4.650026284006686, 51.426316687905967 ], [ 4.650029565644616, 51.426074585973353 ], [ 4.64930400893581, 51.425825162198464 ], [ 4.649463575654849, 51.425352388687045 ], [ 4.648377567183401, 51.42487683385594 ], [ 4.648509135126322, 51.424710775111706 ], [ 4.648443966889136, 51.424337238650693 ], [ 4.648058691878582, 51.424179008903756 ], [ 4.647444069691485, 51.424295332956937 ], [ 4.646767683319004, 51.423899062600448 ], [ 4.646922279599404, 51.423624213210694 ], [ 4.646695385208766, 51.423306076171002 ], [ 4.646285921914701, 51.423194868887144 ], [ 4.646015273917947, 51.423343517979291 ], [ 4.64571931620199, 51.423037954453342 ], [ 4.644048677878307, 51.422947099386391 ], [ 4.643544864703061, 51.422733051883789 ], [ 4.64189589028001, 51.422581723788916 ], [ 4.641286458882871, 51.421914524205462 ], [ 4.639568968551333, 51.422192429573528 ], [ 4.637434357659762, 51.422923203759474 ], [ 4.633895126578527, 51.424981604248629 ], [ 4.630077422463295, 51.425818291218327 ], [ 4.588245290220749, 51.431042587619892 ], [ 4.588151158129248, 51.431258181546141 ], [ 4.58247761503116, 51.431278116082154 ], [ 4.582132868608867, 51.431863721794493 ], [ 4.574734485362037, 51.43274705778547 ], [ 4.535403320507658, 51.422929785559859 ], [ 4.531952656470017, 51.438543524475676 ] ], [ [ 4.769773801038512, 51.418904713001574 ], [ 4.769695936780526, 51.418895198446485 ], [ 4.769788371243854, 51.418809179729074 ], [ 4.769773801038512, 51.418904713001574 ] ] ] } }
]
}
