{
"type": "FeatureCollection",
"name": "SWVPO2710",
"crs": { "type": "name", "properties": { "name": "urn:ogc:def:crs:OGC:1.3:CRS84" } },
"features": [
{ "type": "Feature", "properties": { "PO SWV": "PO2710", "strokeColor": "#A9A9A9", "strokeWidth": 2, "fillColor": "#ADD8E6" }, "geometry": { "type": "Polygon", "coordinates": [ [ [ 4.611559252382607, 52.313770879846558 ], [ 4.61147467082106, 52.317976437124791 ], [ 4.612050213874641, 52.318058748204855 ], [ 4.611930913973401, 52.322167301496243 ], [ 4.611286378443224, 52.322248456904418 ], [ 4.61128806049576, 52.32414894350913 ], [ 4.611567159084125, 52.325451922898402 ], [ 4.612588698001767, 52.3272694911714 ], [ 4.616522033521554, 52.331575601248908 ], [ 4.618159663664029, 52.33286959679802 ], [ 4.620315708586491, 52.333911870436509 ], [ 4.629705554994862, 52.337403797420393 ], [ 4.631032264689037, 52.337755049748218 ], [ 4.646469287641145, 52.339964812495857 ], [ 4.649013183133019, 52.340559452006843 ], [ 4.656381210330201, 52.343734189606835 ], [ 4.656810585342644, 52.343442388075268 ], [ 4.659409262761695, 52.344590762316059 ], [ 4.659168385377283, 52.344944922361947 ], [ 4.660621219401175, 52.345566228281932 ], [ 4.659336100886346, 52.345767389650774 ], [ 4.660682854098788, 52.347555390944308 ], [ 4.660158991467141, 52.347657231178111 ], [ 4.658623835168592, 52.348618450549225 ], [ 4.660496027221302, 52.349553729696787 ], [ 4.660839034971444, 52.350151683029267 ], [ 4.666774111094594, 52.35239640944431 ], [ 4.669498679310758, 52.352965484411989 ], [ 4.670842562303155, 52.35029948344954 ], [ 4.670511675498679, 52.349858997224054 ], [ 4.673432895679685, 52.351158477867557 ], [ 4.675070609512785, 52.352400652490431 ], [ 4.675793908367814, 52.353259136325377 ], [ 4.676348594971999, 52.354311975923437 ], [ 4.67636862189365, 52.356163259731396 ], [ 4.671996501919982, 52.368128942031355 ], [ 4.672565743296147, 52.368326119006554 ], [ 4.671889616408018, 52.370531565742866 ], [ 4.672082632097839, 52.37215321109889 ], [ 4.672976612199195, 52.373877255429399 ], [ 4.674187038742462, 52.375079336598276 ], [ 4.675473863923545, 52.375962055451431 ], [ 4.677526100770231, 52.376876986311125 ], [ 4.679534671102865, 52.377423197392822 ], [ 4.687679592870921, 52.378846114460153 ], [ 4.688556116231102, 52.378811964491426 ], [ 4.689753044194667, 52.378479144179686 ], [ 4.690863378661078, 52.37859855426963 ], [ 4.691451089984469, 52.378812486974589 ], [ 4.691982295416458, 52.379491162684459 ], [ 4.692658839295663, 52.379731829171128 ], [ 4.707690048555031, 52.382292430873861 ], [ 4.70771448395751, 52.38275513742235 ], [ 4.728754802729396, 52.38640010876658 ], [ 4.730097171484074, 52.386515060093473 ], [ 4.734015392117461, 52.386239178768342 ], [ 4.733934816104687, 52.385832499843545 ], [ 4.747256138985517, 52.382919556022628 ], [ 4.749831704826321, 52.381909593507196 ], [ 4.752583101020887, 52.38048823075372 ], [ 4.753072848052914, 52.380842015008653 ], [ 4.753260331772479, 52.38079002848535 ], [ 4.754887677652964, 52.379850820652791 ], [ 4.756484531219007, 52.378275031416095 ], [ 4.756816055102729, 52.377856772575761 ], [ 4.75660516889059, 52.37770494883577 ], [ 4.757665587981701, 52.376133125880635 ], [ 4.757324114406744, 52.37595627638602 ], [ 4.758127602940024, 52.373794851753544 ], [ 4.758266642341477, 52.372337837228592 ], [ 4.758621443983091, 52.372340828062434 ], [ 4.758696318126807, 52.372214157873564 ], [ 4.758537946491033, 52.370931882517112 ], [ 4.755192518936502, 52.359005606019203 ], [ 4.755026648366099, 52.358467398946374 ], [ 4.754626016235177, 52.358458008800817 ], [ 4.754540380525408, 52.358083934786421 ], [ 4.754778689921964, 52.35687134612764 ], [ 4.755827372490966, 52.355779527408167 ], [ 4.756859666378888, 52.355220648851258 ], [ 4.764271622020479, 52.352288068160476 ], [ 4.764555619771903, 52.352490531343506 ], [ 4.768858785480114, 52.350799798602182 ], [ 4.768771351349296, 52.350519996897994 ], [ 4.77122870719247, 52.349550641666148 ], [ 4.771467417428024, 52.349756382434528 ], [ 4.77177817265116, 52.349650939303999 ], [ 4.779441785274551, 52.346509964092 ], [ 4.779360179658379, 52.346241185499302 ], [ 4.790319212458494, 52.341753994066941 ], [ 4.790959740392129, 52.341395613612868 ], [ 4.792246509182476, 52.340269754331736 ], [ 4.797536376329705, 52.335155270417992 ], [ 4.809833835096334, 52.330016354026959 ], [ 4.810118384574115, 52.33020924516812 ], [ 4.814468606539321, 52.328405301693422 ], [ 4.814359835590315, 52.328127636465915 ], [ 4.816779384537768, 52.32688142370219 ], [ 4.816690924662046, 52.326703558922546 ], [ 4.817458993330149, 52.325997026665526 ], [ 4.817997309907677, 52.325219849765169 ], [ 4.818323355721408, 52.324253894289932 ], [ 4.81821280445098, 52.323217135003766 ], [ 4.816282617029201, 52.316710186235561 ], [ 4.815783392128816, 52.31559580856004 ], [ 4.815765952010548, 52.314965873427035 ], [ 4.81546496457599, 52.314563083825071 ], [ 4.815120260165943, 52.314418861422538 ], [ 4.814899105249117, 52.31314484083908 ], [ 4.816941234664606, 52.311783039163117 ], [ 4.816641025585676, 52.311057710300453 ], [ 4.816314910460591, 52.310828052877334 ], [ 4.814905367359986, 52.310450276122168 ], [ 4.814335966058237, 52.30978430633683 ], [ 4.814443212358271, 52.309541546886273 ], [ 4.813632151097313, 52.308531061263331 ], [ 4.813383424158391, 52.308608910645312 ], [ 4.813014598093168, 52.308241375222252 ], [ 4.812398370469105, 52.308419170870295 ], [ 4.809451973568461, 52.30621363402242 ], [ 4.804848467797877, 52.304705972180159 ], [ 4.804689784795971, 52.30452427515408 ], [ 4.803049587356201, 52.303921351934164 ], [ 4.802066026710436, 52.303832495303119 ], [ 4.7998858332376, 52.302856114951567 ], [ 4.799921386658267, 52.30256307889681 ], [ 4.797761424064552, 52.301863808938791 ], [ 4.795872718666754, 52.300615706895115 ], [ 4.795434231637071, 52.299927009412684 ], [ 4.794882344113332, 52.299441518589504 ], [ 4.794617177293608, 52.298894335362753 ], [ 4.794165819730964, 52.298850851522708 ], [ 4.792235719448009, 52.294327721557046 ], [ 4.7925550581797, 52.294143678561348 ], [ 4.791918231320486, 52.293023927319581 ], [ 4.79090125749681, 52.291863009344652 ], [ 4.789216497911047, 52.290134270950361 ], [ 4.787523591969287, 52.288688297073158 ], [ 4.779894131353023, 52.283749516378286 ], [ 4.776148655997738, 52.282130253552978 ], [ 4.776084753851582, 52.2819715776563 ], [ 4.776298403322346, 52.281763033124903 ], [ 4.765079064754299, 52.276876259751575 ], [ 4.755710777159742, 52.274193509906944 ], [ 4.751012536937709, 52.273608107407789 ], [ 4.750628310492264, 52.274106611955844 ], [ 4.746845649803697, 52.272863653892728 ], [ 4.745024662104621, 52.271928667579687 ], [ 4.743207712383441, 52.270198720035943 ], [ 4.739389504414358, 52.26828787899175 ], [ 4.729975427961361, 52.265795941972861 ], [ 4.725397966624348, 52.26366957569622 ], [ 4.724472481075896, 52.262997031437649 ], [ 4.723061843674865, 52.261358118218595 ], [ 4.720406085107301, 52.259232259844609 ], [ 4.712558279367669, 52.255639245096184 ], [ 4.706089953978651, 52.249046077030158 ], [ 4.704760741809233, 52.247121849344005 ], [ 4.7014051454097, 52.244785169214964 ], [ 4.700391140962376, 52.244443552656286 ], [ 4.692304188593261, 52.243096585318618 ], [ 4.686460476150883, 52.24104545962345 ], [ 4.681053553592141, 52.239583640670162 ], [ 4.679998903933874, 52.238903042948237 ], [ 4.677805609352975, 52.235813810158263 ], [ 4.676566221883339, 52.23468566621078 ], [ 4.676886582309055, 52.234381893746168 ], [ 4.670247416322016, 52.230884074361313 ], [ 4.665139851950494, 52.227719343887983 ], [ 4.657634847546314, 52.225924031069404 ], [ 4.654059985986626, 52.224551606723729 ], [ 4.651206082154997, 52.223044637943701 ], [ 4.646579258853758, 52.221065294518674 ], [ 4.644210675298763, 52.220702929393788 ], [ 4.643225673753482, 52.220404497372954 ], [ 4.632609370644293, 52.216281106706589 ], [ 4.61865826807907, 52.214588846208152 ], [ 4.601722488882547, 52.214750422025276 ], [ 4.583562622126339, 52.21897376144981 ], [ 4.581715651644149, 52.218893196233935 ], [ 4.573387164215612, 52.217264349729035 ], [ 4.571354864010939, 52.217059381487324 ], [ 4.558450370720728, 52.218897080761778 ], [ 4.556769908362227, 52.219294065110844 ], [ 4.550892851002019, 52.225627467046017 ], [ 4.550618331282103, 52.226128632936543 ], [ 4.550568619604525, 52.226725080439856 ], [ 4.550849609833354, 52.227371216272701 ], [ 4.55223367018603, 52.229117845433095 ], [ 4.553697709105786, 52.230864107816977 ], [ 4.554261859224203, 52.231313124864528 ], [ 4.55560869348299, 52.231914193864156 ], [ 4.56125661220988, 52.233123515884081 ], [ 4.562399496271764, 52.233821332020838 ], [ 4.563028154925857, 52.234717186456486 ], [ 4.56764717277932, 52.249189663683012 ], [ 4.569619891363954, 52.259677684145593 ], [ 4.569589815104244, 52.260336330711276 ], [ 4.567966953420846, 52.267311520589338 ], [ 4.568058332302146, 52.268021538855656 ], [ 4.569030543081961, 52.268932680620544 ], [ 4.58851450873888, 52.280435226833269 ], [ 4.588940298059308, 52.281017442609588 ], [ 4.591258842775046, 52.28567608928563 ], [ 4.596134747050518, 52.291318711332494 ], [ 4.596345589108956, 52.291979702740292 ], [ 4.596470997888465, 52.294145733791098 ], [ 4.597176426322481, 52.296037786964511 ], [ 4.597558451672037, 52.296619862868603 ], [ 4.604518730832677, 52.30591812116414 ], [ 4.6111874761407, 52.311546922296188 ], [ 4.611623687297286, 52.312197733366929 ], [ 4.611777641556111, 52.312757583738652 ], [ 4.611772965611749, 52.313584516162564 ], [ 4.611559252382607, 52.313770879846558 ] ] ] } }
]
}
