{
"type": "FeatureCollection",
"name": "SWVPO2815",
"crs": { "type": "name", "properties": { "name": "urn:ogc:def:crs:OGC:1.3:CRS84" } },
"features": [
{ "type": "Feature", "properties": { "PO SWV": "PO2815", "strokeColor": "#A9A9A9", "strokeWidth": 2, "fillColor": "#ADD8E6" }, "geometry": { "type": "Polygon", "coordinates": [ [ [ 4.204178947026095, 52.044557098605495 ], [ 4.201697715131997, 52.047485116090094 ], [ 4.20019524615885, 52.048382833327345 ], [ 4.198774141769615, 52.049941574197575 ], [ 4.199219039364683, 52.050658247930976 ], [ 4.199590688928795, 52.050854609549191 ], [ 4.196122483897514, 52.055805964178852 ], [ 4.197932101310561, 52.057267102313759 ], [ 4.202506104884522, 52.059463451164042 ], [ 4.20476970673448, 52.060742519324393 ], [ 4.205075874756874, 52.0610106526156 ], [ 4.20520003334491, 52.061492212622049 ], [ 4.206902445621983, 52.062571822485531 ], [ 4.207445283210586, 52.063256087796589 ], [ 4.211493292061268, 52.06563554969653 ], [ 4.218181568552719, 52.070163697412362 ], [ 4.2191338507256, 52.071049874282082 ], [ 4.226790336984546, 52.075975131079268 ], [ 4.229040906775393, 52.077744559215162 ], [ 4.235954787271131, 52.082528647072238 ], [ 4.239690168049709, 52.085454489739718 ], [ 4.241517934025581, 52.086673378543367 ], [ 4.249981778418771, 52.093318488699204 ], [ 4.250667522485446, 52.094078001902375 ], [ 4.250113445364232, 52.094370355202585 ], [ 4.250123712350656, 52.094570982990234 ], [ 4.250350673846278, 52.094611258532481 ], [ 4.250878394921489, 52.094328967981276 ], [ 4.251312151977168, 52.094883020473056 ], [ 4.253037428628534, 52.095955048980571 ], [ 4.254717869150475, 52.097560780048809 ], [ 4.256179447438627, 52.099642243669294 ], [ 4.254324064784652, 52.100701237112695 ], [ 4.253555284666278, 52.101382474196356 ], [ 4.252410393597581, 52.103643686667738 ], [ 4.252342513640463, 52.103881309158041 ], [ 4.252474204883093, 52.104100669344326 ], [ 4.252795228740162, 52.104162832935017 ], [ 4.253111407034202, 52.103952548930721 ], [ 4.253224731899025, 52.103422181610888 ], [ 4.253991596011623, 52.101847078171026 ], [ 4.254778062725082, 52.100983242840755 ], [ 4.256112982740616, 52.100174082756453 ], [ 4.256435694907754, 52.100560243697096 ], [ 4.256782539881167, 52.100573254352433 ], [ 4.256729281477906, 52.099915568107342 ], [ 4.258301504369522, 52.098696181976585 ], [ 4.259898404320714, 52.099104538855308 ], [ 4.26060813734636, 52.098753460757258 ], [ 4.26081530157759, 52.098326016199081 ], [ 4.260733150449125, 52.098129390873602 ], [ 4.259162937787301, 52.097776424056107 ], [ 4.259440859333815, 52.097123564073321 ], [ 4.261071494593663, 52.097399112388736 ], [ 4.261437002471537, 52.09721818123348 ], [ 4.263048163484591, 52.097196776457963 ], [ 4.263949108269461, 52.097027739517543 ], [ 4.264524030398448, 52.097458402618528 ], [ 4.263614288404757, 52.098066326630246 ], [ 4.263484415694581, 52.098300336078722 ], [ 4.264167081420495, 52.098730537704803 ], [ 4.265055223513667, 52.098457025582981 ], [ 4.266800490552942, 52.097500200292387 ], [ 4.266782748193836, 52.097117716111391 ], [ 4.264457817663549, 52.095498943040567 ], [ 4.264248954051555, 52.095551699129558 ], [ 4.263276804012128, 52.094783040635249 ], [ 4.263820478480491, 52.094372026004052 ], [ 4.264155857549526, 52.094352083213636 ], [ 4.271536695979076, 52.099553455351376 ], [ 4.270803997634906, 52.099950478774183 ], [ 4.267313068513896, 52.097488302181759 ], [ 4.266657539704435, 52.097644063775356 ], [ 4.265383373876583, 52.098336219204562 ], [ 4.265312143795357, 52.098752046382245 ], [ 4.26854052556094, 52.101094286454583 ], [ 4.267221261122246, 52.101786725410868 ], [ 4.263471350392565, 52.099148706576756 ], [ 4.263766790082268, 52.098970036456883 ], [ 4.263617886819672, 52.098775727681883 ], [ 4.263044742608688, 52.099013018247085 ], [ 4.261232967332634, 52.099101782190246 ], [ 4.260560513177907, 52.099555112971444 ], [ 4.260880933552158, 52.099914033992519 ], [ 4.260942750597327, 52.100520025114811 ], [ 4.258785086207149, 52.101358358299947 ], [ 4.257739792016829, 52.101241589914025 ], [ 4.257632651439367, 52.101401910570047 ], [ 4.257747781698571, 52.101578962439568 ], [ 4.258517331424005, 52.101807190555768 ], [ 4.257837277856997, 52.10319918176944 ], [ 4.257412166139726, 52.103486927823184 ], [ 4.255877771474725, 52.103770164424517 ], [ 4.255715901936996, 52.103948290891289 ], [ 4.255800237729945, 52.104175085236534 ], [ 4.256269747018997, 52.10429302896739 ], [ 4.258062811032767, 52.103842348253885 ], [ 4.258473325808664, 52.10349039235863 ], [ 4.258931774902, 52.102529362844876 ], [ 4.260365413031675, 52.102587718729559 ], [ 4.26245745155259, 52.103432474083078 ], [ 4.264061263154519, 52.104674031593511 ], [ 4.264795623452068, 52.105667532312211 ], [ 4.26576664838334, 52.106034724942049 ], [ 4.267855898579774, 52.107254939380915 ], [ 4.275130657623529, 52.111942965699917 ], [ 4.274429024888916, 52.112352474122588 ], [ 4.274392405333937, 52.112608164039457 ], [ 4.27461986717974, 52.112633015597481 ], [ 4.275436841445076, 52.112162821414621 ], [ 4.281305149412034, 52.116307673975008 ], [ 4.279953085692557, 52.117059704383188 ], [ 4.279901922940378, 52.116794822135766 ], [ 4.279487589273439, 52.116610868277384 ], [ 4.279093535360493, 52.116736475766018 ], [ 4.278983238531074, 52.117013474458211 ], [ 4.278494829204926, 52.116926189932464 ], [ 4.278323280689508, 52.117471853192619 ], [ 4.278777376170439, 52.117546577343106 ], [ 4.278924789641909, 52.117304784903133 ], [ 4.279718404288218, 52.117411973999417 ], [ 4.279601612572862, 52.117856532938369 ], [ 4.280046852426447, 52.118014763851619 ], [ 4.280274612700859, 52.117789743443055 ], [ 4.280054095141089, 52.117542179370574 ], [ 4.280113778590807, 52.117400750367786 ], [ 4.280461691835374, 52.11720876147978 ], [ 4.280768698771702, 52.117249097397412 ], [ 4.280740731804996, 52.117564951275043 ], [ 4.281100426679436, 52.117595619183795 ], [ 4.281279318259784, 52.117143925833716 ], [ 4.280831049104888, 52.117001864652408 ], [ 4.281699825970541, 52.116518369162605 ], [ 4.28308939836772, 52.117474640965739 ], [ 4.285434446377866, 52.11836345973731 ], [ 4.284418272123628, 52.118938049434249 ], [ 4.284317720948994, 52.119109215261751 ], [ 4.284419871397121, 52.119225585689222 ], [ 4.285668034415286, 52.118578310257035 ], [ 4.28887063778201, 52.120051047012204 ], [ 4.292118397919871, 52.121720133006633 ], [ 4.295800344647959, 52.124248780149777 ], [ 4.300482951760269, 52.126871229925719 ], [ 4.302890458572125, 52.128423094904534 ], [ 4.328786192071009, 52.109447656051465 ], [ 4.329667722329208, 52.109733100785363 ], [ 4.330085393596812, 52.109614027523186 ], [ 4.330071786304895, 52.109432387502181 ], [ 4.329164384155114, 52.109170730153537 ], [ 4.333139933693262, 52.105791416284674 ], [ 4.333112630527058, 52.105645497821769 ], [ 4.33052546543453, 52.104320787771684 ], [ 4.332327822249022, 52.103117297831496 ], [ 4.332324566032932, 52.10296030483287 ], [ 4.331651998437184, 52.102699073699974 ], [ 4.33122987251534, 52.103053262592191 ], [ 4.330284640441995, 52.102641192483119 ], [ 4.330612202160986, 52.102324745087245 ], [ 4.330574801708757, 52.102182859253872 ], [ 4.323468945209938, 52.099186958791236 ], [ 4.327509890303859, 52.095680691160098 ], [ 4.332410185463328, 52.097119099472494 ], [ 4.332667467162237, 52.096959309214213 ], [ 4.33555489802121, 52.097909326902901 ], [ 4.335683851601809, 52.098172640456696 ], [ 4.335934553806768, 52.09816607202908 ], [ 4.337244766502501, 52.098869178149982 ], [ 4.338598093512374, 52.097550446668684 ], [ 4.341366322567067, 52.098442397709064 ], [ 4.342338869971939, 52.097598231773333 ], [ 4.342590265035074, 52.097692050412434 ], [ 4.342744241297025, 52.097568937862739 ], [ 4.34823200643058, 52.099973855325452 ], [ 4.354474313725763, 52.103284726867081 ], [ 4.357999720409558, 52.105462046160881 ], [ 4.3585957598473, 52.105647122946564 ], [ 4.3597255539685, 52.104985198473877 ], [ 4.362227718101294, 52.103113278446024 ], [ 4.363235008150523, 52.102214941839485 ], [ 4.363337949314861, 52.101937276611004 ], [ 4.365610441256614, 52.100529496117829 ], [ 4.370004561999917, 52.096808655786688 ], [ 4.372882095407984, 52.094917692109554 ], [ 4.37393481755098, 52.093589323180638 ], [ 4.374679660106672, 52.093946701897664 ], [ 4.374991976816412, 52.093524941963615 ], [ 4.377214691441844, 52.094533983581051 ], [ 4.377486552695354, 52.094447960446153 ], [ 4.3881588582497, 52.099180062661205 ], [ 4.388117987044977, 52.099341808355064 ], [ 4.388308313906613, 52.099459161309888 ], [ 4.388639256950753, 52.099391656469848 ], [ 4.399221669467767, 52.104085532135258 ], [ 4.395818386278259, 52.108308254119557 ], [ 4.401144578062565, 52.111968941440722 ], [ 4.412122084685199, 52.108049425129849 ], [ 4.412155924818602, 52.107886418332356 ], [ 4.411481092174969, 52.107352843583442 ], [ 4.413002447251087, 52.106738472934552 ], [ 4.414173479101905, 52.107607113879517 ], [ 4.42129939733429, 52.105059164883173 ], [ 4.421349551788675, 52.104911185835356 ], [ 4.421015325876086, 52.104643610606544 ], [ 4.423829799894361, 52.103676776327902 ], [ 4.427905577233503, 52.101581723923296 ], [ 4.433520396859732, 52.104239380191281 ], [ 4.434552476337519, 52.105410196476029 ], [ 4.435667408540296, 52.107465204032195 ], [ 4.436741406142168, 52.108210256458477 ], [ 4.437579038039337, 52.109109064713564 ], [ 4.439236990671511, 52.110166140543974 ], [ 4.443690404960961, 52.111910124357749 ], [ 4.446797721785735, 52.113700989109546 ], [ 4.452141109314871, 52.118651636156414 ], [ 4.464436218740031, 52.127393973224024 ], [ 4.465207915737662, 52.12673864714013 ], [ 4.466270704473295, 52.127361647004591 ], [ 4.465886064445456, 52.127919871672923 ], [ 4.466402019609654, 52.128447516398083 ], [ 4.46631316561767, 52.128735580732673 ], [ 4.466865303398444, 52.129077825397111 ], [ 4.467508762997579, 52.128438298671384 ], [ 4.468212874545316, 52.128627992550413 ], [ 4.473034417560397, 52.123739998030857 ], [ 4.472414434460108, 52.123387898493739 ], [ 4.472383228696233, 52.12245400177828 ], [ 4.472601792373919, 52.121228686942992 ], [ 4.472394698747421, 52.119670575020727 ], [ 4.473068835012356, 52.11891593512695 ], [ 4.470987944481843, 52.117686377074719 ], [ 4.490496889817055, 52.097913816708477 ], [ 4.490464012369078, 52.097771989886525 ], [ 4.490031526919807, 52.09761882335858 ], [ 4.491894584104933, 52.090123493251269 ], [ 4.492219329648353, 52.090109784728448 ], [ 4.492123441029563, 52.089980054920751 ], [ 4.492882453493951, 52.087834925429348 ], [ 4.474456185339649, 52.085385053371816 ], [ 4.475779227436078, 52.081315444914104 ], [ 4.462553723519439, 52.079508767239197 ], [ 4.462202834123494, 52.079604707341275 ], [ 4.456720665267551, 52.07890977285588 ], [ 4.456661611133098, 52.078755108685108 ], [ 4.455421957380427, 52.078404536191307 ], [ 4.421354974391568, 52.063390501074956 ], [ 4.421572055846609, 52.062951537543292 ], [ 4.420728522652734, 52.062646908542995 ], [ 4.420199345451176, 52.062172105113973 ], [ 4.42042512551415, 52.06191164682464 ], [ 4.422328940634425, 52.057313646319678 ], [ 4.415387260594047, 52.057541062510523 ], [ 4.415130898278742, 52.057011375201476 ], [ 4.422065080963296, 52.051573361077892 ], [ 4.411464651185142, 52.052418530287454 ], [ 4.409720892684295, 52.052523526885011 ], [ 4.40962380445618, 52.052382035035919 ], [ 4.409097966568559, 52.052416269440805 ], [ 4.401373573883958, 52.053221942932701 ], [ 4.39854507616317, 52.051117976092137 ], [ 4.395105431305182, 52.053324653465666 ], [ 4.395074050406516, 52.053577490412891 ], [ 4.394466042161742, 52.053934814267436 ], [ 4.393779476150825, 52.053444589866572 ], [ 4.393839655644737, 52.053264891944885 ], [ 4.393180768170071, 52.052761025994187 ], [ 4.392596600454118, 52.05303220010223 ], [ 4.391304798721292, 52.051959281201455 ], [ 4.391519457551022, 52.051700801758173 ], [ 4.389717228540404, 52.04987016220187 ], [ 4.387899861353336, 52.051046264246089 ], [ 4.385921795424619, 52.049714519422963 ], [ 4.385549333699961, 52.049826727680269 ], [ 4.384430324249092, 52.049214748751474 ], [ 4.382909984198001, 52.047989737853413 ], [ 4.38235993433604, 52.048266828818505 ], [ 4.380915898498629, 52.047292154495779 ], [ 4.381044244334233, 52.04689993425054 ], [ 4.379544495564804, 52.045927312821483 ], [ 4.379113438487839, 52.046098301743164 ], [ 4.374459454583834, 52.04287955034436 ], [ 4.374767033937681, 52.04268876506827 ], [ 4.374761320355242, 52.042507573506462 ], [ 4.37261288249234, 52.041063225856576 ], [ 4.378726738818699, 52.036990545873685 ], [ 4.379873852224081, 52.036068587092295 ], [ 4.381181683713196, 52.0364864285837 ], [ 4.381284371744981, 52.036037583696285 ], [ 4.386288474568496, 52.038203448520505 ], [ 4.386648704012011, 52.038544966151122 ], [ 4.387475595733981, 52.038738817341319 ], [ 4.393904233154974, 52.033249361550716 ], [ 4.394040479288794, 52.033022531599279 ], [ 4.393942585944277, 52.032831746499454 ], [ 4.388664372787892, 52.030406022463438 ], [ 4.384993840401622, 52.028931738039176 ], [ 4.38441348495645, 52.028531726462674 ], [ 4.379737081166266, 52.026632698532566 ], [ 4.373479169425029, 52.032480938765552 ], [ 4.362323431839476, 52.027537463534749 ], [ 4.362146461787192, 52.027278194454027 ], [ 4.360985157273277, 52.026557134415434 ], [ 4.359700692802202, 52.025970310266914 ], [ 4.359194020698283, 52.025972902157669 ], [ 4.357637821453394, 52.026687544015147 ], [ 4.348094081691893, 52.022377432336498 ], [ 4.34766146498288, 52.022248201899522 ], [ 4.347479967813316, 52.022357510993764 ], [ 4.346159784314753, 52.021593872867648 ], [ 4.343685473524109, 52.020502913723526 ], [ 4.343513892403961, 52.020572373180876 ], [ 4.342675787117409, 52.020189640920719 ], [ 4.342637314386519, 52.020037139318902 ], [ 4.32588850989911, 52.012570965632626 ], [ 4.325175919965587, 52.01310080327405 ], [ 4.322662142187144, 52.016306300911388 ], [ 4.321524962631206, 52.017385730125866 ], [ 4.32014575402701, 52.019104455985627 ], [ 4.319324928647835, 52.019821113356358 ], [ 4.313760329841545, 52.017193016860581 ], [ 4.309842506053624, 52.015536778955003 ], [ 4.307607161787035, 52.018034319775332 ], [ 4.30602001094144, 52.017477093057259 ], [ 4.305801109864199, 52.017610322857649 ], [ 4.302671597961746, 52.016388334509571 ], [ 4.30105612423462, 52.0177532010511 ], [ 4.298660884988011, 52.016787713769702 ], [ 4.295468572971593, 52.014758428003987 ], [ 4.289640030174021, 52.017620015694099 ], [ 4.291936365126849, 52.018567440531356 ], [ 4.292166444346374, 52.018423831132452 ], [ 4.294221349217249, 52.019184158105453 ], [ 4.29412500339686, 52.019353027175384 ], [ 4.286669155891619, 52.022908219355323 ], [ 4.286679042371948, 52.023068314453198 ], [ 4.288034383886809, 52.023774094480075 ], [ 4.285067150162479, 52.025554197115319 ], [ 4.28545627429274, 52.025918112655454 ], [ 4.284981578578549, 52.02619123604061 ], [ 4.284948248199562, 52.0263811533626 ], [ 4.285721138749193, 52.026607513604368 ], [ 4.285213886265533, 52.02729948173284 ], [ 4.28347709458887, 52.026600253813982 ], [ 4.282761281403793, 52.027509724546299 ], [ 4.281657129056248, 52.027346599254983 ], [ 4.27787480961265, 52.032269639649058 ], [ 4.276441482721427, 52.031570353759058 ], [ 4.275836733360865, 52.031476669916664 ], [ 4.272635039722236, 52.035790286488051 ], [ 4.267775938405736, 52.033162691630686 ], [ 4.267412930080475, 52.033024838961396 ], [ 4.266765366650921, 52.033370258976596 ], [ 4.262427992603659, 52.031442646483498 ], [ 4.262688147418631, 52.031192117846608 ], [ 4.262652116849472, 52.031051091241693 ], [ 4.25923538485208, 52.02950895137765 ], [ 4.258888286675802, 52.029855632962224 ], [ 4.248294563451132, 52.025074867967618 ], [ 4.244858420670963, 52.02858069716028 ], [ 4.244209563054393, 52.028779072432322 ], [ 4.243618083281267, 52.029303367545168 ], [ 4.235104207930969, 52.039056479848433 ], [ 4.228482044173722, 52.034427945461744 ], [ 4.227404784650119, 52.034566080815011 ], [ 4.22323968569554, 52.034296095184082 ], [ 4.219251280768183, 52.033639825266839 ], [ 4.217197298552419, 52.033020959273095 ], [ 4.215134135093412, 52.032045432802242 ], [ 4.213830686822685, 52.031695752328915 ], [ 4.212266342820057, 52.030615031590216 ], [ 4.209484585052629, 52.033651263196653 ], [ 4.212272817406718, 52.034105320404755 ], [ 4.205204595767253, 52.043003382515366 ], [ 4.204178947026095, 52.044557098605495 ] ] ] } }
]
}
