{
"type": "FeatureCollection",
"name": "SWVPO2706",
"crs": { "type": "name", "properties": { "name": "urn:ogc:def:crs:OGC:1.3:CRS84" } },
"features": [
{ "type": "Feature", "properties": { "PO SWV": "PO2706", "strokeColor": "#A9A9A9", "strokeWidth": 2, "fillColor": "#ADD8E6" }, "geometry": { "type": "Polygon", "coordinates": [ [ [ 4.835332679845664, 52.540635336580294 ], [ 4.836339984473446, 52.541271824983852 ], [ 4.84225415078273, 52.543603151191896 ], [ 4.844095659075679, 52.547018333587694 ], [ 4.848298307334614, 52.550204802057998 ], [ 4.851759506049, 52.554904227376149 ], [ 4.85407431277737, 52.557075619842095 ], [ 4.858650203446378, 52.559604617739957 ], [ 4.860165403144804, 52.561385921625678 ], [ 4.861266698485223, 52.562343822343841 ], [ 4.862116557157859, 52.563536668637056 ], [ 4.862843379161027, 52.565077123955454 ], [ 4.862897136488275, 52.568317653693015 ], [ 4.863144505913965, 52.568348426011646 ], [ 4.864285714666438, 52.571443804425307 ], [ 4.865860902283142, 52.573779788680397 ], [ 4.868800076660611, 52.575910349450353 ], [ 4.869627901495179, 52.57623464688082 ], [ 4.872312296948856, 52.577015018748199 ], [ 4.874393764808347, 52.576967896760131 ], [ 4.876353363231257, 52.577748185079749 ], [ 4.880150975604319, 52.580384942147418 ], [ 4.881055287817928, 52.581796961135488 ], [ 4.882867142130634, 52.583291786856364 ], [ 4.884692884924021, 52.584316861988384 ], [ 4.884893626688137, 52.58426533245126 ], [ 4.885271004708065, 52.584588733431815 ], [ 4.886850070440534, 52.58663211388415 ], [ 4.888032734755419, 52.59061554769999 ], [ 4.889863230299846, 52.593860794011626 ], [ 4.892163250306002, 52.595904256860734 ], [ 4.893164650122768, 52.597131281560458 ], [ 4.89376358914637, 52.597429074050979 ], [ 4.893839763340315, 52.597524547574046 ], [ 4.893323840240877, 52.597694363525278 ], [ 4.893525372512158, 52.598036045766563 ], [ 4.895170212770629, 52.598829009237413 ], [ 4.896364547143106, 52.599713603985066 ], [ 4.896623869265552, 52.599655824806327 ], [ 4.898502693431441, 52.601298995025253 ], [ 4.901114416910289, 52.60278806649098 ], [ 4.904660786107675, 52.604184087465534 ], [ 4.907491287491461, 52.605467946479969 ], [ 4.907530963177846, 52.605689501584664 ], [ 4.910165439282503, 52.606229777614089 ], [ 4.912651179676693, 52.607582075919893 ], [ 4.915143720007075, 52.608677087529763 ], [ 4.916519988994768, 52.608803688913085 ], [ 4.920969346634323, 52.608472826429768 ], [ 4.925149600165903, 52.607668082188447 ], [ 4.926466605523262, 52.60720430078014 ], [ 4.928131204222148, 52.60579038310226 ], [ 4.928828842036838, 52.605297351012162 ], [ 4.929107851156181, 52.605264026657963 ], [ 4.93095069276192, 52.605730188248323 ], [ 4.93458953978484, 52.606308276096911 ], [ 4.937471609031391, 52.60738544691965 ], [ 4.939758470680686, 52.609186997020522 ], [ 4.943861837476292, 52.610945602000875 ], [ 4.948467111326827, 52.613646168728572 ], [ 4.9503000833135, 52.61416539891043 ], [ 4.950934315992877, 52.614206334473927 ], [ 4.951939491570678, 52.614047907179341 ], [ 4.95323231620692, 52.613547895607688 ], [ 4.955239752459044, 52.612474722510491 ], [ 4.956722043188655, 52.610717080311417 ], [ 4.957689586212143, 52.608925581736919 ], [ 4.95931786671659, 52.605082782775916 ], [ 4.959397470832597, 52.604587246297989 ], [ 4.958982011467914, 52.603697659264093 ], [ 4.958753087985659, 52.60366234071239 ], [ 4.958326809529496, 52.603148843157321 ], [ 4.956683076728753, 52.60222566952941 ], [ 4.952386858712286, 52.601159494512288 ], [ 4.94899115933068, 52.599509161481869 ], [ 4.944751493735146, 52.600590905688485 ], [ 4.941664158455455, 52.595630824938667 ], [ 4.949362892062601, 52.593839819264481 ], [ 4.949264133768672, 52.594789769184388 ], [ 4.949844530617476, 52.595385199227835 ], [ 4.996210336331226, 52.597546793894679 ], [ 5.001659098121809, 52.597662974765015 ], [ 5.00191060582867, 52.597799189353616 ], [ 5.00248908537217, 52.597667822635451 ], [ 5.00480629593156, 52.597674177443025 ], [ 5.005998504288365, 52.601491145672071 ], [ 5.005941506178125, 52.601833059157656 ], [ 5.006494899960813, 52.603109409639828 ], [ 5.007849892246938, 52.607818103305874 ], [ 5.00650270508208, 52.610576241965475 ], [ 5.010165854233728, 52.611055645586475 ], [ 5.010437125263015, 52.610961590055602 ], [ 5.01229257294569, 52.611171574683112 ], [ 5.012556296714474, 52.611348648554973 ], [ 5.015416660801336, 52.611664826444702 ], [ 5.016468061196663, 52.611939269034963 ], [ 5.018614670770875, 52.612089632146926 ], [ 5.018813093126101, 52.612529176217464 ], [ 5.019687282033118, 52.612549590638473 ], [ 5.019820737802508, 52.611207805456658 ], [ 5.019233145949473, 52.610204517128338 ], [ 5.019884386518351, 52.609830210713696 ], [ 5.020137809427019, 52.609351753858355 ], [ 5.019443651019484, 52.607028138770431 ], [ 5.019589673665195, 52.606454543528805 ], [ 5.020713993356947, 52.605622218926435 ], [ 5.020855938530031, 52.605058962260976 ], [ 5.022107111259595, 52.604734760674873 ], [ 5.022458613586721, 52.604356775460325 ], [ 5.022231011432345, 52.603993222257714 ], [ 5.021054613654748, 52.603239520419599 ], [ 5.021266849883384, 52.602310955242253 ], [ 5.021162368603753, 52.602103951380769 ], [ 5.019652825779804, 52.601788847973438 ], [ 5.021019598047201, 52.601639639550385 ], [ 5.021090440103702, 52.601974522900711 ], [ 5.021246235927079, 52.602029150725819 ], [ 5.02142691695358, 52.601770700682486 ], [ 5.022471648861844, 52.601881454091775 ], [ 5.022909517977522, 52.601777519353433 ], [ 5.023429287817925, 52.601341519170909 ], [ 5.023425478102228, 52.601103581134289 ], [ 5.023115831191009, 52.600725584360639 ], [ 5.023286925377812, 52.600152418190007 ], [ 5.023981696158596, 52.600242886150653 ], [ 5.024127384263965, 52.600113610304149 ], [ 5.024062657371921, 52.599952275229391 ], [ 5.024419407384547, 52.599986964264112 ], [ 5.024583614377467, 52.599762415188586 ], [ 5.022817068368714, 52.598150294359755 ], [ 5.022533567143542, 52.597636136936408 ], [ 5.021672585841366, 52.597121845258044 ], [ 5.020931169016532, 52.596117915715496 ], [ 5.020420981516819, 52.595875204958993 ], [ 5.020455321589327, 52.595471170571656 ], [ 5.021327513071796, 52.595221069760072 ], [ 5.021440334135797, 52.59481021940303 ], [ 5.021287498904645, 52.594225639294699 ], [ 5.023720043729415, 52.591659964880201 ], [ 5.023706219403015, 52.591437966967824 ], [ 5.023328798251949, 52.591314340154476 ], [ 5.02405178383575, 52.590326359143248 ], [ 5.025236728572252, 52.589717496131001 ], [ 5.026832264365085, 52.587704492056773 ], [ 5.02725986891172, 52.586491324132709 ], [ 5.028677523649722, 52.585245430831492 ], [ 5.028556348563573, 52.584468446533002 ], [ 5.027800804964627, 52.583395210639551 ], [ 5.028889486773547, 52.582707094347946 ], [ 5.029620754534622, 52.581839110861367 ], [ 5.029759890696313, 52.581109229241996 ], [ 5.029214150648122, 52.580662893287268 ], [ 5.030172782975448, 52.579224085479581 ], [ 5.030887961827841, 52.577297037278058 ], [ 5.031521824254892, 52.576287125831257 ], [ 5.031734611419646, 52.575290111944639 ], [ 5.032672579355719, 52.573690108633983 ], [ 5.032555467344186, 52.57321181106731 ], [ 5.031401413912605, 52.571578505495211 ], [ 5.031312495717859, 52.570493471561953 ], [ 5.031090777231599, 52.570310766370014 ], [ 5.030850927436391, 52.568999162500418 ], [ 5.03086881603272, 52.568314720959847 ], [ 5.03104695465824, 52.567883043937663 ], [ 5.031423323564487, 52.567338460755138 ], [ 5.032184135663104, 52.566869494509746 ], [ 5.033144077059853, 52.565912016837856 ], [ 5.034402917669262, 52.565333499442467 ], [ 5.034715378631408, 52.565013473803958 ], [ 5.037374937732172, 52.563915176067972 ], [ 5.039686812334945, 52.562590206346577 ], [ 5.042359502208217, 52.561351682357049 ], [ 5.042748769575733, 52.561022255437443 ], [ 5.042969792318978, 52.560410542363925 ], [ 5.043160240360398, 52.558029377099643 ], [ 5.045016654605698, 52.556416435091229 ], [ 5.045792724849343, 52.555308743600655 ], [ 5.049051604024235, 52.551963739136873 ], [ 5.050925027199987, 52.549639218593953 ], [ 5.05338442273226, 52.546018772704194 ], [ 5.054837891848409, 52.544727820211556 ], [ 5.054053279990433, 52.541511981169904 ], [ 5.054028478341426, 52.540489133234004 ], [ 5.054887715276544, 52.538459593147181 ], [ 5.056202983013622, 52.537729720442307 ], [ 5.057731718144411, 52.537258476684286 ], [ 5.060583101826565, 52.532626418472248 ], [ 5.061610636368994, 52.531673148755175 ], [ 5.062763745536185, 52.529975330960262 ], [ 5.064765127248505, 52.529128944647084 ], [ 5.065550251653369, 52.527984904161102 ], [ 5.065516022803582, 52.527653336881521 ], [ 5.065167203641161, 52.527337172157132 ], [ 5.06594858890722, 52.52648792199971 ], [ 5.065658883763643, 52.525724379443943 ], [ 5.065634991540971, 52.524994273712785 ], [ 5.066480512032455, 52.522950613234869 ], [ 5.067366991712792, 52.522210705751476 ], [ 5.069573255712146, 52.521342777124403 ], [ 5.070186413547424, 52.520813170412261 ], [ 5.070529220008383, 52.519724078862467 ], [ 5.071601333755145, 52.519024061811905 ], [ 5.072277039044711, 52.518909066580278 ], [ 5.073097295506985, 52.51931753685794 ], [ 5.073870842946126, 52.519470197387342 ], [ 5.074898414002858, 52.519247538416067 ], [ 5.076323309983552, 52.519308587321085 ], [ 5.076284049637275, 52.519080518236301 ], [ 5.075943149038482, 52.519063365334532 ], [ 5.075056809620666, 52.518221044139132 ], [ 5.074447241335607, 52.517976322742939 ], [ 5.07468323373951, 52.517225748103613 ], [ 5.074310376487372, 52.51662041969368 ], [ 5.074325191944857, 52.516018872511182 ], [ 5.074918295585877, 52.515169057432821 ], [ 5.078919768462162, 52.51391161193515 ], [ 5.080705463577261, 52.513114022282025 ], [ 5.081756567733975, 52.511235579795702 ], [ 5.082774505882868, 52.508811841373991 ], [ 5.083516045283017, 52.507635716014633 ], [ 5.08367850608573, 52.506931117681184 ], [ 5.085861682995734, 52.504028562107756 ], [ 5.085423970588092, 52.503212196608253 ], [ 5.081004198446258, 52.499618163654745 ], [ 5.07803520591739, 52.495483542626076 ], [ 5.078433541169198, 52.494775234459972 ], [ 5.078426799816056, 52.494407870027885 ], [ 5.077778744212877, 52.493504663616932 ], [ 5.076866986935571, 52.492803295767089 ], [ 5.077026963537371, 52.492487302394359 ], [ 5.076755130865419, 52.492497486780323 ], [ 5.076443637672142, 52.492886493788127 ], [ 5.077650058883674, 52.493911371864399 ], [ 5.076876504316794, 52.494229772917059 ], [ 5.075964779746827, 52.493694507761873 ], [ 5.075434809379153, 52.492916155009155 ], [ 5.07368897362645, 52.492482591361785 ], [ 5.073914894722075, 52.492131316034971 ], [ 5.076270091025008, 52.492735645715129 ], [ 5.076486711509891, 52.49259470967035 ], [ 5.076457345132878, 52.492456984075552 ], [ 5.073784388085866, 52.491758691533398 ], [ 5.073550915585987, 52.492010628502612 ], [ 5.071925892753112, 52.491856187728359 ], [ 5.071695099568103, 52.490899561807836 ], [ 5.070142254458485, 52.489681859792398 ], [ 5.069561448098099, 52.489479152891263 ], [ 5.067527390553082, 52.489543971147512 ], [ 5.067426379686853, 52.489334772867913 ], [ 5.067186953679345, 52.48930357027092 ], [ 5.067165972686255, 52.489594038635076 ], [ 5.065736532226756, 52.489959824822378 ], [ 5.065148340907313, 52.490643968795943 ], [ 5.064110730788414, 52.490524187172092 ], [ 5.063882296795412, 52.49103320827043 ], [ 5.06372488007914, 52.491069470828933 ], [ 5.064125200662564, 52.490163788930197 ], [ 5.06312871455815, 52.488590740300246 ], [ 5.062662382003799, 52.488172981876076 ], [ 5.061636533558262, 52.488205480908682 ], [ 5.06148002180412, 52.488054836434834 ], [ 5.061565695426911, 52.48797597412873 ], [ 5.064769934608019, 52.486977827023807 ], [ 5.066843495319493, 52.488951380614857 ], [ 5.067100395451633, 52.488981328158729 ], [ 5.067160463998461, 52.488797593596765 ], [ 5.064829994796634, 52.486644857849143 ], [ 5.064472979966009, 52.486643572761047 ], [ 5.062455862935106, 52.487436458895331 ], [ 5.06200433649107, 52.487436068769171 ], [ 5.061278940454625, 52.487730472476798 ], [ 5.060710364228107, 52.487349161480878 ], [ 5.061183849146575, 52.487122564078525 ], [ 5.061189523641148, 52.486939671731697 ], [ 5.060600685971027, 52.487100661289944 ], [ 5.060029938201314, 52.486593135728242 ], [ 5.060089548150224, 52.486465482729578 ], [ 5.060515663164959, 52.486489288704668 ], [ 5.060553708984099, 52.486279370899837 ], [ 5.060031209270061, 52.486202807726372 ], [ 5.0597522887043, 52.486325041703942 ], [ 5.059375414856698, 52.484778419337964 ], [ 5.059681658875216, 52.484377348551597 ], [ 5.059708429893734, 52.484044987588625 ], [ 5.059206860456622, 52.483562929544831 ], [ 5.05906213905323, 52.483147324075304 ], [ 5.059163712089008, 52.48179018063275 ], [ 5.059434114768832, 52.480132086008254 ], [ 5.060081413112338, 52.478970724052083 ], [ 5.060654200379721, 52.476764156978433 ], [ 5.061635940153645, 52.476030154920359 ], [ 5.063810416760386, 52.474936000728988 ], [ 5.064841254629791, 52.474639571157205 ], [ 5.065489844331958, 52.474021025020903 ], [ 5.066263605134051, 52.472820990598365 ], [ 5.067722115526099, 52.472375930025542 ], [ 5.067820742354885, 52.472119317220297 ], [ 5.067451098247999, 52.471730230099531 ], [ 5.067551227514046, 52.471605834334831 ], [ 5.067825712323664, 52.471420337837927 ], [ 5.068468565549311, 52.471348797816269 ], [ 5.069187058040648, 52.470819269075903 ], [ 5.069110032274367, 52.470562455293084 ], [ 5.068072002492665, 52.469993234684225 ], [ 5.068643261580533, 52.468997461831115 ], [ 5.06853025252486, 52.468683325773924 ], [ 5.065590253499518, 52.467978784498619 ], [ 5.061900366771562, 52.467605067214862 ], [ 5.057823358391242, 52.467826993688526 ], [ 5.053166490533515, 52.468616069016655 ], [ 5.051074126224187, 52.469232790179611 ], [ 5.041645425752005, 52.46580256361743 ], [ 5.041456752907595, 52.465402965784712 ], [ 5.040454239568717, 52.465549374549546 ], [ 5.040315304087084, 52.465438018846271 ], [ 5.039863597430822, 52.465631637181275 ], [ 5.039102946706914, 52.464897483996964 ], [ 5.038682887435955, 52.464972998602263 ], [ 5.038752903517478, 52.465661419083318 ], [ 5.038556155411766, 52.465723509457611 ], [ 5.038577406646327, 52.466045232339454 ], [ 5.038118366607307, 52.466226123516897 ], [ 5.03527830900862, 52.46698005541645 ], [ 5.034221980925679, 52.46690888587829 ], [ 5.033599905272626, 52.467286597856841 ], [ 5.033310087404946, 52.467125043353278 ], [ 5.033302641814545, 52.466807219933138 ], [ 5.033611320374594, 52.466176951914242 ], [ 5.033206124255222, 52.465549479392784 ], [ 5.033180307083639, 52.465032926272606 ], [ 5.033918897381985, 52.464722119669339 ], [ 5.034274199816323, 52.464290399481236 ], [ 5.037742512002857, 52.464183132745958 ], [ 5.038737254482589, 52.463737823964699 ], [ 5.038838694745815, 52.463377238802252 ], [ 5.038393122323466, 52.463129009314223 ], [ 5.037686931946796, 52.463350908290728 ], [ 5.036621765393922, 52.46312360525981 ], [ 5.038415264016322, 52.461159969095775 ], [ 5.038201175698861, 52.460906717146379 ], [ 5.036593675426461, 52.462587373294554 ], [ 5.035256202800205, 52.463425981675655 ], [ 5.034744883711395, 52.463506281257551 ], [ 5.035379118663672, 52.463293402210851 ], [ 5.035769439019939, 52.462965357777307 ], [ 5.037599186918128, 52.461066682021411 ], [ 5.0376591870953, 52.460854720452041 ], [ 5.037404691968967, 52.460407942682707 ], [ 5.038809810452861, 52.459809066663126 ], [ 5.039080203626884, 52.459326573300487 ], [ 5.039368115320029, 52.458011763424089 ], [ 5.039566239341477, 52.458270091762024 ], [ 5.039387279135696, 52.458599402514466 ], [ 5.039495021079476, 52.458720388022648 ], [ 5.039349409728818, 52.459508231785435 ], [ 5.038655751555865, 52.460546036525969 ], [ 5.03992455516139, 52.460970056729984 ], [ 5.040398623767858, 52.460241573425613 ], [ 5.041553303643527, 52.460318836131052 ], [ 5.041791871392873, 52.460213699877677 ], [ 5.040752099687459, 52.459060760594006 ], [ 5.040933816948258, 52.458463640170379 ], [ 5.041439215950687, 52.45831072015558 ], [ 5.041415221683105, 52.45810074437054 ], [ 5.043427569357765, 52.457704304563855 ], [ 5.045008636067942, 52.45934764910308 ], [ 5.045607562033767, 52.460239531670823 ], [ 5.045300229612756, 52.460400194396065 ], [ 5.045293657568658, 52.460585674516537 ], [ 5.046005198789413, 52.461253831159048 ], [ 5.049227201469626, 52.462860540110754 ], [ 5.053479434606587, 52.462364453914752 ], [ 5.054316514879136, 52.462055881123668 ], [ 5.05503654443563, 52.46142374493926 ], [ 5.055164492751516, 52.461045932436562 ], [ 5.054907976046571, 52.460503114478968 ], [ 5.053650927656644, 52.459176964996352 ], [ 5.053304703699095, 52.459052390534453 ], [ 5.053337982737347, 52.458904665943614 ], [ 5.052690046490572, 52.458177937893545 ], [ 5.052089070002325, 52.457814350389143 ], [ 5.051852342919196, 52.457407169025473 ], [ 5.051056399236056, 52.456772322873235 ], [ 5.051205507620804, 52.456398409087271 ], [ 5.051109777130116, 52.456196635659055 ], [ 5.05074136514749, 52.455871024987296 ], [ 5.05025256077525, 52.4558065799107 ], [ 5.049337663729659, 52.455186585302442 ], [ 5.048509638757809, 52.455010820092497 ], [ 5.048597931488869, 52.454226171773001 ], [ 5.048261284324412, 52.453827347009643 ], [ 5.048396336488569, 52.453482174011057 ], [ 5.048119754769821, 52.452917785270053 ], [ 5.048602107785699, 52.452258162808249 ], [ 5.048724651909979, 52.451235046951702 ], [ 5.048092878043572, 52.450232386297998 ], [ 5.048180716324417, 52.449667272928522 ], [ 5.047653148981766, 52.448631491538364 ], [ 5.048237563276504, 52.447787220255471 ], [ 5.049206627360378, 52.447385297572247 ], [ 5.049533217781431, 52.446737671572798 ], [ 5.04965623370983, 52.445799382080303 ], [ 5.050408852932181, 52.444959255348486 ], [ 5.048960718313366, 52.443323802264445 ], [ 5.048973051162535, 52.443108855363441 ], [ 5.048707628920281, 52.443081885800346 ], [ 5.048049006919734, 52.44222633875841 ], [ 5.048218240841559, 52.441920174859902 ], [ 5.048140207139658, 52.441551872807295 ], [ 5.048545338994721, 52.441446425735357 ], [ 5.048772248776044, 52.441186803196821 ], [ 5.048625150839208, 52.440605480252813 ], [ 5.04863989558413, 52.440303501590719 ], [ 5.048893617184532, 52.440051250389658 ], [ 5.048805218820857, 52.439827987178866 ], [ 5.050141182888379, 52.439256745092642 ], [ 5.050979875678686, 52.439361783405268 ], [ 5.053934866605172, 52.439078327062944 ], [ 5.055016143982562, 52.439235817357954 ], [ 5.055608387472887, 52.438903379241907 ], [ 5.056396170125466, 52.43894890848955 ], [ 5.057731420030007, 52.439307257769975 ], [ 5.058193057245433, 52.438796967342256 ], [ 5.058698685504176, 52.438671315697007 ], [ 5.058638454359999, 52.43829829367084 ], [ 5.058912060639011, 52.43816751206343 ], [ 5.061192072146778, 52.437725427784883 ], [ 5.063444159847056, 52.437624925126208 ], [ 5.063840377568635, 52.437424924697368 ], [ 5.065023904125733, 52.437542963324866 ], [ 5.065266469109972, 52.438405703352061 ], [ 5.065786999697915, 52.438765098064515 ], [ 5.067709737016577, 52.439003506060843 ], [ 5.068351071402564, 52.438924677687339 ], [ 5.069341764096806, 52.438332132572974 ], [ 5.070896994422812, 52.438339777236308 ], [ 5.072455750225972, 52.437361979862573 ], [ 5.073537955414174, 52.437590913203103 ], [ 5.075981849174471, 52.43738223515026 ], [ 5.076846975585983, 52.437172659706626 ], [ 5.077839672620771, 52.436678298983416 ], [ 5.080530819632251, 52.436629372864452 ], [ 5.086645032034928, 52.437187500809316 ], [ 5.087105882766195, 52.437019523963691 ], [ 5.087398820358287, 52.436383526085159 ], [ 5.086784808122176, 52.435478352075378 ], [ 5.087350860206837, 52.435105283848102 ], [ 5.088365212544767, 52.434928659285617 ], [ 5.088876566834178, 52.434994119852291 ], [ 5.091225805564982, 52.437445595231665 ], [ 5.092548593028472, 52.439356123635761 ], [ 5.093290717885045, 52.441295127219007 ], [ 5.094295045017024, 52.448577416584591 ], [ 5.093644997962703, 52.448799287559723 ], [ 5.092857651177229, 52.450417901493353 ], [ 5.0925417778743, 52.451694012643088 ], [ 5.09447594921609, 52.453178258176685 ], [ 5.094617052601455, 52.454218108755555 ], [ 5.098677646610359, 52.457296025810678 ], [ 5.099137627942266, 52.458209253994838 ], [ 5.098980124432286, 52.458520644842835 ], [ 5.099198683140405, 52.458845593758696 ], [ 5.099979725534704, 52.458812914938711 ], [ 5.101428835646767, 52.462060275967993 ], [ 5.100447336903007, 52.464004788264745 ], [ 5.100455055595352, 52.464322005040934 ], [ 5.102640150963863, 52.466784885371787 ], [ 5.093974664874091, 52.488427339531974 ], [ 5.09419259001497, 52.488738813621367 ], [ 5.09462153370364, 52.488599304628977 ], [ 5.096064213238959, 52.485376450816489 ], [ 5.102680050684484, 52.468841712437829 ], [ 5.103985253227433, 52.467790597810563 ], [ 5.104932830593555, 52.467379589133081 ], [ 5.106145080329155, 52.467635768823875 ], [ 5.106735615186309, 52.467542410020549 ], [ 5.108824790284536, 52.465521346357335 ], [ 5.112070606908617, 52.463889673185626 ], [ 5.112661173649349, 52.463086610289629 ], [ 5.112638422924432, 52.462495495206745 ], [ 5.11367926063622, 52.461887085002878 ], [ 5.118902767985873, 52.461816071071638 ], [ 5.132068880193557, 52.4631973433087 ], [ 5.134883140577873, 52.462956162236928 ], [ 5.135151840069231, 52.463060062927227 ], [ 5.136569768051521, 52.462493701826133 ], [ 5.137283291886576, 52.462011929621035 ], [ 5.137672696692984, 52.46126543784063 ], [ 5.13746413928746, 52.460663037288903 ], [ 5.138710147696716, 52.460047951718451 ], [ 5.139325651322437, 52.460022400354696 ], [ 5.139464824513353, 52.459821764321788 ], [ 5.139390528302381, 52.459478017863276 ], [ 5.139295862536479, 52.459338684117235 ], [ 5.138656290982779, 52.459379989870335 ], [ 5.137929197158582, 52.459163231975936 ], [ 5.137821844453232, 52.459380730661508 ], [ 5.138497683982406, 52.459622891218544 ], [ 5.138379694771596, 52.45974488326646 ], [ 5.137589818590968, 52.460113106306999 ], [ 5.13656020252456, 52.460200968180907 ], [ 5.131164393208937, 52.459535125992254 ], [ 5.130246701079591, 52.458904771285916 ], [ 5.129174164460705, 52.45875096640502 ], [ 5.125642290440432, 52.457602926081798 ], [ 5.121647794324709, 52.455443055592056 ], [ 5.117593768783617, 52.454947587756287 ], [ 5.116714734040506, 52.455034523036609 ], [ 5.114530733258502, 52.454784677778932 ], [ 5.1111290782792, 52.453954467633459 ], [ 5.110190498247877, 52.453308876545456 ], [ 5.107927913289636, 52.451078579323806 ], [ 5.106204807070416, 52.450097524228589 ], [ 5.099147810966833, 52.450170441452826 ], [ 5.097005455549803, 52.449154505354805 ], [ 5.096271618317814, 52.448647584656328 ], [ 5.095083970974211, 52.448563951238327 ], [ 5.093968009657299, 52.440985183613016 ], [ 5.093168712733454, 52.439019638072473 ], [ 5.091998766928826, 52.437302401870248 ], [ 5.089273275176397, 52.434224421243741 ], [ 5.086807854149169, 52.432006124578841 ], [ 5.086306538812421, 52.432017294483103 ], [ 5.086260501973889, 52.432344192756396 ], [ 5.088066253904917, 52.434179109318727 ], [ 5.085817483161284, 52.434911275063435 ], [ 5.083381590034994, 52.433085673870899 ], [ 5.0831020651822, 52.432591763316928 ], [ 5.08310054511788, 52.4322083190713 ], [ 5.081752773827338, 52.430974313552362 ], [ 5.080858391613073, 52.430595514237453 ], [ 5.079679275574424, 52.430617912159313 ], [ 5.079399533149073, 52.430269011716966 ], [ 5.076753977705602, 52.429026397715745 ], [ 5.076342418154525, 52.428690757091189 ], [ 5.076010679114288, 52.428119505077234 ], [ 5.076914499737574, 52.427799796468975 ], [ 5.076876576388844, 52.426884622189895 ], [ 5.076636305011222, 52.426936917673096 ], [ 5.076610529007589, 52.427532425025284 ], [ 5.075376813047204, 52.427761679423107 ], [ 5.075507863488371, 52.428497928716837 ], [ 5.074930125278529, 52.42861740580922 ], [ 5.074472729459536, 52.427921507892663 ], [ 5.074703996646921, 52.427775686303526 ], [ 5.074427993452178, 52.427331883874757 ], [ 5.073927647726052, 52.427312923670002 ], [ 5.076147763737631, 52.426765193490596 ], [ 5.076077732002538, 52.426534609447017 ], [ 5.075797486045482, 52.426403465455529 ], [ 5.075168868762978, 52.426476995477891 ], [ 5.075087405967904, 52.426099650616663 ], [ 5.074159113102698, 52.424661929105746 ], [ 5.075333446746294, 52.424406805332218 ], [ 5.075427397815514, 52.424204860826201 ], [ 5.07521084839299, 52.424124999120572 ], [ 5.074103884596584, 52.42434925266241 ], [ 5.073138115295615, 52.42401043253178 ], [ 5.073300189271654, 52.423420734525159 ], [ 5.073183817460591, 52.42287379979809 ], [ 5.073417756388266, 52.42194879494604 ], [ 5.073473856389988, 52.420976462099837 ], [ 5.073347420615131, 52.420527507809062 ], [ 5.072052277676538, 52.419378240606285 ], [ 5.068765058333878, 52.417332344414511 ], [ 5.068362537878712, 52.416544091281608 ], [ 5.065407744089569, 52.417339332479017 ], [ 5.063644936395762, 52.416524866064485 ], [ 5.062550720859458, 52.416273464929148 ], [ 5.057745370692163, 52.416637151439602 ], [ 5.052503732200053, 52.415639412961511 ], [ 5.049186940145391, 52.415230478395976 ], [ 5.04261577533529, 52.41708143227504 ], [ 5.039407661731309, 52.417480575909501 ], [ 5.036894284572509, 52.41818675690066 ], [ 5.035471621547246, 52.418373951345217 ], [ 5.035011952410006, 52.418296673361333 ], [ 5.034341056944938, 52.417891162747452 ], [ 5.033984951405819, 52.417238714507945 ], [ 5.033416358084207, 52.416772038091622 ], [ 5.032457133584231, 52.416372431127236 ], [ 5.030160556290704, 52.415776827756453 ], [ 5.030040886808433, 52.417230623088443 ], [ 5.029062696142858, 52.418914324386805 ], [ 5.028405588914108, 52.419503998344211 ], [ 5.02694609070248, 52.420068076589978 ], [ 5.023582236723561, 52.420363486863451 ], [ 5.021599057898657, 52.421321348142598 ], [ 5.021085606108804, 52.421140372773685 ], [ 5.020262318170817, 52.419985068751643 ], [ 5.018206356558844, 52.419165450346568 ], [ 5.000200336850352, 52.425597884776955 ], [ 4.991306221866984, 52.425593665094475 ], [ 4.991154596942243, 52.425480642069552 ], [ 4.991064762148421, 52.424696970019411 ], [ 4.989885376905409, 52.425335157584882 ], [ 4.986312058661262, 52.428543634113026 ], [ 4.976171646184548, 52.424214363056343 ], [ 4.975938843174216, 52.424362149541274 ], [ 4.974207816182362, 52.423721977107249 ], [ 4.971733337093664, 52.423189954514143 ], [ 4.9558858575591, 52.422412421050048 ], [ 4.953273156937061, 52.42192607317093 ], [ 4.951932818305115, 52.423464941673267 ], [ 4.951275086746681, 52.423222285934642 ], [ 4.95153329054563, 52.422632701850233 ], [ 4.951424690758087, 52.422027290492856 ], [ 4.949703007636213, 52.422024965573726 ], [ 4.948499656994085, 52.421531370602281 ], [ 4.947712642344466, 52.421627313951319 ], [ 4.94488720798993, 52.415364700474562 ], [ 4.944019700254288, 52.414429624513851 ], [ 4.942545597076363, 52.413935783341714 ], [ 4.935124239181258, 52.412138159301321 ], [ 4.930747042432255, 52.411721629104854 ], [ 4.930427969757162, 52.412171317801281 ], [ 4.920478114272859, 52.416705730732765 ], [ 4.915765263835327, 52.418643272853657 ], [ 4.914702395848181, 52.418775093115912 ], [ 4.914571579996316, 52.418593836237477 ], [ 4.913943716662603, 52.418621831620946 ], [ 4.908108590288413, 52.42094435312103 ], [ 4.908129685599906, 52.421212665412284 ], [ 4.907563720513266, 52.421342057070547 ], [ 4.903686381733258, 52.423091049400348 ], [ 4.900552018072904, 52.424137066710159 ], [ 4.898645691675247, 52.424580078961867 ], [ 4.898712140049211, 52.427838015898701 ], [ 4.899181024712607, 52.431141733578094 ], [ 4.899184839654123, 52.432754615137966 ], [ 4.898769876858893, 52.433367866930737 ], [ 4.898425728416905, 52.433418008134829 ], [ 4.898602599337575, 52.433750360482108 ], [ 4.89793293895195, 52.434141686083095 ], [ 4.89710328153001, 52.434332538403361 ], [ 4.89686943959572, 52.434933926192578 ], [ 4.895776444328872, 52.435881077313425 ], [ 4.894767692151984, 52.436498259196362 ], [ 4.894352481360811, 52.437183139510694 ], [ 4.894544172139099, 52.437608925085691 ], [ 4.895960074381249, 52.438898881741984 ], [ 4.896211864235437, 52.439623603106938 ], [ 4.896622889417618, 52.440080807231702 ], [ 4.896091894201231, 52.440723688657087 ], [ 4.895999176912581, 52.441393057395949 ], [ 4.896463421944036, 52.443922690941072 ], [ 4.896208176842646, 52.444603151231192 ], [ 4.896376922650426, 52.446250747096869 ], [ 4.897514447442765, 52.446387398871074 ], [ 4.897301447826581, 52.447440152206624 ], [ 4.897815908953701, 52.448381640916764 ], [ 4.897278116409847, 52.449650078746338 ], [ 4.89688982867142, 52.449744429205005 ], [ 4.895055237588288, 52.449595285951617 ], [ 4.894796199637123, 52.450786149226353 ], [ 4.893559822391129, 52.452815537776459 ], [ 4.892984475927622, 52.454077727329938 ], [ 4.892934830543311, 52.455509195810514 ], [ 4.893226816692255, 52.457314894514049 ], [ 4.894393120465947, 52.458707402481053 ], [ 4.895059018841516, 52.458865389474397 ], [ 4.895417727642709, 52.458709192513957 ], [ 4.896464173780148, 52.459129767157037 ], [ 4.897880574711986, 52.45911392473176 ], [ 4.897881906647489, 52.460180905399653 ], [ 4.89837078246784, 52.460257155133846 ], [ 4.899198891293605, 52.461114774162489 ], [ 4.899460309651258, 52.461116931705504 ], [ 4.899701493178759, 52.461347987911658 ], [ 4.898616671536566, 52.461623322247462 ], [ 4.898062719575894, 52.461085654508366 ], [ 4.895922135387358, 52.461167325168809 ], [ 4.896009571603197, 52.461772280408283 ], [ 4.896741261106238, 52.462703452555679 ], [ 4.897096186759611, 52.463870248688124 ], [ 4.898138092871181, 52.464387493129252 ], [ 4.898741529973518, 52.465111464698538 ], [ 4.898738135646065, 52.465792399776177 ], [ 4.899570898484081, 52.466466233122844 ], [ 4.899473669125426, 52.466881368422179 ], [ 4.899648157146561, 52.467240546594688 ], [ 4.901305228545578, 52.468934838544037 ], [ 4.903267541315939, 52.472482152515553 ], [ 4.903780927499332, 52.473106928202938 ], [ 4.904198840853249, 52.474022778209701 ], [ 4.905215804742975, 52.477728949769016 ], [ 4.90639063680002, 52.479887779694607 ], [ 4.90761244706342, 52.480930492431312 ], [ 4.908015368414946, 52.483056776812248 ], [ 4.910065247060358, 52.48425259144058 ], [ 4.915254543555632, 52.486181797916515 ], [ 4.916075104346953, 52.486630757385782 ], [ 4.917453513283693, 52.487765658001443 ], [ 4.918650015233958, 52.488381016332823 ], [ 4.920660098410892, 52.490576097440695 ], [ 4.922842268597568, 52.491939923218496 ], [ 4.923718747990223, 52.493247262050325 ], [ 4.923912517450121, 52.496954338725978 ], [ 4.92448647330464, 52.497863003013947 ], [ 4.925524623872185, 52.499037787930327 ], [ 4.926128621682919, 52.500260145980569 ], [ 4.926377923990545, 52.504262297194686 ], [ 4.925895262941456, 52.505068893012016 ], [ 4.925296666374568, 52.505509931933084 ], [ 4.929223586784231, 52.507304000313923 ], [ 4.929201790687281, 52.507496462734331 ], [ 4.933496882156699, 52.509707464338348 ], [ 4.933970927916886, 52.510383895943612 ], [ 4.934595731103336, 52.510368529228558 ], [ 4.934275807531035, 52.511532673963025 ], [ 4.928535127734615, 52.510707120126831 ], [ 4.922582399519452, 52.511313928619032 ], [ 4.919778554094186, 52.512149868004798 ], [ 4.917198491531335, 52.513429302535414 ], [ 4.915057982868958, 52.514740510251151 ], [ 4.912670831108035, 52.515485425027343 ], [ 4.910401097476231, 52.516693380920799 ], [ 4.908594913084838, 52.517040872714773 ], [ 4.908614563146128, 52.51729257551343 ], [ 4.90281308359715, 52.517951940766245 ], [ 4.893689364790244, 52.517736375620281 ], [ 4.889079542330924, 52.518276238143741 ], [ 4.884017279855745, 52.519226586023159 ], [ 4.87628933194791, 52.519984558826586 ], [ 4.874950592846021, 52.520083034471405 ], [ 4.874786011262827, 52.519930050292992 ], [ 4.871663079913378, 52.520670848178426 ], [ 4.867682656176384, 52.522051937194497 ], [ 4.867685299228912, 52.522288144735853 ], [ 4.865692590514811, 52.523180949143509 ], [ 4.865469034114018, 52.523048605497806 ], [ 4.863643657074863, 52.523803384210169 ], [ 4.859360304235864, 52.524936324570589 ], [ 4.857327791981502, 52.525112719502431 ], [ 4.851497149699603, 52.524761347068186 ], [ 4.84792651988606, 52.525209867140482 ], [ 4.843077301721424, 52.526785534157845 ], [ 4.840831968865231, 52.528321967213536 ], [ 4.839273570092907, 52.529621116703645 ], [ 4.837420324589639, 52.530556234879356 ], [ 4.836955988707696, 52.531361987359652 ], [ 4.836516644558952, 52.532761969360223 ], [ 4.83587969550746, 52.533807818126995 ], [ 4.835247847947804, 52.537319114848117 ], [ 4.835013001880445, 52.537834851672386 ], [ 4.833813052880934, 52.538937398651456 ], [ 4.835332679845664, 52.540635336580294 ] ], [ [ 5.099496660784404, 52.458443703921574 ], [ 5.099594873868505, 52.458133106302903 ], [ 5.099237206937313, 52.457443854321944 ], [ 5.100155757532482, 52.457167694544729 ], [ 5.1011625891895, 52.458833847159539 ], [ 5.100853800111365, 52.458906022087739 ], [ 5.10044373201256, 52.458329382712208 ], [ 5.099393812451047, 52.458536398993047 ], [ 5.099496660784404, 52.458443703921574 ] ], [ [ 5.023135353949194, 52.599664926791135 ], [ 5.022949106136329, 52.599616418605862 ], [ 5.019230930784515, 52.595886410005221 ], [ 5.023265595858462, 52.599703320187452 ], [ 5.023135353949194, 52.599664926791135 ] ], [ [ 5.018484859894585, 52.595183945634417 ], [ 5.017817907710849, 52.594995699289356 ], [ 5.017806492490067, 52.594868521485225 ], [ 5.01816125027414, 52.594942052959389 ], [ 5.018484859894585, 52.595183945634417 ] ], [ [ 5.075608781287531, 52.519065132688269 ], [ 5.075043192715735, 52.518966658169887 ], [ 5.072959220715225, 52.517612657568968 ], [ 5.075262011119355, 52.518785367223003 ], [ 5.075608781287531, 52.519065132688269 ] ], [ [ 5.06210771439962, 52.491075656955999 ], [ 5.062073459753774, 52.491074724203258 ], [ 5.062038165923184, 52.490901138762425 ], [ 5.062181202954307, 52.490928112951146 ], [ 5.06210771439962, 52.491075656955999 ] ], [ [ 5.060682291469049, 52.490647276049543 ], [ 5.060578325775261, 52.490856067954539 ], [ 5.060394171140537, 52.490829440956453 ], [ 5.060338777926876, 52.490580651445462 ], [ 5.060682291469049, 52.490647276049543 ] ] ] } }
]
}
