{
"type": "FeatureCollection",
"name": "SWVPO2802",
"crs": { "type": "name", "properties": { "name": "urn:ogc:def:crs:OGC:1.3:CRS84" } },
"features": [
{ "type": "Feature", "properties": { "PO SWV": "PO2802", "strokeColor": "#A9A9A9", "strokeWidth": 2, "fillColor": "#ADD8E6" }, "geometry": { "type": "MultiPolygon", "coordinates": [ [ [ [ 4.555016155284833, 52.062144302856808 ], [ 4.555913761934114, 52.06172316041571 ], [ 4.555983279940634, 52.061512027838589 ], [ 4.556848520820709, 52.061284553319283 ], [ 4.557669904457831, 52.060779384828031 ], [ 4.558438160584369, 52.061328000355985 ], [ 4.558804063764958, 52.061163291940524 ], [ 4.55924114457722, 52.06119926173988 ], [ 4.56508309520677, 52.058440723894144 ], [ 4.564893914451572, 52.058187707349234 ], [ 4.562800391120778, 52.049256800488322 ], [ 4.562927343125658, 52.048841203672033 ], [ 4.562280984735761, 52.046736390039698 ], [ 4.561886143574828, 52.046491126511924 ], [ 4.561087364941748, 52.043302286503412 ], [ 4.560683915912099, 52.04238924038993 ], [ 4.560780495104035, 52.041962256753408 ], [ 4.561466453903203, 52.040925302641043 ], [ 4.561957175241479, 52.040952566791979 ], [ 4.563173321154674, 52.038792690638097 ], [ 4.56335389788071, 52.035823251850751 ], [ 4.560058576404817, 52.033247549916979 ], [ 4.558122913163798, 52.028939492675427 ], [ 4.557977425909873, 52.02626725879648 ], [ 4.558063757984575, 52.025168795047577 ], [ 4.557312566462756, 52.023716067035188 ], [ 4.557399654813593, 52.021460312168074 ], [ 4.557268712372107, 52.020358086162631 ], [ 4.556526663879738, 52.017952957615925 ], [ 4.556500481194155, 52.017177642453724 ], [ 4.556749630416142, 52.016463165503311 ], [ 4.55703515264834, 52.014026510567291 ], [ 4.556221871491012, 52.011913866431136 ], [ 4.555567799815725, 52.011054163664483 ], [ 4.555781698159478, 52.010295468683829 ], [ 4.555740459755472, 52.009784053360903 ], [ 4.554782230869781, 52.005985698496026 ], [ 4.554241631099761, 52.005037426109439 ], [ 4.552266889642563, 52.002503362964212 ], [ 4.552009888302994, 52.001724237777672 ], [ 4.55216350737249, 52.000827559732315 ], [ 4.549820324530565, 51.995825813181945 ], [ 4.547414849144991, 51.994742222853155 ], [ 4.546913575589311, 51.993982443620034 ], [ 4.548234741219678, 51.99258546653413 ], [ 4.546496123814328, 51.991873704534434 ], [ 4.546239655434838, 51.991522871778045 ], [ 4.547308016407011, 51.988683501353776 ], [ 4.548328527723344, 51.984902267424864 ], [ 4.547906920609395, 51.983790344418907 ], [ 4.547984132138865, 51.983376032219823 ], [ 4.549097584016621, 51.982524694337705 ], [ 4.550342846431017, 51.982140188863902 ], [ 4.550855209625158, 51.981778406508397 ], [ 4.551315279887342, 51.98189016702041 ], [ 4.552178449478419, 51.980191171260188 ], [ 4.552243305568687, 51.978869739338577 ], [ 4.553328279171874, 51.978093350676865 ], [ 4.554120658178965, 51.977751841752863 ], [ 4.55418466746836, 51.977541022115908 ], [ 4.553923522162434, 51.976992384789654 ], [ 4.552156918396413, 51.974775637642693 ], [ 4.549472848501821, 51.973088861950508 ], [ 4.545875195651819, 51.972382312244406 ], [ 4.54305958918946, 51.970895913372019 ], [ 4.539745525080509, 51.969753116647574 ], [ 4.537873308844771, 51.969918504080859 ], [ 4.536339722875034, 51.970397380035422 ], [ 4.535779285723439, 51.970358153093137 ], [ 4.535554395026399, 51.970143977117324 ], [ 4.535620751537384, 51.96920842723398 ], [ 4.535357440994439, 51.969181922086875 ], [ 4.535269885015746, 51.968650143636239 ], [ 4.534846117398637, 51.968318804425515 ], [ 4.533686819736821, 51.968024407229422 ], [ 4.531624272212462, 51.967870845137035 ], [ 4.530227006625829, 51.967361359787468 ], [ 4.528732697061332, 51.967119867901907 ], [ 4.528074487261085, 51.966706038630079 ], [ 4.527953274220893, 51.965947781342727 ], [ 4.527510083387545, 51.96561651567086 ], [ 4.523127827425417, 51.963858729732713 ], [ 4.522010791883605, 51.963985469989993 ], [ 4.520752618393654, 51.963729876773634 ], [ 4.519319741558228, 51.962146745872936 ], [ 4.518292252549038, 51.960549033561499 ], [ 4.51393704823338, 51.962746919358459 ], [ 4.513108008214876, 51.96302158088622 ], [ 4.512522142670505, 51.962697417667179 ], [ 4.511742061084885, 51.963085005968601 ], [ 4.511445402832893, 51.962932394004717 ], [ 4.510640325793567, 51.963334458459151 ], [ 4.510788392131589, 51.963506079625617 ], [ 4.510659757649025, 51.963652269789982 ], [ 4.509152244660828, 51.964395383965652 ], [ 4.50882032512727, 51.964239662579431 ], [ 4.506019807775991, 51.965674407125903 ], [ 4.506704726602866, 51.966284163576738 ], [ 4.506684800724873, 51.966436569711355 ], [ 4.495898539018522, 51.971901661564083 ], [ 4.4954050406235, 51.969391449911107 ], [ 4.495289101016197, 51.967498390342996 ], [ 4.486755253191095, 51.971823988295874 ], [ 4.485846889256798, 51.972079968183586 ], [ 4.483403781315848, 51.973323741199629 ], [ 4.482994806926897, 51.973680503610971 ], [ 4.471339999348012, 51.97949548840824 ], [ 4.471995443189663, 51.980027456676545 ], [ 4.472015652588676, 51.980197939620382 ], [ 4.469997779211049, 51.98091315113976 ], [ 4.469492788605323, 51.980423516183464 ], [ 4.468976502193005, 51.9806425915353 ], [ 4.465791987440893, 51.979032405954975 ], [ 4.464081340830472, 51.978397174472811 ], [ 4.463161412375117, 51.977587079433412 ], [ 4.463188766165826, 51.977441231675833 ], [ 4.463848488635628, 51.977121145983148 ], [ 4.461249643034585, 51.974862159422138 ], [ 4.461502506058309, 51.973837468861682 ], [ 4.462100100360216, 51.972708108127499 ], [ 4.461445345050111, 51.972357999622034 ], [ 4.461440516041058, 51.972147016118981 ], [ 4.460890183899848, 51.972083151378101 ], [ 4.460403673086768, 51.97179086315036 ], [ 4.461659133152379, 51.970442445457948 ], [ 4.461920659898284, 51.969579113488855 ], [ 4.460433659977541, 51.969376065132053 ], [ 4.460199161481926, 51.969051543708389 ], [ 4.458456761442241, 51.968666137288025 ], [ 4.458176450033164, 51.96846871479314 ], [ 4.458122288080784, 51.968157812491867 ], [ 4.457393465177939, 51.968404716047026 ], [ 4.456427263074541, 51.96782252210447 ], [ 4.456749623118693, 51.967394095395747 ], [ 4.451288858226039, 51.966057031612948 ], [ 4.45014386713152, 51.96529245680351 ], [ 4.447192854301083, 51.962844912871915 ], [ 4.44677319055469, 51.962826957273499 ], [ 4.43489759639627, 51.97163806096772 ], [ 4.434725938574075, 51.971617195868021 ], [ 4.428113759478754, 51.97671843847781 ], [ 4.426850135487583, 51.976005942988174 ], [ 4.420805060712108, 51.973496500890668 ], [ 4.405454206657159, 51.967295007062539 ], [ 4.404392576842366, 51.967055537427498 ], [ 4.393595608518898, 51.962590415929824 ], [ 4.391805314575769, 51.965005621566618 ], [ 4.390017975175655, 51.964714881577407 ], [ 4.38977302061144, 51.965226198190571 ], [ 4.363478166176394, 51.960965452116206 ], [ 4.36342638169104, 51.960815453645459 ], [ 4.36691778742601, 51.955290373439908 ], [ 4.352954689782012, 51.952250438111271 ], [ 4.344956687643131, 51.94990538320215 ], [ 4.343001919028409, 51.949496766741596 ], [ 4.342199134919627, 51.949076036202108 ], [ 4.341638563268954, 51.949090555060124 ], [ 4.338486584117922, 51.948131673905991 ], [ 4.335473993821888, 51.947076796474867 ], [ 4.33548413421916, 51.946898437870288 ], [ 4.336241865158067, 51.94644775001359 ], [ 4.335350005914689, 51.946056510701723 ], [ 4.330091304588948, 51.944179703532242 ], [ 4.327784226661355, 51.943150820372409 ], [ 4.325968476871831, 51.942557656885683 ], [ 4.325699571258799, 51.942323892119532 ], [ 4.32390254037422, 51.941756424034814 ], [ 4.323021604048829, 51.94271999484431 ], [ 4.322855611828036, 51.943601517916456 ], [ 4.317411980370718, 51.953055511852014 ], [ 4.316294706931584, 51.955399857404089 ], [ 4.312529543615816, 51.961379371371656 ], [ 4.299760444247939, 51.959610627271246 ], [ 4.29713859566253, 51.957576211172722 ], [ 4.282502700711075, 51.969763790584288 ], [ 4.284114706910247, 51.970510501611137 ], [ 4.285115091005951, 51.96979238721056 ], [ 4.289393052005086, 51.971780342546367 ], [ 4.289421646357798, 51.971941661468854 ], [ 4.287736047393319, 51.973334275553988 ], [ 4.287984450625244, 51.973475602196366 ], [ 4.287912724757263, 51.973641355549269 ], [ 4.295902112342515, 51.977554857893196 ], [ 4.297788302496995, 51.977467581960596 ], [ 4.298396527135854, 51.977609837939326 ], [ 4.302982912539713, 51.979978092937145 ], [ 4.303134927954042, 51.980459500964002 ], [ 4.302509151847659, 51.980528405486659 ], [ 4.302068325944055, 51.981192578377566 ], [ 4.301834867573479, 51.981298548637184 ], [ 4.300023645407748, 51.981032056230717 ], [ 4.299317777426391, 51.981204386166475 ], [ 4.29894037557385, 51.982114621703239 ], [ 4.298670915353531, 51.982230484374952 ], [ 4.29638538507476, 51.981891957930621 ], [ 4.295651832257723, 51.983694587590008 ], [ 4.291978338218236, 51.983082018098656 ], [ 4.290282587099266, 51.987440299131833 ], [ 4.288718430876687, 51.988919069474733 ], [ 4.287487512146336, 51.989102789003958 ], [ 4.284761487203895, 51.986303023157035 ], [ 4.283803800754313, 51.985935590432845 ], [ 4.282960764933652, 51.986475562860797 ], [ 4.282552137126761, 51.986569479334591 ], [ 4.28241327436398, 51.986915083981472 ], [ 4.281439649425178, 51.988019629167276 ], [ 4.280817055722633, 51.988520538781792 ], [ 4.280452923374573, 51.988596761439496 ], [ 4.280367208731472, 51.990436478441445 ], [ 4.273942310702786, 51.992115802599002 ], [ 4.271914678262882, 51.992989544455561 ], [ 4.271101639355718, 51.992364287215572 ], [ 4.269736548958978, 51.99299950267168 ], [ 4.269313308780196, 51.992697540194719 ], [ 4.268082865614947, 51.993484510462444 ], [ 4.267534572574655, 51.993200471195017 ], [ 4.267067915734639, 51.993365965616682 ], [ 4.267334362309821, 51.993641279770152 ], [ 4.265276138634243, 51.995931322746969 ], [ 4.257946439009815, 51.992666861119595 ], [ 4.257830282334464, 51.993129556851926 ], [ 4.258463501749397, 51.993986049036124 ], [ 4.260343958304817, 51.994123962497916 ], [ 4.261731298265038, 51.994515965739211 ], [ 4.272755143795901, 51.999335424762371 ], [ 4.273150833728369, 51.999155698249382 ], [ 4.279613626270709, 52.001960521993666 ], [ 4.291384740826988, 52.007386605005976 ], [ 4.292782588432778, 52.007847569046696 ], [ 4.298705946946876, 52.010655225068824 ], [ 4.298998468649144, 52.010501549117507 ], [ 4.30245493636613, 52.012044197535296 ], [ 4.302579731166109, 52.012191079770851 ], [ 4.302444432041861, 52.01236139558484 ], [ 4.302922820474556, 52.012586196410652 ], [ 4.313760329841545, 52.017193016860581 ], [ 4.319311228351493, 52.019818978688491 ], [ 4.32014575402701, 52.019104455985627 ], [ 4.321524962631206, 52.017385730125866 ], [ 4.322662142187144, 52.016306300911388 ], [ 4.325175919965587, 52.01310080327405 ], [ 4.32588850989911, 52.012570965632626 ], [ 4.342637314386519, 52.020037139318902 ], [ 4.342675787117409, 52.020189640920719 ], [ 4.343513892403961, 52.020572373180876 ], [ 4.343685473524109, 52.020502913723526 ], [ 4.346159784314753, 52.021593872867648 ], [ 4.347479967813316, 52.022357510993764 ], [ 4.34766146498288, 52.022248201899522 ], [ 4.348094081691893, 52.022377432336498 ], [ 4.357637821453394, 52.026687544015147 ], [ 4.359194020698283, 52.025972902157669 ], [ 4.359700692802202, 52.025970310266914 ], [ 4.360985157273277, 52.026557134415434 ], [ 4.362146461787192, 52.027278194454027 ], [ 4.362323431839476, 52.027537463534749 ], [ 4.373479169425029, 52.032480938765552 ], [ 4.379727420145112, 52.026632992459632 ], [ 4.389273088592239, 52.030673851281875 ], [ 4.393702736124325, 52.032687808108925 ], [ 4.394039607802487, 52.033031341198594 ], [ 4.387856929854962, 52.038506849840964 ], [ 4.387435779091162, 52.038746915360576 ], [ 4.386648704012011, 52.038544966151122 ], [ 4.386288474568496, 52.038203448520505 ], [ 4.381284371744981, 52.036037583696285 ], [ 4.381181683713196, 52.0364864285837 ], [ 4.379873852224081, 52.036068587092295 ], [ 4.378726738818699, 52.036990545873685 ], [ 4.37261288249234, 52.041063225856576 ], [ 4.374761320355242, 52.042507573506462 ], [ 4.374767033937681, 52.04268876506827 ], [ 4.374459454583834, 52.04287955034436 ], [ 4.379113438487839, 52.046098301743164 ], [ 4.379544495564804, 52.045927312821483 ], [ 4.381044244334233, 52.04689993425054 ], [ 4.380915898498629, 52.047292154495779 ], [ 4.38235993433604, 52.048266828818505 ], [ 4.382909984198001, 52.047989737853413 ], [ 4.384430324249092, 52.049214748751474 ], [ 4.385549333699961, 52.049826727680269 ], [ 4.385921795424619, 52.049714519422963 ], [ 4.387899861353336, 52.051046264246089 ], [ 4.389717228540404, 52.04987016220187 ], [ 4.391519457551022, 52.051700801758173 ], [ 4.391304798721292, 52.051959281201455 ], [ 4.392596600454118, 52.05303220010223 ], [ 4.393180768170071, 52.052761025994187 ], [ 4.393839655644737, 52.053264891944885 ], [ 4.393779476150825, 52.053444589866572 ], [ 4.394466042161742, 52.053934814267436 ], [ 4.395074050406516, 52.053577490412891 ], [ 4.395105431305182, 52.053324653465666 ], [ 4.39854507616317, 52.051117976092137 ], [ 4.401373573883958, 52.053221942932701 ], [ 4.409097966568559, 52.052416269440805 ], [ 4.40962380445618, 52.052382035035919 ], [ 4.409720892684295, 52.052523526885011 ], [ 4.423018701772689, 52.051504066383352 ], [ 4.425328529174144, 52.051470484504677 ], [ 4.430930883207619, 52.050990565423568 ], [ 4.432573198455365, 52.050605363052448 ], [ 4.450559757997669, 52.049086785673254 ], [ 4.456352970018229, 52.039490451668357 ], [ 4.4569480306977, 52.039558633799608 ], [ 4.457586232528904, 52.038537758576297 ], [ 4.461724105856296, 52.039262308943776 ], [ 4.469049375176356, 52.039984771275762 ], [ 4.470694292000792, 52.040363679022612 ], [ 4.47151312408993, 52.038928830490349 ], [ 4.47189363315592, 52.038925381025606 ], [ 4.472151306580998, 52.038185441030194 ], [ 4.472427082272012, 52.03803304176612 ], [ 4.472717058937943, 52.03808283075405 ], [ 4.474630166194413, 52.034591308848746 ], [ 4.475681284626771, 52.033242756199755 ], [ 4.476698115284629, 52.032451603844756 ], [ 4.476869022625016, 52.032096968220927 ], [ 4.476670363665827, 52.031859752496054 ], [ 4.476869295921788, 52.031621346611729 ], [ 4.47772655407083, 52.031768352964555 ], [ 4.491783519813365, 52.031979751066856 ], [ 4.493438077336191, 52.032315486229749 ], [ 4.495136687570864, 52.03312902222752 ], [ 4.495265923184412, 52.033000198529756 ], [ 4.495369634620995, 52.031807075390809 ], [ 4.50471173613096, 52.031830588936018 ], [ 4.505409463295703, 52.032142593034209 ], [ 4.505768639654002, 52.032047738575855 ], [ 4.507114666702314, 52.032741394945155 ], [ 4.512097198098615, 52.036719210920005 ], [ 4.512441499910249, 52.036664798054538 ], [ 4.512849835618322, 52.03690482381888 ], [ 4.513670467263547, 52.03705904512487 ], [ 4.517308248792305, 52.039770511792518 ], [ 4.517136111479306, 52.040201459253808 ], [ 4.518470857085268, 52.040982094677972 ], [ 4.520617351287672, 52.040457284411872 ], [ 4.521583800079165, 52.041642687590539 ], [ 4.523006044855791, 52.042490962399292 ], [ 4.524457059853479, 52.042602679823212 ], [ 4.52451791803662, 52.042924314312152 ], [ 4.522576113608826, 52.043516825927703 ], [ 4.526727433303542, 52.045882411735825 ], [ 4.531005815718006, 52.047912806552631 ], [ 4.534622894347245, 52.050884191643647 ], [ 4.536076586833284, 52.050631416538351 ], [ 4.536401566293845, 52.050686805844364 ], [ 4.536600207697477, 52.050962930425968 ], [ 4.538012385302065, 52.050727736878677 ], [ 4.537680704622272, 52.049686747101177 ], [ 4.537904291026181, 52.049523864731682 ], [ 4.537722284372675, 52.048495521250445 ], [ 4.537831779598558, 52.04835066489273 ], [ 4.538550249851382, 52.048340856364966 ], [ 4.53978138098037, 52.048606532324314 ], [ 4.541253576111975, 52.048369574133481 ], [ 4.542051640073596, 52.048962173725052 ], [ 4.54369023870697, 52.048832101757633 ], [ 4.546042656542094, 52.048259794470077 ], [ 4.547126095120351, 52.049838697013726 ], [ 4.547685228831761, 52.050296120869007 ], [ 4.547455491175882, 52.050524025009409 ], [ 4.548155507837853, 52.051410803711597 ], [ 4.548901178978444, 52.053170085970805 ], [ 4.548978088261065, 52.054026333127091 ], [ 4.549708433436207, 52.055071607209904 ], [ 4.550530312156985, 52.056136812765715 ], [ 4.550917370832628, 52.056112643624473 ], [ 4.551390999334614, 52.056561299112659 ], [ 4.551314702966616, 52.056736794973204 ], [ 4.552657052343227, 52.057803110464235 ], [ 4.552867930605723, 52.057761438438959 ], [ 4.553836524365043, 52.058392247579057 ], [ 4.553145932022501, 52.059045520719962 ], [ 4.554654909004308, 52.060716544751138 ], [ 4.554853720483579, 52.061313801486442 ], [ 4.55508028643016, 52.061476364300155 ], [ 4.555086161202444, 52.061869686613107 ], [ 4.554925607070022, 52.062006193268701 ], [ 4.555016155284833, 52.062144302856808 ] ] ], [ [ [ 4.495271712423341, 51.967291450422294 ], [ 4.495289912121589, 51.967332172838645 ], [ 4.495373745066206, 51.964924050055316 ], [ 4.495279781771234, 51.966222688858871 ], [ 4.495271712423341, 51.967291450422294 ] ] ] ] } }
]
}
