{
"type": "FeatureCollection",
"name": "SWVPO2816",
"crs": { "type": "name", "properties": { "name": "urn:ogc:def:crs:OGC:1.3:CRS84" } },
"features": [
{ "type": "Feature", "properties": { "PO SWV": "PO2816", "strokeColor": "#A9A9A9", "strokeWidth": 2, "fillColor": "#ADD8E6" }, "geometry": { "type": "Polygon", "coordinates": [ [ [ 4.62799119693075, 51.88946371765725 ], [ 4.628271525489555, 51.889740715086091 ], [ 4.628930767552257, 51.889842937441564 ], [ 4.629968394905904, 51.888647745281105 ], [ 4.633829805918734, 51.889493466889817 ], [ 4.637124399000808, 51.889887581790511 ], [ 4.637804425243215, 51.889839493879158 ], [ 4.637858174565892, 51.889651892627683 ], [ 4.642750285468837, 51.889010845188793 ], [ 4.652965734930694, 51.887873356065491 ], [ 4.656746238555397, 51.888368432443464 ], [ 4.659357404445972, 51.888195648508166 ], [ 4.663631202611756, 51.887528593751234 ], [ 4.663546580617711, 51.88790817617874 ], [ 4.664016212973475, 51.889549118566421 ], [ 4.66816002289525, 51.889685237858664 ], [ 4.673350518417231, 51.890326377056965 ], [ 4.674135818254503, 51.890510164374625 ], [ 4.680648119581054, 51.893101167902209 ], [ 4.692843015636, 51.89526387054287 ], [ 4.699950309660813, 51.896687364955625 ], [ 4.705601984908547, 51.897318322264184 ], [ 4.715805246016171, 51.896049904375026 ], [ 4.721905756212712, 51.897356560642962 ], [ 4.732765301637544, 51.901606337782411 ], [ 4.737946875211862, 51.902805642189286 ], [ 4.74072954964645, 51.904258735480838 ], [ 4.743735002621494, 51.9053092866138 ], [ 4.743114809633387, 51.906877054440429 ], [ 4.744887813348766, 51.907902216762281 ], [ 4.747327889417843, 51.909811533805062 ], [ 4.748578585968389, 51.911717058296816 ], [ 4.749250154177632, 51.91193615307953 ], [ 4.750394128717397, 51.911841278425385 ], [ 4.751229981433052, 51.911971117025324 ], [ 4.753350098057346, 51.913105109988649 ], [ 4.755501890118265, 51.913987234345818 ], [ 4.756589573051267, 51.915248055921836 ], [ 4.757341170785984, 51.915751385746049 ], [ 4.762385490823689, 51.917431442581744 ], [ 4.765992550573427, 51.918882755786676 ], [ 4.76783045993857, 51.919108935058674 ], [ 4.772007303492631, 51.919097860034839 ], [ 4.777540527606679, 51.918411858870734 ], [ 4.777700779642688, 51.917172717476909 ], [ 4.779677716879201, 51.917362255509978 ], [ 4.783335622108748, 51.918002273789583 ], [ 4.793289765887543, 51.920412669587748 ], [ 4.802114986749389, 51.921914518736358 ], [ 4.808527096444281, 51.923688253761924 ], [ 4.811685246934884, 51.924820127264972 ], [ 4.814041235839463, 51.926250632437686 ], [ 4.812820947461012, 51.927360376114208 ], [ 4.813339511277848, 51.928591323060033 ], [ 4.81281284952323, 51.929643210769335 ], [ 4.813012536119975, 51.92991896039026 ], [ 4.813993581966637, 51.930441187195029 ], [ 4.814202872359378, 51.931992046005412 ], [ 4.815448429767933, 51.933337750387622 ], [ 4.816677483958432, 51.933924335325763 ], [ 4.817220776491276, 51.934423941938213 ], [ 4.817914322193219, 51.934628136747811 ], [ 4.82143577650725, 51.935023452091414 ], [ 4.82288227017713, 51.934909100708161 ], [ 4.824015672858104, 51.935032335642802 ], [ 4.824841160203301, 51.935778457263723 ], [ 4.825928467746111, 51.937186826713656 ], [ 4.826792399862216, 51.938753239121141 ], [ 4.826934925732369, 51.939867166689794 ], [ 4.829272649602196, 51.940417091780965 ], [ 4.832090204011499, 51.939337804595326 ], [ 4.832008483698416, 51.939857599081655 ], [ 4.832131496325908, 51.939951201598213 ], [ 4.832380608025484, 51.938795391829188 ], [ 4.835501557345735, 51.940159706102236 ], [ 4.837185363216104, 51.940520491692084 ], [ 4.844310211427271, 51.94114968042723 ], [ 4.847875924830774, 51.941653080591735 ], [ 4.852941155770071, 51.941541444288688 ], [ 4.859100889812269, 51.940947718625608 ], [ 4.872641772079306, 51.93839190857463 ], [ 4.875322152747899, 51.938091726213649 ], [ 4.877690243052055, 51.938129068889225 ], [ 4.877669922463843, 51.938936085897431 ], [ 4.87681873177498, 51.940873895860221 ], [ 4.876886027072556, 51.941009177918708 ], [ 4.881962700013946, 51.941283766137509 ], [ 4.883114262142786, 51.941472069359961 ], [ 4.8849547815824, 51.940903905640525 ], [ 4.885538335652277, 51.940877508342496 ], [ 4.891201388969896, 51.942026827329343 ], [ 4.894017564590991, 51.942835827505085 ], [ 4.896427944545484, 51.943040763869831 ], [ 4.902733873726634, 51.944240031779813 ], [ 4.906920080778879, 51.94472844346447 ], [ 4.909989591278381, 51.94548716136304 ], [ 4.915917913336254, 51.946592731713018 ], [ 4.916802895457843, 51.946862980781603 ], [ 4.919169183850652, 51.948073770651334 ], [ 4.919978507253547, 51.948978811086079 ], [ 4.920569757410711, 51.95020351561574 ], [ 4.922591382931232, 51.95156352293526 ], [ 4.924420565314674, 51.953694367914061 ], [ 4.927328997509973, 51.954555146817313 ], [ 4.928911431393017, 51.95695746101817 ], [ 4.930186256166452, 51.958412665783577 ], [ 4.930608217805227, 51.9600333942116 ], [ 4.93188219182032, 51.96261355030596 ], [ 4.934671407942132, 51.964718653256682 ], [ 4.936708609053698, 51.965465693065099 ], [ 4.938040438900263, 51.9666173913892 ], [ 4.938661567019517, 51.966939196492319 ], [ 4.940649701060959, 51.967256472596183 ], [ 4.943852263257687, 51.967179945843668 ], [ 4.945089541094307, 51.966834752481383 ], [ 4.946286414991887, 51.966159300069023 ], [ 4.948202260257457, 51.965896834609516 ], [ 4.950112549208371, 51.965903655082187 ], [ 4.952500001273311, 51.965112291275986 ], [ 4.954587474403656, 51.964948264795829 ], [ 4.958049727013353, 51.964224150738453 ], [ 4.962468464623305, 51.963863928365797 ], [ 4.96717365732548, 51.963735821122164 ], [ 4.969743262552484, 51.963378230570996 ], [ 4.971415870269921, 51.963543794382772 ], [ 4.972345340266581, 51.963888353516481 ], [ 4.975619638618486, 51.96592331161542 ], [ 4.976207147618841, 51.966402729994606 ], [ 4.976655756985493, 51.967032549341788 ], [ 4.978868278909999, 51.966076252706188 ], [ 4.983750438594313, 51.970580708338467 ], [ 4.981740993049299, 51.971941686990675 ], [ 4.984311803036537, 51.97433949139262 ], [ 4.984088580360369, 51.975786392621799 ], [ 4.984413775037488, 51.976518175099606 ], [ 4.984729606488137, 51.976828215493157 ], [ 4.98507584757859, 51.976932096451385 ], [ 4.986858744788734, 51.976843361370079 ], [ 4.988658723959408, 51.977391397345073 ], [ 4.991037060217385, 51.977205739405775 ], [ 4.994141030731495, 51.978044200596244 ], [ 4.995197161193683, 51.978477902362144 ], [ 4.997723229463528, 51.980813244966747 ], [ 4.999794992229208, 51.981459175280023 ], [ 5.001514724126897, 51.981680579326358 ], [ 5.006435603530697, 51.981175513099139 ], [ 5.007259718105642, 51.980701728672713 ], [ 5.008429171283185, 51.980545509179969 ], [ 5.009407169408691, 51.9786474684336 ], [ 5.010959678208122, 51.977884330442656 ], [ 5.014153690974588, 51.975534861935976 ], [ 5.014115900910088, 51.975348617550182 ], [ 5.012797291098762, 51.974275893638257 ], [ 5.01615007617267, 51.972228705198994 ], [ 5.017806689867077, 51.971459211181845 ], [ 5.022400796780758, 51.969823802420279 ], [ 5.024799553804981, 51.969410582672161 ], [ 5.029665032408379, 51.969303164632137 ], [ 5.032049485237184, 51.969658544513379 ], [ 5.034013299549262, 51.970261805466123 ], [ 5.036070363477561, 51.971411178684249 ], [ 5.037701940127971, 51.972786286117234 ], [ 5.038743101134178, 51.974186534914402 ], [ 5.039890844587219, 51.97679833912607 ], [ 5.040380097036103, 51.977541153018322 ], [ 5.042736569121288, 51.977088894853978 ], [ 5.042878823908405, 51.9776844368266 ], [ 5.043021740159713, 51.977761203174957 ], [ 5.045114417290316, 51.977417499170713 ], [ 5.046772125989624, 51.97672194165262 ], [ 5.047831818695708, 51.976650451249604 ], [ 5.047955433588479, 51.976191339263458 ], [ 5.047550734409236, 51.975482550603623 ], [ 5.04886738360258, 51.974178875013898 ], [ 5.052085603166759, 51.975940615040138 ], [ 5.052318323186785, 51.975780598117524 ], [ 5.054573971466264, 51.97647950417398 ], [ 5.064742352373563, 51.964592874749847 ], [ 5.05936365805559, 51.961151640590131 ], [ 5.058425848720159, 51.960371306233107 ], [ 5.057731355939024, 51.959370224184781 ], [ 5.058003862615803, 51.959161205145037 ], [ 5.054969467991586, 51.954838367253792 ], [ 5.075139488136526, 51.952378595762767 ], [ 5.08764090929679, 51.950400409329951 ], [ 5.101416203801262, 51.946241190032147 ], [ 5.105622713003568, 51.951597516552667 ], [ 5.113040764178444, 51.959304981216803 ], [ 5.12137903465012, 51.956391306044175 ], [ 5.122270869723978, 51.957279770913004 ], [ 5.126232864079411, 51.954739639716244 ], [ 5.130500503858329, 51.953145194067972 ], [ 5.130585268986469, 51.952919095310698 ], [ 5.130029550986742, 51.952330639119687 ], [ 5.132148461236756, 51.951180023866343 ], [ 5.138504182892101, 51.947261245161037 ], [ 5.141337029430611, 51.946134107983085 ], [ 5.141297359177751, 51.945779552789901 ], [ 5.142393990792239, 51.945174030149317 ], [ 5.14628668837778, 51.943591252918857 ], [ 5.147739965628284, 51.942380749527821 ], [ 5.148364812888805, 51.942150744819784 ], [ 5.149172924129388, 51.942154800443561 ], [ 5.149320525418042, 51.942001772925884 ], [ 5.150429131453257, 51.941995605323918 ], [ 5.150371756874216, 51.941754650644867 ], [ 5.148655485264064, 51.941493644129629 ], [ 5.149847924315715, 51.940609314930875 ], [ 5.152789954294826, 51.938845622047808 ], [ 5.15338940871003, 51.938743452191773 ], [ 5.154810858123067, 51.93805784830473 ], [ 5.154038786734478, 51.937226022807046 ], [ 5.15153369220853, 51.9335406217849 ], [ 5.15069338565388, 51.933221461760212 ], [ 5.149445282616815, 51.933426462648292 ], [ 5.148353154087621, 51.932671480797488 ], [ 5.14806048389018, 51.932128740063519 ], [ 5.148115816569142, 51.931831434164792 ], [ 5.149106861403068, 51.930546177954334 ], [ 5.148531023952024, 51.929414949420106 ], [ 5.142284678355008, 51.924676869693592 ], [ 5.135800710780819, 51.918212888620872 ], [ 5.136265143742411, 51.917758451106003 ], [ 5.136750694020568, 51.914818027038514 ], [ 5.136509710575721, 51.914441120146115 ], [ 5.135708810021895, 51.914096091365273 ], [ 5.13232062328246, 51.914777779729079 ], [ 5.119480119929483, 51.898535102286033 ], [ 5.119082825320092, 51.898171111154909 ], [ 5.117386971399486, 51.898160841195491 ], [ 5.117020605401193, 51.898034872828511 ], [ 5.117054758641959, 51.896984454767527 ], [ 5.118598357417898, 51.896386697675695 ], [ 5.117766390156256, 51.892538968689891 ], [ 5.117172404473984, 51.891658601287169 ], [ 5.115512602048645, 51.890409685306587 ], [ 5.114204870819528, 51.889038095035595 ], [ 5.115960181940965, 51.887346638098791 ], [ 5.118350019625429, 51.886006384737719 ], [ 5.119102508041738, 51.885059873818932 ], [ 5.119756167035464, 51.884627206068508 ], [ 5.120947405309177, 51.883329662852347 ], [ 5.121044675364773, 51.882783576044979 ], [ 5.1208558424877, 51.881040323156938 ], [ 5.120600669080521, 51.880958422184115 ], [ 5.120492090603492, 51.87985224145752 ], [ 5.120640915698957, 51.879693641162817 ], [ 5.118982280970218, 51.877677710607585 ], [ 5.118211514093296, 51.87753075184844 ], [ 5.118605806084656, 51.874802832551609 ], [ 5.119152223213219, 51.873450242613522 ], [ 5.120532568034719, 51.871742371680632 ], [ 5.121506883544539, 51.871068284263117 ], [ 5.12213142929551, 51.870849724091933 ], [ 5.12230900054312, 51.86967867151656 ], [ 5.121983406568152, 51.869514197887604 ], [ 5.122134847124467, 51.869339377361847 ], [ 5.123015908125623, 51.86898813147036 ], [ 5.123965085059057, 51.869156281559292 ], [ 5.126149041720545, 51.869106148373604 ], [ 5.127623468199932, 51.869473581210734 ], [ 5.128331494915888, 51.870136420802986 ], [ 5.129727417606059, 51.870534457725796 ], [ 5.133431442562634, 51.870866879150412 ], [ 5.135378260772375, 51.87123149405744 ], [ 5.13715892587658, 51.872128528176923 ], [ 5.138619124969755, 51.872659650172189 ], [ 5.140562978568593, 51.870702504198853 ], [ 5.150601350278713, 51.861465117476641 ], [ 5.149374820837368, 51.848212446395365 ], [ 5.149672664370375, 51.847814921976948 ], [ 5.149681205545344, 51.847407385219299 ], [ 5.154185351637593, 51.847440823737145 ], [ 5.153065705418432, 51.838168678843068 ], [ 5.152551737632507, 51.831657142526559 ], [ 5.154323680088464, 51.829407722928529 ], [ 5.155206370474572, 51.828485601028753 ], [ 5.155639671280104, 51.828349888291967 ], [ 5.155532790329789, 51.827905418179888 ], [ 5.15757470603861, 51.82517107709166 ], [ 5.158582684133867, 51.823129453664656 ], [ 5.159257724862575, 51.820589746303511 ], [ 5.159378875488683, 51.816462862116907 ], [ 5.148877176893023, 51.814940610650666 ], [ 5.1486994303, 51.815116601200003 ], [ 5.1409015501, 51.814219289100002 ], [ 5.1371373314, 51.814201471799997 ], [ 5.1301813688, 51.814757238299997 ], [ 5.1259335594, 51.815565279 ], [ 5.1222731128, 51.816516357300003 ], [ 5.105199653, 51.823221541099997 ], [ 5.1008624202, 51.824599474800003 ], [ 5.0984874794, 51.825249025300003 ], [ 5.0932110096, 51.826341430699998 ], [ 5.0876558746, 51.826898376800003 ], [ 5.0821804343, 51.8269476969 ], [ 5.0769425292, 51.826417807699997 ], [ 5.0740884578, 51.825918373100002 ], [ 5.0694779006, 51.824729077100002 ], [ 5.0632338092, 51.822718140600003 ], [ 5.0600685504, 51.821355692799997 ], [ 5.0523094284, 51.819041698299998 ], [ 5.0471670115, 51.818012048299998 ], [ 5.0421012222, 51.817455307300001 ], [ 5.0387560464, 51.817400550099997 ], [ 5.0349051402, 51.817625722 ], [ 5.0289041836, 51.818405104 ], [ 5.0205946838, 51.820026466400002 ], [ 5.0130028926, 51.820825520699998 ], [ 5.0063917801, 51.8211764196 ], [ 5.0003172878, 51.821021851899999 ], [ 5.000317233, 51.820844946199998 ], [ 5.0013648073, 51.820532290400003 ], [ 5.0042469121, 51.819052101499999 ], [ 5.0072181127, 51.8182461257 ], [ 5.0092662635, 51.817429529 ], [ 5.0100008434, 51.816579898400001 ], [ 5.0099418074, 51.813895319099998 ], [ 5.0102198173, 51.812962411400001 ], [ 5.0108595206, 51.812047120700001 ], [ 5.011633647, 51.811153788200002 ], [ 5.0144800615, 51.808904601 ], [ 5.0159268589, 51.808131830699999 ], [ 5.0203358349, 51.8065218 ], [ 5.0247096248, 51.804432986099997 ], [ 5.0275725431, 51.803370214899999 ], [ 5.0290986664, 51.802926851800002 ], [ 5.0348738619, 51.8019574295 ], [ 5.0421394827, 51.799749701499998 ], [ 5.045129882, 51.799078610800002 ], [ 5.0479053662, 51.798121183699998 ], [ 5.0507850422, 51.796531745199999 ], [ 5.0522695367, 51.795621871100003 ], [ 5.053102246, 51.794228065600002 ], [ 5.0539135362, 51.793317156699999 ], [ 5.0570471633, 51.790625451700002 ], [ 5.0601758449, 51.786147643699998 ], [ 5.0618419777, 51.784343212300001 ], [ 5.0640023245, 51.782528087099998 ], [ 5.0669261695, 51.7804615306 ], [ 5.068379278, 51.7798276276 ], [ 5.0698362655, 51.779450531899997 ], [ 5.0712946841, 51.779174577399999 ], [ 5.0742457085, 51.778970111200003 ], [ 5.0785569658, 51.7794653415 ], [ 5.0800293307, 51.779849752799997 ], [ 5.081951548777899, 51.780602392320134 ], [ 5.08645826559273, 51.778471049658592 ], [ 5.085310491560204, 51.775408948639466 ], [ 5.081490202432742, 51.775531151982563 ], [ 5.080840452967102, 51.77327800464932 ], [ 5.081515465200352, 51.769866674470499 ], [ 5.072969115528071, 51.770545079150878 ], [ 5.072719185307185, 51.768713372668344 ], [ 5.073217936527856, 51.767125636133684 ], [ 5.072688168609524, 51.767027435569425 ], [ 5.063340624147009, 51.766583813689813 ], [ 5.061581475215427, 51.766972472872183 ], [ 5.0603279419883, 51.76702269133699 ], [ 5.058030358302591, 51.76752937719364 ], [ 5.055275457463116, 51.767897639026536 ], [ 5.050610430848519, 51.76813683793182 ], [ 5.046141938441956, 51.767786038533103 ], [ 5.045911248301548, 51.767922441965126 ], [ 5.043799341676633, 51.767872280350318 ], [ 5.042249093935705, 51.768249890043663 ], [ 5.034540388679766, 51.770790318722334 ], [ 5.025022294708434, 51.770595792966617 ], [ 5.02485920762483, 51.770433737919127 ], [ 5.022219913205442, 51.770371764832156 ], [ 5.022809144786677, 51.764640302156721 ], [ 5.017627732401633, 51.764137014213937 ], [ 5.017487371787096, 51.763986324881657 ], [ 5.01975075095294, 51.758497359307974 ], [ 5.020018090628756, 51.756435690465345 ], [ 5.023949356187961, 51.756370391310135 ], [ 5.024790621332608, 51.751521985197243 ], [ 5.008194863020966, 51.751439239548581 ], [ 4.990529869252742, 51.752049712025048 ], [ 4.990391670414555, 51.746390538693781 ], [ 4.991878557906092, 51.746013471829201 ], [ 4.991960151084381, 51.745791795548271 ], [ 4.9902459136357, 51.741252708268426 ], [ 4.998784405727558, 51.739959812828324 ], [ 4.998380683950131, 51.738813928287428 ], [ 5.000187997550022, 51.73849597957549 ], [ 4.999700887035742, 51.737193836328558 ], [ 5.000254921161872, 51.737042676966027 ], [ 4.997710933211741, 51.729724808193431 ], [ 4.997766247208184, 51.729558682783619 ], [ 4.998348937272429, 51.729448460265807 ], [ 4.996559824233753, 51.729153130708298 ], [ 4.99709773311745, 51.723149257220349 ], [ 4.99686041680596, 51.723171083663082 ], [ 4.989604415246474, 51.71914956475289 ], [ 4.989589202705053, 51.718997891343328 ], [ 4.989836307173415, 51.718924334028998 ], [ 4.988591305116432, 51.716985337831467 ], [ 4.979495698608642, 51.71927720223065 ], [ 4.974944554901938, 51.720261900095167 ], [ 4.965118841241391, 51.721967694050221 ], [ 4.956403142640596, 51.722894474596089 ], [ 4.951536171305428, 51.723124398720707 ], [ 4.945560580307934, 51.72314156015473 ], [ 4.940624992861605, 51.722934785995896 ], [ 4.935941815345761, 51.722526207250617 ], [ 4.915927595316817, 51.719772554528539 ], [ 4.906718302347567, 51.718914603580167 ], [ 4.898927787604959, 51.718797041165736 ], [ 4.894494595669758, 51.719166953530468 ], [ 4.891239093145824, 51.719761880850818 ], [ 4.88371507302518, 51.720153707455992 ], [ 4.880373033456647, 51.720247575775971 ], [ 4.873047158312385, 51.720097966800346 ], [ 4.868111053754686, 51.719223929315753 ], [ 4.861812855645719, 51.717719420459126 ], [ 4.85029459297334, 51.715726206912798 ], [ 4.843789973074267, 51.714026280616366 ], [ 4.837199880285677, 51.712762612821599 ], [ 4.840740714099539, 51.716259549645692 ], [ 4.847033165744027, 51.725494415885471 ], [ 4.847032257627899, 51.73584829777888 ], [ 4.850323198727369, 51.738535381619769 ], [ 4.849628420911294, 51.742059584681513 ], [ 4.84937982034225, 51.744209318990542 ], [ 4.849506734181399, 51.744794810724343 ], [ 4.850178438187896, 51.746005692651821 ], [ 4.852565074781334, 51.74862531471306 ], [ 4.852959527238873, 51.749364962832644 ], [ 4.853146632009477, 51.750155197554172 ], [ 4.853223847643145, 51.750769702208729 ], [ 4.852400640665429, 51.753222516915606 ], [ 4.852220981663011, 51.755408837045948 ], [ 4.852008793673417, 51.755953586891266 ], [ 4.849650798278464, 51.756741761460738 ], [ 4.846765215213942, 51.75715541434802 ], [ 4.84187834269559, 51.756786587881926 ], [ 4.840156080658426, 51.75649866354312 ], [ 4.838577178235988, 51.756021181557855 ], [ 4.835282799069639, 51.754586587654693 ], [ 4.833630418552455, 51.75410439451197 ], [ 4.831652332522424, 51.753917359614427 ], [ 4.828089623471389, 51.753884090747057 ], [ 4.822287061755039, 51.753956485741988 ], [ 4.820197362436073, 51.754395303974 ], [ 4.817687543213538, 51.755320350542164 ], [ 4.81288018671615, 51.756732752164041 ], [ 4.809944021194922, 51.757229241185932 ], [ 4.802506950906378, 51.757686216340481 ], [ 4.796826941229791, 51.75729957194293 ], [ 4.785478466930887, 51.756039020411762 ], [ 4.782446191194369, 51.766668259099625 ], [ 4.780912980575676, 51.766569112592769 ], [ 4.780127926066422, 51.766314461922981 ], [ 4.779681196498826, 51.765049153332477 ], [ 4.779903175022405, 51.764268076080036 ], [ 4.779204335655685, 51.764360298250011 ], [ 4.778590394772523, 51.764182164721419 ], [ 4.772068567072394, 51.759421402987904 ], [ 4.767540711178023, 51.759391645843394 ], [ 4.766380797572869, 51.759122499593964 ], [ 4.764178530610193, 51.759955209048428 ], [ 4.760886548136095, 51.757737992968636 ], [ 4.760069077721882, 51.758136248808384 ], [ 4.75814728891119, 51.756438087676848 ], [ 4.755060540175987, 51.755128089298424 ], [ 4.750656417652443, 51.752360106323437 ], [ 4.747817932377597, 51.74882610085286 ], [ 4.747957102103414, 51.74743365200186 ], [ 4.747299098240709, 51.746700188044109 ], [ 4.737394708463602, 51.741383221003012 ], [ 4.733595502986642, 51.736598627249066 ], [ 4.72180498901913, 51.734364604935458 ], [ 4.698524238151908, 51.72208985994498 ], [ 4.680447349677897, 51.720482417046298 ], [ 4.68005221302136, 51.71789113292607 ], [ 4.678288779115284, 51.716087068209745 ], [ 4.677838150283995, 51.718336808916213 ], [ 4.677520956833898, 51.718348661402054 ], [ 4.678018524383448, 51.715952385856745 ], [ 4.674001618025352, 51.715825876908568 ], [ 4.673886841310949, 51.715535744539388 ], [ 4.674064166212956, 51.715452240508682 ], [ 4.674105174307405, 51.715038848409321 ], [ 4.673784984971236, 51.715386370219612 ], [ 4.673799980761157, 51.715632318312487 ], [ 4.672913330051228, 51.715534208114121 ], [ 4.672777851034617, 51.715769558298462 ], [ 4.672488537793766, 51.715474431294346 ], [ 4.669893374958579, 51.715107346844079 ], [ 4.668376161161595, 51.714662711148414 ], [ 4.667536547891086, 51.717361294873733 ], [ 4.667278680048164, 51.717405943578242 ], [ 4.667290886249379, 51.716948011766796 ], [ 4.668093326461772, 51.714605862980036 ], [ 4.665049794170662, 51.714049457983499 ], [ 4.664779898304147, 51.714153128182261 ], [ 4.664711278362647, 51.713813747425682 ], [ 4.664067322871718, 51.713690181331508 ], [ 4.663495330076196, 51.713772353603439 ], [ 4.662211150531836, 51.713397925840553 ], [ 4.659537697882149, 51.71307927114124 ], [ 4.658626365242525, 51.713105665844068 ], [ 4.657583255155822, 51.716154048745352 ], [ 4.657244417061257, 51.716181419670114 ], [ 4.657207231460716, 51.715888937680681 ], [ 4.658308586046815, 51.713107714760049 ], [ 4.656387212305166, 51.712679702075 ], [ 4.652320161680016, 51.712179329593127 ], [ 4.650950690547018, 51.712257165472458 ], [ 4.651062014841116, 51.712494382296917 ], [ 4.650894161661239, 51.712714057239836 ], [ 4.65018498802064, 51.713004701886327 ], [ 4.649074415188216, 51.713941932289856 ], [ 4.648548025369371, 51.714020411910106 ], [ 4.64511972672662, 51.719165894543359 ], [ 4.675185032062445, 51.72430442467035 ], [ 4.681557936218227, 51.728510531159834 ], [ 4.693226830495318, 51.732375025116227 ], [ 4.703702699899368, 51.737017806461587 ], [ 4.717234236117455, 51.743907290751302 ], [ 4.729392236650003, 51.750795173257274 ], [ 4.73657183883522, 51.755649231980527 ], [ 4.740700569933997, 51.758890835646014 ], [ 4.744703472348946, 51.763542277267661 ], [ 4.75048403617288, 51.775814435217612 ], [ 4.755167170873471, 51.781680281933596 ], [ 4.758347561527322, 51.784497912834532 ], [ 4.765381795623151, 51.789448582880986 ], [ 4.773495113381153, 51.793414182344144 ], [ 4.781783474598899, 51.796031955444569 ], [ 4.797188295817493, 51.799869793832364 ], [ 4.80688290269985, 51.800436027199751 ], [ 4.816384798502912, 51.799758957875568 ], [ 4.828879939193267, 51.798120452208956 ], [ 4.836105054945135, 51.797939214939284 ], [ 4.845968503032081, 51.798855917202566 ], [ 4.854384387364505, 51.80077906455373 ], [ 4.859628039575292, 51.802776415160963 ], [ 4.865761413432554, 51.805700073030287 ], [ 4.871308746960765, 51.80897644269789 ], [ 4.87600544937261, 51.811970074432139 ], [ 4.881975268541968, 51.815294856308711 ], [ 4.884499700377704, 51.81651350720886 ], [ 4.88327360573266, 51.818516478979937 ], [ 4.876747052408636, 51.817623538048515 ], [ 4.8712462710115, 51.817485619239193 ], [ 4.843481424261985, 51.819054958995139 ], [ 4.839050956156306, 51.819154630011788 ], [ 4.830891187116684, 51.819071326941639 ], [ 4.827363427328129, 51.818864892573551 ], [ 4.820117828851486, 51.818957907972276 ], [ 4.811381909483481, 51.818564127618913 ], [ 4.811285708824796, 51.821021312106744 ], [ 4.811004832462739, 51.82096379385532 ], [ 4.808153773586229, 51.821705724751894 ], [ 4.80646315860253, 51.821828568107804 ], [ 4.806436377384986, 51.821993841675287 ], [ 4.807813345970798, 51.823116516555196 ], [ 4.806808154944328, 51.82319325409285 ], [ 4.806283283939591, 51.823552610225384 ], [ 4.804749311972794, 51.823749869153964 ], [ 4.804398479184716, 51.829790059959031 ], [ 4.804882151552957, 51.829972163353212 ], [ 4.804744131973661, 51.830858476290686 ], [ 4.804242131411, 51.832196491291029 ], [ 4.803905433468298, 51.836819485298548 ], [ 4.804048758045394, 51.83736790024475 ], [ 4.80455229501157, 51.837706984535679 ], [ 4.803728684342093, 51.838606505833333 ], [ 4.803120589209743, 51.846259388841432 ], [ 4.795608789632105, 51.844875984101932 ], [ 4.788143594887587, 51.844837492876131 ], [ 4.787160288196219, 51.844882824660473 ], [ 4.785930189699795, 51.845402033142122 ], [ 4.780386122717602, 51.846540111777351 ], [ 4.774720205232543, 51.845493752943007 ], [ 4.773162715306974, 51.844612565922468 ], [ 4.771883050839379, 51.844597583605022 ], [ 4.768176164293386, 51.843778273683021 ], [ 4.766578335281403, 51.84379094287241 ], [ 4.765226431596663, 51.844156322915381 ], [ 4.762606009364823, 51.843679298436498 ], [ 4.760923425989594, 51.843675207074121 ], [ 4.760172918199772, 51.840299528283964 ], [ 4.756044799282662, 51.840148642451943 ], [ 4.750764237569213, 51.838217752415261 ], [ 4.749964937203632, 51.838126320083326 ], [ 4.750963582871977, 51.83614262485856 ], [ 4.749674796751169, 51.834559469096199 ], [ 4.751705709376083, 51.834684314378961 ], [ 4.753332702520818, 51.83519091313029 ], [ 4.754209103169116, 51.835149243605741 ], [ 4.754339160330829, 51.834968616034999 ], [ 4.754042193573574, 51.833630616930542 ], [ 4.750749758958705, 51.833230340499533 ], [ 4.750563520379416, 51.833558904936162 ], [ 4.748819352690243, 51.83315809130179 ], [ 4.749167594761402, 51.832454268092661 ], [ 4.748027895475376, 51.832008672462003 ], [ 4.747746922054377, 51.832132732580931 ], [ 4.746506064626652, 51.831483677441156 ], [ 4.74603730196536, 51.831606189832385 ], [ 4.745515493127143, 51.831304689955182 ], [ 4.736759247490074, 51.833367013470038 ], [ 4.741329840036962, 51.840835799481596 ], [ 4.742698392231986, 51.841085439356192 ], [ 4.743411595505117, 51.842346003210594 ], [ 4.743301426543064, 51.842642334731202 ], [ 4.743021234840114, 51.842722245957219 ], [ 4.74030672848981, 51.843162732860037 ], [ 4.740201741787604, 51.843672971230355 ], [ 4.73840153542113, 51.843719889322948 ], [ 4.737661596585809, 51.844542593084093 ], [ 4.737188006250976, 51.846356681830585 ], [ 4.734712451395021, 51.845998827664303 ], [ 4.715355213412566, 51.841246144366451 ], [ 4.713630867692332, 51.840970165595103 ], [ 4.712211914122375, 51.840931907318748 ], [ 4.711584386616207, 51.840214665953617 ], [ 4.709744049229711, 51.840661919161086 ], [ 4.709770991338885, 51.840927822841238 ], [ 4.708573154938922, 51.840813358777076 ], [ 4.708488368948274, 51.840967981465731 ], [ 4.706681342302672, 51.840972322816562 ], [ 4.701827658034586, 51.842059873142468 ], [ 4.699655651892913, 51.842881735053211 ], [ 4.696024602799307, 51.84382039514513 ], [ 4.695605391892633, 51.844237108001046 ], [ 4.695422189728291, 51.844872119011406 ], [ 4.691897974047909, 51.846035865995255 ], [ 4.689909665747087, 51.846012434030747 ], [ 4.687214001098222, 51.847133403129433 ], [ 4.681447383273728, 51.847102290616888 ], [ 4.681787319861503, 51.848384486950415 ], [ 4.681293047896333, 51.848595185581466 ], [ 4.681276342673643, 51.848746959431438 ], [ 4.681830610512502, 51.849193190118463 ], [ 4.68305786978815, 51.848659353778132 ], [ 4.681210468149358, 51.858757181819279 ], [ 4.680622013892396, 51.85968807812224 ], [ 4.681771662623976, 51.860230325668525 ], [ 4.682292528281449, 51.86069793264825 ], [ 4.685165872072869, 51.865135217407406 ], [ 4.686387943549492, 51.866368800729006 ], [ 4.687249616870703, 51.866752915626165 ], [ 4.688481958090013, 51.867023740010723 ], [ 4.690397992106688, 51.866956628172694 ], [ 4.700074207012519, 51.879642723313907 ], [ 4.699118352921225, 51.87984027122841 ], [ 4.697275266977586, 51.879757533184971 ], [ 4.687833193668962, 51.878619308746494 ], [ 4.686743275995745, 51.878318372441605 ], [ 4.685530540326274, 51.877632294900067 ], [ 4.681130702504774, 51.876569268365088 ], [ 4.679947368889163, 51.875956658690221 ], [ 4.677909036290421, 51.875203470380264 ], [ 4.676031091601168, 51.874786710047779 ], [ 4.673395791844032, 51.874953307831063 ], [ 4.672914913986567, 51.874691943789564 ], [ 4.670303212657642, 51.874979160118187 ], [ 4.663966249714539, 51.874882512578978 ], [ 4.658536132954248, 51.876298415878288 ], [ 4.646839715245047, 51.878706183663709 ], [ 4.645177761721174, 51.879137525758971 ], [ 4.644636026708834, 51.879650531537017 ], [ 4.642139810864313, 51.880099442387383 ], [ 4.637062737230921, 51.876195278488133 ], [ 4.628780647439375, 51.88109162227407 ], [ 4.628253032331754, 51.880701422905432 ], [ 4.628003511409077, 51.880858952099786 ], [ 4.626334312318606, 51.880575420941383 ], [ 4.623621010552855, 51.884390735519297 ], [ 4.621253868978513, 51.886690455686661 ], [ 4.619149236289207, 51.888433424538498 ], [ 4.619562857578227, 51.889622265998341 ], [ 4.624090584593262, 51.889457194828708 ], [ 4.627842015864277, 51.889689642190298 ], [ 4.62799119693075, 51.88946371765725 ] ] ] } }
]
}
