{
"type": "FeatureCollection",
"name": "SWVPO2808",
"crs": { "type": "name", "properties": { "name": "urn:ogc:def:crs:OGC:1.3:CRS84" } },
"features": [
{ "type": "Feature", "properties": { "PO SWV": "PO2808", "strokeColor": "#A9A9A9", "strokeWidth": 2, "fillColor": "#ADD8E6" }, "geometry": { "type": "MultiPolygon", "coordinates": [ [ [ [ 4.001288181252766, 51.915674967339633 ], [ 4.001271083077051, 51.915423629706133 ], [ 4.000989095257632, 51.91527177100231 ], [ 4.001277508323938, 51.915247051435713 ], [ 4.001366954727678, 51.915090916999098 ], [ 4.000875688234232, 51.914844752779146 ], [ 4.00001786603034, 51.914660099149366 ], [ 3.997708023214658, 51.914561689083911 ], [ 3.995678485202006, 51.915004538158023 ], [ 3.995022012877748, 51.915378982564988 ], [ 3.994340715741365, 51.916066572299606 ], [ 4.000472862485617, 51.917571593039042 ], [ 4.008739080438639, 51.91903447764777 ], [ 4.021674158907757, 51.922256066111736 ], [ 4.03782666125834, 51.926012407624938 ], [ 4.037682528135019, 51.926197168410006 ], [ 4.036732955246673, 51.926500676259316 ], [ 4.03676562476046, 51.926683667863763 ], [ 4.038537724728153, 51.926604414236579 ], [ 4.04303152177887, 51.927695265699406 ], [ 4.043230340443293, 51.927960864431725 ], [ 4.049837390842329, 51.929409865574605 ], [ 4.050229682725365, 51.929363625456027 ], [ 4.062764121017831, 51.932260468109192 ], [ 4.062881091643882, 51.932426142413526 ], [ 4.065090204875649, 51.932936922118465 ], [ 4.070337482471773, 51.933763189682416 ], [ 4.073387726516307, 51.934053794946713 ], [ 4.073648394449721, 51.933939676309002 ], [ 4.077453727023801, 51.934094914604898 ], [ 4.082513951222331, 51.933990697259361 ], [ 4.088619696233427, 51.933395590415032 ], [ 4.08868245490467, 51.933180640222886 ], [ 4.0929249641709, 51.932622992201637 ], [ 4.102042288864876, 51.923630758301229 ], [ 4.103147279334966, 51.923638136752878 ], [ 4.102354830995905, 51.925585183082212 ], [ 4.102220003689146, 51.928000506002441 ], [ 4.103774881434154, 51.930508426627291 ], [ 4.104262715713472, 51.930476273383611 ], [ 4.104420270277543, 51.930615974404262 ], [ 4.103314231608965, 51.930975942599758 ], [ 4.103407421334897, 51.931670851933887 ], [ 4.102791241430835, 51.932464079000276 ], [ 4.103999195755079, 51.933072780336637 ], [ 4.105923555047177, 51.934852750951137 ], [ 4.106592135404266, 51.936588312760342 ], [ 4.111000266511966, 51.935753976547197 ], [ 4.143728527868815, 51.931170809160712 ], [ 4.147810880827084, 51.930046374356579 ], [ 4.152594801126265, 51.927964073084382 ], [ 4.158343057535416, 51.927156638394742 ], [ 4.160462591326485, 51.926489676058871 ], [ 4.161783522065829, 51.925880017011856 ], [ 4.163301270371757, 51.924880786754208 ], [ 4.163431906362095, 51.924584539545791 ], [ 4.163470573900564, 51.92286422118584 ], [ 4.163777869525613, 51.921978498938685 ], [ 4.165857210967189, 51.919708433027274 ], [ 4.166781051329166, 51.918936393698779 ], [ 4.1678723877985, 51.918588067740998 ], [ 4.17162876106565, 51.918178715227413 ], [ 4.172346151280567, 51.918677989751622 ], [ 4.17272279036312, 51.918649529325073 ], [ 4.172841871654584, 51.918043782446162 ], [ 4.175250369023028, 51.917773994311545 ], [ 4.176516184817907, 51.917414763026827 ], [ 4.179419318654632, 51.915506174660123 ], [ 4.182288831987563, 51.913868029582048 ], [ 4.187755961177752, 51.911512744410878 ], [ 4.196729398756339, 51.908163462383953 ], [ 4.206506115029572, 51.903353087531862 ], [ 4.208908860806257, 51.902000805998945 ], [ 4.210371995587075, 51.901410095287673 ], [ 4.210581691571884, 51.901510868252572 ], [ 4.212203328501068, 51.900604510242509 ], [ 4.214145856967117, 51.899898974150155 ], [ 4.216322585186376, 51.898816638490246 ], [ 4.218711362275917, 51.897270200035003 ], [ 4.220890947260539, 51.895462376014351 ], [ 4.227493748776106, 51.888131859645043 ], [ 4.229311482548717, 51.885290334018144 ], [ 4.230734082518767, 51.881239315255613 ], [ 4.231571059594944, 51.879503247096615 ], [ 4.232410807316191, 51.878285443369919 ], [ 4.234257003729047, 51.87634781300013 ], [ 4.236551097480702, 51.874626970024323 ], [ 4.238910340130699, 51.873319075749755 ], [ 4.240925194129663, 51.87245014077002 ], [ 4.245368809989762, 51.870890151666885 ], [ 4.245156070177096, 51.870463312843725 ], [ 4.24693022882932, 51.869797063916828 ], [ 4.246566998473989, 51.868996707644762 ], [ 4.250442948146541, 51.867640486253791 ], [ 4.251651085916691, 51.868153460740977 ], [ 4.252592565468095, 51.868358450191842 ], [ 4.258357780179379, 51.866336481632651 ], [ 4.260823314584513, 51.865626823174516 ], [ 4.264133579144008, 51.864984184549208 ], [ 4.267585608352181, 51.864658630878381 ], [ 4.335573799985161, 51.864399735538349 ], [ 4.342747746364644, 51.855969607486621 ], [ 4.344495439654306, 51.854615471767147 ], [ 4.348368884486854, 51.852043888925536 ], [ 4.352625733733293, 51.849594722072503 ], [ 4.354963167114879, 51.848579206115687 ], [ 4.360011767340643, 51.846808598605122 ], [ 4.367624486973465, 51.844479943872223 ], [ 4.374477306972496, 51.842970049916374 ], [ 4.379338585516275, 51.842465541133564 ], [ 4.385134587083088, 51.842164631383177 ], [ 4.393816711470126, 51.842219623152133 ], [ 4.402448772484965, 51.843062494238538 ], [ 4.406842507131744, 51.843299788944925 ], [ 4.409750554422255, 51.843318804793029 ], [ 4.412819875115241, 51.843057449698499 ], [ 4.415283846115602, 51.842628452624048 ], [ 4.423607439606207, 51.840225240249609 ], [ 4.42995008331002, 51.838093329790894 ], [ 4.432580907872838, 51.837029298234619 ], [ 4.424148245723361, 51.831003597875871 ], [ 4.424007173306712, 51.831054635407611 ], [ 4.423540492521765, 51.832439399737325 ], [ 4.421996740088955, 51.831506911422089 ], [ 4.421924009195595, 51.830055418674796 ], [ 4.421017832665104, 51.829775568069778 ], [ 4.418336476197736, 51.829487555711459 ], [ 4.415417174187204, 51.829577588780182 ], [ 4.403918031209742, 51.830588856394023 ], [ 4.399322958141659, 51.831314771560635 ], [ 4.397159762665985, 51.831177688933153 ], [ 4.380591653042127, 51.823221658828771 ], [ 4.376297219555949, 51.820577024276623 ], [ 4.374859208977713, 51.820006683128419 ], [ 4.371998758979751, 51.818211646806361 ], [ 4.369102293575621, 51.816883462252044 ], [ 4.367624102569837, 51.816860203774802 ], [ 4.366158009170347, 51.817127483199023 ], [ 4.360324701249908, 51.818496876840051 ], [ 4.355972811124447, 51.819086194270909 ], [ 4.354533386157805, 51.819091377192805 ], [ 4.344356368958765, 51.817312255640523 ], [ 4.339960596209508, 51.81673376662647 ], [ 4.338167426008681, 51.81667243146682 ], [ 4.337124519730645, 51.816346369354015 ], [ 4.336160971067342, 51.815812929780044 ], [ 4.3324959344823, 51.813429945758408 ], [ 4.330726000153971, 51.812851595512456 ], [ 4.321351412900014, 51.811937070489108 ], [ 4.312951081762049, 51.810404791719435 ], [ 4.307397804391012, 51.809089392152899 ], [ 4.305901182706371, 51.808504844554378 ], [ 4.303737092726963, 51.807277161750633 ], [ 4.298089228847321, 51.803238486958591 ], [ 4.295932467050637, 51.803733117842064 ], [ 4.293200653959353, 51.802432834263755 ], [ 4.28825540535724, 51.803190820653633 ], [ 4.283710925020312, 51.803642028730664 ], [ 4.280045026209182, 51.803761460410151 ], [ 4.27310610271869, 51.804998104860069 ], [ 4.270209757189679, 51.804979573195233 ], [ 4.268617483089622, 51.80474125705225 ], [ 4.265651208076593, 51.803880803104519 ], [ 4.263279384133529, 51.802581100863286 ], [ 4.261317526134415, 51.800005904634261 ], [ 4.259912836814411, 51.798533507129527 ], [ 4.252955311626315, 51.79228938247654 ], [ 4.246696819348373, 51.78526530577323 ], [ 4.245075905077924, 51.785973554812848 ], [ 4.243563270835166, 51.785245054826838 ], [ 4.240282806273019, 51.785076686368861 ], [ 4.238820045278409, 51.785561179919235 ], [ 4.238481087354128, 51.785498307403536 ], [ 4.237650235694805, 51.785782907940934 ], [ 4.235752326341032, 51.785985793367047 ], [ 4.235189896365352, 51.786340937447548 ], [ 4.233661490319816, 51.786673840249328 ], [ 4.233021450955844, 51.787157217125056 ], [ 4.231717153918558, 51.787373124547798 ], [ 4.231354859863809, 51.787623964119931 ], [ 4.230002006443295, 51.787960325619387 ], [ 4.228460016583465, 51.789073674785087 ], [ 4.228385349703436, 51.789483933594475 ], [ 4.228071933806786, 51.789793728030496 ], [ 4.228268583813337, 51.790310580970427 ], [ 4.227601354669702, 51.79072576281834 ], [ 4.226838479587556, 51.790941146244542 ], [ 4.226724141162475, 51.791348445261001 ], [ 4.226874439221547, 51.792070258062708 ], [ 4.226476029636086, 51.79112795349532 ], [ 4.225949786714149, 51.791147166382949 ], [ 4.225799254551101, 51.791607135645442 ], [ 4.225416013358823, 51.791961970309757 ], [ 4.225153249661974, 51.792521620050081 ], [ 4.224253038512551, 51.79305602484397 ], [ 4.222893361088499, 51.793361131352633 ], [ 4.222772757761906, 51.793721521523089 ], [ 4.222245150748032, 51.794119721386551 ], [ 4.221404486092233, 51.794426048861233 ], [ 4.221373820780233, 51.79462189307764 ], [ 4.221830588142605, 51.795159855717202 ], [ 4.221479201254085, 51.795455032386755 ], [ 4.221401728286033, 51.796128844929981 ], [ 4.221553256521291, 51.796334934716995 ], [ 4.221355010206473, 51.796475687519312 ], [ 4.220649710389006, 51.796677098396657 ], [ 4.220129265933995, 51.796515168501074 ], [ 4.219782912103128, 51.796677106104873 ], [ 4.218659620724269, 51.796653265314511 ], [ 4.218174791295995, 51.797092281409633 ], [ 4.21756384171907, 51.796575966396311 ], [ 4.217020509281235, 51.79660367507865 ], [ 4.216658296949041, 51.796860018670714 ], [ 4.216334745311427, 51.797399197095267 ], [ 4.215542241338611, 51.797663452802944 ], [ 4.215498970071995, 51.798024726280346 ], [ 4.214860866891238, 51.79807975649814 ], [ 4.214455443833913, 51.798312787559283 ], [ 4.214361561288974, 51.799282395838354 ], [ 4.213899017383851, 51.799364067980612 ], [ 4.213565551112056, 51.799739416175193 ], [ 4.21269225446678, 51.800083739285839 ], [ 4.210888340734797, 51.800115283477552 ], [ 4.210611381965069, 51.800255363578266 ], [ 4.210540478506252, 51.800549992271691 ], [ 4.210312888349444, 51.800288952774544 ], [ 4.209914046738826, 51.800207758832613 ], [ 4.208718182806514, 51.800330395846842 ], [ 4.20780578103213, 51.800672533805042 ], [ 4.206873163892077, 51.800728791203056 ], [ 4.206294771630966, 51.8014190905945 ], [ 4.204019142960211, 51.801484202236693 ], [ 4.203416782402921, 51.80172868376409 ], [ 4.202619780190927, 51.803056270167872 ], [ 4.202043269762749, 51.803209287924723 ], [ 4.2010403145132, 51.803117868571185 ], [ 4.200867363572151, 51.803379452211885 ], [ 4.20094976821139, 51.803946460051449 ], [ 4.200336842460112, 51.803355909702702 ], [ 4.199631108404915, 51.803081003605726 ], [ 4.198527316867451, 51.803090273191309 ], [ 4.197854102826221, 51.803425773429815 ], [ 4.196850725846613, 51.803326223220395 ], [ 4.196065764013793, 51.803458516554706 ], [ 4.195010663702248, 51.804008859487745 ], [ 4.194503765195995, 51.804072792148617 ], [ 4.194437079841858, 51.804283790256818 ], [ 4.193848854277582, 51.804081815584311 ], [ 4.194105751817239, 51.803753918693253 ], [ 4.193969107993131, 51.803592254536305 ], [ 4.193067539200642, 51.804131320787953 ], [ 4.185949767364621, 51.804354940012644 ], [ 4.185362730321276, 51.804190097095869 ], [ 4.184942215737658, 51.803595831141223 ], [ 4.183550028602842, 51.803492095467078 ], [ 4.183566510163077, 51.803717023673769 ], [ 4.184792395168764, 51.803888265479443 ], [ 4.184947211746776, 51.804121642640403 ], [ 4.183488223300864, 51.804246084586921 ], [ 4.182028323842268, 51.804688332285849 ], [ 4.181343938608274, 51.80448227015038 ], [ 4.181346383312274, 51.80468776702596 ], [ 4.181826619681522, 51.804916412113968 ], [ 4.179780129801053, 51.806861022243446 ], [ 4.178943452393887, 51.807558217702827 ], [ 4.17573943839731, 51.809437013408044 ], [ 4.173801993003934, 51.810789670075501 ], [ 4.169142541341616, 51.815149541335273 ], [ 4.166406806669446, 51.817456533395259 ], [ 4.162808904226156, 51.819331514576859 ], [ 4.159837848582454, 51.819923943796951 ], [ 4.159566734382079, 51.820171691095361 ], [ 4.159603964250113, 51.820615354874015 ], [ 4.158806274583116, 51.820913542688615 ], [ 4.158873983889686, 51.821358341504514 ], [ 4.158743048463545, 51.821619845593482 ], [ 4.157270089151737, 51.822241353744843 ], [ 4.155188570402637, 51.82244111208302 ], [ 4.147465434415753, 51.821453341166745 ], [ 4.143688050432518, 51.822637383012818 ], [ 4.14272369723506, 51.822769315841093 ], [ 4.14124484515956, 51.822682466319471 ], [ 4.139706303262631, 51.822400215241778 ], [ 4.138373130381117, 51.821012634149305 ], [ 4.13860534416847, 51.820809651762993 ], [ 4.138803090677263, 51.820093039367734 ], [ 4.139324897983792, 51.820092406156235 ], [ 4.139159278079656, 51.819887442264353 ], [ 4.136366723884859, 51.819455355534032 ], [ 4.136309098853517, 51.819663428841885 ], [ 4.136810106820164, 51.819757158201348 ], [ 4.13694193346655, 51.820384180523519 ], [ 4.136711631305065, 51.820279362719624 ], [ 4.136153694915449, 51.820611496340653 ], [ 4.135640811885668, 51.82018638697965 ], [ 4.131904057893124, 51.819682648507943 ], [ 4.131845835693437, 51.819906722900271 ], [ 4.132284481979238, 51.820314562310074 ], [ 4.135166093971433, 51.820820649551848 ], [ 4.136773004988181, 51.821883260649507 ], [ 4.13604641421985, 51.822201187574187 ], [ 4.134311550511579, 51.820995651870263 ], [ 4.133562308204431, 51.820904336721405 ], [ 4.133252013630431, 51.821095571596722 ], [ 4.133208827130451, 51.821357378429049 ], [ 4.133786457541593, 51.822459838953954 ], [ 4.133584366539768, 51.822826333677213 ], [ 4.133232640066072, 51.822752980743246 ], [ 4.130911060788113, 51.81955616309741 ], [ 4.130639528085958, 51.819724347076388 ], [ 4.128983323132743, 51.819760225062446 ], [ 4.128684198078616, 51.819179128773847 ], [ 4.12847235364254, 51.819138653067384 ], [ 4.128278608039532, 51.819543487880175 ], [ 4.128722934101823, 51.822525623277343 ], [ 4.128581912998203, 51.822650110400609 ], [ 4.128631340743579, 51.823014456470965 ], [ 4.128955534668301, 51.823164387182011 ], [ 4.130266672165111, 51.828566007318798 ], [ 4.129493558840236, 51.828463301562046 ], [ 4.129283782482572, 51.828270081116877 ], [ 4.128343263028849, 51.829487565863445 ], [ 4.129135903263764, 51.828275914584033 ], [ 4.128325144333536, 51.827164387065665 ], [ 4.12810865119259, 51.826394650565845 ], [ 4.128195821194812, 51.825418396429306 ], [ 4.128673561952718, 51.824519195022916 ], [ 4.128359954118505, 51.823177610478204 ], [ 4.128591086025948, 51.822866995170216 ], [ 4.127916524423732, 51.819244586270365 ], [ 4.127549094091226, 51.819303503025871 ], [ 4.127460443639607, 51.820057552259087 ], [ 4.126125484645688, 51.820648468531381 ], [ 4.125600046026522, 51.820520063095294 ], [ 4.125987894724725, 51.820204740353006 ], [ 4.125877104439977, 51.820036301179556 ], [ 4.125154835253787, 51.820503571077374 ], [ 4.124326373363865, 51.820538182336826 ], [ 4.124332587461136, 51.82074609926746 ], [ 4.125192046857731, 51.820774482394356 ], [ 4.125342991779023, 51.82100344119754 ], [ 4.124080697299955, 51.821562291025991 ], [ 4.122789569574936, 51.82151743932107 ], [ 4.122610950784161, 51.820739106038801 ], [ 4.1215248454114, 51.820266215290253 ], [ 4.12115174454336, 51.820301101005256 ], [ 4.121162424540991, 51.820506587457501 ], [ 4.121600267679774, 51.820747871515309 ], [ 4.12207691648432, 51.821864380432345 ], [ 4.121214642631805, 51.822114708701605 ], [ 4.121127319687897, 51.822316060278574 ], [ 4.121975907693257, 51.82244204638782 ], [ 4.122758834186537, 51.824494942425481 ], [ 4.122940127017849, 51.824539695714286 ], [ 4.123423427178465, 51.825599322874226 ], [ 4.12182203261003, 51.825891925996778 ], [ 4.122092637937952, 51.826734438738704 ], [ 4.121608896561541, 51.826819704264146 ], [ 4.12158727602815, 51.826591176267407 ], [ 4.121310071715867, 51.826423122292965 ], [ 4.119765783196679, 51.826443897140734 ], [ 4.118814651526088, 51.824281144940663 ], [ 4.118926902684442, 51.824179607042296 ], [ 4.118809277573725, 51.823870616183655 ], [ 4.118574986345452, 51.823830691538028 ], [ 4.118191623164745, 51.822989739472185 ], [ 4.118307656926524, 51.822841075048409 ], [ 4.117695388063467, 51.82185725312565 ], [ 4.11938591408416, 51.821004757159798 ], [ 4.119563845309435, 51.821047955244943 ], [ 4.119707235693468, 51.820669158623261 ], [ 4.119295727663694, 51.820527329984827 ], [ 4.116941320445003, 51.821711707186857 ], [ 4.116644210786162, 51.822758991872121 ], [ 4.11749258434403, 51.824506301192876 ], [ 4.117479113092159, 51.824916944673035 ], [ 4.116836644552999, 51.825728548191812 ], [ 4.115430040185567, 51.826698848432493 ], [ 4.112365057949034, 51.827359287552845 ], [ 4.11139038246981, 51.827169948706143 ], [ 4.10938263740838, 51.827424792758684 ], [ 4.107889664800676, 51.827347903334321 ], [ 4.107281296600309, 51.827565866370385 ], [ 4.106443444862751, 51.827516450646797 ], [ 4.103574111047183, 51.827967273658679 ], [ 4.102115762675431, 51.828421640702103 ], [ 4.100744096470481, 51.828447193236556 ], [ 4.10049250534835, 51.828618524901493 ], [ 4.09972882688529, 51.8286751448262 ], [ 4.099508579314156, 51.828568662198819 ], [ 4.098220385589878, 51.828668188205057 ], [ 4.099570168825481, 51.828228015695423 ], [ 4.101016252826221, 51.828284017056561 ], [ 4.102775061284348, 51.827431193789991 ], [ 4.103045151084158, 51.8275564188475 ], [ 4.10347630976197, 51.827083206861339 ], [ 4.103487883420788, 51.82683636211344 ], [ 4.102517407802008, 51.826481808824347 ], [ 4.101365401682964, 51.82679323816717 ], [ 4.100802195135715, 51.827245988839188 ], [ 4.100636150111717, 51.827053076882869 ], [ 4.099664328413366, 51.827124239878984 ], [ 4.09919720611189, 51.827544302657365 ], [ 4.098769590610861, 51.827462509844118 ], [ 4.098133568031126, 51.827605460836466 ], [ 4.097578872735884, 51.82796444148277 ], [ 4.097158173301073, 51.828659706034209 ], [ 4.096870456507188, 51.828680329565536 ], [ 4.096138587180413, 51.828361201448992 ], [ 4.09431839434433, 51.828762969043112 ], [ 4.09332839233508, 51.829698443192584 ], [ 4.092559109827692, 51.830192971165282 ], [ 4.090375344630973, 51.831194879209804 ], [ 4.090129645004311, 51.831583894713219 ], [ 4.089320290637406, 51.832038231608152 ], [ 4.088423501290058, 51.832264229006057 ], [ 4.086324935255312, 51.833605545028128 ], [ 4.0837639648571, 51.835409725924542 ], [ 4.082920107875884, 51.836310524355099 ], [ 4.081245183203037, 51.837547451111114 ], [ 4.076644568346417, 51.840766801561365 ], [ 4.073873068355987, 51.842460114846268 ], [ 4.07192271780508, 51.842465474931132 ], [ 4.05915177617218, 51.837965856312024 ], [ 4.057701408599733, 51.837364294105441 ], [ 4.055437738632052, 51.835797935933982 ], [ 4.053297817440911, 51.836839442335474 ], [ 4.053289419677914, 51.83700600531828 ], [ 4.056261435538222, 51.839232677739496 ], [ 4.059088449295267, 51.840947952401919 ], [ 4.061982812717515, 51.842255836207322 ], [ 4.066631605321542, 51.843816841660377 ], [ 4.067335617618721, 51.845230487764667 ], [ 4.067871542563391, 51.846802736005436 ], [ 4.067932384244586, 51.848076012107256 ], [ 4.067443617081711, 51.849949896600677 ], [ 4.066592498345694, 51.851344861287821 ], [ 4.064625538231942, 51.853729312043107 ], [ 4.062964139983793, 51.85500606817979 ], [ 4.061088832333183, 51.857166588753778 ], [ 4.057729573228558, 51.86031287784153 ], [ 4.052629384161599, 51.865749877225696 ], [ 4.048613913525852, 51.869455721822042 ], [ 4.043746515229981, 51.873424547922383 ], [ 4.040900292953376, 51.876088963002609 ], [ 4.03365797198956, 51.882192150520588 ], [ 4.030140311065451, 51.884261307427437 ], [ 4.029687491450123, 51.884688056242659 ], [ 4.028902314597298, 51.88580538234995 ], [ 4.028515747443115, 51.887802941247422 ], [ 4.029064270505014, 51.89007403683248 ], [ 4.030102541614347, 51.891888703847783 ], [ 4.032262434241733, 51.893869109607699 ], [ 4.034863289028592, 51.8955804010007 ], [ 4.037050986807524, 51.897871074315077 ], [ 4.040732763628276, 51.901202666314283 ], [ 4.04297914663175, 51.903546174940381 ], [ 4.045049195042047, 51.906225034901155 ], [ 4.0459313822528, 51.906575887962646 ], [ 4.047569605082507, 51.909423026980349 ], [ 4.048114036474188, 51.909813651491724 ], [ 4.048333114286012, 51.910174869688682 ], [ 4.048707614893007, 51.910393064148735 ], [ 4.048970247324578, 51.910347771348107 ], [ 4.048854901042684, 51.909480374697239 ], [ 4.04800379444525, 51.908315350912048 ], [ 4.047420677085586, 51.907066672873405 ], [ 4.045274462167804, 51.904965745217801 ], [ 4.042601556990866, 51.901808552873717 ], [ 4.044861204508762, 51.903558158341113 ], [ 4.048039362645317, 51.90654784026966 ], [ 4.04877268215168, 51.906995797068788 ], [ 4.049504530328918, 51.907039118952063 ], [ 4.050394034758638, 51.907361651192893 ], [ 4.05254224678704, 51.909081972821639 ], [ 4.052916386888056, 51.909673641279753 ], [ 4.05135659406909, 51.909781596125804 ], [ 4.050704660172618, 51.908915175910074 ], [ 4.050901868810133, 51.908686503586075 ], [ 4.050824568181551, 51.908475965424351 ], [ 4.050326998576156, 51.908417400150746 ], [ 4.050037551643422, 51.908671457107246 ], [ 4.050020437734827, 51.909003531726462 ], [ 4.051199706927733, 51.912173857895709 ], [ 4.051071888838249, 51.91281752822902 ], [ 4.052089947607021, 51.913285522125378 ], [ 4.053996456403409, 51.914987319400637 ], [ 4.054088342309673, 51.915601067564225 ], [ 4.053344177909238, 51.916972813851878 ], [ 4.052440466360417, 51.917276653281029 ], [ 4.052514361411108, 51.917580949125437 ], [ 4.052297565490306, 51.918019124574414 ], [ 4.052618409832523, 51.918141449676391 ], [ 4.053770384882033, 51.917657548854194 ], [ 4.057432615321643, 51.915444758233392 ], [ 4.058102176681644, 51.915384613834121 ], [ 4.047765066389235, 51.921208178606364 ], [ 4.042457666023259, 51.923275573123782 ], [ 4.038922413497323, 51.923986680429145 ], [ 4.037286163311231, 51.923742628411638 ], [ 4.033820415466201, 51.922429999728024 ], [ 4.032109903325344, 51.922275428036549 ], [ 4.031542457537417, 51.922385996633452 ], [ 4.029484876705732, 51.921625454898042 ], [ 4.027192112543039, 51.921587529123137 ], [ 4.026469632395972, 51.92147115544595 ], [ 4.025293673060149, 51.920974686550416 ], [ 4.027844504326715, 51.920994078902154 ], [ 4.03084013802628, 51.921300441004504 ], [ 4.030872086420501, 51.921096008005676 ], [ 4.030671955453622, 51.920856518420152 ], [ 4.030205350628417, 51.920653397682528 ], [ 4.02920424353684, 51.920711054779709 ], [ 4.029231389246108, 51.920561907519996 ], [ 4.029023090908493, 51.920420267175729 ], [ 4.027125189669823, 51.920228160838967 ], [ 4.018955381159412, 51.920528161987171 ], [ 4.017218172654321, 51.918929710754746 ], [ 4.016130084555889, 51.91836746921998 ], [ 4.01386172375117, 51.918195971392947 ], [ 4.010961595184773, 51.917519793713993 ], [ 4.008494050450678, 51.917536658195772 ], [ 4.008521081379455, 51.917760712404231 ], [ 4.008753162708035, 51.917923817524716 ], [ 4.011591489098605, 51.91843771832248 ], [ 4.011582069988583, 51.918567295615389 ], [ 4.010956329210916, 51.918582941724566 ], [ 4.006776005108722, 51.917444248090987 ], [ 4.004062652813411, 51.917007672472621 ], [ 4.002525804892447, 51.916349622310861 ], [ 4.003001583778442, 51.916465753287795 ], [ 4.002869146769278, 51.916092265615241 ], [ 4.001288181252766, 51.915674967339633 ] ], [ [ 4.000997416815256, 51.91602688792176 ], [ 3.998890530100482, 51.915918459632628 ], [ 3.998492754160282, 51.915706992430465 ], [ 3.998422812635964, 51.915489399446301 ], [ 3.99976573051257, 51.915578311429201 ], [ 4.001182224218383, 51.916029067617082 ], [ 4.000997416815256, 51.91602688792176 ] ], [ [ 4.133770938798549, 51.823152983085777 ], [ 4.133878206926654, 51.823194823863588 ], [ 4.133994256832459, 51.823427688809822 ], [ 4.133852605765448, 51.823346356539922 ], [ 4.133770938798549, 51.823152983085777 ] ], [ [ 4.228644351404926, 51.792843766982841 ], [ 4.228709382020096, 51.79285725967673 ], [ 4.228763616102657, 51.792966484222951 ], [ 4.228608118314717, 51.792841895136192 ], [ 4.228644351404926, 51.792843766982841 ] ], [ [ 4.229943180771295, 51.793806675706435 ], [ 4.229914995300777, 51.793821761194636 ], [ 4.229899483006729, 51.793803351583243 ], [ 4.229943180771295, 51.793806675706435 ] ] ], [ [ [ 4.224775097015113, 51.913104792615421 ], [ 4.222860055842163, 51.915956815500842 ], [ 4.21946618768051, 51.919533273605808 ], [ 4.218949280347411, 51.922524920571924 ], [ 4.187035857789554, 51.938443291830417 ], [ 4.186999453074633, 51.938591417744988 ], [ 4.19128314718766, 51.941849110381916 ], [ 4.209385936657491, 51.935200282613884 ], [ 4.214141105209811, 51.93329674749468 ], [ 4.219915073598693, 51.930591116906328 ], [ 4.224098121525198, 51.928101342616998 ], [ 4.226825997995035, 51.925988600649561 ], [ 4.232241201698971, 51.920776105005601 ], [ 4.232207193044479, 51.920618032848971 ], [ 4.227565673694326, 51.918559862658618 ], [ 4.228051587765507, 51.918071251038683 ], [ 4.227338256118872, 51.917747149427598 ], [ 4.229983127834883, 51.915824973705412 ], [ 4.231095040716972, 51.915198155518901 ], [ 4.231851148782652, 51.915033346959611 ], [ 4.231854086002647, 51.914771269066584 ], [ 4.232068030755341, 51.914652092538063 ], [ 4.235499589185616, 51.912913110978458 ], [ 4.236322776653958, 51.913360394833802 ], [ 4.23721099438057, 51.913343387493455 ], [ 4.23953648165464, 51.912283375725146 ], [ 4.242571735583327, 51.911615553712707 ], [ 4.242651042924318, 51.911463616107802 ], [ 4.242412845283948, 51.910855929625761 ], [ 4.242951251674427, 51.910741704817866 ], [ 4.244258202471141, 51.9110026179833 ], [ 4.246962010489556, 51.912433415389465 ], [ 4.247476915116577, 51.912388127358284 ], [ 4.247903609682925, 51.912782017331971 ], [ 4.255344662212924, 51.910309582237041 ], [ 4.266282082860232, 51.905887820401865 ], [ 4.263963864198218, 51.901166423491198 ], [ 4.264413933301501, 51.900851609132474 ], [ 4.264394999587188, 51.900386072119154 ], [ 4.263701017414603, 51.898953151817288 ], [ 4.262357278387783, 51.897340104339612 ], [ 4.26242096957519, 51.896928078790303 ], [ 4.261071759116937, 51.896268213668471 ], [ 4.259894252822482, 51.896227204575005 ], [ 4.253420523322211, 51.897500515303648 ], [ 4.253301098830181, 51.897609760055943 ], [ 4.25337044257003, 51.897818997449598 ], [ 4.244422382670905, 51.899523206451072 ], [ 4.244153860385915, 51.899255890437878 ], [ 4.242267355364465, 51.899619873394904 ], [ 4.242123963958728, 51.89971884554604 ], [ 4.242154176878212, 51.899954441700814 ], [ 4.235125728365293, 51.901291915090646 ], [ 4.234325192075782, 51.901843597153018 ], [ 4.23353386384437, 51.901617444548478 ], [ 4.232208316521956, 51.902177277686199 ], [ 4.230784493274074, 51.901959614874421 ], [ 4.227904984599861, 51.903102696391699 ], [ 4.22785046453239, 51.903267390241503 ], [ 4.228046497839809, 51.903343648962561 ], [ 4.226099153274608, 51.910127613444722 ], [ 4.224775097015113, 51.913104792615421 ] ] ] ] } }
]
}
