{
"type": "FeatureCollection",
"name": "SWVPO2812",
"crs": { "type": "name", "properties": { "name": "urn:ogc:def:crs:OGC:1.3:CRS84" } },
"features": [
{ "type": "Feature", "properties": { "PO SWV": "PO2812", "strokeColor": "#A9A9A9", "strokeWidth": 2, "fillColor": "#ADD8E6" }, "geometry": { "type": "Polygon", "coordinates": [ [ [ 4.378693236819561, 52.191367862878757 ], [ 4.384150676873102, 52.196646841248011 ], [ 4.384954456816627, 52.197595507069948 ], [ 4.386032067273514, 52.199416553736519 ], [ 4.388616324294283, 52.203048447849291 ], [ 4.391285102059964, 52.205801556307414 ], [ 4.392029836459072, 52.207254539206126 ], [ 4.394168831641473, 52.209424445593534 ], [ 4.394501638688524, 52.210227834771445 ], [ 4.395902467376374, 52.211634532147045 ], [ 4.397270991960389, 52.212297146887117 ], [ 4.398068780200494, 52.211572989611739 ], [ 4.397879619124532, 52.211865108720573 ], [ 4.398093352494502, 52.211989984000532 ], [ 4.399634822461335, 52.211000848658735 ], [ 4.400122563073272, 52.210998439063637 ], [ 4.397915552700528, 52.212298483751375 ], [ 4.397784631480934, 52.212627757574339 ], [ 4.398261948215954, 52.213953492913923 ], [ 4.398750603129195, 52.214077807592638 ], [ 4.39908094287833, 52.213759994652726 ], [ 4.399526765960496, 52.213963468860918 ], [ 4.400525124670131, 52.215196784065462 ], [ 4.403935696775766, 52.218271315944243 ], [ 4.406332749797089, 52.220843898356883 ], [ 4.407199735374559, 52.221543981891934 ], [ 4.407514960689041, 52.222080935016706 ], [ 4.411330766741059, 52.22583417867461 ], [ 4.41331683271755, 52.22844906134705 ], [ 4.414546516650167, 52.229585000556227 ], [ 4.416308584749895, 52.231575071137058 ], [ 4.417245403056732, 52.232874942250461 ], [ 4.41822324386448, 52.233802560642161 ], [ 4.421414955440049, 52.238177640398128 ], [ 4.422836004373842, 52.239806883489514 ], [ 4.42535320332189, 52.243170744256943 ], [ 4.426322432499434, 52.244072217528355 ], [ 4.430351333846636, 52.249221787775497 ], [ 4.434399405212794, 52.253812983678628 ], [ 4.439106487424641, 52.258220902668512 ], [ 4.440991519500962, 52.260475498864452 ], [ 4.441801329432365, 52.26115569807007 ], [ 4.443377167501903, 52.263202871719677 ], [ 4.445314246298945, 52.265035852248374 ], [ 4.450353466963268, 52.27158286399235 ], [ 4.451792320238689, 52.273078495702563 ], [ 4.452663792796181, 52.274383695844129 ], [ 4.455689719873607, 52.277970963899612 ], [ 4.456556357805062, 52.279335263376737 ], [ 4.45879204311125, 52.281821955481263 ], [ 4.462065832291542, 52.286136054933948 ], [ 4.464352343903569, 52.288747504237143 ], [ 4.466283073115427, 52.291577528524215 ], [ 4.475440436056467, 52.303371429226956 ], [ 4.481209357394381, 52.311213051107266 ], [ 4.485575056819137, 52.316798040004073 ], [ 4.487033601520912, 52.318958323666806 ], [ 4.489421309824603, 52.321834516346506 ], [ 4.490865702239194, 52.324142356088245 ], [ 4.493927495981822, 52.328288062761644 ], [ 4.53037494083177, 52.31848836696323 ], [ 4.5473812723005, 52.314084638276675 ], [ 4.553979298860882, 52.312038432601717 ], [ 4.557695478070027, 52.311154702848768 ], [ 4.563671647298654, 52.309411905987908 ], [ 4.566154542611019, 52.312432794623291 ], [ 4.566751642543427, 52.312943729402761 ], [ 4.568912810823426, 52.316603199203215 ], [ 4.573250721872093, 52.31546285726283 ], [ 4.583261617393607, 52.31849446066385 ], [ 4.585831144011556, 52.318289613905009 ], [ 4.586313567731628, 52.317935047579752 ], [ 4.586013040465379, 52.317626621497674 ], [ 4.586233106457568, 52.317346283188179 ], [ 4.587490152595292, 52.316862079137429 ], [ 4.587791498012519, 52.316957132043278 ], [ 4.587562997573975, 52.317533485892596 ], [ 4.587680065208464, 52.317980719595482 ], [ 4.596560312583704, 52.3178225400409 ], [ 4.599005932545937, 52.317344173916062 ], [ 4.601349913122599, 52.316665432069577 ], [ 4.603087560212173, 52.315927108116533 ], [ 4.611766400548531, 52.31360274857856 ], [ 4.611717363392776, 52.312465896675683 ], [ 4.6111814938515, 52.311539762835217 ], [ 4.604518730832677, 52.30591812116414 ], [ 4.597558451672037, 52.296619862868603 ], [ 4.597176426322481, 52.296037786964511 ], [ 4.596470997888465, 52.294145733791098 ], [ 4.596345589108956, 52.291979702740292 ], [ 4.596134747050518, 52.291318711332494 ], [ 4.591258842775046, 52.28567608928563 ], [ 4.588940298059308, 52.281017442609588 ], [ 4.58851450873888, 52.280435226833269 ], [ 4.569030543081961, 52.268932680620544 ], [ 4.568058332302146, 52.268021538855656 ], [ 4.567966953420846, 52.267311520589338 ], [ 4.569589815104244, 52.260336330711276 ], [ 4.569619891363954, 52.259677684145593 ], [ 4.56764717277932, 52.249189663683012 ], [ 4.563028154925857, 52.234717186456486 ], [ 4.562399496271764, 52.233821332020838 ], [ 4.56125661220988, 52.233123515884081 ], [ 4.55560869348299, 52.231914193864156 ], [ 4.554261859224203, 52.231313124864528 ], [ 4.553697709105786, 52.230864107816977 ], [ 4.550933379594049, 52.227489767157103 ], [ 4.550558558302896, 52.226650419440354 ], [ 4.550653646345509, 52.226020518185855 ], [ 4.550892851002019, 52.225627467046017 ], [ 4.556599478810422, 52.219415131060011 ], [ 4.55852233119748, 52.218843772395772 ], [ 4.558290109390865, 52.218252008527188 ], [ 4.557644567004441, 52.217413128111495 ], [ 4.557265057689198, 52.216487194904367 ], [ 4.557288242329676, 52.216266362061475 ], [ 4.557959059451218, 52.215503223902289 ], [ 4.557932754608133, 52.215046995578149 ], [ 4.557023235970055, 52.214432191505821 ], [ 4.556665405106908, 52.214603498673263 ], [ 4.555971344352645, 52.214279040744948 ], [ 4.554948109247909, 52.213505077246701 ], [ 4.554389673277083, 52.212269385877136 ], [ 4.554723678189857, 52.212034569151228 ], [ 4.555753336219419, 52.211897392002129 ], [ 4.559028430035471, 52.210309052509878 ], [ 4.558376634051871, 52.208652678679854 ], [ 4.55813383647894, 52.208611103505611 ], [ 4.558281027286939, 52.206697662359105 ], [ 4.558399610059521, 52.206576659269494 ], [ 4.558362104747609, 52.205521712475282 ], [ 4.560731439575281, 52.204868346615989 ], [ 4.560637083039325, 52.203758193977031 ], [ 4.561714532889682, 52.203757169918049 ], [ 4.561800615183238, 52.203629295401342 ], [ 4.561255051464197, 52.202753541627999 ], [ 4.559658601728551, 52.201902569110473 ], [ 4.55970419956131, 52.200413073136076 ], [ 4.555676889911302, 52.200053382091973 ], [ 4.555653120681042, 52.199649821097331 ], [ 4.555334129605969, 52.19959948568458 ], [ 4.555635086722672, 52.199460870619504 ], [ 4.555665624633352, 52.199272502149917 ], [ 4.556737412259076, 52.198885667163879 ], [ 4.556860642223072, 52.198246993345784 ], [ 4.557241463302845, 52.197792552040205 ], [ 4.557189748283037, 52.197648066744279 ], [ 4.554031364796129, 52.197483226730064 ], [ 4.554017190308637, 52.198234557800689 ], [ 4.549286060403256, 52.198262461572924 ], [ 4.549261081129195, 52.198839356227687 ], [ 4.546837074211931, 52.198874565502521 ], [ 4.544580261152856, 52.192193156704867 ], [ 4.54462502008504, 52.191513541466158 ], [ 4.543097410421612, 52.188089395106275 ], [ 4.543064862449071, 52.187723515497979 ], [ 4.544106816064101, 52.18756332480762 ], [ 4.544173784127479, 52.187421870684261 ], [ 4.53957417386768, 52.181599583764729 ], [ 4.53883618202183, 52.180882264032142 ], [ 4.538700347167564, 52.180032010360939 ], [ 4.536645461549966, 52.179741133263306 ], [ 4.533565659320031, 52.179812118186526 ], [ 4.533320752622096, 52.179594652096576 ], [ 4.528162917135218, 52.179751893275537 ], [ 4.518346298827711, 52.182018796556129 ], [ 4.518266956826662, 52.182407086117522 ], [ 4.517189846615061, 52.182620235950104 ], [ 4.509419107740555, 52.183803696907418 ], [ 4.503402007357849, 52.18452615871859 ], [ 4.502408598645847, 52.184419674865531 ], [ 4.500805831151595, 52.183925215889971 ], [ 4.495333963385946, 52.183840318305769 ], [ 4.49498503522365, 52.182498830882167 ], [ 4.494259512417422, 52.182013339123863 ], [ 4.494382296614124, 52.18158502876171 ], [ 4.492944327253631, 52.181447034922769 ], [ 4.492688267742215, 52.181207459058577 ], [ 4.491448537564782, 52.18085292544982 ], [ 4.490587511074939, 52.18097698232053 ], [ 4.489425536669753, 52.181706545627932 ], [ 4.491069467575123, 52.184654102625927 ], [ 4.491204224564918, 52.185371801415769 ], [ 4.490995275400795, 52.186314527273581 ], [ 4.490711138701117, 52.186737064578253 ], [ 4.489301663939706, 52.187105151766495 ], [ 4.489722506680343, 52.18764113231498 ], [ 4.488342727773906, 52.188913992710717 ], [ 4.487769030170338, 52.189806943446705 ], [ 4.487635570737959, 52.190403956812744 ], [ 4.487854388156941, 52.190852457738032 ], [ 4.490368097522934, 52.193214181682933 ], [ 4.492111251809648, 52.194382494065735 ], [ 4.492426465053998, 52.194282393828715 ], [ 4.493322881322555, 52.194988215498235 ], [ 4.492548183659865, 52.197563737415535 ], [ 4.492142359677779, 52.201278743324451 ], [ 4.491384226156191, 52.203563218362845 ], [ 4.490591119750461, 52.203332722183973 ], [ 4.489846519499666, 52.203858424868166 ], [ 4.488025548687728, 52.202823203539026 ], [ 4.486710839388633, 52.204062649133583 ], [ 4.484431808405057, 52.202933799827719 ], [ 4.484052295494697, 52.203070716811936 ], [ 4.483939951651111, 52.203431728217076 ], [ 4.483658563747765, 52.203349372458455 ], [ 4.483277262041356, 52.203517879029761 ], [ 4.479755995395068, 52.20210443865934 ], [ 4.479402624623058, 52.202371402847795 ], [ 4.479634732428576, 52.202606451006915 ], [ 4.479458375356187, 52.203366690703419 ], [ 4.478432470636318, 52.204698346562104 ], [ 4.477325462273, 52.203748768738031 ], [ 4.476291349108897, 52.203135569885234 ], [ 4.472857814717709, 52.202560885353101 ], [ 4.471538397623826, 52.201503203386416 ], [ 4.470663624050859, 52.201505462271371 ], [ 4.470385050331579, 52.201727581700915 ], [ 4.470227794958222, 52.202162425453636 ], [ 4.467671173187653, 52.201833326672137 ], [ 4.467453597834911, 52.201730060820005 ], [ 4.46727819619232, 52.2012775687298 ], [ 4.466346758105395, 52.200456963571241 ], [ 4.464834086996452, 52.200130821580046 ], [ 4.463970895798606, 52.20021242634671 ], [ 4.463388295035058, 52.200013476421006 ], [ 4.463330589751116, 52.199787659277618 ], [ 4.463574758211315, 52.199324429025786 ], [ 4.462932917043459, 52.19829663040629 ], [ 4.462031402537552, 52.197262754690477 ], [ 4.466188160460713, 52.19751320997149 ], [ 4.466466924863748, 52.196860464231847 ], [ 4.46616658781383, 52.196272915343023 ], [ 4.464990538282197, 52.195045164324036 ], [ 4.464726022490776, 52.195077354651445 ], [ 4.464452041109949, 52.194896546748623 ], [ 4.464184658621893, 52.194106390783119 ], [ 4.463716788682311, 52.193364161976461 ], [ 4.462811145703997, 52.19313091079966 ], [ 4.46354384910261, 52.192818956267161 ], [ 4.463625935977436, 52.192633568795095 ], [ 4.458668941338645, 52.183366776957442 ], [ 4.458150222204558, 52.18337022908387 ], [ 4.458082494987513, 52.183527853375658 ], [ 4.454775741125963, 52.183534129530926 ], [ 4.452635611510288, 52.183004840545841 ], [ 4.452038568566727, 52.18299116671129 ], [ 4.451955481942541, 52.182790799514443 ], [ 4.448363901342955, 52.182509492728762 ], [ 4.440081335129682, 52.180970868079847 ], [ 4.437703839183077, 52.181615580080823 ], [ 4.435155322398155, 52.180843855544218 ], [ 4.435755591428927, 52.180562543416528 ], [ 4.437630530169883, 52.180194743058316 ], [ 4.443977448525433, 52.179357174657511 ], [ 4.445865169962241, 52.178893550564446 ], [ 4.446723807774149, 52.178457001786626 ], [ 4.448058813936198, 52.17737630503072 ], [ 4.448894169070737, 52.175605772780393 ], [ 4.448938538810253, 52.174947630311003 ], [ 4.448689848599542, 52.173383974817547 ], [ 4.445690780591485, 52.169812445490471 ], [ 4.445483914552157, 52.167783160931265 ], [ 4.445592420816614, 52.166452796803661 ], [ 4.445954576325185, 52.165597491517268 ], [ 4.44675565794068, 52.164250886435909 ], [ 4.448459829219265, 52.162011724186584 ], [ 4.445928990355607, 52.159641529514225 ], [ 4.445343598361365, 52.159334978490755 ], [ 4.445134511395425, 52.158905257376126 ], [ 4.444138331627014, 52.15798181215937 ], [ 4.440471379072275, 52.15555563715904 ], [ 4.439514023266476, 52.156031070224515 ], [ 4.438287409659311, 52.156376711781569 ], [ 4.434735491098731, 52.157053422098741 ], [ 4.434245292198374, 52.157354752404949 ], [ 4.43113521672805, 52.158380952863126 ], [ 4.425947530234645, 52.159133373812402 ], [ 4.419763646860743, 52.162236165099962 ], [ 4.418172921382338, 52.161420142210225 ], [ 4.41777056764467, 52.161378775968075 ], [ 4.415950697862272, 52.162108757490742 ], [ 4.414962250044079, 52.162244895710622 ], [ 4.414177710938997, 52.162686420328122 ], [ 4.413122576903586, 52.16371659479799 ], [ 4.412142782968663, 52.163368704060723 ], [ 4.411548609444043, 52.163390635372188 ], [ 4.410969577679658, 52.164092923392779 ], [ 4.410467430281574, 52.166064995101898 ], [ 4.409782259967522, 52.167025054105856 ], [ 4.41009342408021, 52.167781561076218 ], [ 4.409257899846119, 52.169208844592283 ], [ 4.404754515454996, 52.167414287905707 ], [ 4.404083631769354, 52.168272242495334 ], [ 4.400161617249339, 52.171217345995679 ], [ 4.3991509994937, 52.171810927012473 ], [ 4.398968590719242, 52.171764760702985 ], [ 4.397566354098934, 52.173103521075888 ], [ 4.395972167335993, 52.173592982090526 ], [ 4.394965244642105, 52.174520552429577 ], [ 4.392225515858764, 52.17499184810243 ], [ 4.391591059801074, 52.175805727703171 ], [ 4.37436751479256, 52.186798673089065 ], [ 4.37435996884664, 52.186941618305127 ], [ 4.378693236819561, 52.191367862878757 ] ] ] } }
]
}
