{
"type": "FeatureCollection",
"name": "SWVPO2806",
"crs": { "type": "name", "properties": { "name": "urn:ogc:def:crs:OGC:1.3:CRS84" } },
"features": [
{ "type": "Feature", "properties": { "PO SWV": "PO2806", "strokeColor": "#A9A9A9", "strokeWidth": 2, "fillColor": "#ADD8E6" }, "geometry": { "type": "Polygon", "coordinates": [ [ [ 3.962382207746107, 51.954035432761984 ], [ 3.961615173946957, 51.9560687969635 ], [ 3.961087665603647, 51.960545011412329 ], [ 3.961351073734806, 51.961931392261221 ], [ 3.962772506765022, 51.96502254297166 ], [ 3.963332627921092, 51.965895261619345 ], [ 3.967508584236648, 51.970705351208935 ], [ 3.968426906270061, 51.972009085649539 ], [ 3.970420271518139, 51.973647619484531 ], [ 3.971070804090886, 51.97480977889645 ], [ 3.973574561664571, 51.976987574490472 ], [ 3.975856968051558, 51.97842605650542 ], [ 3.97639197576082, 51.978921275191283 ], [ 3.976527311834672, 51.979803160761811 ], [ 3.976794317887062, 51.980326634208097 ], [ 3.977363438706559, 51.980889350440243 ], [ 3.979557205814715, 51.982928766424827 ], [ 3.980796274900884, 51.983801343041328 ], [ 3.983058506118085, 51.98492664157903 ], [ 3.986487230825937, 51.985918005989348 ], [ 3.997975505037586, 51.988383597603246 ], [ 4.000449222685759, 51.988848024989963 ], [ 4.004096258582398, 51.989137731052438 ], [ 4.008471178180652, 51.988956669430834 ], [ 4.010648163361331, 51.988653248121558 ], [ 4.023520735380929, 51.985748303006744 ], [ 4.027676318846417, 51.987025657532158 ], [ 4.029732983583426, 51.987374940856277 ], [ 4.032727378999562, 51.987596961307304 ], [ 4.036298521058416, 51.987333272551986 ], [ 4.041675230137621, 51.98607716513807 ], [ 4.045622713481353, 51.992015703664116 ], [ 4.0930263317871, 51.981936431045334 ], [ 4.108391718423858, 51.978193607676211 ], [ 4.1153476455579, 51.976308601837992 ], [ 4.121313533716183, 51.974465869200124 ], [ 4.127195055995498, 51.97231306139647 ], [ 4.133186793392854, 51.969761581996742 ], [ 4.172228194427895, 51.950090427356812 ], [ 4.181095240053128, 51.946056601941187 ], [ 4.191304148121337, 51.941843460088329 ], [ 4.186999457697955, 51.938474158773737 ], [ 4.218949280347411, 51.922524920571924 ], [ 4.21946618768051, 51.919533273605808 ], [ 4.221681384673945, 51.917327360444951 ], [ 4.223412020118264, 51.915241922120543 ], [ 4.224775097015113, 51.913104792615421 ], [ 4.225514878286353, 51.911617592974189 ], [ 4.226335062783498, 51.909368514225811 ], [ 4.228046497839809, 51.903343648962561 ], [ 4.227863055205749, 51.903140339749271 ], [ 4.230772742771467, 51.901962880902801 ], [ 4.232208316521956, 51.902177277686199 ], [ 4.23353386384437, 51.901617444548478 ], [ 4.234325192075782, 51.901843597153018 ], [ 4.235125728365293, 51.901291915090646 ], [ 4.242154176878212, 51.899954441700814 ], [ 4.242123963958728, 51.89971884554604 ], [ 4.242270428780243, 51.89961920443632 ], [ 4.244153860385915, 51.899255890437878 ], [ 4.244422382670905, 51.899523206451072 ], [ 4.25337044257003, 51.897818997449598 ], [ 4.253304156475238, 51.897594289187332 ], [ 4.253459024924293, 51.897492564780485 ], [ 4.259894252822482, 51.896227204575005 ], [ 4.260704194927944, 51.896195030373448 ], [ 4.262408333813016, 51.896913750463639 ], [ 4.262363854551813, 51.897351320153653 ], [ 4.26385066358037, 51.899189906583111 ], [ 4.264457038181972, 51.900632950535595 ], [ 4.264355815055318, 51.900929262041878 ], [ 4.263963864198218, 51.901166423491198 ], [ 4.266232164875179, 51.905775975147471 ], [ 4.274930651420885, 51.90234618025422 ], [ 4.280562525818782, 51.900459896953819 ], [ 4.286509689878912, 51.898798677870111 ], [ 4.29207272179021, 51.897629203527195 ], [ 4.301031010016258, 51.896341212738839 ], [ 4.322243146541141, 51.894175870440115 ], [ 4.326612117999487, 51.893963420121096 ], [ 4.330959750900999, 51.894002570547293 ], [ 4.335289154186017, 51.894329480700108 ], [ 4.339758154830913, 51.8949855719925 ], [ 4.344147777575304, 51.895941304058155 ], [ 4.352551159875082, 51.898235595924447 ], [ 4.356356171393416, 51.898917079745111 ], [ 4.360042755120264, 51.899331711105241 ], [ 4.365441020047109, 51.899529964462381 ], [ 4.370671790841794, 51.899251728503849 ], [ 4.384811127457353, 51.897079499227694 ], [ 4.388337475273424, 51.89667933425649 ], [ 4.391981852210863, 51.8965874053427 ], [ 4.395767780966768, 51.896825998115816 ], [ 4.399052420938144, 51.897318536125098 ], [ 4.413793425849904, 51.900699011434106 ], [ 4.412480782129733, 51.902405403147476 ], [ 4.41577087513801, 51.905059118368108 ], [ 4.413691998411844, 51.906951451854574 ], [ 4.41341898787762, 51.907292884992593 ], [ 4.413528823299426, 51.907734198218016 ], [ 4.411431425790094, 51.910323348332554 ], [ 4.409990903243076, 51.909925037351087 ], [ 4.409545179410275, 51.910509710214335 ], [ 4.409092916299358, 51.912021759326372 ], [ 4.412442736726214, 51.91320916918577 ], [ 4.412509867003602, 51.913377490624917 ], [ 4.412362125809682, 51.91346095640899 ], [ 4.412525172945979, 51.913932103519926 ], [ 4.412708277657798, 51.914029020914079 ], [ 4.418725786738594, 51.913817835148478 ], [ 4.418881648601846, 51.914343596096913 ], [ 4.415403099289064, 51.914636385639575 ], [ 4.416454778832146, 51.917583961291001 ], [ 4.416639553716409, 51.917646380930677 ], [ 4.416784169628018, 51.918168468663275 ], [ 4.416597791932843, 51.918428368262298 ], [ 4.416814294586936, 51.919156821223979 ], [ 4.417226954479877, 51.919602078217792 ], [ 4.417331280182289, 51.919974679797512 ], [ 4.417210741888823, 51.920110566764542 ], [ 4.417816940794598, 51.920200767119567 ], [ 4.417710342642081, 51.920514047664255 ], [ 4.417161895566784, 51.92052336330751 ], [ 4.417111708383125, 51.922534368532588 ], [ 4.416941398965101, 51.922681138861329 ], [ 4.41692259066745, 51.923139284202144 ], [ 4.415197140301545, 51.923120591813358 ], [ 4.410569868195993, 51.929359274597417 ], [ 4.409931750480255, 51.929232892184153 ], [ 4.409859889592425, 51.929399729898655 ], [ 4.410063808095833, 51.929658273458202 ], [ 4.409538454805547, 51.929953870768053 ], [ 4.40857805338591, 51.930905084829838 ], [ 4.40835309817918, 51.931612338592743 ], [ 4.408375145779445, 51.932237614947375 ], [ 4.408983876306008, 51.935334222726077 ], [ 4.409578801340825, 51.936108191117938 ], [ 4.410699926515481, 51.936471023060463 ], [ 4.413225251009719, 51.9365466994334 ], [ 4.416323655854634, 51.937975324146812 ], [ 4.417392740513326, 51.938213151928565 ], [ 4.417800206675808, 51.938525402763737 ], [ 4.416571823328263, 51.939613756466102 ], [ 4.415481222888705, 51.940857943051974 ], [ 4.414491805396567, 51.940189526283135 ], [ 4.414118942117356, 51.939688348535867 ], [ 4.413167570216667, 51.939149952429268 ], [ 4.410777735571313, 51.93836472409118 ], [ 4.409344295247452, 51.938088560178635 ], [ 4.408504989121996, 51.938735801007958 ], [ 4.403934353417878, 51.937362146775463 ], [ 4.402195756855432, 51.938472070298396 ], [ 4.402169622684509, 51.939014651988927 ], [ 4.401803296807294, 51.939248622588174 ], [ 4.400817462965611, 51.939336604932478 ], [ 4.400429961719021, 51.939570270759916 ], [ 4.397914911489416, 51.941338007762162 ], [ 4.395046242130712, 51.942984334251399 ], [ 4.39428454777885, 51.944072270728846 ], [ 4.393559169496909, 51.944328331132823 ], [ 4.394465387227266, 51.945467776623012 ], [ 4.395236238375194, 51.947014536311194 ], [ 4.394330748643548, 51.94720739930149 ], [ 4.38968725616728, 51.945581838707788 ], [ 4.389188544132941, 51.945695346903378 ], [ 4.384492429800789, 51.954444913292875 ], [ 4.384240641227972, 51.954458465225329 ], [ 4.379293515332304, 51.963505348537517 ], [ 4.38978317651118, 51.96522633188588 ], [ 4.390017975175655, 51.964714881577407 ], [ 4.391805314575769, 51.965005621566618 ], [ 4.393595608518898, 51.962590415929824 ], [ 4.404392576842366, 51.967055537427498 ], [ 4.405454206657159, 51.967295007062539 ], [ 4.420805060712108, 51.973496500890668 ], [ 4.426850135487583, 51.976005942988174 ], [ 4.428133631237213, 51.976720082887418 ], [ 4.434725938574075, 51.971617195868021 ], [ 4.43489759639627, 51.97163806096772 ], [ 4.44677319055469, 51.962826957273499 ], [ 4.447192854301083, 51.962844912871915 ], [ 4.45014386713152, 51.96529245680351 ], [ 4.451288858226039, 51.966057031612948 ], [ 4.456749623118693, 51.967394095395747 ], [ 4.456427263074541, 51.96782252210447 ], [ 4.457393465177939, 51.968404716047026 ], [ 4.458122288080784, 51.968157812491867 ], [ 4.458176450033164, 51.96846871479314 ], [ 4.458456761442241, 51.968666137288025 ], [ 4.460199161481926, 51.969051543708389 ], [ 4.460433659977541, 51.969376065132053 ], [ 4.461920659898284, 51.969579113488855 ], [ 4.461659133152379, 51.970442445457948 ], [ 4.460403673086768, 51.97179086315036 ], [ 4.460890183899848, 51.972083151378101 ], [ 4.461440516041058, 51.972147016118981 ], [ 4.461445345050111, 51.972357999622034 ], [ 4.462100100360216, 51.972708108127499 ], [ 4.461502506058309, 51.973837468861682 ], [ 4.461249643034585, 51.974862159422138 ], [ 4.463848488635628, 51.977121145983148 ], [ 4.463188766165826, 51.977441231675833 ], [ 4.463161412375117, 51.977587079433412 ], [ 4.464081340830472, 51.978397174472811 ], [ 4.465791987440893, 51.979032405954975 ], [ 4.468976502193005, 51.9806425915353 ], [ 4.469492788605323, 51.980423516183464 ], [ 4.470007899128508, 51.980913447897755 ], [ 4.472015652588676, 51.980197939620382 ], [ 4.471995443189663, 51.980027456676545 ], [ 4.471339999348012, 51.97949548840824 ], [ 4.482994806926897, 51.973680503610971 ], [ 4.483403781315848, 51.973323741199629 ], [ 4.485846889256798, 51.972079968183586 ], [ 4.486755253191095, 51.971823988295874 ], [ 4.495289101016197, 51.967498390342996 ], [ 4.4954050406235, 51.969391449911107 ], [ 4.495898539018522, 51.971901661564083 ], [ 4.506684800724873, 51.966436569711355 ], [ 4.506704726602866, 51.966284163576738 ], [ 4.506019807775991, 51.965674407125903 ], [ 4.50882032512727, 51.964239662579431 ], [ 4.509152244660828, 51.964395383965652 ], [ 4.510659757649025, 51.963652269789982 ], [ 4.510788392131589, 51.963506079625617 ], [ 4.510640325793567, 51.963334458459151 ], [ 4.511445402832893, 51.962932394004717 ], [ 4.511742061084885, 51.963085005968601 ], [ 4.512522142670505, 51.962697417667179 ], [ 4.513108008214876, 51.96302158088622 ], [ 4.51393704823338, 51.962746919358459 ], [ 4.518292252549038, 51.960549033561499 ], [ 4.519319741558228, 51.962146745872936 ], [ 4.520752618393654, 51.963729876773634 ], [ 4.522010791883605, 51.963985469989993 ], [ 4.523127827425417, 51.963858729732713 ], [ 4.527510083387545, 51.96561651567086 ], [ 4.527953274220893, 51.965947781342727 ], [ 4.528074487261085, 51.966706038630079 ], [ 4.528732697061332, 51.967119867901907 ], [ 4.530227006625829, 51.967361359787468 ], [ 4.531624272212462, 51.967870845137035 ], [ 4.533686819736821, 51.968024407229422 ], [ 4.534846117398637, 51.968318804425515 ], [ 4.535269885015746, 51.968650143636239 ], [ 4.535357440994439, 51.969181922086875 ], [ 4.535620751537384, 51.96920842723398 ], [ 4.535557698639005, 51.970160768397527 ], [ 4.535904080927488, 51.970393901777435 ], [ 4.536549093989335, 51.970355522760144 ], [ 4.537873308844771, 51.969918504080859 ], [ 4.539745525080509, 51.969753116647574 ], [ 4.54305958918946, 51.970895913372019 ], [ 4.545871462759238, 51.972380950997007 ], [ 4.547407544022995, 51.972722254865445 ], [ 4.547860291988193, 51.972736057004497 ], [ 4.547769521272515, 51.972596612814243 ], [ 4.548019301676183, 51.972311282005705 ], [ 4.549590504069492, 51.971449659968329 ], [ 4.549721409927574, 51.971266379452167 ], [ 4.549553794186192, 51.970991022555161 ], [ 4.551637143165265, 51.969700771679783 ], [ 4.55437724712412, 51.968383480082323 ], [ 4.554675648495865, 51.968172700561766 ], [ 4.554994717022835, 51.967514413961148 ], [ 4.555621938133391, 51.967680445884803 ], [ 4.556465835807697, 51.968419664524482 ], [ 4.55824172097461, 51.969026887410834 ], [ 4.56072172302486, 51.969602331843795 ], [ 4.56087669911683, 51.970036579476215 ], [ 4.561483015530131, 51.970221153714732 ], [ 4.56129205570432, 51.970497122545602 ], [ 4.56174456415587, 51.970724163281588 ], [ 4.561317604974892, 51.971169802814806 ], [ 4.561660541100974, 51.971330090650703 ], [ 4.561631578274248, 51.971494696343392 ], [ 4.56239591530722, 51.971811117714026 ], [ 4.562878444507681, 51.971422608440434 ], [ 4.563466896252971, 51.971715851927314 ], [ 4.565367265910591, 51.971176834802804 ], [ 4.565795329584049, 51.971356266082502 ], [ 4.566939436874368, 51.971089873800565 ], [ 4.570293414293078, 51.971925155311268 ], [ 4.571569218594554, 51.972022102916469 ], [ 4.571930624212073, 51.971771160430691 ], [ 4.573923890955073, 51.972568931356328 ], [ 4.574447465415862, 51.972822202878454 ], [ 4.57426377043706, 51.973090063790082 ], [ 4.579088376661835, 51.975833644705787 ], [ 4.578642920053599, 51.976202911785464 ], [ 4.578050176751344, 51.975930896194072 ], [ 4.577683395101396, 51.976132780252719 ], [ 4.576450628924507, 51.975797945309843 ], [ 4.575155760340709, 51.975067755335999 ], [ 4.575047139434567, 51.974923014637518 ], [ 4.575236416561459, 51.974681656229102 ], [ 4.575141338293439, 51.974621397859806 ], [ 4.574704156869862, 51.974826908925856 ], [ 4.57430944513198, 51.974626854607628 ], [ 4.573936093084532, 51.974856045524405 ], [ 4.573561685926958, 51.974700538573892 ], [ 4.570396473916666, 51.978973255692146 ], [ 4.577362193897938, 51.980688310936323 ], [ 4.574021861256034, 51.983589989389095 ], [ 4.575753715189182, 51.983848899494049 ], [ 4.578957054982069, 51.98387186360155 ], [ 4.578640763472656, 51.984935901506859 ], [ 4.577490135374084, 51.986363041657071 ], [ 4.579750937514701, 51.987214604647761 ], [ 4.578889389212754, 51.988491406363352 ], [ 4.579832770607566, 51.988863000591309 ], [ 4.57902465641614, 51.989791334915267 ], [ 4.594328846676779, 51.994166493663592 ], [ 4.598472296419907, 51.988561689876292 ], [ 4.598296365624139, 51.988471209041805 ], [ 4.598253408843617, 51.987992954750027 ], [ 4.598575419405356, 51.987986172622399 ], [ 4.596496480042364, 51.982846727036375 ], [ 4.595690539451991, 51.981741569624006 ], [ 4.595540441557277, 51.981300515119173 ], [ 4.595784821278243, 51.981183404000149 ], [ 4.595763529964676, 51.980905795571893 ], [ 4.594307145511424, 51.977789210465332 ], [ 4.594345985221044, 51.977101894409756 ], [ 4.593894737418693, 51.976531300357017 ], [ 4.593908444339046, 51.975832382312426 ], [ 4.594186920434269, 51.975495086516581 ], [ 4.595060615190185, 51.975057772537724 ], [ 4.602143461833125, 51.972146607645641 ], [ 4.601785542940956, 51.972237489549265 ], [ 4.599473128072206, 51.971578430707986 ], [ 4.596679455928648, 51.970371952534876 ], [ 4.59230043050911, 51.968779069215877 ], [ 4.590689618339305, 51.968332169973642 ], [ 4.589986249626196, 51.968674372843594 ], [ 4.585330120276486, 51.966568594799504 ], [ 4.584782665253292, 51.966024420319677 ], [ 4.58419190222381, 51.965720058270051 ], [ 4.584157435892895, 51.965552694207226 ], [ 4.583790238971691, 51.965594716855577 ], [ 4.572648153944908, 51.960188916273104 ], [ 4.567999280350048, 51.958181986631089 ], [ 4.566819367966745, 51.957992283923716 ], [ 4.564377730088955, 51.960083188476482 ], [ 4.561924728775603, 51.958961620236281 ], [ 4.562351983429902, 51.957906722168609 ], [ 4.561750347184863, 51.957791265216485 ], [ 4.561653026642307, 51.957647666881343 ], [ 4.562147402914352, 51.956845141771574 ], [ 4.561452905862383, 51.956625569902208 ], [ 4.563009429576867, 51.953057141121846 ], [ 4.563556455267502, 51.953109371577128 ], [ 4.563837885474596, 51.952332584990785 ], [ 4.564219243019312, 51.951955520818437 ], [ 4.565615521909523, 51.949522150786102 ], [ 4.572593497872734, 51.943481798917247 ], [ 4.570470670305023, 51.942523419118061 ], [ 4.560501064309492, 51.940945817597104 ], [ 4.564208553639734, 51.932119378407215 ], [ 4.564182791577602, 51.93189989126595 ], [ 4.564324847206831, 51.931844669224823 ], [ 4.565158772986336, 51.929874964163972 ], [ 4.564603921066889, 51.929529436666627 ], [ 4.564977573646575, 51.929191638466769 ], [ 4.565691050607565, 51.927362564378939 ], [ 4.565313210497758, 51.927335497260245 ], [ 4.565456601237691, 51.926002273858849 ], [ 4.564838210021032, 51.92456626332055 ], [ 4.565419578287067, 51.924673532846171 ], [ 4.564012362668795, 51.923378626108715 ], [ 4.5613823692143, 51.922251080075988 ], [ 4.561401274908013, 51.921939214930028 ], [ 4.560787000617008, 51.921679304082602 ], [ 4.561241302387643, 51.921154450674685 ], [ 4.558380314746213, 51.9193374946368 ], [ 4.557263255841, 51.92016973140224 ], [ 4.556918329408988, 51.920029513648799 ], [ 4.556325846464991, 51.92041640000798 ], [ 4.553533296439008, 51.919794876425506 ], [ 4.550717312070087, 51.919438475982687 ], [ 4.541081082633301, 51.919359715909586 ], [ 4.539124352612204, 51.919758345538952 ], [ 4.537511886538377, 51.919871008283998 ], [ 4.537465913758388, 51.91972358490672 ], [ 4.540323816534478, 51.915362729726283 ], [ 4.538193377495653, 51.915439950746453 ], [ 4.538122664943431, 51.915310006659638 ], [ 4.535665496605628, 51.914698870922862 ], [ 4.535110783278737, 51.913950715546648 ], [ 4.53520121215907, 51.913819562530108 ], [ 4.535033008192935, 51.913601223151851 ], [ 4.535452566363384, 51.913320732023003 ], [ 4.535426213040306, 51.913050332354132 ], [ 4.535716237127134, 51.9126671529731 ], [ 4.535536860965265, 51.912516844471426 ], [ 4.535960617435433, 51.911913569099454 ], [ 4.536418284407601, 51.911975061286029 ], [ 4.538419747048595, 51.910874717280436 ], [ 4.539565807035221, 51.909133644552263 ], [ 4.539744159123494, 51.909116201300186 ], [ 4.540118441381291, 51.908601580615034 ], [ 4.540172041844566, 51.908279401920382 ], [ 4.540403278033569, 51.908206341252111 ], [ 4.541555811695384, 51.906605084437125 ], [ 4.541763219725728, 51.90655524722446 ], [ 4.542067616631673, 51.906131550917998 ], [ 4.543058251685952, 51.906249034710669 ], [ 4.543248746045453, 51.906044673625274 ], [ 4.543845879859266, 51.906075076216894 ], [ 4.546156288100825, 51.906428222152975 ], [ 4.547768203833265, 51.907104581015815 ], [ 4.547543662417825, 51.907401467136168 ], [ 4.547572613082045, 51.908068376172878 ], [ 4.547819537572498, 51.908453231137941 ], [ 4.548061002270351, 51.908535177281024 ], [ 4.550341220722325, 51.91474176298388 ], [ 4.552775796733693, 51.915839873040056 ], [ 4.553881978871806, 51.916559720860889 ], [ 4.55386580830591, 51.91624368641051 ], [ 4.554129846517228, 51.916314310443489 ], [ 4.553967845873307, 51.914697454177507 ], [ 4.556403837656057, 51.914689710078306 ], [ 4.55671579769781, 51.9105023462498 ], [ 4.555551888221062, 51.910641249830441 ], [ 4.554429051914554, 51.910499037679124 ], [ 4.550990599646021, 51.909717961339389 ], [ 4.550839730297546, 51.909315259358657 ], [ 4.551013715241141, 51.909077902798082 ], [ 4.550532161406401, 51.908837717415722 ], [ 4.549187248404737, 51.904796220155994 ], [ 4.554110296698036, 51.905528295478305 ], [ 4.555083579872202, 51.905546450774253 ], [ 4.56945114509722, 51.904251621606278 ], [ 4.572902583737025, 51.903753855668782 ], [ 4.576403926947453, 51.902916809049785 ], [ 4.576007212709694, 51.901247683776994 ], [ 4.576182776773404, 51.899232189954098 ], [ 4.575739894902011, 51.898063446686507 ], [ 4.575480133659508, 51.897972360256077 ], [ 4.574446070073039, 51.894353410516914 ], [ 4.572198651017889, 51.888260314304496 ], [ 4.571783290053888, 51.886733187726712 ], [ 4.571071223401452, 51.885188434177877 ], [ 4.571331056857354, 51.885039768268726 ], [ 4.571019442356176, 51.884024516842778 ], [ 4.570788453643667, 51.883569551730787 ], [ 4.570508782686574, 51.883544947940941 ], [ 4.569047237216518, 51.878360968933073 ], [ 4.569237716010486, 51.878220545650187 ], [ 4.569165664195546, 51.87806415085565 ], [ 4.567853441159218, 51.8779297787868 ], [ 4.567435905154545, 51.878108501541725 ], [ 4.564770333249813, 51.878230063701132 ], [ 4.561482674833119, 51.878105168563813 ], [ 4.557884765427251, 51.876827215322258 ], [ 4.556612514289762, 51.876132337614962 ], [ 4.554835896266813, 51.875435985484984 ], [ 4.551956908942649, 51.874597774864014 ], [ 4.550379209271758, 51.874457239385947 ], [ 4.549414185209964, 51.874152707501437 ], [ 4.549413413056235, 51.873931924992362 ], [ 4.548150334970269, 51.873723142924973 ], [ 4.544971654394088, 51.872216452434628 ], [ 4.544314179152013, 51.8722024968475 ], [ 4.543778075419167, 51.871481409683426 ], [ 4.542607452241361, 51.870702888622205 ], [ 4.539356881250295, 51.869929209083573 ], [ 4.538727818408419, 51.870664209029094 ], [ 4.538509119645424, 51.870687527302564 ], [ 4.537957854225705, 51.871434800134587 ], [ 4.53878527944247, 51.869962946464462 ], [ 4.538734108299029, 51.86983224773995 ], [ 4.536452868566516, 51.869610618271018 ], [ 4.532189240272156, 51.868743837291476 ], [ 4.528183602091438, 51.869042988126289 ], [ 4.526026316966254, 51.869627818651139 ], [ 4.524670357279452, 51.869263043228372 ], [ 4.522640689091491, 51.868978513357185 ], [ 4.517242097797895, 51.868947965480558 ], [ 4.516347425795483, 51.868767984863588 ], [ 4.515626038894088, 51.868884418329031 ], [ 4.515452208700123, 51.868384825660208 ], [ 4.515304529907774, 51.868787500589121 ], [ 4.515087517885298, 51.868850586763784 ], [ 4.515051903097246, 51.869243921764372 ], [ 4.5132685032145, 51.869334352754876 ], [ 4.509056597325887, 51.869333438520123 ], [ 4.508963787876288, 51.86891340546638 ], [ 4.500701174312018, 51.868893267325838 ], [ 4.499247706353376, 51.869072857660342 ], [ 4.49912163379659, 51.868887028599211 ], [ 4.496992677550125, 51.869063741416973 ], [ 4.496680137041293, 51.868872912426859 ], [ 4.495032110980133, 51.868870157094292 ], [ 4.494613365027597, 51.868997458798582 ], [ 4.48877812733665, 51.8672514422259 ], [ 4.487196467363242, 51.867073354468381 ], [ 4.483567402769905, 51.865808422222948 ], [ 4.481777263066737, 51.865348371820147 ], [ 4.480254972907436, 51.865181645214101 ], [ 4.480417591932961, 51.863402317901773 ], [ 4.481477590265735, 51.863384642656065 ], [ 4.481776493707383, 51.863265587011348 ], [ 4.481740717928887, 51.863078688232179 ], [ 4.478342234768761, 51.86272436001812 ], [ 4.477294454949946, 51.862445648204918 ], [ 4.474360448680459, 51.86222657249516 ], [ 4.474267620819297, 51.862392170824847 ], [ 4.471219265961844, 51.862278604219952 ], [ 4.467259938645909, 51.862405967344749 ], [ 4.467017847853068, 51.862279794772014 ], [ 4.466820583418537, 51.862442004555007 ], [ 4.465278031013705, 51.86260700234272 ], [ 4.464994533913865, 51.861946593079004 ], [ 4.460172021002197, 51.862672755840393 ], [ 4.453511195502797, 51.864448508977524 ], [ 4.446568997511043, 51.865929075463328 ], [ 4.445961632590802, 51.866346857605969 ], [ 4.444982070087529, 51.867475739054065 ], [ 4.444470276498389, 51.867332565797412 ], [ 4.441787921214858, 51.868005726180805 ], [ 4.441978894694292, 51.868365420895216 ], [ 4.440102759053779, 51.868591465278996 ], [ 4.439725806825192, 51.86848048465842 ], [ 4.438228218223752, 51.868797815985857 ], [ 4.430194148586777, 51.870894487396704 ], [ 4.428878046941149, 51.871052498388892 ], [ 4.428333633917362, 51.871334409333507 ], [ 4.426127430001589, 51.87177151002178 ], [ 4.425611623535929, 51.872028960610137 ], [ 4.423157810680578, 51.872488964751668 ], [ 4.423058735860008, 51.87261551963875 ], [ 4.42319577083404, 51.872792567450119 ], [ 4.414077602253845, 51.874456803270775 ], [ 4.412983410821805, 51.871658584256075 ], [ 4.412562661283311, 51.871596429101338 ], [ 4.412264725462681, 51.871329288067038 ], [ 4.411228554729871, 51.871604865555177 ], [ 4.411156830374929, 51.871744807260157 ], [ 4.409578516899165, 51.871701630236551 ], [ 4.409517599790846, 51.872142501556517 ], [ 4.408335888213423, 51.872511625513972 ], [ 4.406206321248221, 51.872704956916031 ], [ 4.406210546423168, 51.873035714480032 ], [ 4.40583644676845, 51.873088057512142 ], [ 4.405642902893852, 51.87271645261572 ], [ 4.401975489653116, 51.872670779916781 ], [ 4.399227834039531, 51.872099600099112 ], [ 4.395044740641393, 51.872234427001651 ], [ 4.392878319973594, 51.871712978622888 ], [ 4.39044276551865, 51.87046824237423 ], [ 4.388599562614248, 51.868752215628476 ], [ 4.386116499081422, 51.865815667626208 ], [ 4.384989418421085, 51.862734515559993 ], [ 4.385579784177541, 51.861738010650157 ], [ 4.38456623884876, 51.861633770579353 ], [ 4.383605369837375, 51.857752988651534 ], [ 4.383800113391985, 51.856777096678698 ], [ 4.385115401982577, 51.855567236414394 ], [ 4.385262216449436, 51.853757671295611 ], [ 4.385071155040977, 51.853573579191504 ], [ 4.385126925935524, 51.85335105575755 ], [ 4.384284888345147, 51.853021267248067 ], [ 4.383330496617167, 51.85235132635799 ], [ 4.383446714722701, 51.846619503569592 ], [ 4.383666562049418, 51.846494110499883 ], [ 4.383762406175038, 51.842214747765475 ], [ 4.379338585516275, 51.842465541133564 ], [ 4.374477306972496, 51.842970049916374 ], [ 4.367624486973465, 51.844479943872223 ], [ 4.359680355769301, 51.84692153634083 ], [ 4.354963167114879, 51.848579206115687 ], [ 4.352625733733293, 51.849594722072503 ], [ 4.348368884486854, 51.852043888925536 ], [ 4.344495439654306, 51.854615471767147 ], [ 4.342747746364644, 51.855969607486621 ], [ 4.335573799985161, 51.864399735538349 ], [ 4.267585608352181, 51.864658630878381 ], [ 4.264133579144008, 51.864984184549208 ], [ 4.260823314584513, 51.865626823174516 ], [ 4.258357780179379, 51.866336481632651 ], [ 4.252601794808953, 51.868356621644985 ], [ 4.251651085916691, 51.868153460740977 ], [ 4.250442948146541, 51.867640486253791 ], [ 4.246566998473989, 51.868996707644762 ], [ 4.24693022882932, 51.869797063916828 ], [ 4.245156070177096, 51.870463312843725 ], [ 4.245368809989762, 51.870890151666885 ], [ 4.240447240794496, 51.872635093936758 ], [ 4.238131090022385, 51.873717657394778 ], [ 4.235577622933763, 51.8752947339702 ], [ 4.233443377205133, 51.877123051183439 ], [ 4.232410807316191, 51.878285443369919 ], [ 4.23135129339386, 51.879888832279683 ], [ 4.230734082518767, 51.881239315255613 ], [ 4.229314149734968, 51.885284593670079 ], [ 4.2277703725315, 51.8877841420246 ], [ 4.220890947260539, 51.895462376014351 ], [ 4.218711362275917, 51.897270200035003 ], [ 4.216322585186376, 51.898816638490246 ], [ 4.214145856967117, 51.899898974150155 ], [ 4.212203328501068, 51.900604510242509 ], [ 4.210581691571884, 51.901510868252572 ], [ 4.210371995587075, 51.901410095287673 ], [ 4.208908860806257, 51.902000805998945 ], [ 4.206506115029572, 51.903353087531862 ], [ 4.196729398756339, 51.908163462383953 ], [ 4.187755961177752, 51.911512744410878 ], [ 4.182288831987563, 51.913868029582048 ], [ 4.179419318654632, 51.915506174660123 ], [ 4.176516184817907, 51.917414763026827 ], [ 4.175250369023028, 51.917773994311545 ], [ 4.172841871654584, 51.918043782446162 ], [ 4.17272279036312, 51.918649529325073 ], [ 4.172346151280567, 51.918677989751622 ], [ 4.17162876106565, 51.918178715227413 ], [ 4.1678723877985, 51.918588067740998 ], [ 4.166781051329166, 51.918936393698779 ], [ 4.165857210967189, 51.919708433027274 ], [ 4.163777869525613, 51.921978498938685 ], [ 4.163470573900564, 51.92286422118584 ], [ 4.163431906362095, 51.924584539545791 ], [ 4.163301270371757, 51.924880786754208 ], [ 4.161783522065829, 51.925880017011856 ], [ 4.160462591326485, 51.926489676058871 ], [ 4.158343057535416, 51.927156638394742 ], [ 4.152594801126265, 51.927964073084382 ], [ 4.147810880827084, 51.930046374356579 ], [ 4.143730875837543, 51.931170372533089 ], [ 4.111000266511966, 51.935753976547197 ], [ 4.106592135404266, 51.936588312760342 ], [ 4.105923555047177, 51.934852750951137 ], [ 4.103999195755079, 51.933072780336637 ], [ 4.102791241430835, 51.932464079000276 ], [ 4.103407421334897, 51.931670851933887 ], [ 4.103314231608965, 51.930975942599758 ], [ 4.104420270277543, 51.930615974404262 ], [ 4.104262715713472, 51.930476273383611 ], [ 4.103774881434154, 51.930508426627291 ], [ 4.102220003689146, 51.928000506002441 ], [ 4.102354830995905, 51.925585183082212 ], [ 4.103147279334966, 51.923638136752878 ], [ 4.102042288864876, 51.923630758301229 ], [ 4.0929249641709, 51.932622992201637 ], [ 4.08868245490467, 51.933180640222886 ], [ 4.088619696233427, 51.933395590415032 ], [ 4.082616431974126, 51.933985124169126 ], [ 4.077453727023801, 51.934094914604898 ], [ 4.072255687615601, 51.93397088142428 ], [ 4.065090204875649, 51.932936922118465 ], [ 4.062881091643882, 51.932426142413526 ], [ 4.062764121017831, 51.932260468109192 ], [ 4.050229682725365, 51.929363625456027 ], [ 4.049837390842329, 51.929409865574605 ], [ 4.043230340443293, 51.927960864431725 ], [ 4.04303152177887, 51.927695265699406 ], [ 4.038472893345143, 51.926590896007781 ], [ 4.03676562476046, 51.926683667863763 ], [ 4.036732955246673, 51.926500676259316 ], [ 4.037682528135019, 51.926197168410006 ], [ 4.03782666125834, 51.926012407624938 ], [ 4.021674158907757, 51.922256066111736 ], [ 4.008739080438639, 51.91903447764777 ], [ 4.000472862485617, 51.917571593039042 ], [ 3.994417839733825, 51.91615853057516 ], [ 3.9943735906788, 51.915986891722802 ], [ 3.992794625858518, 51.917194575743842 ], [ 3.989406589475255, 51.918628054196944 ], [ 3.988250699797515, 51.919491412476077 ], [ 3.98831565390431, 51.919698626366753 ], [ 3.988596113502925, 51.919707611293255 ], [ 3.99043623219081, 51.919392520472428 ], [ 3.989644710604416, 51.92006520749225 ], [ 3.987669555101663, 51.92069539574937 ], [ 3.985667521404229, 51.920750492086256 ], [ 3.985788012436678, 51.920321906748001 ], [ 3.986612796754049, 51.920023957537531 ], [ 3.987676828920167, 51.91888332846451 ], [ 3.987498260592057, 51.91876273557169 ], [ 3.987012340359933, 51.918843356753904 ], [ 3.986089751048487, 51.919445129829001 ], [ 3.985775067569363, 51.919023877210584 ], [ 3.985791458199155, 51.918452053232876 ], [ 3.986102699881392, 51.918279993608976 ], [ 3.98792610160181, 51.918237327399716 ], [ 3.988578347475342, 51.918062092127094 ], [ 3.989125632613634, 51.917704683923994 ], [ 3.989100712450131, 51.917504569189056 ], [ 3.991636310427951, 51.915951759024942 ], [ 3.991614332658052, 51.91576899138655 ], [ 3.991322597467923, 51.915625944467656 ], [ 3.990547743833542, 51.915694064881052 ], [ 3.988375003863363, 51.916955239183615 ], [ 3.985431250715847, 51.917608993644592 ], [ 3.984476654978436, 51.919006235325746 ], [ 3.984056286540303, 51.920640941746115 ], [ 3.982647626833071, 51.921487356809152 ], [ 3.982059449978873, 51.922098617868421 ], [ 3.978868643421501, 51.928759611745427 ], [ 3.976089003413897, 51.933390801666995 ], [ 3.975618509652412, 51.93393674836976 ], [ 3.971176111788778, 51.941802254242944 ], [ 3.970420124453883, 51.942829987505746 ], [ 3.967934978789191, 51.947093606752361 ], [ 3.967120846093593, 51.94800383954788 ], [ 3.966078009525898, 51.949713312773397 ], [ 3.964258029965849, 51.951073046874399 ], [ 3.963656001077597, 51.951779615536566 ], [ 3.962382207746107, 51.954035432761984 ] ], [ [ 4.495286489543502, 51.967329831073641 ], [ 4.495279781771234, 51.966222688858871 ], [ 4.495373745066206, 51.964924050055316 ], [ 4.495309427981711, 51.966248372351323 ], [ 4.495286489543502, 51.967329831073641 ] ], [ [ 4.458722273499201, 51.915696066829078 ], [ 4.458757702382284, 51.915412444746906 ], [ 4.458982157986942, 51.915427696317828 ], [ 4.458993793644058, 51.915757067780646 ], [ 4.458722273499201, 51.915696066829078 ] ] ] } }
]
}
