{
"type": "FeatureCollection",
"name": "SWVPO2711",
"crs": { "type": "name", "properties": { "name": "urn:ogc:def:crs:OGC:1.3:CRS84" } },
"features": [
{ "type": "Feature", "properties": { "PO SWV": "PO2711", "strokeColor": "#A9A9A9", "strokeWidth": 2, "fillColor": "#ADD8E6" }, "geometry": { "type": "MultiPolygon", "coordinates": [ [ [ [ 4.542220805596846, 52.4673097423345 ], [ 4.542125640006012, 52.467498506518794 ], [ 4.542347789082061, 52.468015136684478 ], [ 4.542936066278692, 52.468422741925892 ], [ 4.547986863926503, 52.469542150182647 ], [ 4.549609044677013, 52.46945265724176 ], [ 4.557861698753364, 52.468157779145592 ], [ 4.564746841562988, 52.467967290967188 ], [ 4.564594880862371, 52.468361656099965 ], [ 4.564752771655219, 52.468976708024492 ], [ 4.566459809653911, 52.471067355037121 ], [ 4.575107759647911, 52.479270541919988 ], [ 4.579465062035688, 52.484865381583965 ], [ 4.577350095543178, 52.484851430333514 ], [ 4.57725935515505, 52.484958155353688 ], [ 4.578274125334282, 52.486635587226623 ], [ 4.580799855445052, 52.490062388267894 ], [ 4.582765795245939, 52.4933940407089 ], [ 4.584499645055733, 52.495632348823818 ], [ 4.585683650107927, 52.497565490653898 ], [ 4.587010356713014, 52.500677132408875 ], [ 4.587918707494563, 52.502084581899041 ], [ 4.588644559920803, 52.504041069834479 ], [ 4.589667446203054, 52.505641477636033 ], [ 4.589814184868298, 52.506370196237604 ], [ 4.590687539079596, 52.50819852457618 ], [ 4.591745353103468, 52.51118527954106 ], [ 4.59272788022485, 52.51285481165587 ], [ 4.593329961845891, 52.515091430264611 ], [ 4.594246160190448, 52.5172497340616 ], [ 4.594948167709213, 52.5204505546901 ], [ 4.595710807363846, 52.522624487480776 ], [ 4.595773036834871, 52.523626239829639 ], [ 4.596272130448382, 52.524832836496941 ], [ 4.596385126868467, 52.526127560254288 ], [ 4.59734219208228, 52.52769916695825 ], [ 4.59740517459967, 52.528814621692746 ], [ 4.598788260508559, 52.532599829178722 ], [ 4.599383447354628, 52.534784251694774 ], [ 4.600251776479658, 52.536380444611957 ], [ 4.600594373097951, 52.538177968408689 ], [ 4.601088345440558, 52.539382500033781 ], [ 4.602147520605062, 52.544869741755207 ], [ 4.603055713195894, 52.547733841109313 ], [ 4.603343487893635, 52.549907089986689 ], [ 4.603735744351635, 52.550941936295274 ], [ 4.604205109374342, 52.553566357179186 ], [ 4.605078575184178, 52.556619860733008 ], [ 4.606555294889965, 52.56023535453312 ], [ 4.606703756524085, 52.561889324612544 ], [ 4.607340137205203, 52.563561520039514 ], [ 4.607782048869594, 52.565746304881706 ], [ 4.608397547095416, 52.567251079084834 ], [ 4.608641185844942, 52.568721117080372 ], [ 4.609174471729372, 52.570267691390335 ], [ 4.609261392728177, 52.571947649511273 ], [ 4.609832741942858, 52.573179254114571 ], [ 4.609927736118288, 52.573837074898847 ], [ 4.610366258616072, 52.573801044106197 ], [ 4.636570885783334, 52.579189755756758 ], [ 4.637166134390327, 52.578775588428755 ], [ 4.637422568521804, 52.578251448838706 ], [ 4.638981232938892, 52.578119440090944 ], [ 4.639711412697117, 52.576434925556683 ], [ 4.642245957560062, 52.576858766581132 ], [ 4.643693047953133, 52.578588363389997 ], [ 4.647200537987436, 52.57917222795313 ], [ 4.649291250880781, 52.581801677581701 ], [ 4.654144331859179, 52.582800377144309 ], [ 4.654907477724051, 52.58278990468385 ], [ 4.654915809322843, 52.582946241000343 ], [ 4.655177857022142, 52.583012597933148 ], [ 4.655129451340084, 52.584384764582651 ], [ 4.655386833174722, 52.585625902320977 ], [ 4.657277178794306, 52.585774216159926 ], [ 4.65961576209027, 52.586468360652688 ], [ 4.659870350042094, 52.586255740732284 ], [ 4.663276933186969, 52.587431996657727 ], [ 4.663284617630189, 52.587617045899435 ], [ 4.667620661430862, 52.589176797381285 ], [ 4.667479188492106, 52.589412665677933 ], [ 4.667636087961905, 52.589554327226622 ], [ 4.67257482694315, 52.591003887898061 ], [ 4.673816638775575, 52.590460902585825 ], [ 4.674088313315515, 52.589866095985023 ], [ 4.671931481654863, 52.589271224583229 ], [ 4.670720199879283, 52.588711641800934 ], [ 4.670859881931161, 52.588354739346435 ], [ 4.671701299612745, 52.587391763103042 ], [ 4.673326684590321, 52.587140083489004 ], [ 4.677682593996249, 52.585662355463306 ], [ 4.678068678933565, 52.585208861230747 ], [ 4.677749900602506, 52.584306863892564 ], [ 4.679771141051297, 52.583852074936239 ], [ 4.679918717526434, 52.584331940561768 ], [ 4.68009767701865, 52.584425335100505 ], [ 4.686287692064311, 52.58306938988455 ], [ 4.686162791165743, 52.582117138529043 ], [ 4.685494209860632, 52.581046296831715 ], [ 4.691330440951429, 52.580145434694707 ], [ 4.691233761358169, 52.57965305531431 ], [ 4.694584769039727, 52.579143950994869 ], [ 4.696554171051627, 52.579078721349475 ], [ 4.698205518621613, 52.582327733190546 ], [ 4.698792383411801, 52.583150009090367 ], [ 4.698889593953059, 52.583020620806884 ], [ 4.698447276832463, 52.581952064042149 ], [ 4.703385659942894, 52.58164766518756 ], [ 4.703453241078591, 52.581514636686705 ], [ 4.703146818143871, 52.581047295797134 ], [ 4.703904500673205, 52.580997182566861 ], [ 4.703870345920345, 52.580434694136379 ], [ 4.707160160521193, 52.580286129168393 ], [ 4.707374644101172, 52.580430727775706 ], [ 4.708018422516891, 52.580322071925167 ], [ 4.70993446073697, 52.580613960619246 ], [ 4.710169915256697, 52.580687044522641 ], [ 4.710448387445206, 52.58257908230577 ], [ 4.712888939577648, 52.58274607451056 ], [ 4.71548052070071, 52.58239362744505 ], [ 4.715781330691753, 52.582213205843445 ], [ 4.718495810132481, 52.581763513680862 ], [ 4.71915318147132, 52.581899614994846 ], [ 4.718608610776621, 52.580152135791344 ], [ 4.720383373563027, 52.580174705859228 ], [ 4.72315725722537, 52.579932886680915 ], [ 4.724966484789173, 52.579452260536257 ], [ 4.725063268736921, 52.579307017407714 ], [ 4.724874467659325, 52.579102491790408 ], [ 4.72494231407009, 52.578844922532724 ], [ 4.725628345615556, 52.578928030744642 ], [ 4.72651896092998, 52.579651325369241 ], [ 4.727092896130515, 52.579838515666012 ], [ 4.728636996901169, 52.579620892317301 ], [ 4.739905260648207, 52.5790281094609 ], [ 4.740056487294503, 52.579525115666755 ], [ 4.74053997043657, 52.580212375212682 ], [ 4.740272583236424, 52.580814626993096 ], [ 4.740351777178123, 52.581375736017641 ], [ 4.740902513280222, 52.581923292327573 ], [ 4.741200501626976, 52.582534195487852 ], [ 4.741883442553482, 52.58313518299245 ], [ 4.741353628200597, 52.583373796300286 ], [ 4.742907321360724, 52.585774600261104 ], [ 4.744557036132683, 52.590333274789735 ], [ 4.750908434561904, 52.589233706470203 ], [ 4.75243655654189, 52.592684598523306 ], [ 4.754964023377127, 52.592290940576703 ], [ 4.755009796392777, 52.591858012391491 ], [ 4.756518847686705, 52.591659554651166 ], [ 4.756569110206541, 52.591527431521712 ], [ 4.756220213174988, 52.591007007846464 ], [ 4.756843310089081, 52.591502560721885 ], [ 4.756986127269915, 52.591388345105678 ], [ 4.751840991283202, 52.581942733427184 ], [ 4.750600209318383, 52.577872554189547 ], [ 4.749835257765146, 52.575931422995488 ], [ 4.749443794996851, 52.573490435785018 ], [ 4.748666763251, 52.572071142598013 ], [ 4.747133861780985, 52.570364954667262 ], [ 4.747159010394472, 52.570208163335465 ], [ 4.746146128287279, 52.568907315376187 ], [ 4.745949810605793, 52.568127143215008 ], [ 4.745702484190985, 52.567877524257021 ], [ 4.74601727178877, 52.567130458122705 ], [ 4.751818191907765, 52.563727683583409 ], [ 4.753848985345816, 52.563017603577983 ], [ 4.773703812055651, 52.560121721962076 ], [ 4.778717313153355, 52.558485179718538 ], [ 4.782405070778274, 52.557646647301638 ], [ 4.781987948979737, 52.556960323456721 ], [ 4.781668174324642, 52.556988687587598 ], [ 4.78095379221203, 52.555817565415353 ], [ 4.77825654212739, 52.544415666402784 ], [ 4.778139473342691, 52.544112814388633 ], [ 4.777985558879124, 52.544084255648457 ], [ 4.777832289727956, 52.533630363785136 ], [ 4.77789432707746, 52.532010016512636 ], [ 4.778238910258971, 52.530905424414705 ], [ 4.779023290547205, 52.529231975529889 ], [ 4.782544954977726, 52.519508156127237 ], [ 4.780783655013871, 52.519328603586565 ], [ 4.776382347720184, 52.51948462754553 ], [ 4.77548106443346, 52.519277581496645 ], [ 4.773873078051112, 52.519461809517701 ], [ 4.767219137637178, 52.519640479361698 ], [ 4.767314649322381, 52.518880056327532 ], [ 4.766967223438518, 52.518763383231772 ], [ 4.763624264543894, 52.519606278335637 ], [ 4.761910282160797, 52.518936084290225 ], [ 4.761226280564768, 52.518453814629616 ], [ 4.752760837026387, 52.521138889695116 ], [ 4.752456042393205, 52.521136319476966 ], [ 4.749887751878687, 52.520063013926354 ], [ 4.749532244621278, 52.519578138972918 ], [ 4.749258675935781, 52.518189268969152 ], [ 4.748302113137424, 52.517261151956859 ], [ 4.748348810338254, 52.515347326405838 ], [ 4.749060889336681, 52.514358091834978 ], [ 4.750780988020744, 52.512988097830863 ], [ 4.750955687410181, 52.512437031210041 ], [ 4.751497603871536, 52.512063003822377 ], [ 4.752867741886307, 52.510595550576433 ], [ 4.750742041328926, 52.508217583214915 ], [ 4.750131673965707, 52.507892789595537 ], [ 4.748463511829224, 52.507576776863701 ], [ 4.74618535211208, 52.505822295085075 ], [ 4.744595682392196, 52.504948369295398 ], [ 4.742327079094442, 52.502952803963289 ], [ 4.740805897925164, 52.502108215327162 ], [ 4.74115060247981, 52.501853725480515 ], [ 4.741132491517673, 52.501706976765405 ], [ 4.740073461796625, 52.501704233937787 ], [ 4.738024501194177, 52.500468840381558 ], [ 4.736770504052732, 52.499974019360799 ], [ 4.732852081065999, 52.497008017658622 ], [ 4.73161147696718, 52.496237503720948 ], [ 4.729595786816277, 52.495780521687273 ], [ 4.721501943571949, 52.495053621597449 ], [ 4.721110493453431, 52.49476927410123 ], [ 4.720688386885043, 52.494941177830448 ], [ 4.716688780036114, 52.493946049254284 ], [ 4.714697271054084, 52.493107694584381 ], [ 4.713925591426928, 52.492602709796337 ], [ 4.710686396715278, 52.489843157295475 ], [ 4.708527837681598, 52.488561016963587 ], [ 4.708246621555397, 52.487927007355829 ], [ 4.708319213719029, 52.487136628763743 ], [ 4.707821258270608, 52.48552616962769 ], [ 4.70707354663287, 52.485184204825899 ], [ 4.705961498793435, 52.484335965219309 ], [ 4.705949964447049, 52.483512367487286 ], [ 4.706257928957875, 52.482827705288805 ], [ 4.705609779551335, 52.481848608423405 ], [ 4.703991482184226, 52.480958962820253 ], [ 4.702684896676608, 52.480860949207191 ], [ 4.701439139427581, 52.480564757940051 ], [ 4.700809448706237, 52.480175386801392 ], [ 4.700602872324828, 52.479274610646023 ], [ 4.699879635189713, 52.478652651404936 ], [ 4.699584600285042, 52.47824821482974 ], [ 4.699532859043889, 52.477858371414435 ], [ 4.698832291683754, 52.477113236148398 ], [ 4.698706748495192, 52.476387468645413 ], [ 4.699324207119457, 52.475722214960186 ], [ 4.699377006039867, 52.474514205434133 ], [ 4.698023801748421, 52.472530131099461 ], [ 4.697479753860267, 52.472082770584365 ], [ 4.697976925080606, 52.471378358936008 ], [ 4.697977670807383, 52.471079746033695 ], [ 4.695365096408596, 52.46851469853469 ], [ 4.693490422796761, 52.467250627212728 ], [ 4.689879751139642, 52.46542070878634 ], [ 4.68515592379574, 52.463558207117252 ], [ 4.684442396193035, 52.463469110068502 ], [ 4.684747366878903, 52.463272460889868 ], [ 4.685133665597606, 52.462480216633509 ], [ 4.675038335366157, 52.455530828286165 ], [ 4.710011047211847, 52.436735805336802 ], [ 4.711990253408106, 52.435891256912996 ], [ 4.715097143911606, 52.434921307301813 ], [ 4.722081085869761, 52.433356108337264 ], [ 4.713655528867283, 52.428966019253458 ], [ 4.710687823223874, 52.427598301799136 ], [ 4.707620423831188, 52.42666763413721 ], [ 4.700578637436547, 52.425418703001256 ], [ 4.694177148245108, 52.420524397546764 ], [ 4.691540097099063, 52.418729881834828 ], [ 4.689202092057903, 52.417356924700563 ], [ 4.685834681694792, 52.415765475757276 ], [ 4.682511169279148, 52.413755025748785 ], [ 4.682377633376417, 52.413831647217734 ], [ 4.681711608756951, 52.417695634351816 ], [ 4.680863872268065, 52.417862669778486 ], [ 4.679762877450841, 52.416945509585041 ], [ 4.679061188450529, 52.416997446300343 ], [ 4.678767750725043, 52.417375070740974 ], [ 4.678149425519576, 52.417474453842658 ], [ 4.678313107215026, 52.417837544854585 ], [ 4.678045022497924, 52.418473791208626 ], [ 4.678099403584135, 52.418930463073593 ], [ 4.677584623060676, 52.418871583120691 ], [ 4.677482144822942, 52.417764067091184 ], [ 4.675032268368094, 52.417107811140717 ], [ 4.673653876429099, 52.419076003310352 ], [ 4.671556750663589, 52.42035441248084 ], [ 4.672007457367213, 52.422395666342865 ], [ 4.669576923446662, 52.423688232187416 ], [ 4.665842401881132, 52.425356400450802 ], [ 4.661442025991863, 52.425919292278948 ], [ 4.653126861350465, 52.427901627821271 ], [ 4.653115115427108, 52.428097903044609 ], [ 4.650781347440617, 52.428643475808727 ], [ 4.650434667882484, 52.428406194954981 ], [ 4.649692911402663, 52.427224643993476 ], [ 4.649427537723628, 52.427245800700852 ], [ 4.648243044324671, 52.425915210612402 ], [ 4.647413182422786, 52.424603503633762 ], [ 4.647616678879175, 52.42444505749588 ], [ 4.648035424150157, 52.423318094035736 ], [ 4.64673058374535, 52.423207743455087 ], [ 4.645793584989809, 52.42190070497378 ], [ 4.6452498690519, 52.421865844735798 ], [ 4.64498803749258, 52.420729956173659 ], [ 4.644345999987464, 52.419789597497747 ], [ 4.642166475371471, 52.417010035904958 ], [ 4.640100863932721, 52.414928657850766 ], [ 4.640204965570444, 52.41479817531863 ], [ 4.639955280192932, 52.414336172277217 ], [ 4.637789313710835, 52.411874309629397 ], [ 4.637610869080352, 52.411876233905843 ], [ 4.636279122571218, 52.410055171416396 ], [ 4.635726511111017, 52.410084968482643 ], [ 4.635984172121019, 52.410756018798665 ], [ 4.629451736672977, 52.41186161157475 ], [ 4.627529315963993, 52.412551333319506 ], [ 4.627883168478445, 52.4130798873692 ], [ 4.627693249887304, 52.413283502910232 ], [ 4.628395149025929, 52.414183457653515 ], [ 4.62869984874294, 52.414291766867898 ], [ 4.627742906039416, 52.414695264417531 ], [ 4.628563605228144, 52.41577311771308 ], [ 4.62734946848635, 52.415979044047106 ], [ 4.626324250174872, 52.41646248917781 ], [ 4.626237193966527, 52.416842303532626 ], [ 4.626453216237221, 52.417117273920823 ], [ 4.6264097492684, 52.417399243230768 ], [ 4.626913525726999, 52.417412383221468 ], [ 4.626625083416107, 52.417985926692872 ], [ 4.626893908879048, 52.418163917286577 ], [ 4.626520878586662, 52.418257209700563 ], [ 4.626308103456465, 52.418643244525803 ], [ 4.62608518072444, 52.418654892433658 ], [ 4.625918216012248, 52.419015261186168 ], [ 4.626057894802492, 52.419163046191379 ], [ 4.625765439989259, 52.419782154590656 ], [ 4.6253453011162, 52.420048102194507 ], [ 4.62575136515106, 52.420537142758896 ], [ 4.624424900772816, 52.421544293248147 ], [ 4.623483077863576, 52.422038955553795 ], [ 4.624533015461666, 52.423387266397192 ], [ 4.624816525641502, 52.423454889358005 ], [ 4.62148649460282, 52.424789271803569 ], [ 4.620842605008352, 52.424284491092727 ], [ 4.618872233218115, 52.425015940294706 ], [ 4.618015157006734, 52.424752929503768 ], [ 4.615126477176798, 52.425799101777763 ], [ 4.614954392240382, 52.425520575034582 ], [ 4.614022970708623, 52.426190137249613 ], [ 4.613474641940413, 52.426158196029988 ], [ 4.61196759780603, 52.425573630224413 ], [ 4.6116530752024, 52.426077030408671 ], [ 4.611895434333954, 52.426644678482411 ], [ 4.610327978745816, 52.42670544017453 ], [ 4.611232503611436, 52.427091816538841 ], [ 4.587801440430749, 52.434338378407389 ], [ 4.560392521337342, 52.437919330230564 ], [ 4.561052831128185, 52.440069215206655 ], [ 4.560897903695997, 52.441608407280022 ], [ 4.561079272294098, 52.442121833283558 ], [ 4.561004884968488, 52.442798988331475 ], [ 4.56170560048396, 52.44412430740369 ], [ 4.561453003383739, 52.444575259200583 ], [ 4.561638024464551, 52.44531878275329 ], [ 4.562470479598486, 52.44595991593885 ], [ 4.563087039709643, 52.445996051424757 ], [ 4.563821645654447, 52.44651483680483 ], [ 4.562937216349896, 52.446187175049253 ], [ 4.561716553889536, 52.446476404004819 ], [ 4.560635037244021, 52.446477605804979 ], [ 4.559423045375212, 52.446996036332685 ], [ 4.559225509937803, 52.446793359791123 ], [ 4.559093492563594, 52.446118200501459 ], [ 4.559032935589569, 52.445474215115105 ], [ 4.559179971105934, 52.4447800476308 ], [ 4.558714722039168, 52.444736277611476 ], [ 4.557801460274524, 52.449079718166281 ], [ 4.557311549647052, 52.450661968341649 ], [ 4.556306927167816, 52.452927753512775 ], [ 4.55392155760561, 52.457623607227198 ], [ 4.551657302187988, 52.460593375328656 ], [ 4.540348036035512, 52.458002990924136 ], [ 4.538230162721348, 52.45792740666252 ], [ 4.53652983982154, 52.458466294600065 ], [ 4.534283666429393, 52.460104005133672 ], [ 4.532630967684389, 52.461931560613365 ], [ 4.531918120330692, 52.46358034993667 ], [ 4.532026383434812, 52.463922267279244 ], [ 4.532602042822602, 52.463959361650076 ], [ 4.532820511943294, 52.46258642874075 ], [ 4.533616430604645, 52.461442721946668 ], [ 4.535379405208263, 52.459804463088538 ], [ 4.53715572889805, 52.45864279795525 ], [ 4.538833388690309, 52.45831454382801 ], [ 4.540470501328442, 52.458486401460689 ], [ 4.554396605021534, 52.461664111204868 ], [ 4.554672790674194, 52.462006501010663 ], [ 4.554456268993997, 52.462234540597727 ], [ 4.554526634960003, 52.462445876276114 ], [ 4.555672597755949, 52.462586413539114 ], [ 4.556218321756194, 52.462386934717351 ], [ 4.556280123319651, 52.462197241111134 ], [ 4.555430240721376, 52.462273251623792 ], [ 4.555330418296326, 52.462148133396042 ], [ 4.558532030126142, 52.461139451578326 ], [ 4.558918848950903, 52.461543583096081 ], [ 4.559222653758687, 52.461509586144416 ], [ 4.558883465320085, 52.461032275142365 ], [ 4.559060717273473, 52.460931334259975 ], [ 4.558968922440173, 52.460768292227776 ], [ 4.558343991895889, 52.460912228195127 ], [ 4.55809751955266, 52.460598545251166 ], [ 4.559288582600849, 52.458313942610431 ], [ 4.559394481510489, 52.457826131001845 ], [ 4.559922827090261, 52.457095841157418 ], [ 4.564981881275181, 52.458001659249767 ], [ 4.564679694686482, 52.458350745632551 ], [ 4.564778816502292, 52.458943470458671 ], [ 4.559376125947643, 52.460638266856293 ], [ 4.559542475703873, 52.460829885985298 ], [ 4.562255490986435, 52.459996390283145 ], [ 4.563830576594498, 52.46133005341639 ], [ 4.564219332349027, 52.461936870555654 ], [ 4.564227715063917, 52.462231531067665 ], [ 4.563192066488459, 52.462272632548896 ], [ 4.563221282769704, 52.462733691863484 ], [ 4.568733227888341, 52.462711942331403 ], [ 4.569285570448157, 52.462580242355898 ], [ 4.569543547446392, 52.462210630343741 ], [ 4.567794468010954, 52.459708508463322 ], [ 4.569204994813518, 52.45933765012478 ], [ 4.571327731310183, 52.462295530284152 ], [ 4.572530815542205, 52.46269893551208 ], [ 4.57423312563489, 52.46263974462989 ], [ 4.5784425501098, 52.462983604859708 ], [ 4.578897218523909, 52.462714015996362 ], [ 4.578869641987612, 52.462372114524676 ], [ 4.577219372244739, 52.461569478636612 ], [ 4.579414864523002, 52.459974809911714 ], [ 4.579376953729254, 52.459745854348 ], [ 4.579657118837226, 52.459454633636817 ], [ 4.57941936703617, 52.458948616376141 ], [ 4.579658240318986, 52.459049827824472 ], [ 4.579798887876638, 52.458926895342316 ], [ 4.579605355667536, 52.458754453661001 ], [ 4.580214223343152, 52.458590505599297 ], [ 4.580607470859467, 52.458845372657677 ], [ 4.586423315216897, 52.456658115224066 ], [ 4.587028911069417, 52.457208706429668 ], [ 4.581644559571209, 52.459277822612535 ], [ 4.581679130271201, 52.459509772304209 ], [ 4.580447150345437, 52.46097144395393 ], [ 4.580347237289797, 52.461394973492126 ], [ 4.581570737810432, 52.462552723414191 ], [ 4.593789263738715, 52.457841216036165 ], [ 4.59477627128561, 52.45778049645655 ], [ 4.594330540993514, 52.457942645212171 ], [ 4.594450210966627, 52.458157355581925 ], [ 4.595298438321172, 52.4578634856856 ], [ 4.595563895084863, 52.457959625037098 ], [ 4.594292732794498, 52.45839516283074 ], [ 4.594360309307453, 52.458619666978429 ], [ 4.595884704269617, 52.458122358210026 ], [ 4.596083719106876, 52.458306232427439 ], [ 4.587986717708045, 52.461154698928702 ], [ 4.587998679545398, 52.461371190099356 ], [ 4.584504278450757, 52.462624428470654 ], [ 4.584217490511991, 52.462566929203867 ], [ 4.583597701724551, 52.462956462497075 ], [ 4.583255770859008, 52.462754209036063 ], [ 4.582938801404493, 52.46277581757446 ], [ 4.582415502488175, 52.46303295147176 ], [ 4.58251520647884, 52.463384920898761 ], [ 4.590300260427651, 52.463747566585475 ], [ 4.59031477115978, 52.464548231494305 ], [ 4.589981489444203, 52.464420990209895 ], [ 4.586980018299403, 52.464353122579361 ], [ 4.586685099701675, 52.464612997093397 ], [ 4.587100664543436, 52.464930358634845 ], [ 4.590305589620317, 52.465345408177882 ], [ 4.59646755002351, 52.465413562210081 ], [ 4.596767166007319, 52.465572516359082 ], [ 4.596750119008408, 52.465810404010639 ], [ 4.596956527350416, 52.465825441689084 ], [ 4.596455488435371, 52.466229057328427 ], [ 4.591477341022589, 52.466311113530061 ], [ 4.591181235836722, 52.466548508128149 ], [ 4.59110679739825, 52.467003468325665 ], [ 4.591397244253993, 52.467373280588347 ], [ 4.591626666689079, 52.467430759207524 ], [ 4.600142998732991, 52.46690000124719 ], [ 4.601561414261499, 52.467098135130577 ], [ 4.604892849330424, 52.467130172305609 ], [ 4.604641076030066, 52.467202597010491 ], [ 4.604704846074258, 52.467551438927394 ], [ 4.605592309778225, 52.467568149163412 ], [ 4.605630527888894, 52.467831694943833 ], [ 4.604800354371025, 52.467907336630105 ], [ 4.604808230775117, 52.468274969144993 ], [ 4.604971735077152, 52.468345766121487 ], [ 4.601898257005955, 52.468724655857542 ], [ 4.60084085435876, 52.469068492183354 ], [ 4.592209464146217, 52.469600518731212 ], [ 4.59195630975908, 52.469829589953378 ], [ 4.592631520082759, 52.470103386368528 ], [ 4.594284016225842, 52.470307205507595 ], [ 4.601280371406832, 52.469898457763335 ], [ 4.601427711960386, 52.470634898892307 ], [ 4.600017060482773, 52.470889796800492 ], [ 4.600102445273355, 52.471074011863763 ], [ 4.601363847730811, 52.471118880478052 ], [ 4.601373763255817, 52.471407461585358 ], [ 4.600619244872131, 52.471663248628118 ], [ 4.599850330525689, 52.471682550463591 ], [ 4.597176686510513, 52.470962827272011 ], [ 4.594823220495824, 52.471219146588489 ], [ 4.594729950178618, 52.471342565494716 ], [ 4.596031299873848, 52.471794350503544 ], [ 4.59605381372372, 52.471993471235372 ], [ 4.598552692602108, 52.47249491804898 ], [ 4.603703307945257, 52.472220800949856 ], [ 4.603851758929429, 52.47260503411357 ], [ 4.608810650802635, 52.472237391306948 ], [ 4.609017922052463, 52.472862140357215 ], [ 4.599760321531015, 52.47416845293494 ], [ 4.598878164607717, 52.473920345402902 ], [ 4.598385751964229, 52.473958543037831 ], [ 4.597981874658132, 52.473793929691759 ], [ 4.598017208267505, 52.473541530685353 ], [ 4.597684145975116, 52.473453458006432 ], [ 4.597555185247169, 52.473559936232569 ], [ 4.596196392874773, 52.473184907030472 ], [ 4.595828142729349, 52.473311559027337 ], [ 4.595523813345324, 52.47370765382491 ], [ 4.58639959290434, 52.471573969008979 ], [ 4.586056026635749, 52.471962778919334 ], [ 4.585587094868401, 52.472128096614185 ], [ 4.584864914570936, 52.47200597095501 ], [ 4.584041819199703, 52.471803499109441 ], [ 4.584436022660952, 52.471580973372802 ], [ 4.584344329806346, 52.471378436763516 ], [ 4.583780713853502, 52.471592698072023 ], [ 4.582560661823082, 52.470776678407027 ], [ 4.582401359919938, 52.470451657613495 ], [ 4.579674076137579, 52.469793755878321 ], [ 4.57888270931297, 52.469436430396144 ], [ 4.574304141982976, 52.468715585427304 ], [ 4.573139399354046, 52.468750750333498 ], [ 4.567418706840181, 52.467604886867079 ], [ 4.557705600372772, 52.467747384055926 ], [ 4.553847803664414, 52.466411763010569 ], [ 4.553657382464723, 52.466601068056129 ], [ 4.553751578848904, 52.466833387691132 ], [ 4.556564402804319, 52.467883807287457 ], [ 4.548571914495382, 52.469120382408128 ], [ 4.547422323608023, 52.469040270403084 ], [ 4.543746973689848, 52.468210670171551 ], [ 4.543157426667546, 52.467961056788397 ], [ 4.54288053750602, 52.467319330672289 ], [ 4.542220805596846, 52.4673097423345 ] ] ], [ [ [ 4.57365892048087, 52.46534561418342 ], [ 4.573885755782553, 52.465605076104055 ], [ 4.5780648172565, 52.466170631914011 ], [ 4.578874907983975, 52.4644204640041 ], [ 4.578172213490933, 52.464145723161117 ], [ 4.574860183245665, 52.463752967728219 ], [ 4.572967884122257, 52.463885473249015 ], [ 4.572860047211039, 52.464033373333983 ], [ 4.572970530488778, 52.464256203969256 ], [ 4.573632310081607, 52.464351372793068 ], [ 4.573465614535867, 52.465106866966714 ], [ 4.573692685759053, 52.465219544591974 ], [ 4.57365892048087, 52.46534561418342 ] ] ] ] } }
]
}
