{
"type": "FeatureCollection",
"name": "SWVPO2817",
"crs": { "type": "name", "properties": { "name": "urn:ogc:def:crs:OGC:1.3:CRS84" } },
"features": [
{ "type": "Feature", "properties": { "PO SWV": "PO2817", "strokeColor": "#A9A9A9", "strokeWidth": 2, "fillColor": "#ADD8E6" }, "geometry": { "type": "Polygon", "coordinates": [ [ [ 4.415294716695564, 52.057445636243969 ], [ 4.422328940634425, 52.057313646319678 ], [ 4.42042512551415, 52.06191164682464 ], [ 4.420199345451176, 52.062172105113973 ], [ 4.420728522652734, 52.062646908542995 ], [ 4.421572055846609, 52.062951537543292 ], [ 4.42134651410058, 52.063385140274896 ], [ 4.455421957380427, 52.078404536191307 ], [ 4.456661611133098, 52.078755108685108 ], [ 4.456739341151162, 52.078914019014057 ], [ 4.462202834123494, 52.079604707341275 ], [ 4.462553723519439, 52.079508767239197 ], [ 4.475779227436078, 52.081315444914104 ], [ 4.474438294810422, 52.085376847420946 ], [ 4.492882453493951, 52.087834925429348 ], [ 4.492123441029563, 52.089980054920751 ], [ 4.492197890385841, 52.090107526788934 ], [ 4.49278166329707, 52.090005319810537 ], [ 4.497809187426814, 52.087944300588688 ], [ 4.499278052204525, 52.088504397352033 ], [ 4.499349039538626, 52.088696539378432 ], [ 4.498810875411312, 52.089451471146766 ], [ 4.499062194077256, 52.090421393486196 ], [ 4.499899390422772, 52.091728852808117 ], [ 4.504451301020132, 52.093390318349435 ], [ 4.50538046785541, 52.092605928915511 ], [ 4.513153010724772, 52.088549569129739 ], [ 4.514156096791352, 52.088687467301128 ], [ 4.514737913502875, 52.088547047846689 ], [ 4.514986577044477, 52.088408999458679 ], [ 4.514976234972194, 52.088237777121492 ], [ 4.522145516365024, 52.084888785105093 ], [ 4.537124854139267, 52.077210668231686 ], [ 4.537271617932934, 52.07688661300309 ], [ 4.536642019775276, 52.077232254977709 ], [ 4.534057523427474, 52.075247516717248 ], [ 4.535272805753896, 52.074450040653446 ], [ 4.533871295610146, 52.073081113899832 ], [ 4.536806609859688, 52.071562933958873 ], [ 4.54336640075794, 52.068705916075608 ], [ 4.553261028807913, 52.063917376269686 ], [ 4.553287773355957, 52.063768847939158 ], [ 4.552840719868732, 52.063385843788268 ], [ 4.554770668393934, 52.062478299456188 ], [ 4.555091232683047, 52.061831238923119 ], [ 4.555073484561732, 52.061455471959555 ], [ 4.554853720483579, 52.061313801486442 ], [ 4.554629947993242, 52.060679284336082 ], [ 4.553145932022501, 52.059045520719962 ], [ 4.553836524365043, 52.058392247579057 ], [ 4.552867930605723, 52.057761438438959 ], [ 4.552657052343227, 52.057803110464235 ], [ 4.551314702966616, 52.056736794973204 ], [ 4.551390999334614, 52.056561299112659 ], [ 4.550917370832628, 52.056112643624473 ], [ 4.550530312156985, 52.056136812765715 ], [ 4.549708433436207, 52.055071607209904 ], [ 4.548978088261065, 52.054026333127091 ], [ 4.548901178978444, 52.053170085970805 ], [ 4.548155507837853, 52.051410803711597 ], [ 4.547455491175882, 52.050524025009409 ], [ 4.547685228831761, 52.050296120869007 ], [ 4.547126095120351, 52.049838697013726 ], [ 4.546042656542094, 52.048259794470077 ], [ 4.54369023870697, 52.048832101757633 ], [ 4.542051640073596, 52.048962173725052 ], [ 4.541253576111975, 52.048369574133481 ], [ 4.53978138098037, 52.048606532324314 ], [ 4.538550249851382, 52.048340856364966 ], [ 4.537831779598558, 52.04835066489273 ], [ 4.537722284372675, 52.048495521250445 ], [ 4.537904291026181, 52.049523864731682 ], [ 4.537680704622272, 52.049686747101177 ], [ 4.538012385302065, 52.050727736878677 ], [ 4.536600207697477, 52.050962930425968 ], [ 4.536401566293845, 52.050686805844364 ], [ 4.536076586833284, 52.050631416538351 ], [ 4.534622894347245, 52.050884191643647 ], [ 4.531005815718006, 52.047912806552631 ], [ 4.526727433303542, 52.045882411735825 ], [ 4.522576113608826, 52.043516825927703 ], [ 4.52451791803662, 52.042924314312152 ], [ 4.524457059853479, 52.042602679823212 ], [ 4.523006044855791, 52.042490962399292 ], [ 4.521583800079165, 52.041642687590539 ], [ 4.520617351287672, 52.040457284411872 ], [ 4.518470857085268, 52.040982094677972 ], [ 4.517136111479306, 52.040201459253808 ], [ 4.517308248792305, 52.039770511792518 ], [ 4.513670467263547, 52.03705904512487 ], [ 4.512849835618322, 52.03690482381888 ], [ 4.512441499910249, 52.036664798054538 ], [ 4.512097198098615, 52.036719210920005 ], [ 4.507114666702314, 52.032741394945155 ], [ 4.505768639654002, 52.032047738575855 ], [ 4.505409463295703, 52.032142593034209 ], [ 4.50471173613096, 52.031830588936018 ], [ 4.495369634620995, 52.031807075390809 ], [ 4.495265923184412, 52.033000198529756 ], [ 4.495136687570864, 52.03312902222752 ], [ 4.493438077336191, 52.032315486229749 ], [ 4.491783519813365, 52.031979751066856 ], [ 4.47772655407083, 52.031768352964555 ], [ 4.476869295921788, 52.031621346611729 ], [ 4.476670363665827, 52.031859752496054 ], [ 4.476869022625016, 52.032096968220927 ], [ 4.476698115284629, 52.032451603844756 ], [ 4.475681284626771, 52.033242756199755 ], [ 4.474630166194413, 52.034591308848746 ], [ 4.472717058937943, 52.03808283075405 ], [ 4.472427082272012, 52.03803304176612 ], [ 4.472151306580998, 52.038185441030194 ], [ 4.47189363315592, 52.038925381025606 ], [ 4.47151312408993, 52.038928830490349 ], [ 4.470694292000792, 52.040363679022612 ], [ 4.469049375176356, 52.039984771275762 ], [ 4.461724105856296, 52.039262308943776 ], [ 4.457586232528904, 52.038537758576297 ], [ 4.4569480306977, 52.039558633799608 ], [ 4.456352970018229, 52.039490451668357 ], [ 4.450582981798391, 52.049080194017264 ], [ 4.432573198455365, 52.050605363052448 ], [ 4.430930883207619, 52.050990565423568 ], [ 4.425328529174144, 52.051470484504677 ], [ 4.422045802906747, 52.051576692004971 ], [ 4.415161943016617, 52.056940469654563 ], [ 4.415294716695564, 52.057445636243969 ] ] ] } }
]
}
