{
"type": "FeatureCollection",
"name": "SWVPO3005",
"crs": { "type": "name", "properties": { "name": "urn:ogc:def:crs:OGC:1.3:CRS84" } },
"features": [
{ "type": "Feature", "properties": { "PO SWV": "PO3005", "strokeColor": "#A9A9A9", "strokeWidth": 2, "fillColor": "#ADD8E6" }, "geometry": { "type": "Polygon", "coordinates": [ [ [ 5.0398182677, 51.817403988 ], [ 5.0439940559, 51.817606790600003 ], [ 5.0507050239, 51.818630692200003 ], [ 5.0600685504, 51.821355692799997 ], [ 5.0632338092, 51.822718140600003 ], [ 5.069481604, 51.824730243 ], [ 5.0740927611, 51.825919238 ], [ 5.0769425292, 51.826417807699997 ], [ 5.0822355923, 51.826951103 ], [ 5.0876558746, 51.826898376800003 ], [ 5.0900526258, 51.826729716499997 ], [ 5.0932110096, 51.826341430699998 ], [ 5.0984874794, 51.825249025300003 ], [ 5.100918996, 51.8245826705 ], [ 5.105199653, 51.823221541099997 ], [ 5.1222731128, 51.816516357300003 ], [ 5.1273609017, 51.815261162699997 ], [ 5.1301813688, 51.814757238299997 ], [ 5.1330921139, 51.814444030099999 ], [ 5.1375447095, 51.814190695 ], [ 5.1410259637, 51.814228468700001 ], [ 5.1487294506, 51.815113289 ], [ 5.1517028528, 51.810976752 ], [ 5.1516247271, 51.810138976399998 ], [ 5.1544655792, 51.810075161900002 ], [ 5.1562101399, 51.809574814 ], [ 5.1572737175, 51.8094559528 ], [ 5.1591732916, 51.809588893300003 ], [ 5.1601250822, 51.809769630200002 ], [ 5.1603482982, 51.809976818400003 ], [ 5.1641604185, 51.809901564100002 ], [ 5.1714601172, 51.810982165299997 ], [ 5.1712279639, 51.811305810699999 ], [ 5.171315697, 51.8114421999 ], [ 5.1723642267, 51.811152164399999 ], [ 5.1753943607, 51.811859410700002 ], [ 5.1775912966, 51.8126708319 ], [ 5.1790159141, 51.812934239100002 ], [ 5.179078429, 51.813215574399997 ], [ 5.1798487484, 51.813119020099997 ], [ 5.181548519, 51.813590343199998 ], [ 5.182960811, 51.813476528499997 ], [ 5.1854688096, 51.81246426 ], [ 5.1853446926, 51.8120728476 ], [ 5.1877260449, 51.8105289254 ], [ 5.1911492809, 51.809065651399997 ], [ 5.1926348623, 51.809725324399999 ], [ 5.1926395903, 51.809570254100002 ], [ 5.1917651684, 51.808963902400002 ], [ 5.1927987218, 51.808245347700002 ], [ 5.1929275543, 51.807359256600002 ], [ 5.192726955, 51.806538497299996 ], [ 5.192778324, 51.805534147899998 ], [ 5.1933817605, 51.805638221599999 ], [ 5.199018743, 51.8045013192 ], [ 5.2023774115, 51.804178761700001 ], [ 5.20777414, 51.804453278499999 ], [ 5.2189538302, 51.806535087 ], [ 5.2226510248, 51.807561861799996 ], [ 5.222889357, 51.8073773773 ], [ 5.2233463268, 51.807467355500002 ], [ 5.2247288727, 51.808096696200003 ], [ 5.2203983074, 51.810785926400001 ], [ 5.2203844539, 51.810946168699999 ], [ 5.2275373916, 51.812386191500003 ], [ 5.2352861411, 51.814539284 ], [ 5.2340802768, 51.816148475200002 ], [ 5.2351793361, 51.816978238099999 ], [ 5.2355761817, 51.8190059557 ], [ 5.2368107691, 51.820706618899997 ], [ 5.2396309978, 51.8211172882 ], [ 5.2455875562, 51.822486048400002 ], [ 5.2495680995, 51.823158914899999 ], [ 5.2495800527, 51.8229166996 ], [ 5.2489776013, 51.822365206100002 ], [ 5.2480526166, 51.821889782299998 ], [ 5.2481207801, 51.821258559699999 ], [ 5.247315844, 51.820157187299998 ], [ 5.2465813517, 51.819586646300003 ], [ 5.2472411493, 51.817232440200002 ], [ 5.2536917052, 51.818264368900003 ], [ 5.2612666398, 51.818814709800002 ], [ 5.2605000933, 51.823021109300001 ], [ 5.2605914011, 51.8231387883 ], [ 5.2624140442, 51.822110050900001 ], [ 5.2653000266, 51.823072910299999 ], [ 5.2678572481, 51.823382846599998 ], [ 5.2701594164, 51.824047372300001 ], [ 5.2762786352, 51.823132534599999 ], [ 5.2765141376, 51.822959577500001 ], [ 5.2779943709, 51.823209393100001 ], [ 5.2792124996, 51.820778284699998 ], [ 5.2924737981, 51.8237544439 ], [ 5.297847435, 51.824157271600001 ], [ 5.3046012359, 51.824063349699998 ], [ 5.3112817405, 51.823243671900002 ], [ 5.3156288293, 51.822150741100003 ], [ 5.3198397051, 51.820657326300001 ], [ 5.3235347671, 51.818751929500003 ], [ 5.3261670869, 51.8170871158 ], [ 5.3283956024, 51.815277176199999 ], [ 5.3245663353, 51.814072230800001 ], [ 5.3246212854, 51.813983606400001 ], [ 5.327463065, 51.8111570234 ], [ 5.3297830065, 51.809854264499997 ], [ 5.3313209427, 51.808697114 ], [ 5.332382104, 51.807693654399998 ], [ 5.3340110345, 51.805561381700002 ], [ 5.3371888762, 51.803982871899997 ], [ 5.3389972234, 51.803574077299999 ], [ 5.3406591868, 51.802799932799999 ], [ 5.341840619, 51.802572276299998 ], [ 5.3420086442, 51.802768890400003 ], [ 5.3420613558, 51.802547771599997 ], [ 5.3437690343, 51.802366834700003 ], [ 5.3454143106, 51.801934950499998 ], [ 5.3464829864, 51.801430949199997 ], [ 5.3466253021, 51.800628369400002 ], [ 5.3468964236, 51.800715432099999 ], [ 5.3467864131, 51.801823777400003 ], [ 5.3470242537, 51.804324653099997 ], [ 5.3495861804, 51.804069391799999 ], [ 5.3522425338, 51.804124929799997 ], [ 5.3569841393, 51.8046996936 ], [ 5.360185361, 51.805531283100002 ], [ 5.3632464389, 51.806699063799996 ], [ 5.3654916226, 51.807878522 ], [ 5.3675242107, 51.809368587 ], [ 5.3703311731, 51.811767408500003 ], [ 5.3705237727, 51.811942134100001 ], [ 5.3693730706, 51.812751988899997 ], [ 5.3694262102, 51.812950604500003 ], [ 5.3676558597, 51.8142860755 ], [ 5.3686170897, 51.815160817100001 ], [ 5.3694212404, 51.816688376199998 ], [ 5.3697707343, 51.817681520400001 ], [ 5.3699622411, 51.819038556400002 ], [ 5.370672947, 51.819037447500001 ], [ 5.3731347254, 51.821946901700002 ], [ 5.3763509956, 51.8241684961 ], [ 5.3782244878, 51.825796023499997 ], [ 5.3791744137, 51.827912230599999 ], [ 5.3791630054, 51.829048010800001 ], [ 5.3787179403, 51.8303901082 ], [ 5.3784410907, 51.833726203499999 ], [ 5.3778384984, 51.8341669315 ], [ 5.3787729521, 51.836723277600001 ], [ 5.3791839316, 51.8371070018 ], [ 5.3796141197, 51.837194534799998 ], [ 5.3802177329, 51.836860049800002 ], [ 5.383320817, 51.836279062300001 ], [ 5.3831249285, 51.836937970699999 ], [ 5.3835648162, 51.837502286400003 ], [ 5.3886488077, 51.836044004199998 ], [ 5.3897692667, 51.837422126 ], [ 5.3906243463, 51.837854079700001 ], [ 5.3898992979, 51.839601439699997 ], [ 5.3899076391, 51.840470593799999 ], [ 5.3889458231, 51.843809386899999 ], [ 5.3921219087, 51.843472191700002 ], [ 5.3912403632, 51.840693530300001 ], [ 5.3918335475, 51.840724063499998 ], [ 5.3946693189, 51.841180050699997 ], [ 5.396756084, 51.842028869799996 ], [ 5.3970500127, 51.842281608500002 ], [ 5.3964114987, 51.843336951600001 ], [ 5.3968697913, 51.843427701899998 ], [ 5.3976827132, 51.844597906200001 ], [ 5.4001140233, 51.842230926 ], [ 5.4016167502, 51.8391790656 ], [ 5.4020984767, 51.839056172600003 ], [ 5.4020617057, 51.8384218303 ], [ 5.400834603, 51.837661062199999 ], [ 5.4054529285, 51.835106659899999 ], [ 5.4052784671, 51.834815417900003 ], [ 5.4056667375, 51.8345031052 ], [ 5.4057319079, 51.833701046199998 ], [ 5.4061134723, 51.8329342599 ], [ 5.4062875834, 51.832702902 ], [ 5.4070701574, 51.8327088542 ], [ 5.407163982, 51.8312875206 ], [ 5.4078694384, 51.829908305399996 ], [ 5.4092788155, 51.828501993499998 ], [ 5.4094820102, 51.828531077500003 ], [ 5.4109991247, 51.827265086 ], [ 5.4130457772, 51.825939521700001 ], [ 5.4150788899, 51.825094757099997 ], [ 5.4151347367, 51.824562006299999 ], [ 5.4162147652, 51.823185000400002 ], [ 5.4162562385, 51.822427507299999 ], [ 5.4158086581, 51.8218532482 ], [ 5.415070586024926, 51.821303799932153 ], [ 5.413348097582209, 51.822043948763692 ], [ 5.411875308240576, 51.822419058449512 ], [ 5.410415229722282, 51.822645091219286 ], [ 5.407497066893707, 51.822690047160378 ], [ 5.404576436529479, 51.822182865146409 ], [ 5.403112607477158, 51.82170127971257 ], [ 5.40165225606721, 51.820976908026381 ], [ 5.400433370904246, 51.819985740201794 ], [ 5.399615571586843, 51.819081525519394 ], [ 5.397059184616234, 51.815483200460065 ], [ 5.395326965626545, 51.813694459317553 ], [ 5.393175099324007, 51.811904580493994 ], [ 5.386705989152347, 51.807409309636235 ], [ 5.383424221490949, 51.804708557655992 ], [ 5.375940886438316, 51.796614926443162 ], [ 5.371944378356286, 51.793022156260051 ], [ 5.370170558350067, 51.791218254834305 ], [ 5.367108982879677, 51.787616869798349 ], [ 5.36523261023703, 51.784908476823112 ], [ 5.363244886863707, 51.781305034312368 ], [ 5.361778120239194, 51.777696502757472 ], [ 5.361009670907694, 51.774992625991857 ], [ 5.36051628420199, 51.772282111578726 ], [ 5.360329609500297, 51.76867546403637 ], [ 5.360564720139267, 51.763291304108243 ], [ 5.360465161930021, 51.762404143395578 ], [ 5.359839809642608, 51.760636787683346 ], [ 5.358436604933364, 51.758858518902109 ], [ 5.357502557663063, 51.75796597263642 ], [ 5.355290388912223, 51.756395510615611 ], [ 5.353425127549769, 51.755432116852603 ], [ 5.35463834611304, 51.753887517471526 ], [ 5.354712946677643, 51.753546112278507 ], [ 5.355315055867415, 51.753486206748789 ], [ 5.355700073664237, 51.753088582088665 ], [ 5.355859859688795, 51.751345636210701 ], [ 5.361232165414543, 51.751121913375577 ], [ 5.365104768431843, 51.751549697552704 ], [ 5.374052847620963, 51.753146612177218 ], [ 5.380199773946718, 51.755654198828964 ], [ 5.38220033023175, 51.75290658426831 ], [ 5.390372070207983, 51.756026303012575 ], [ 5.392628951232079, 51.75663007961019 ], [ 5.401606181257145, 51.757878896383197 ], [ 5.412553333783887, 51.758922590495288 ], [ 5.41263114958767, 51.759044008611255 ], [ 5.41190593518212, 51.762077927789605 ], [ 5.423313412359261, 51.763171415530103 ], [ 5.423127895629734, 51.763998226461908 ], [ 5.423687713835609, 51.767354588852925 ], [ 5.423590467255041, 51.767624554558594 ], [ 5.423148374833191, 51.767643680964149 ], [ 5.423994570521548, 51.772944358156046 ], [ 5.423287326560414, 51.774748233776798 ], [ 5.427672243170471, 51.77451824351354 ], [ 5.436178437731074, 51.772338841343185 ], [ 5.433116743599934, 51.767511222311512 ], [ 5.433145223877098, 51.76431137154534 ], [ 5.438756995295272, 51.764906087767962 ], [ 5.441139995855999, 51.759615857491063 ], [ 5.441018996451163, 51.759467815619502 ], [ 5.443256397927124, 51.754347554496512 ], [ 5.443930443352815, 51.753283211346925 ], [ 5.443952489323379, 51.75289894983198 ], [ 5.443432874426622, 51.751230396932257 ], [ 5.443556009831143, 51.750738450597609 ], [ 5.447301052065816, 51.745313617243042 ], [ 5.448048577821173, 51.743992231007525 ], [ 5.450448473753325, 51.740553945577147 ], [ 5.45114105824448, 51.739848206670786 ], [ 5.450457015688831, 51.739319165566087 ], [ 5.451923018102941, 51.737287720027695 ], [ 5.452317716172792, 51.737360536203774 ], [ 5.454040180736041, 51.735500244696681 ], [ 5.453138297276738, 51.735045946411226 ], [ 5.45183514237442, 51.734033893016907 ], [ 5.45307026194561, 51.732321152466056 ], [ 5.454669112967394, 51.732776785927882 ], [ 5.457824584592954, 51.729876597151907 ], [ 5.460047901363678, 51.730592751777671 ], [ 5.46253593646279, 51.728083214631212 ], [ 5.463199539544965, 51.725662701796765 ], [ 5.464887022247215, 51.726204871348344 ], [ 5.465411769757301, 51.726621308537204 ], [ 5.466087419872668, 51.726704550064341 ], [ 5.466345900257815, 51.726483045937727 ], [ 5.466607591957215, 51.72657241859573 ], [ 5.46685810008258, 51.726920532219523 ], [ 5.474176309552974, 51.728888038139374 ], [ 5.475129073954017, 51.727892139871543 ], [ 5.479983099204509, 51.72445188274537 ], [ 5.47879054957859, 51.724250984895043 ], [ 5.478607360201303, 51.723852468583132 ], [ 5.480759591258615, 51.72028117657117 ], [ 5.483932592715334, 51.719337240078396 ], [ 5.483893294925406, 51.717703514208019 ], [ 5.484885001879478, 51.715221177908653 ], [ 5.492825482031332, 51.715105049025411 ], [ 5.496072791737883, 51.713343144016648 ], [ 5.501155219035553, 51.713475225936619 ], [ 5.500900569074478, 51.712505045176869 ], [ 5.502085761185311, 51.712269776727645 ], [ 5.501756429855448, 51.710716548186618 ], [ 5.500712315612979, 51.708873099728308 ], [ 5.500438260463191, 51.708694814776329 ], [ 5.499369540037143, 51.708540171659415 ], [ 5.498968315005306, 51.707081748296886 ], [ 5.492549292693016, 51.706178931045237 ], [ 5.49261252260459, 51.705979256540218 ], [ 5.494173110999364, 51.705651874435972 ], [ 5.492565867374926, 51.702572699682889 ], [ 5.493051890116774, 51.702173999814498 ], [ 5.491056114354232, 51.700473044371222 ], [ 5.491111808366496, 51.700314967987595 ], [ 5.49167641345711, 51.70015865064903 ], [ 5.490338129073614, 51.69905482238422 ], [ 5.488733509758704, 51.699292021714371 ], [ 5.48729777077524, 51.698073655393003 ], [ 5.484550688974695, 51.694852163613817 ], [ 5.481038123440736, 51.690348025880887 ], [ 5.477152894526462, 51.691099499797673 ], [ 5.473764319879108, 51.690792351971083 ], [ 5.469650251100933, 51.691474261306411 ], [ 5.469301428056336, 51.691265159757471 ], [ 5.469712360093769, 51.689243222629649 ], [ 5.462206621282642, 51.689597366766868 ], [ 5.460406203793836, 51.689748025835485 ], [ 5.459809751720941, 51.691545186163268 ], [ 5.459224496427775, 51.691977052907035 ], [ 5.458708910463203, 51.692109754365163 ], [ 5.448767753942819, 51.669666042433299 ], [ 5.44554775878717, 51.666471843064791 ], [ 5.44495858606879, 51.664362149578771 ], [ 5.442392808283318, 51.66479959447031 ], [ 5.439411542171227, 51.664974379355549 ], [ 5.433659591838513, 51.664590461311221 ], [ 5.432463081900763, 51.664218521244585 ], [ 5.431901776135496, 51.663828826151082 ], [ 5.43149645850544, 51.663212318061341 ], [ 5.431422712420114, 51.662675622401117 ], [ 5.431730191834197, 51.661552984826287 ], [ 5.431573961024938, 51.660939606795601 ], [ 5.431118256405214, 51.660373694857732 ], [ 5.429791675134595, 51.659279348100057 ], [ 5.428346753388945, 51.656535665524771 ], [ 5.427601312517496, 51.655931308850107 ], [ 5.423289929779211, 51.65377806336312 ], [ 5.465862895093904, 51.642815412453366 ], [ 5.466311003714618, 51.643286656449845 ], [ 5.468540117045098, 51.642392916306619 ], [ 5.469951085921998, 51.642059600221529 ], [ 5.48450272896327, 51.634614431632848 ], [ 5.486668565137122, 51.635252943708878 ], [ 5.487193288290801, 51.635652911133612 ], [ 5.488557756573414, 51.635806466475799 ], [ 5.488809147288465, 51.635701308848894 ], [ 5.489237174961896, 51.634726955142675 ], [ 5.490420427041255, 51.633347817489472 ], [ 5.490497559452037, 51.632660509487721 ], [ 5.490354066398177, 51.632480043038697 ], [ 5.487522431471504, 51.633418364646232 ], [ 5.487278474935733, 51.633406674826844 ], [ 5.487281613579442, 51.633244818261844 ], [ 5.489884353141659, 51.632077897716535 ], [ 5.496939494349898, 51.627327358876066 ], [ 5.49950078978362, 51.626162446494334 ], [ 5.499546008204576, 51.625943319620511 ], [ 5.500555411651979, 51.625609196177585 ], [ 5.501377075046126, 51.625167341991201 ], [ 5.501441282855197, 51.62496356472905 ], [ 5.501688878368124, 51.624999613439954 ], [ 5.503392054256176, 51.624012366793174 ], [ 5.502450659192967, 51.622158597448056 ], [ 5.501771842981576, 51.620070321231346 ], [ 5.501614432138683, 51.617655684050618 ], [ 5.502030074384943, 51.615476275599917 ], [ 5.500271015102251, 51.615408214335666 ], [ 5.499338752169378, 51.615569911596509 ], [ 5.498518021507757, 51.613811924519936 ], [ 5.499211217451013, 51.613445358523933 ], [ 5.499567869486902, 51.613436468698652 ], [ 5.497556628722001, 51.612672158260089 ], [ 5.495695760801846, 51.611607866396533 ], [ 5.495645704993144, 51.610914249834387 ], [ 5.495081447792998, 51.610094594275672 ], [ 5.491238889175813, 51.609468075638802 ], [ 5.485698362365399, 51.609168435557841 ], [ 5.48651337709463, 51.608045248933777 ], [ 5.48623694677125, 51.607895776184208 ], [ 5.48651435922189, 51.607463746365546 ], [ 5.486269387378051, 51.607217088237306 ], [ 5.485999666973528, 51.606442923423671 ], [ 5.485184808838844, 51.606236176638561 ], [ 5.485082576045711, 51.606009618273838 ], [ 5.487947103217964, 51.602532463605741 ], [ 5.490125158825999, 51.594947733448258 ], [ 5.487960132303047, 51.593615395211252 ], [ 5.488324803209067, 51.593251689332007 ], [ 5.487654492391598, 51.592799596535741 ], [ 5.48804492999892, 51.591575374239888 ], [ 5.486825760454599, 51.590845385610315 ], [ 5.484968040143851, 51.591826566920979 ], [ 5.468511722780852, 51.602293346794063 ], [ 5.429860275391516, 51.592378282763221 ], [ 5.429802524970332, 51.592245930532805 ], [ 5.431085946785743, 51.589169909586168 ], [ 5.419531061591346, 51.586220751363101 ], [ 5.419101932478556, 51.586510800742651 ], [ 5.4165233056917, 51.585838991945508 ], [ 5.416688790885178, 51.58625397181099 ], [ 5.416222598021466, 51.586938557624414 ], [ 5.414854854863274, 51.588231614350633 ], [ 5.411296659385303, 51.592998477994115 ], [ 5.412942518428788, 51.593366917305978 ], [ 5.412995976695898, 51.593514526398451 ], [ 5.410572339520571, 51.596685114999488 ], [ 5.409079780924849, 51.596270316839764 ], [ 5.40865040999903, 51.597864718174655 ], [ 5.405392204249862, 51.597650069275403 ], [ 5.404934437303772, 51.59782779719793 ], [ 5.404420764100181, 51.598325107177381 ], [ 5.403073780544045, 51.598794875774296 ], [ 5.400865534420393, 51.598729094962863 ], [ 5.397300256178993, 51.599270292958472 ], [ 5.395205705271907, 51.599059217221509 ], [ 5.394818274569407, 51.599231898455933 ], [ 5.394815970019952, 51.599591883572749 ], [ 5.394518223570749, 51.59983169231672 ], [ 5.394375333573652, 51.60077012450958 ], [ 5.39342859126403, 51.601546060671225 ], [ 5.391248403263846, 51.600955803747595 ], [ 5.389900412847169, 51.60085955911957 ], [ 5.389937093773842, 51.601931385152504 ], [ 5.390965752227891, 51.603150260731887 ], [ 5.391026744431498, 51.603929715017621 ], [ 5.39047697270496, 51.605371518230214 ], [ 5.388861791540303, 51.60512708604692 ], [ 5.385443412470552, 51.603856244716475 ], [ 5.38092314353129, 51.602932118226072 ], [ 5.38097807318177, 51.602681487364606 ], [ 5.385996309459057, 51.600832325085456 ], [ 5.384497069353811, 51.599697490878732 ], [ 5.383065733493757, 51.597505605325047 ], [ 5.383116203720713, 51.597191848909468 ], [ 5.383588594954187, 51.597062718952699 ], [ 5.38223321535362, 51.596667171335049 ], [ 5.381345254622778, 51.596183941624552 ], [ 5.38438160480098, 51.593612513768953 ], [ 5.386088568795727, 51.590541815906647 ], [ 5.386938740964913, 51.590799326557047 ], [ 5.387080140539856, 51.591101409247244 ], [ 5.387358154438829, 51.590425152488251 ], [ 5.388315456277684, 51.590062106120342 ], [ 5.380810809118616, 51.587793109708961 ], [ 5.380762048306184, 51.587634106633914 ], [ 5.3826909004538, 51.587260671154212 ], [ 5.385671895794665, 51.585972597635404 ], [ 5.385808120941048, 51.585743414173336 ], [ 5.38788320025957, 51.58436398774743 ], [ 5.389591670109168, 51.583412340804635 ], [ 5.389104097604679, 51.582773275401131 ], [ 5.387729144823285, 51.582480119793388 ], [ 5.388893478284372, 51.580743941693264 ], [ 5.389723519815025, 51.580768201923362 ], [ 5.389680968769083, 51.580959761762365 ], [ 5.38920804732007, 51.581152954792557 ], [ 5.38940769291209, 51.581554669376743 ], [ 5.389857463230253, 51.581605124482223 ], [ 5.390738358989075, 51.581251237166299 ], [ 5.392577290810568, 51.580048779241487 ], [ 5.393558345895873, 51.579935149929476 ], [ 5.393024247840897, 51.579025785692657 ], [ 5.392562003702473, 51.577629518563285 ], [ 5.39140149371664, 51.576323488774491 ], [ 5.391344350149029, 51.576039451884952 ], [ 5.391527961009031, 51.575820561357119 ], [ 5.392820795615826, 51.575300634452027 ], [ 5.394684525224582, 51.575913685314688 ], [ 5.395583362172107, 51.576476532335846 ], [ 5.396303568349161, 51.576516936197088 ], [ 5.398266312248853, 51.576193331212203 ], [ 5.400338013710973, 51.575542394852619 ], [ 5.401114805433878, 51.575555508446129 ], [ 5.402106422955345, 51.575919125103461 ], [ 5.403771424494741, 51.575814423039951 ], [ 5.402856251061543, 51.575021660074924 ], [ 5.40192165833612, 51.57387769041155 ], [ 5.402296091996655, 51.571853652727661 ], [ 5.401297583213524, 51.572040468814855 ], [ 5.401029008806972, 51.571936182144228 ], [ 5.399811906233223, 51.572453564515683 ], [ 5.399260985289089, 51.572250831067528 ], [ 5.398832598205717, 51.571286120307633 ], [ 5.399274522225443, 51.570734278295411 ], [ 5.399096252959017, 51.569847283713919 ], [ 5.399235628027043, 51.569150354795234 ], [ 5.399475687253145, 51.568960993312999 ], [ 5.398581722801786, 51.567753673412625 ], [ 5.399330869391814, 51.566173515632919 ], [ 5.398417194914452, 51.566147217548803 ], [ 5.397709641823634, 51.56589936732432 ], [ 5.39797855262094, 51.565663077387988 ], [ 5.399040871474262, 51.563231313312052 ], [ 5.40003610558835, 51.562315253148824 ], [ 5.401598745315913, 51.561815088351906 ], [ 5.405026858533689, 51.561921553044364 ], [ 5.402711254557699, 51.55779077873229 ], [ 5.403922935494903, 51.555020725751014 ], [ 5.401215481605957, 51.554217328301853 ], [ 5.399202222703862, 51.554040022424104 ], [ 5.399196637935566, 51.553754010138633 ], [ 5.398283025079812, 51.553529928412722 ], [ 5.397905073712397, 51.552324730874041 ], [ 5.398026003710658, 51.55215445226122 ], [ 5.403539308020838, 51.550046760326836 ], [ 5.398061872545311, 51.54888982364902 ], [ 5.396877826505006, 51.550493288682866 ], [ 5.393428141921234, 51.549386683671329 ], [ 5.389697666755312, 51.549687293421542 ], [ 5.390192931767186, 51.545304681510366 ], [ 5.388071422098164, 51.544364428889033 ], [ 5.382849865833865, 51.543598189518029 ], [ 5.382671614850037, 51.543881964290463 ], [ 5.368610982443569, 51.543623973093524 ], [ 5.368554083880849, 51.543910886168192 ], [ 5.367780563484028, 51.544352882125665 ], [ 5.365175216920785, 51.545102933986385 ], [ 5.361751450808088, 51.545045643806951 ], [ 5.358403929363282, 51.544764153690359 ], [ 5.355782042043494, 51.544828164992168 ], [ 5.353380345807165, 51.545134722101864 ], [ 5.352585450549239, 51.544691889058683 ], [ 5.350861953824139, 51.544337620919123 ], [ 5.346407761542, 51.544309756460031 ], [ 5.345737237519645, 51.544498102931414 ], [ 5.343948125056407, 51.544569697461029 ], [ 5.337389939957877, 51.546412289520809 ], [ 5.336433382138878, 51.547211980522839 ], [ 5.336044708772804, 51.547853573216678 ], [ 5.335256450583225, 51.548440910118266 ], [ 5.334189284179888, 51.549655299037013 ], [ 5.334013761432456, 51.550209459609498 ], [ 5.334114369225967, 51.550737024701874 ], [ 5.333068793287306, 51.551229007128164 ], [ 5.33043035295745, 51.551379996115635 ], [ 5.32949770951799, 51.551192375405122 ], [ 5.329301947856371, 51.5513145029811 ], [ 5.325165745049389, 51.551474126810589 ], [ 5.323896967431497, 51.550933595071648 ], [ 5.30839040469812, 51.54608282029794 ], [ 5.302204832625414, 51.547302581840327 ], [ 5.302106083063813, 51.546768102982874 ], [ 5.30260431652909, 51.545955726492778 ], [ 5.302469709248743, 51.545949153003278 ], [ 5.299485486629605, 51.546616087054261 ], [ 5.299488672787361, 51.54702042228336 ], [ 5.299012881115146, 51.547946952907573 ], [ 5.273605667487612, 51.552860269371564 ], [ 5.273250472450197, 51.552918676020575 ], [ 5.273121675040795, 51.552747734453142 ], [ 5.2688572499, 51.553636256899999 ], [ 5.2654492057, 51.5567976926 ], [ 5.2613734474, 51.560927141100002 ], [ 5.261727833, 51.562423934199998 ], [ 5.2621659232, 51.562941640699997 ], [ 5.262198448, 51.563537674099997 ], [ 5.2624538732, 51.563832162899999 ], [ 5.2607174205, 51.565826058100001 ], [ 5.2613985388, 51.567508223 ], [ 5.2613655259, 51.569017646200003 ], [ 5.2594455958, 51.571308553100003 ], [ 5.2536061142, 51.5704324298 ], [ 5.2460951865, 51.579421593299998 ], [ 5.2471265515, 51.5869353223 ], [ 5.2305638591, 51.586202482700003 ], [ 5.2304796176, 51.5863961051 ], [ 5.2139210954, 51.585445397199997 ], [ 5.2131717097, 51.586151966800003 ], [ 5.2133773841, 51.586541413699997 ], [ 5.2129928186, 51.586903345800003 ], [ 5.2117575149, 51.587481544100001 ], [ 5.210384602, 51.589112584299997 ], [ 5.209930123, 51.590012631100002 ], [ 5.2089931233, 51.590903406400002 ], [ 5.2062957527, 51.589578854400003 ], [ 5.2045526824, 51.588950083100002 ], [ 5.202030413, 51.591419873699998 ], [ 5.2004798217, 51.592468486400001 ], [ 5.1952650629, 51.594948639800002 ], [ 5.1940877259, 51.594537379199998 ], [ 5.1925892646, 51.593594909899998 ], [ 5.1912529332, 51.595594389299997 ], [ 5.1915143118, 51.597175853800003 ], [ 5.1910881118, 51.598361791199999 ], [ 5.1897167023, 51.599698504 ], [ 5.1863229459, 51.6019109267 ], [ 5.179363395, 51.5976717311 ], [ 5.1754112352, 51.600207644800001 ], [ 5.1725517584, 51.602485561899996 ], [ 5.1702437666, 51.603636065499998 ], [ 5.1693976315, 51.603512837300002 ], [ 5.1693876494, 51.603662357 ], [ 5.1751154168, 51.6094925915 ], [ 5.1749532226, 51.609627638900001 ], [ 5.1747978422, 51.610416834399999 ], [ 5.1707385495, 51.611797955599997 ], [ 5.1677561137, 51.611003776499999 ], [ 5.1676802478, 51.611122506199997 ], [ 5.1678297293, 51.611317361300003 ], [ 5.1651967642, 51.612414548099999 ], [ 5.1651949789, 51.612560103299998 ], [ 5.1665824482, 51.613664461100001 ], [ 5.1651595832, 51.614372941200003 ], [ 5.1651282697, 51.614509062700002 ], [ 5.1653375452, 51.614780517600003 ], [ 5.166778791, 51.615612557399999 ], [ 5.1674197333, 51.615370778299997 ], [ 5.1680543081, 51.615903391899998 ], [ 5.1674703752, 51.6162854831 ], [ 5.1673114929, 51.616587504199998 ], [ 5.1686118415, 51.617950251899998 ], [ 5.1690434659, 51.618716876 ], [ 5.1656895625, 51.621954394100001 ], [ 5.1645298994, 51.6211541869 ], [ 5.1633155617, 51.622136757200003 ], [ 5.1632605534, 51.622339210699998 ], [ 5.1638460685, 51.622689391800002 ], [ 5.1631693995, 51.6234533222 ], [ 5.1639516449, 51.623759702299999 ], [ 5.163942385, 51.623920615499998 ], [ 5.1542691745, 51.633765131300002 ], [ 5.1529609551, 51.633396518300003 ], [ 5.1525357587, 51.633765666899997 ], [ 5.1525712535, 51.633931393200001 ], [ 5.1537557686, 51.634237352600003 ], [ 5.1491759514, 51.638545088100003 ], [ 5.1477829328, 51.6384492225 ], [ 5.1474465033, 51.638973517499998 ], [ 5.1465597137, 51.638692129900001 ], [ 5.145607531, 51.640279972599998 ], [ 5.144918925132444, 51.640413691572711 ], [ 5.145008743892041, 51.640601787087704 ], [ 5.145582131884301, 51.6405406038064 ], [ 5.148846013277451, 51.639972697298568 ], [ 5.150902966158903, 51.644136739389886 ], [ 5.152466188979303, 51.644371403336159 ], [ 5.153547909572476, 51.644833401474145 ], [ 5.152992581889872, 51.642334130603132 ], [ 5.153071099534046, 51.642167033056836 ], [ 5.154112969528948, 51.642096858038322 ], [ 5.154556712822784, 51.642438039675113 ], [ 5.158831606140092, 51.643127584264647 ], [ 5.158022045051318, 51.645511784145633 ], [ 5.158137146866101, 51.646088152296379 ], [ 5.157671980280365, 51.646730194971823 ], [ 5.157973471568218, 51.647041544441599 ], [ 5.157957915711561, 51.647962054226085 ], [ 5.15712911743901, 51.6479935940161 ], [ 5.154565843651466, 51.654898047529009 ], [ 5.157052129424454, 51.657727877980115 ], [ 5.157760413762607, 51.663178805855367 ], [ 5.161818541462949, 51.663362452516203 ], [ 5.166842273415565, 51.668948760838276 ], [ 5.204786849049663, 51.669722696862934 ], [ 5.204871571713822, 51.669853359482936 ], [ 5.204653930120491, 51.670094010762277 ], [ 5.203392296774095, 51.670231856203436 ], [ 5.202377001115433, 51.670586142618589 ], [ 5.207942696258045, 51.673837860451108 ], [ 5.208494268649545, 51.673560827026932 ], [ 5.209176750031598, 51.673468655388156 ], [ 5.223286300835304, 51.673701005653534 ], [ 5.22428657237161, 51.680270968423216 ], [ 5.225842217896999, 51.683843504828808 ], [ 5.226116749133136, 51.689642501373058 ], [ 5.226579977368893, 51.690570713386059 ], [ 5.227140858481468, 51.69086843112359 ], [ 5.230357439571094, 51.69150983340618 ], [ 5.230419744816336, 51.691659301219886 ], [ 5.246503039593707, 51.694533958108686 ], [ 5.247844707684619, 51.694516279852643 ], [ 5.248390669235417, 51.694762729766595 ], [ 5.249015296374278, 51.695461693215108 ], [ 5.249057374225105, 51.697274985816087 ], [ 5.249964450505844, 51.698152731651213 ], [ 5.251691672654481, 51.699375699183101 ], [ 5.251647767098898, 51.699625460762753 ], [ 5.250546804809327, 51.7006584225742 ], [ 5.250053831511697, 51.700343829824327 ], [ 5.249055704330295, 51.701302680682502 ], [ 5.248222209836233, 51.70122219946095 ], [ 5.247712699138703, 51.702124903655658 ], [ 5.247045482799179, 51.70282970005281 ], [ 5.241138735061878, 51.701143085981236 ], [ 5.240354169991365, 51.701759609553278 ], [ 5.239051090755634, 51.702130383228528 ], [ 5.237331794810749, 51.704842850917707 ], [ 5.235879858618702, 51.704734702991111 ], [ 5.236381291619837, 51.706273064382692 ], [ 5.241278957132687, 51.714055354190009 ], [ 5.231234401674223, 51.710881880098889 ], [ 5.23004157857583, 51.710680921067578 ], [ 5.228964977807183, 51.713154671774227 ], [ 5.229087399989879, 51.713287793511604 ], [ 5.228640304687581, 51.714767575456484 ], [ 5.230561104804444, 51.720955943963162 ], [ 5.23079220005417, 51.723620959057079 ], [ 5.230844068221246, 51.723876505677751 ], [ 5.231149128089095, 51.723965065697456 ], [ 5.231112068902438, 51.724145921310189 ], [ 5.227557969853224, 51.727242219536798 ], [ 5.22491304734683, 51.726762775553517 ], [ 5.221756040024766, 51.729485299506315 ], [ 5.219361065205808, 51.728270621023945 ], [ 5.216552112538979, 51.730733154072489 ], [ 5.210176955658208, 51.733976179354158 ], [ 5.21062802018042, 51.73436023378995 ], [ 5.21021260323193, 51.735338118390459 ], [ 5.210539529394651, 51.735497160888016 ], [ 5.209633876147183, 51.737314727786966 ], [ 5.210464779223446, 51.737755000662041 ], [ 5.209682054264161, 51.738788915714181 ], [ 5.206516958303177, 51.74157455549485 ], [ 5.198723349063149, 51.740513799783372 ], [ 5.194689505985719, 51.740402462299308 ], [ 5.191372711379543, 51.740841232541534 ], [ 5.185717561712011, 51.742015965975327 ], [ 5.180155376555499, 51.742782024772389 ], [ 5.174364153496558, 51.743133006273567 ], [ 5.167115939429377, 51.74311068391637 ], [ 5.158420435048003, 51.742218252460574 ], [ 5.146832158310014, 51.740737481401162 ], [ 5.128054276695924, 51.737708637949979 ], [ 5.126787295154283, 51.737923571977412 ], [ 5.126286618727492, 51.738776910743084 ], [ 5.126085588845845, 51.739635927293087 ], [ 5.126167382535299, 51.740541213922548 ], [ 5.125692140797421, 51.74322289517184 ], [ 5.125828949037616, 51.744082737382683 ], [ 5.126409255620993, 51.74495128782204 ], [ 5.127615995517644, 51.745837527169442 ], [ 5.129518390923352, 51.74674356856557 ], [ 5.133809246203756, 51.748343417176351 ], [ 5.138163752532113, 51.750640364603441 ], [ 5.140280688871427, 51.75215817164019 ], [ 5.141243995358553, 51.753072286802286 ], [ 5.142809446496077, 51.755180986760358 ], [ 5.139579756437795, 51.756455173569144 ], [ 5.137718136495762, 51.757704622165058 ], [ 5.136906675933389, 51.75858732518946 ], [ 5.135987399545765, 51.760347875340258 ], [ 5.135843487135501, 51.761223463427967 ], [ 5.135905525608821, 51.762100599268578 ], [ 5.136442424158244, 51.76387753056752 ], [ 5.137410315906952, 51.765664131080875 ], [ 5.138824866807544, 51.767464119209116 ], [ 5.13969773107299, 51.769295656876153 ], [ 5.139747731363147, 51.770235723100157 ], [ 5.139486010838706, 51.771157845565988 ], [ 5.138825634360265, 51.772083163911695 ], [ 5.137631634073275, 51.77299137360562 ], [ 5.135114868628399, 51.773925816521817 ], [ 5.129314143275552, 51.774830194034671 ], [ 5.127866404249278, 51.775197994846103 ], [ 5.117719816333849, 51.77824800711349 ], [ 5.11481762152447, 51.779815758010166 ], [ 5.108830997346169, 51.783788646364265 ], [ 5.105384908435958, 51.785597175292807 ], [ 5.101865702888905, 51.786871064672937 ], [ 5.097324422376129, 51.787686615955273 ], [ 5.094429119261341, 51.787694148661956 ], [ 5.092951306542442, 51.787470490194863 ], [ 5.091363689186191, 51.787013587015657 ], [ 5.088555616694564, 51.785897686339496 ], [ 5.087150326976861, 51.78518119633695 ], [ 5.085714784815567, 51.784164646332748 ], [ 5.083732818876568, 51.781859019273476 ], [ 5.081895693412619, 51.780794296253177 ], [ 5.081951548777899, 51.780602392320134 ], [ 5.0800196678, 51.779846700900002 ], [ 5.0771588706, 51.779212433 ], [ 5.0742457085, 51.778970111200003 ], [ 5.0712946841, 51.779174577399999 ], [ 5.068379278, 51.7798276276 ], [ 5.0664682765, 51.780746626300001 ], [ 5.0640003109, 51.782529637099998 ], [ 5.0618419777, 51.784343212300001 ], [ 5.0601758449, 51.786147643699998 ], [ 5.0570471633, 51.790625451700002 ], [ 5.0539135362, 51.793317156699999 ], [ 5.053102246, 51.794228065600002 ], [ 5.0522695367, 51.795621871100003 ], [ 5.0507850422, 51.796531745199999 ], [ 5.0479053662, 51.798121183699998 ], [ 5.045129882, 51.799078610800002 ], [ 5.0421394827, 51.799749701499998 ], [ 5.0348738619, 51.8019574295 ], [ 5.0290986664, 51.802926851800002 ], [ 5.0275725431, 51.803370214899999 ], [ 5.0247096248, 51.804432986099997 ], [ 5.0203358349, 51.8065218 ], [ 5.0159575036, 51.808117015800001 ], [ 5.0144800615, 51.808904601 ], [ 5.011633647, 51.811153788200002 ], [ 5.0108595206, 51.812047120700001 ], [ 5.0102198173, 51.812962411400001 ], [ 5.0099418074, 51.813895319099998 ], [ 5.0100008434, 51.816579898400001 ], [ 5.0092662635, 51.817429529 ], [ 5.0072181127, 51.8182461257 ], [ 5.0042469121, 51.819052101499999 ], [ 5.0013648073, 51.820532290400003 ], [ 5.0002643986, 51.820943267499999 ], [ 5.000894281, 51.8210816737 ], [ 5.0052400607, 51.821187340199998 ], [ 5.0130028926, 51.820825520699998 ], [ 5.0210475818, 51.819958795600002 ], [ 5.0288090614, 51.818421941799997 ], [ 5.0322229199, 51.817947722900001 ], [ 5.0354218014, 51.817568272 ], [ 5.0398182677, 51.817403988 ] ] ] } }
]
}
