{
"type": "FeatureCollection",
"name": "SWVPO2709",
"crs": { "type": "name", "properties": { "name": "urn:ogc:def:crs:OGC:1.3:CRS84" } },
"features": [
{ "type": "Feature", "properties": { "PO SWV": "PO2709", "strokeColor": "#A9A9A9", "strokeWidth": 2, "fillColor": "#ADD8E6" }, "geometry": { "type": "MultiPolygon", "coordinates": [ [ [ [ 5.011140230208641, 52.327208643720198 ], [ 5.009491048129892, 52.327713121636179 ], [ 5.009431112500074, 52.327842023829547 ], [ 5.012674544245127, 52.329506962354721 ], [ 5.012929869824029, 52.329833319954588 ], [ 5.012714497077244, 52.330268273707979 ], [ 5.0143048092198, 52.331455937963362 ], [ 5.015164365940815, 52.332684579147987 ], [ 5.01605829593113, 52.332720159991851 ], [ 5.018413427188559, 52.33416153201604 ], [ 5.023617708361766, 52.336602887583382 ], [ 5.027519859905048, 52.337833942955996 ], [ 5.027744004779401, 52.337695423555921 ], [ 5.027713236461131, 52.337125526559099 ], [ 5.027968852466906, 52.336786375175834 ], [ 5.028775761340626, 52.336580955333567 ], [ 5.029916073008226, 52.336713182178102 ], [ 5.030232763397445, 52.336550910300183 ], [ 5.030239384762329, 52.336316438300145 ], [ 5.029987918365299, 52.336025141077933 ], [ 5.028930805898566, 52.335651853289242 ], [ 5.029075004022055, 52.335395012372416 ], [ 5.029894733985365, 52.33487721460736 ], [ 5.029830040158396, 52.334521951678241 ], [ 5.030169842372506, 52.334404460729807 ], [ 5.030506293044005, 52.334504998906603 ], [ 5.030881794061491, 52.33423193042875 ], [ 5.030962831150403, 52.333913440710489 ], [ 5.032185770263919, 52.333633576616798 ], [ 5.035336040569115, 52.333523985099959 ], [ 5.036590888617663, 52.333619448108671 ], [ 5.037053233823151, 52.333810259731123 ], [ 5.037399797959067, 52.334172444051354 ], [ 5.039986515543879, 52.334582144829312 ], [ 5.040801760678648, 52.334572030609948 ], [ 5.041115496159029, 52.334974653038444 ], [ 5.041203843553293, 52.335422880940328 ], [ 5.042389857977667, 52.336040557638746 ], [ 5.043184524887077, 52.336079829090664 ], [ 5.043168909175192, 52.335676584730749 ], [ 5.043595225751567, 52.335482530864994 ], [ 5.045862839537996, 52.33539883537091 ], [ 5.055491426266896, 52.337878778945665 ], [ 5.057607612052083, 52.337606467878075 ], [ 5.059869281021042, 52.337888833202214 ], [ 5.061299154091615, 52.337770529667857 ], [ 5.066617372339641, 52.336712270342559 ], [ 5.068124367768682, 52.337068687157966 ], [ 5.068301389535665, 52.337483010347036 ], [ 5.068351850788281, 52.342109941279311 ], [ 5.068569239991191, 52.342203117090833 ], [ 5.068679573693002, 52.341408530266499 ], [ 5.068630832627781, 52.337161543429033 ], [ 5.068196805276475, 52.336369035152963 ], [ 5.067876142390444, 52.336296326333908 ], [ 5.06865208233819, 52.334084046749638 ], [ 5.069345485235006, 52.334151388971328 ], [ 5.069648950357164, 52.333499208605552 ], [ 5.069865292694354, 52.333460459384575 ], [ 5.070117935001259, 52.332813857508683 ], [ 5.069614397697586, 52.331077431756484 ], [ 5.0690287252594, 52.330188671548747 ], [ 5.069238966866373, 52.330120930467707 ], [ 5.070367762839846, 52.331580840553706 ], [ 5.071166908227955, 52.333617160422406 ], [ 5.070436323287671, 52.333594511479198 ], [ 5.070245125538604, 52.334108513491003 ], [ 5.069768380094432, 52.334548446848238 ], [ 5.069671537818778, 52.334922581069996 ], [ 5.069803161344875, 52.335386494480026 ], [ 5.070371092497729, 52.33562425059128 ], [ 5.069807682442695, 52.335791614722233 ], [ 5.069614928851317, 52.33676509385085 ], [ 5.069783274362631, 52.337278915434617 ], [ 5.069607095240587, 52.337465084424281 ], [ 5.069495387399751, 52.338855800816887 ], [ 5.069647439696212, 52.342104622943701 ], [ 5.069890506514755, 52.342009757754617 ], [ 5.069795218769368, 52.33999096769206 ], [ 5.069938169107039, 52.337529866448158 ], [ 5.070945506097478, 52.337434026590707 ], [ 5.072411404525073, 52.338196815675602 ], [ 5.073749998242116, 52.338426874887375 ], [ 5.074596135990301, 52.338839074711252 ], [ 5.075546562340375, 52.339074272336156 ], [ 5.076833470578267, 52.339750933365586 ], [ 5.077590058357459, 52.339901108318884 ], [ 5.081221073613602, 52.33971853732023 ], [ 5.089703014016337, 52.338867089875095 ], [ 5.093790155458031, 52.338835229636139 ], [ 5.095931341415066, 52.337671797345692 ], [ 5.09940215485219, 52.336266745127595 ], [ 5.100916646365453, 52.334988143502883 ], [ 5.102405156061047, 52.334668648254649 ], [ 5.103601584584135, 52.333355145201139 ], [ 5.106673508576735, 52.331685409290259 ], [ 5.107928603181178, 52.33153440561329 ], [ 5.108503926270094, 52.332011017015709 ], [ 5.10911777122042, 52.332111938067186 ], [ 5.109470222782289, 52.3317723362903 ], [ 5.109460344128736, 52.331587496081468 ], [ 5.109975357003425, 52.331249224661512 ], [ 5.110122828497203, 52.330401641608681 ], [ 5.110910796198838, 52.330099301799194 ], [ 5.121301882752819, 52.329688149213901 ], [ 5.122727036933864, 52.329320420796243 ], [ 5.123818649729326, 52.329592202443109 ], [ 5.124266706340255, 52.329080523199629 ], [ 5.125222013143859, 52.328749400412086 ], [ 5.125623035822787, 52.328184693840029 ], [ 5.126257860187681, 52.327671855907212 ], [ 5.126350392844394, 52.327160581495605 ], [ 5.128381865154708, 52.326628181431452 ], [ 5.128878282973735, 52.326090703819347 ], [ 5.129161757604647, 52.325505563963553 ], [ 5.12970922554763, 52.325534727894514 ], [ 5.130458659512425, 52.326318091809114 ], [ 5.132167654871311, 52.327067323780071 ], [ 5.133349057038695, 52.32710579350848 ], [ 5.133554555696717, 52.327321534944289 ], [ 5.133313106551352, 52.327579385771919 ], [ 5.13342816923217, 52.327745053896983 ], [ 5.135036865900788, 52.326947735461403 ], [ 5.137178607757336, 52.325431493826763 ], [ 5.138367966581678, 52.325991683977854 ], [ 5.13891352927707, 52.325476985197334 ], [ 5.137849211128178, 52.324906958660897 ], [ 5.139812613599705, 52.323459242335637 ], [ 5.140928956609673, 52.322157864932208 ], [ 5.140818730815234, 52.321953713338488 ], [ 5.140130104506694, 52.321940580305771 ], [ 5.139871324446468, 52.32157364639594 ], [ 5.14022181364234, 52.321321534519441 ], [ 5.141317184734997, 52.321185217867743 ], [ 5.142242013067393, 52.320305508954824 ], [ 5.142831580362571, 52.320242038479847 ], [ 5.142800329709785, 52.320025651934465 ], [ 5.142368917183667, 52.320100385230752 ], [ 5.14325693170999, 52.319251446424659 ], [ 5.144655441607524, 52.317458570604984 ], [ 5.146771498618321, 52.315702767544153 ], [ 5.147631498077343, 52.315150733985639 ], [ 5.147578132856601, 52.315387238978403 ], [ 5.147781946205193, 52.315428456681381 ], [ 5.147843770471163, 52.314942249668377 ], [ 5.151412878072565, 52.312456170105349 ], [ 5.151165708807321, 52.312107751213219 ], [ 5.149496334671657, 52.3118594414954 ], [ 5.146147971782059, 52.312668150990838 ], [ 5.145416384793938, 52.312148392767256 ], [ 5.145417075736503, 52.311962482177186 ], [ 5.143807883542809, 52.310887649926066 ], [ 5.146325764764992, 52.309412043998201 ], [ 5.149938661043695, 52.310180653125286 ], [ 5.151021292435717, 52.309104863672502 ], [ 5.151066087265805, 52.308693771194093 ], [ 5.150816474785201, 52.308490361319187 ], [ 5.149931077085126, 52.308310798651242 ], [ 5.14951947510994, 52.308645444866755 ], [ 5.14896870038172, 52.308405982073786 ], [ 5.149102436710633, 52.308105948324688 ], [ 5.149853832612885, 52.308105539969922 ], [ 5.150248010267044, 52.308298958348544 ], [ 5.1516863109489, 52.308299515012649 ], [ 5.151924049149337, 52.307848057941385 ], [ 5.152473294442339, 52.30785203700583 ], [ 5.152493079733602, 52.308087817042178 ], [ 5.154110395228815, 52.308638176259826 ], [ 5.15405048966805, 52.308752173307951 ], [ 5.152390435635816, 52.308357117013671 ], [ 5.151995115017886, 52.308440109728735 ], [ 5.151258166797382, 52.309199646219433 ], [ 5.151258409199421, 52.309360529655564 ], [ 5.152976588583594, 52.309935817333567 ], [ 5.152471919679115, 52.310167874533924 ], [ 5.152033747450149, 52.310908631053984 ], [ 5.151452574558614, 52.310788584061008 ], [ 5.152065054215957, 52.310479440494014 ], [ 5.152231721337537, 52.30999084804894 ], [ 5.151934871843724, 52.30971672168485 ], [ 5.150922505325157, 52.309601353149759 ], [ 5.14996715525632, 52.310557647011933 ], [ 5.149822623668349, 52.31099728688443 ], [ 5.149933808289671, 52.311368422783367 ], [ 5.150266005666235, 52.311582327428333 ], [ 5.152024309482323, 52.311976725957699 ], [ 5.152638136732098, 52.311926930571211 ], [ 5.155808932220606, 52.310072608510325 ], [ 5.159650326907614, 52.30837120287142 ], [ 5.160126613694527, 52.307896080932423 ], [ 5.160268975566726, 52.30720941093962 ], [ 5.161031678255391, 52.306934789364433 ], [ 5.161559307341713, 52.306503293218135 ], [ 5.162851016764747, 52.306038348657488 ], [ 5.16309320495041, 52.305694268089752 ], [ 5.163554852354366, 52.305651363046138 ], [ 5.163715686650816, 52.305394673340494 ], [ 5.164952636073887, 52.305311989869487 ], [ 5.166945486877459, 52.304641907463527 ], [ 5.167378911508322, 52.304711174355162 ], [ 5.167851328535787, 52.304384754658052 ], [ 5.168427213949158, 52.304238347975733 ], [ 5.16899774232562, 52.30458860427818 ], [ 5.169920639112629, 52.304869190969626 ], [ 5.171188556033409, 52.304598700228318 ], [ 5.171726056833559, 52.304064636196408 ], [ 5.173787865896426, 52.304095964641036 ], [ 5.175537474022905, 52.304539272744783 ], [ 5.177500812723075, 52.304510271253292 ], [ 5.177855172049694, 52.304745078575436 ], [ 5.178691772458813, 52.304732635944397 ], [ 5.179403922717591, 52.305047365022261 ], [ 5.179896204852093, 52.305013225144194 ], [ 5.180450196881591, 52.305217014841105 ], [ 5.181162251907502, 52.305162063004921 ], [ 5.182408003549531, 52.305608371951742 ], [ 5.182694258408008, 52.305893547504503 ], [ 5.183467279702318, 52.305988140688129 ], [ 5.18366285319258, 52.306304340874092 ], [ 5.183548883452365, 52.30656769698566 ], [ 5.183686196781703, 52.306999032611728 ], [ 5.184361302619041, 52.307366974051206 ], [ 5.186387827177506, 52.307023077118913 ], [ 5.186709068173177, 52.307372184095094 ], [ 5.187186560643234, 52.307527085035396 ], [ 5.188668802992286, 52.307773526031191 ], [ 5.189478073639831, 52.307710598046633 ], [ 5.190168548007612, 52.307899384129705 ], [ 5.190519781504285, 52.307856406779244 ], [ 5.190810026517295, 52.307501369069392 ], [ 5.191163563100361, 52.307524987684317 ], [ 5.191644235136143, 52.30763688817018 ], [ 5.191699814660788, 52.307860496184936 ], [ 5.192417796238114, 52.308493785018349 ], [ 5.194173303059851, 52.309036942444997 ], [ 5.196599612722027, 52.309094330585765 ], [ 5.198220776172234, 52.308931296551243 ], [ 5.199350325310053, 52.30914301610246 ], [ 5.202619559553963, 52.309119747106017 ], [ 5.203143889685621, 52.309394272461653 ], [ 5.204065898977416, 52.309364965768374 ], [ 5.204698686917419, 52.309595591057139 ], [ 5.205688371015169, 52.309507902543594 ], [ 5.206193686741296, 52.309787343858353 ], [ 5.207704626941103, 52.309675245342042 ], [ 5.209058934617934, 52.310061029177291 ], [ 5.210673921942886, 52.309429533225497 ], [ 5.211129020360773, 52.309627353686849 ], [ 5.211243754739064, 52.309913869120159 ], [ 5.211541636622996, 52.31008744165846 ], [ 5.212283959529573, 52.309994908546464 ], [ 5.212816831840152, 52.310251958461684 ], [ 5.214072653115823, 52.310297784454377 ], [ 5.215186285343477, 52.310616644246295 ], [ 5.217031085087993, 52.310461569411117 ], [ 5.219918688156765, 52.31103165301051 ], [ 5.22085546240389, 52.310855443708981 ], [ 5.221823308470804, 52.311131478850392 ], [ 5.222673825420562, 52.311062846419134 ], [ 5.223557113784036, 52.311288992703105 ], [ 5.224210971788345, 52.311167380677539 ], [ 5.22646026425598, 52.311364683275315 ], [ 5.226870020328742, 52.311268398238617 ], [ 5.227528161351317, 52.311429441569786 ], [ 5.228656387481282, 52.311350893916305 ], [ 5.230594703105184, 52.312020678821128 ], [ 5.231622151233041, 52.311809719996987 ], [ 5.232849169310225, 52.31199167657342 ], [ 5.235727068886473, 52.311734327888608 ], [ 5.23705064535186, 52.311905104373096 ], [ 5.239594271778008, 52.311616943032284 ], [ 5.240186319049313, 52.311811698209013 ], [ 5.242420353816091, 52.311422768035655 ], [ 5.243062340984395, 52.311973758137214 ], [ 5.24446387898943, 52.312635554046679 ], [ 5.245551743410739, 52.313518285193332 ], [ 5.245660523563887, 52.31388160483796 ], [ 5.246185805280936, 52.314089787484434 ], [ 5.246470553175038, 52.314599128789276 ], [ 5.247090176098503, 52.315104256990232 ], [ 5.248608384983588, 52.317258029794417 ], [ 5.248900128859571, 52.317107484225531 ], [ 5.248828080129381, 52.316810125956394 ], [ 5.247061164324996, 52.314326567756659 ], [ 5.243002032774645, 52.310634743556953 ], [ 5.2440497642822, 52.31018759460008 ], [ 5.24486935975782, 52.310904762448438 ], [ 5.245190509002017, 52.310890717646039 ], [ 5.245450412837015, 52.309876085404497 ], [ 5.245164009438376, 52.309494158764025 ], [ 5.24481650256735, 52.309412070360857 ], [ 5.24479317438091, 52.309207284394731 ], [ 5.24389874030272, 52.308822612405798 ], [ 5.243465918615159, 52.30880198847629 ], [ 5.242658783957042, 52.308098746670559 ], [ 5.241514029181846, 52.305879482490511 ], [ 5.242132384441578, 52.305841708210068 ], [ 5.243246165272465, 52.308005819635547 ], [ 5.243657425066284, 52.308408606184621 ], [ 5.24426016908039, 52.308760282523295 ], [ 5.245229374553499, 52.308479054992915 ], [ 5.245032776706346, 52.308634458876739 ], [ 5.24523770677282, 52.308880875148333 ], [ 5.244830337791517, 52.309116328655143 ], [ 5.245599863348583, 52.309886596604514 ], [ 5.245370993393231, 52.311210668358008 ], [ 5.245494749714968, 52.311642542123124 ], [ 5.245860610346893, 52.31158401694227 ], [ 5.245760676209356, 52.311124945621657 ], [ 5.246013444851092, 52.31049301101865 ], [ 5.247221440015407, 52.312261095167365 ], [ 5.247412160808181, 52.312249718613117 ], [ 5.247526055623831, 52.312015939006052 ], [ 5.24643175212073, 52.310375606797592 ], [ 5.24841921343815, 52.309895050232953 ], [ 5.248454451635977, 52.309612097431398 ], [ 5.250713424663446, 52.309417478519762 ], [ 5.251540092261529, 52.309148746786434 ], [ 5.251469952902665, 52.309763793378558 ], [ 5.250412762208104, 52.310555552193129 ], [ 5.250463841602008, 52.310746203401322 ], [ 5.250122628252736, 52.310752301370734 ], [ 5.249799966735994, 52.31105722527505 ], [ 5.249419663013061, 52.311115984306944 ], [ 5.249284768959896, 52.311369031795579 ], [ 5.249103976890832, 52.311312094587052 ], [ 5.248469446652518, 52.311827434234438 ], [ 5.248169060095337, 52.312282149079984 ], [ 5.247715813678929, 52.313725871813844 ], [ 5.249540344881922, 52.316542933830888 ], [ 5.24974267759139, 52.31635620858556 ], [ 5.249348767295589, 52.315760874502267 ], [ 5.249509950934226, 52.31572126101846 ], [ 5.24984722631383, 52.316145422190708 ], [ 5.249918177046617, 52.315891885856864 ], [ 5.250234241121936, 52.315704642889642 ], [ 5.250279292298093, 52.315368030195081 ], [ 5.24982512260123, 52.314560245645247 ], [ 5.249943500885704, 52.314079327849527 ], [ 5.249701076851459, 52.313641537165083 ], [ 5.250000427611357, 52.313703970460502 ], [ 5.250790900357272, 52.312949610853842 ], [ 5.251748163426877, 52.312425568960009 ], [ 5.252091747533398, 52.312066961341756 ], [ 5.252340515270284, 52.311654203246178 ], [ 5.252454750135515, 52.310713941926217 ], [ 5.252892827369453, 52.310457420645626 ], [ 5.252841527891162, 52.310143489970599 ], [ 5.253085760943493, 52.310181392022784 ], [ 5.253242038719075, 52.310030853650545 ], [ 5.253138943400932, 52.309706073663683 ], [ 5.253454782063508, 52.309706606131471 ], [ 5.25361501091613, 52.309347466019631 ], [ 5.253962981217588, 52.309152505942343 ], [ 5.253929399229489, 52.308607452507822 ], [ 5.25484657628339, 52.308112075419807 ], [ 5.25554192143632, 52.308081351463564 ], [ 5.255769366817439, 52.307704098784015 ], [ 5.255696560152011, 52.307339311876788 ], [ 5.25687003714325, 52.306694180217619 ], [ 5.258294645997822, 52.306370369388844 ], [ 5.260320812976522, 52.30621086587832 ], [ 5.263025074770685, 52.306499161189379 ], [ 5.264245315622336, 52.306881055385041 ], [ 5.264413738691352, 52.306684398919948 ], [ 5.264035924948011, 52.305848299273315 ], [ 5.264222039066991, 52.305824268254646 ], [ 5.264586256417536, 52.306465574814446 ], [ 5.264872354984234, 52.306584319171712 ], [ 5.265274303721613, 52.306193603971835 ], [ 5.266201837699127, 52.30583700882228 ], [ 5.274091983064005, 52.304241088047085 ], [ 5.278190251701084, 52.30238096734962 ], [ 5.278773584782599, 52.302524534896925 ], [ 5.278983309415256, 52.302399837648146 ], [ 5.279354379012363, 52.301639008054309 ], [ 5.280251795258196, 52.301395162724454 ], [ 5.280377788673324, 52.30109348334139 ], [ 5.285077975583743, 52.298630259290576 ], [ 5.28548372765886, 52.298848948973607 ], [ 5.285676590758344, 52.29871091687685 ], [ 5.285578581094772, 52.298489305243223 ], [ 5.286794983562766, 52.298004731909394 ], [ 5.29123099023685, 52.29670290101032 ], [ 5.291569415512216, 52.296867759691807 ], [ 5.29216152474208, 52.296660331876772 ], [ 5.293331064629927, 52.297070552365518 ], [ 5.294440799134645, 52.297257645275167 ], [ 5.294944499580533, 52.297113271947573 ], [ 5.295431482061549, 52.297241642567293 ], [ 5.296164733571323, 52.297182084401101 ], [ 5.29823880114318, 52.297883342887097 ], [ 5.2998120193428, 52.298839541992649 ], [ 5.301429406904144, 52.300265261695344 ], [ 5.301982580478418, 52.30088738617475 ], [ 5.302027887519867, 52.301032435347146 ], [ 5.301683513125297, 52.301200549582234 ], [ 5.301881500927575, 52.301748842130714 ], [ 5.302261578005965, 52.302189292034441 ], [ 5.304389611157297, 52.302312779317525 ], [ 5.304686291682319, 52.302116406175863 ], [ 5.305984806555207, 52.302105256066625 ], [ 5.307266075347611, 52.302805733861149 ], [ 5.308575566958818, 52.304458300565742 ], [ 5.308635012104237, 52.304719610110538 ], [ 5.30782485264008, 52.3050289107358 ], [ 5.307854326421116, 52.305213815895094 ], [ 5.308120120031037, 52.305295887603492 ], [ 5.309997793717576, 52.304662261060308 ], [ 5.312937525201379, 52.303252361233298 ], [ 5.313461312758107, 52.303460725014553 ], [ 5.313996322433798, 52.303137384962987 ], [ 5.313706106890367, 52.302886502778208 ], [ 5.316251527084114, 52.301444940540883 ], [ 5.317306379437635, 52.300490498165345 ], [ 5.316926787912442, 52.300412507948295 ], [ 5.315747392112657, 52.300934828612306 ], [ 5.31541293912897, 52.301384364726665 ], [ 5.314331064892444, 52.301512273494879 ], [ 5.313485889795266, 52.300856859998277 ], [ 5.31217979201613, 52.300556824585264 ], [ 5.312027597416599, 52.300224039381121 ], [ 5.311521424864557, 52.299945145691041 ], [ 5.31024974192909, 52.299737400204258 ], [ 5.309601857425991, 52.299943877837507 ], [ 5.309803034473149, 52.300262825071457 ], [ 5.310939047766312, 52.300576553331005 ], [ 5.312511965798405, 52.301451112676077 ], [ 5.309656563276826, 52.300265787347229 ], [ 5.309050652909378, 52.299926362001017 ], [ 5.304457500820277, 52.298305146364889 ], [ 5.304236774975399, 52.298349322426247 ], [ 5.303851476821523, 52.298075354323103 ], [ 5.301713377136993, 52.297331059648258 ], [ 5.303287017717906, 52.29776985264342 ], [ 5.303712266580818, 52.297738453972755 ], [ 5.304181535699677, 52.29809241699121 ], [ 5.304415536977952, 52.297967975473696 ], [ 5.304441801853378, 52.298225643438236 ], [ 5.305012497777631, 52.298457043420626 ], [ 5.306732753452507, 52.29904032635622 ], [ 5.307079274268438, 52.298997035744257 ], [ 5.306827510810689, 52.298432535926878 ], [ 5.30546025902802, 52.297775884723713 ], [ 5.304133205787426, 52.297405171864831 ], [ 5.303843189451258, 52.295848448345986 ], [ 5.303167525824795, 52.295134092319103 ], [ 5.302658592063093, 52.294907836764175 ], [ 5.301993619062776, 52.295114117488659 ], [ 5.301446784025616, 52.294757806233939 ], [ 5.300877890325586, 52.294735992335148 ], [ 5.300435625407726, 52.29498853637071 ], [ 5.299698643179458, 52.294913752472418 ], [ 5.299778812596887, 52.294442055408247 ], [ 5.297903565071859, 52.293552308761143 ], [ 5.297311653413, 52.29309807035915 ], [ 5.297003948757545, 52.292305961045336 ], [ 5.297454236130014, 52.291861298106106 ], [ 5.29742305790973, 52.291542734940514 ], [ 5.296915997650293, 52.291304494551355 ], [ 5.296286681779657, 52.29135280504422 ], [ 5.296143678338784, 52.290580710996686 ], [ 5.295824254875751, 52.29045045401115 ], [ 5.295632603539036, 52.289915228009853 ], [ 5.295786326565399, 52.289388637953827 ], [ 5.296432689255712, 52.28935618275068 ], [ 5.296623427172352, 52.289064232241735 ], [ 5.29611185053196, 52.288501160935347 ], [ 5.296366899366395, 52.287081838575311 ], [ 5.297511839563721, 52.285917415855849 ], [ 5.299705178146436, 52.284173832694847 ], [ 5.300651391015308, 52.283097220602684 ], [ 5.301139523449079, 52.28282381450218 ], [ 5.302654952391027, 52.28069036215004 ], [ 5.303138535969807, 52.280641758169772 ], [ 5.303713395975796, 52.279756190900635 ], [ 5.305250639348398, 52.27828272908301 ], [ 5.305672394731647, 52.278057084005653 ], [ 5.305677391933635, 52.277871970452196 ], [ 5.306475407796063, 52.277734124305773 ], [ 5.306638310072501, 52.277401619580729 ], [ 5.307148066953093, 52.277006786157671 ], [ 5.308864130825508, 52.276521540430352 ], [ 5.309416923790979, 52.275947145463739 ], [ 5.309966729990632, 52.275658590832577 ], [ 5.310132012494796, 52.275243240648088 ], [ 5.309919140833217, 52.274973838221563 ], [ 5.31103159777775, 52.274133999398444 ], [ 5.312104158665686, 52.273948950912818 ], [ 5.312647063734835, 52.27402333937534 ], [ 5.312737459655471, 52.273838926062631 ], [ 5.312869764465046, 52.274112032179566 ], [ 5.314904463427866, 52.273969878090469 ], [ 5.315424281371598, 52.274199397723685 ], [ 5.316096461877307, 52.274160594150423 ], [ 5.31706674796641, 52.273784838635812 ], [ 5.318542880191847, 52.273654269287491 ], [ 5.319751553813492, 52.273108277822459 ], [ 5.319988942645836, 52.272779360426121 ], [ 5.319835086928769, 52.272545360896359 ], [ 5.320853419622492, 52.272351133970432 ], [ 5.321149559583942, 52.272526286072996 ], [ 5.323434114746184, 52.272551634193846 ], [ 5.324319378291969, 52.273326562335797 ], [ 5.326035318095001, 52.273644672944044 ], [ 5.327776545439088, 52.273847229962769 ], [ 5.329642887154695, 52.273621408162548 ], [ 5.329808760029472, 52.27382909289399 ], [ 5.330380202259022, 52.273864233555877 ], [ 5.33084036911939, 52.274258374295691 ], [ 5.331191275077156, 52.274267389760183 ], [ 5.331188802653206, 52.274063860739609 ], [ 5.33068366592317, 52.273765205349918 ], [ 5.331340839661822, 52.273609934700829 ], [ 5.330518965284131, 52.272337235430882 ], [ 5.330650869828863, 52.272182766715936 ], [ 5.327487065537207, 52.266810732873964 ], [ 5.326379294070779, 52.26578701699929 ], [ 5.323021880849486, 52.264115739536422 ], [ 5.322453654803124, 52.263527864246136 ], [ 5.32214523682581, 52.262621838219644 ], [ 5.322227289875929, 52.261835323242259 ], [ 5.322784257560168, 52.261034346281889 ], [ 5.323903634158557, 52.260154695815423 ], [ 5.326593387213252, 52.258670684908097 ], [ 5.328209439500915, 52.257437123936661 ], [ 5.328766452644771, 52.256732549464878 ], [ 5.32893886561534, 52.255812874469441 ], [ 5.328607613824849, 52.255196847201411 ], [ 5.327329245517572, 52.254105989679957 ], [ 5.324478518879158, 52.252942618643033 ], [ 5.32223033751599, 52.252541332949185 ], [ 5.317694397122652, 52.252489800449133 ], [ 5.315599501088426, 52.252288596804931 ], [ 5.314007919229979, 52.251770231243512 ], [ 5.31324407871836, 52.250927633910798 ], [ 5.312513152274971, 52.248879786727485 ], [ 5.310948916798239, 52.246632471884055 ], [ 5.310556555642108, 52.245362293977344 ], [ 5.310976073783337, 52.243341160980009 ], [ 5.311052709234773, 52.241697731867632 ], [ 5.312589207863949, 52.239006573305701 ], [ 5.312291788917041, 52.23747579344014 ], [ 5.313256859602705, 52.236095095747999 ], [ 5.313478922116036, 52.235442664730137 ], [ 5.313378280377126, 52.234009583900807 ], [ 5.312961606215469, 52.233177146251826 ], [ 5.31239765310429, 52.232776099511533 ], [ 5.308010201097839, 52.2316450760202 ], [ 5.307062119045282, 52.23109246289755 ], [ 5.306701051184973, 52.230368477657784 ], [ 5.306833125835226, 52.229879338235115 ], [ 5.30741468367882, 52.229302845027355 ], [ 5.310347662058329, 52.227938613836535 ], [ 5.311671503070052, 52.226570647027174 ], [ 5.311636568899004, 52.226417479521459 ], [ 5.310822852110627, 52.226233198851006 ], [ 5.310238322534629, 52.225915355763505 ], [ 5.310757458899921, 52.225485068520243 ], [ 5.31141967931621, 52.224469930006599 ], [ 5.311959901845682, 52.224691087918224 ], [ 5.313276163345122, 52.225681117683408 ], [ 5.314263548994646, 52.2250855973667 ], [ 5.314759921967908, 52.224496351458079 ], [ 5.314845295331152, 52.224044314119801 ], [ 5.313645298376277, 52.222698226251588 ], [ 5.313199861404007, 52.22183305355216 ], [ 5.312696827251357, 52.221408857577167 ], [ 5.311986627972501, 52.22105504042969 ], [ 5.309291213332346, 52.220704689828224 ], [ 5.308048110207372, 52.220340302112206 ], [ 5.30736151890651, 52.21988474326831 ], [ 5.30690111303107, 52.219176834787731 ], [ 5.3055167565491, 52.219675408568378 ], [ 5.305684679138357, 52.220338048760119 ], [ 5.302248621679436, 52.221600785216907 ], [ 5.301678502346829, 52.222896527418321 ], [ 5.300932563899672, 52.223422956385832 ], [ 5.294173575894647, 52.223445253012741 ], [ 5.29320314422908, 52.22324488654457 ], [ 5.287463788098146, 52.222783113268967 ], [ 5.284670271591105, 52.223052141384251 ], [ 5.283665433641112, 52.223397852939101 ], [ 5.276530812760393, 52.223723354328207 ], [ 5.224793583030448, 52.225094698512564 ], [ 5.22058720254669, 52.215752039480584 ], [ 5.216628667408196, 52.206443257298517 ], [ 5.217250954293731, 52.206325739265473 ], [ 5.21729931716995, 52.206180495899133 ], [ 5.192611749785983, 52.177736327074868 ], [ 5.189311355045605, 52.177580832372641 ], [ 5.143421192869451, 52.180166256020257 ], [ 5.143207718602634, 52.179835657556268 ], [ 5.134012654335636, 52.180372753171923 ], [ 5.12118349024056, 52.180847706256863 ], [ 5.082471497185736, 52.173744015806555 ], [ 5.046403844641726, 52.165830472462666 ], [ 5.045982915551646, 52.166233156829492 ], [ 5.045394823592853, 52.168958124074372 ], [ 5.044298406276422, 52.172189291243754 ], [ 5.041971235559515, 52.183307411044673 ], [ 5.041510610651791, 52.183652390547493 ], [ 5.036193701450737, 52.183795091640526 ], [ 5.032406666633584, 52.184087407815817 ], [ 5.032480926294554, 52.184387815697356 ], [ 5.033111278246737, 52.184765695645986 ], [ 5.033559714878563, 52.186115729466785 ], [ 5.034883185492228, 52.186840993684527 ], [ 5.035062684469748, 52.188406853520384 ], [ 5.035607763829956, 52.189209174718656 ], [ 5.035324758759734, 52.189931368888246 ], [ 5.035241290966725, 52.190732646333025 ], [ 5.036131957360497, 52.191539125202311 ], [ 5.036432222874161, 52.19360596826548 ], [ 5.037717765912177, 52.194583067007699 ], [ 5.038040856455793, 52.195199870527894 ], [ 5.03802815459654, 52.19564928688002 ], [ 5.037695403580973, 52.196470980661402 ], [ 5.037027538439726, 52.196594757735475 ], [ 5.037315929554132, 52.197412529989435 ], [ 5.037138206507021, 52.197840236088346 ], [ 5.037036918517791, 52.197956201985498 ], [ 5.034325251717108, 52.198009165266704 ], [ 5.032195177517031, 52.198437194691813 ], [ 5.031800489990474, 52.198340037895029 ], [ 5.031605749415927, 52.198570693300447 ], [ 5.030924612122821, 52.198676082145525 ], [ 5.029819083859667, 52.199438499435921 ], [ 5.027893047074936, 52.199870933264599 ], [ 5.027845307767852, 52.200034958687219 ], [ 5.027186209593649, 52.200326515290435 ], [ 5.026029140054646, 52.201279181188205 ], [ 5.022755161401252, 52.201435165804163 ], [ 5.021194075379834, 52.201900639508672 ], [ 5.02143419740108, 52.202135737634009 ], [ 5.022670437823517, 52.201844071217906 ], [ 5.022357384675635, 52.20215774067141 ], [ 5.02152657966844, 52.202395350315975 ], [ 5.021583717650473, 52.202639933573835 ], [ 5.022950838078914, 52.202198961090751 ], [ 5.023011681492047, 52.202642657449587 ], [ 5.02249132385329, 52.202581109363123 ], [ 5.022355288889603, 52.202796750194111 ], [ 5.022615227256286, 52.204041295855731 ], [ 5.023505945189402, 52.203896640232635 ], [ 5.023428265192723, 52.203148877015053 ], [ 5.024703128491963, 52.203087962445188 ], [ 5.024785483929973, 52.202956255691973 ], [ 5.024905827875051, 52.202949294722593 ], [ 5.024983020661473, 52.203355139652359 ], [ 5.025352975233805, 52.203359257885538 ], [ 5.025606130494463, 52.204081904212934 ], [ 5.036572004492043, 52.202251986530086 ], [ 5.03730091934361, 52.204879344319828 ], [ 5.035215476773256, 52.205225145862897 ], [ 5.036318902540708, 52.209478352184441 ], [ 5.033300629067113, 52.20983332781622 ], [ 5.034240298563622, 52.212918780855567 ], [ 5.033646349030323, 52.213067759487373 ], [ 5.033714375350508, 52.213781714251844 ], [ 5.036667223236812, 52.213747835363215 ], [ 5.036582938934047, 52.214251832827891 ], [ 5.037044562358205, 52.214284465330643 ], [ 5.035451374622256, 52.214283964020431 ], [ 5.035229597390975, 52.214459619625707 ], [ 5.035621511084456, 52.214634583079054 ], [ 5.035637631555046, 52.215213559019382 ], [ 5.036762263469613, 52.215254396763484 ], [ 5.036597768743976, 52.215720499663689 ], [ 5.037010330733337, 52.216121345854269 ], [ 5.036819849513851, 52.216220221213845 ], [ 5.037029225418892, 52.216547685091705 ], [ 5.036771020289597, 52.217124312491762 ], [ 5.035749352556445, 52.217520735293654 ], [ 5.036568760172961, 52.224385082279063 ], [ 5.039131306954848, 52.224133144099895 ], [ 5.039227144374575, 52.224377480560648 ], [ 5.036921916035622, 52.224685340744664 ], [ 5.037017881005363, 52.225396059351112 ], [ 5.03867226997112, 52.225286856869552 ], [ 5.039078233161715, 52.226069571738684 ], [ 5.039976815365282, 52.227103479381199 ], [ 5.040448508810904, 52.227049912206965 ], [ 5.040845137088734, 52.227533326058115 ], [ 5.040773995801086, 52.22776563608376 ], [ 5.042290043353171, 52.228749731847685 ], [ 5.04105599084513, 52.229232864923475 ], [ 5.041058522681647, 52.229415512832183 ], [ 5.040651884679532, 52.229462821508157 ], [ 5.040421683560477, 52.229805666171295 ], [ 5.041266467965229, 52.230157704066208 ], [ 5.041538030016314, 52.230976200568406 ], [ 5.042401661687331, 52.230653811232536 ], [ 5.043192241048031, 52.230907169887693 ], [ 5.043533872027695, 52.231212145009493 ], [ 5.043826359622209, 52.231124559565345 ], [ 5.051766687503774, 52.233653179890183 ], [ 5.052205596351771, 52.233952362038806 ], [ 5.052794465791104, 52.23398541018998 ], [ 5.053248801337799, 52.234336783665221 ], [ 5.053540413743288, 52.234225482660541 ], [ 5.055969441627099, 52.235002708314767 ], [ 5.055723982189542, 52.235289101106716 ], [ 5.056734710386743, 52.235689118169354 ], [ 5.057482029722811, 52.235321579951389 ], [ 5.057600651608828, 52.235392204857582 ], [ 5.057425164322782, 52.235763350135883 ], [ 5.057118351149521, 52.235933477222169 ], [ 5.056815481008434, 52.236472160032136 ], [ 5.056215176334745, 52.237047901524441 ], [ 5.049489188520953, 52.241012755638337 ], [ 5.048281292399372, 52.241900700208063 ], [ 5.046527303971156, 52.242748539122424 ], [ 5.045774060277361, 52.24332182522928 ], [ 5.046421760995137, 52.246986374249566 ], [ 5.046536696264702, 52.248518020583667 ], [ 5.045217226471826, 52.249812368164783 ], [ 5.044712549956362, 52.250622245756347 ], [ 5.043883137885957, 52.252420978732502 ], [ 5.043380368005524, 52.255303162624678 ], [ 5.042882428741748, 52.255897663960546 ], [ 5.041360986136534, 52.256599992210965 ], [ 5.040105183120528, 52.256408534824217 ], [ 5.038951114747436, 52.255527588274596 ], [ 5.037561056321963, 52.253614053624922 ], [ 5.036614117808596, 52.252923501989265 ], [ 5.035738965551273, 52.252554375027508 ], [ 5.034903888182946, 52.252583573115764 ], [ 5.03444340867943, 52.252780024546091 ], [ 5.031786595807596, 52.255048550271248 ], [ 5.031082240091842, 52.255978833027775 ], [ 5.030872748405993, 52.256831789046643 ], [ 5.031117057468784, 52.25737475773176 ], [ 5.032010260133872, 52.258202545693848 ], [ 5.032366394026065, 52.258747539348242 ], [ 5.032571792946804, 52.259474889084451 ], [ 5.032400770689862, 52.260118697996774 ], [ 5.031849406068313, 52.260840889591655 ], [ 5.030983141140736, 52.261514802775856 ], [ 5.02739483406256, 52.263404812906494 ], [ 5.026506419645377, 52.264082643436119 ], [ 5.026499051155363, 52.264686539597946 ], [ 5.02738008105102, 52.265500423305802 ], [ 5.027703403605772, 52.266072375621285 ], [ 5.027811638250749, 52.266889999464823 ], [ 5.027658892335709, 52.267533212341057 ], [ 5.027078894805575, 52.268147375092497 ], [ 5.025374777282747, 52.269051123450197 ], [ 5.024670611251794, 52.269638822354061 ], [ 5.023394258124932, 52.271152478722584 ], [ 5.022788728614927, 52.272502541608624 ], [ 5.022940943087812, 52.272907878183666 ], [ 5.023284581412077, 52.273156794443686 ], [ 5.024083922110223, 52.273335815847439 ], [ 5.028350777507382, 52.272188906433222 ], [ 5.029531435376249, 52.272113424024603 ], [ 5.030543489233956, 52.272342897114555 ], [ 5.03085781497198, 52.27256989889608 ], [ 5.03119038093145, 52.273253130780652 ], [ 5.032609530825317, 52.275019448500515 ], [ 5.033284530498247, 52.275526997418794 ], [ 5.038199270673449, 52.277068010881514 ], [ 5.042091851455421, 52.277968016165346 ], [ 5.043745891351852, 52.278008298298637 ], [ 5.047234285464844, 52.277111120292126 ], [ 5.048570236870467, 52.277124641323731 ], [ 5.0491913237852, 52.277433961943359 ], [ 5.049529650135834, 52.277836131917894 ], [ 5.049629858087277, 52.280528211849152 ], [ 5.049980961623334, 52.281202146945851 ], [ 5.050696518908912, 52.281900013656148 ], [ 5.051568684940367, 52.282291504809066 ], [ 5.055260227297249, 52.283100661097578 ], [ 5.05886889661795, 52.284701216421972 ], [ 5.06049956239641, 52.285266833246439 ], [ 5.061871601324165, 52.285228573727025 ], [ 5.062906656369274, 52.284871165671959 ], [ 5.063021640795202, 52.284505809922813 ], [ 5.062899859134709, 52.282580805824402 ], [ 5.063129332283312, 52.281931503469686 ], [ 5.064375720819061, 52.280864743942431 ], [ 5.065795390423423, 52.280625292144734 ], [ 5.065763684246635, 52.281148801551289 ], [ 5.06539234990657, 52.281257503874663 ], [ 5.065557738477362, 52.282694522646842 ], [ 5.06537794106417, 52.285096304325975 ], [ 5.064734536128358, 52.284998616652551 ], [ 5.064113824452583, 52.286232222577112 ], [ 5.063221011966704, 52.287116679866813 ], [ 5.059518442837193, 52.28921589939015 ], [ 5.054872458429029, 52.287456845618195 ], [ 5.05278109904068, 52.286385972808603 ], [ 5.050467639589999, 52.287747158118393 ], [ 5.04754028649281, 52.284936876465046 ], [ 5.042770190894997, 52.282388499291834 ], [ 5.040772446942781, 52.283777106303631 ], [ 5.039402485998148, 52.283147160977514 ], [ 5.035105978461296, 52.285436210469939 ], [ 5.03343698191542, 52.28619798386719 ], [ 5.033171608912374, 52.286166827843175 ], [ 5.030538274081361, 52.288347066879403 ], [ 5.024437870458507, 52.281274759617723 ], [ 5.021806904340746, 52.28257349917758 ], [ 5.02152186218907, 52.301845285779685 ], [ 5.017954500278855, 52.321971111064101 ], [ 5.017833673913468, 52.323205181215755 ], [ 5.018384689635822, 52.32337746679525 ], [ 5.018326196895952, 52.324311192945245 ], [ 5.015533349000977, 52.325494474206806 ], [ 5.014732859025647, 52.327231250122033 ], [ 5.011784837116584, 52.327055612460072 ], [ 5.011140230208641, 52.327208643720198 ] ], [ [ 5.042183522951634, 52.224082241348285 ], [ 5.042599888314748, 52.223976947171479 ], [ 5.042618019718547, 52.223996277088631 ], [ 5.042051870251694, 52.224196548395604 ], [ 5.042183522951634, 52.224082241348285 ] ], [ [ 5.312634202415666, 52.273722936179503 ], [ 5.312630137804767, 52.27371459532246 ], [ 5.312636096053487, 52.273702092255476 ], [ 5.312642242470447, 52.273730617419496 ], [ 5.312634202415666, 52.273722936179503 ] ], [ [ 5.312951369231074, 52.273443728337831 ], [ 5.312971626951566, 52.273377282617751 ], [ 5.312942503567436, 52.273300866019213 ], [ 5.312985970104494, 52.273363165565762 ], [ 5.312951369231074, 52.273443728337831 ] ], [ [ 5.312219705829963, 52.273054320294044 ], [ 5.312153557846338, 52.272980671828464 ], [ 5.312209275052366, 52.272878616086956 ], [ 5.312198940873349, 52.272949892267313 ], [ 5.312219705829963, 52.273054320294044 ] ], [ [ 5.312410483261164, 52.272628024026496 ], [ 5.312415712722578, 52.272573479387781 ], [ 5.312430422021404, 52.272570672269723 ], [ 5.312434820665491, 52.272613814168764 ], [ 5.312410483261164, 52.272628024026496 ] ], [ [ 5.311103699641163, 52.27354629118485 ], [ 5.311112300733452, 52.273572066876888 ], [ 5.31107187760897, 52.273575630606558 ], [ 5.311102785514622, 52.273539387135934 ], [ 5.311103699641163, 52.27354629118485 ] ], [ [ 5.301301181606338, 52.297201729394267 ], [ 5.300973644295798, 52.297054919722825 ], [ 5.30068723278792, 52.29694183751198 ], [ 5.300910622858509, 52.2970220361439 ], [ 5.301361002406952, 52.297219127219165 ], [ 5.301301181606338, 52.297201729394267 ] ], [ [ 5.300113393369438, 52.296685416939006 ], [ 5.299993066686492, 52.296646880972062 ], [ 5.300133932402527, 52.296691205829489 ], [ 5.300113393369438, 52.296685416939006 ] ], [ [ 5.299492495117977, 52.296465904820536 ], [ 5.299436519038525, 52.296449146049191 ], [ 5.299766549, 52.296569248362438 ], [ 5.299492495117977, 52.296465904820536 ] ], [ [ 5.298810732099166, 52.296250128581583 ], [ 5.298611710111861, 52.296174737434356 ], [ 5.298398221896289, 52.296102214961969 ], [ 5.298742676025577, 52.296216359370526 ], [ 5.298839075215979, 52.296259405576052 ], [ 5.298810732099166, 52.296250128581583 ] ], [ [ 5.298206143053944, 52.296036979941164 ], [ 5.297371619841493, 52.29568105788448 ], [ 5.297168555976726, 52.295605425900156 ], [ 5.297423948087501, 52.295686249418729 ], [ 5.298302158235349, 52.296069589219101 ], [ 5.298206143053944, 52.296036979941164 ] ], [ [ 5.296846918945274, 52.295488165757902 ], [ 5.296833062438527, 52.295481953329499 ], [ 5.296989798106297, 52.295539042543098 ], [ 5.296846918945274, 52.295488165757902 ] ], [ [ 5.296390809750102, 52.295299981406217 ], [ 5.29614104346843, 52.295204788379145 ], [ 5.295931714529275, 52.295057788730851 ], [ 5.296461600123576, 52.295324982446999 ], [ 5.296390809750102, 52.295299981406217 ] ], [ [ 5.242372903719027, 52.311095383576919 ], [ 5.242396025446123, 52.311093884948569 ], [ 5.242386134018897, 52.311143399504601 ], [ 5.242372903719027, 52.311095383576919 ] ], [ [ 5.244749543279184, 52.309496967737331 ], [ 5.244672363128425, 52.309561969620667 ], [ 5.244129516788672, 52.309707054936943 ], [ 5.244077362534341, 52.309618062145056 ], [ 5.244749543279184, 52.309496967737331 ] ], [ [ 5.312643314719033, 52.301513332968625 ], [ 5.312906955909271, 52.301436775541326 ], [ 5.313090060004074, 52.301724814532619 ], [ 5.312881786785411, 52.30165417823445 ], [ 5.312643314719033, 52.301513332968625 ] ] ], [ [ [ 5.067495620400154, 52.364889264902772 ], [ 5.067910398337307, 52.365423910175942 ], [ 5.068811907284043, 52.365558814334072 ], [ 5.069988878337968, 52.365363245507091 ], [ 5.070330959748593, 52.365006522745738 ], [ 5.070387861075232, 52.364667187361633 ], [ 5.069933870104209, 52.364169624128202 ], [ 5.069057794341752, 52.36406366896378 ], [ 5.067902450429822, 52.36429841916064 ], [ 5.067559997446804, 52.364582360899014 ], [ 5.067495620400154, 52.364889264902772 ] ] ] ] } }
]
}
