{
"type": "FeatureCollection",
"name": "SWVPO2305",
"crs": { "type": "name", "properties": { "name": "urn:ogc:def:crs:OGC:1.3:CRS84" } },
"features": [
{ "type": "Feature", "properties": { "PO SWV": "PO2305", "strokeColor": "#A9A9A9", "strokeWidth": 2, "fillColor": "#ADD8E6" }, "geometry": { "type": "Polygon", "coordinates": [ [ [ 5.777949651041142, 52.588106665448635 ], [ 5.778159878962576, 52.588387608346444 ], [ 5.778739223884708, 52.588529201460211 ], [ 5.779656053378442, 52.588253339309581 ], [ 5.780565241379442, 52.587137933667371 ], [ 5.780462318293939, 52.586863827701613 ], [ 5.780805951910144, 52.586462338660148 ], [ 5.780959260932443, 52.585669453687949 ], [ 5.781336739919082, 52.585471567277736 ], [ 5.783852250380857, 52.584797497816723 ], [ 5.787369746797689, 52.584533627404745 ], [ 5.787759692097271, 52.584246976079662 ], [ 5.789190785876171, 52.584373409188885 ], [ 5.789429091318442, 52.584541578566906 ], [ 5.79022165630116, 52.584255629436825 ], [ 5.791656062908456, 52.584146107465138 ], [ 5.80176407483606, 52.584247539173958 ], [ 5.802901086955935, 52.584628500451529 ], [ 5.804181700580583, 52.584706720356351 ], [ 5.804950648826881, 52.584595583397181 ], [ 5.805672334237674, 52.584285668320632 ], [ 5.806800642111584, 52.584278014693247 ], [ 5.80724699287634, 52.584462983376525 ], [ 5.807184298527627, 52.5847522149081 ], [ 5.807509328002967, 52.58491609004497 ], [ 5.809553972134879, 52.584898774961523 ], [ 5.809839712534391, 52.58477226061045 ], [ 5.810696495760678, 52.586104636081387 ], [ 5.813176212716357, 52.58755514691191 ], [ 5.815077533851223, 52.588452064595252 ], [ 5.817373753792552, 52.58895923100927 ], [ 5.820169152777761, 52.589085486613541 ], [ 5.820420034728673, 52.588845714308697 ], [ 5.820370319846099, 52.588493823953357 ], [ 5.820225784155459, 52.588084397338086 ], [ 5.819876064746652, 52.587827966183113 ], [ 5.817979651356058, 52.587479912814004 ], [ 5.816052784677909, 52.58747548978635 ], [ 5.814192370453174, 52.586775725959285 ], [ 5.813929117371472, 52.586363514301901 ], [ 5.814189866059139, 52.585213583361174 ], [ 5.81444121675808, 52.585030521737146 ], [ 5.814850529807546, 52.585207250820382 ], [ 5.81576672130501, 52.585148051081298 ], [ 5.817110690496261, 52.584643721610789 ], [ 5.817998247589204, 52.585127934274496 ], [ 5.819076936285608, 52.585330281007792 ], [ 5.819131814255702, 52.585617212496359 ], [ 5.819471262705996, 52.585844923459533 ], [ 5.819489572516478, 52.586178234839096 ], [ 5.820524396082054, 52.586701727498827 ], [ 5.822088007193585, 52.586840423349891 ], [ 5.823545177009042, 52.586327208503945 ], [ 5.825429307488662, 52.587149741117599 ], [ 5.826634878102996, 52.587438883160203 ], [ 5.827856582168149, 52.587424845882119 ], [ 5.828588008028219, 52.587197305992582 ], [ 5.828938391056792, 52.586863425749378 ], [ 5.829062576463091, 52.586427558051867 ], [ 5.828888957164367, 52.586078983971113 ], [ 5.829096376494462, 52.585964948635613 ], [ 5.829518192322793, 52.586230953638982 ], [ 5.829556777146986, 52.586715393636901 ], [ 5.830002967484767, 52.586926585008456 ], [ 5.832185719840062, 52.58645433489307 ], [ 5.832806093513888, 52.586047501858545 ], [ 5.833221679814065, 52.586021288366474 ], [ 5.833286894200248, 52.585868698269877 ], [ 5.833110181512659, 52.585746753058352 ], [ 5.833978990932807, 52.585739661600613 ], [ 5.838686589852135, 52.583624528603416 ], [ 5.839892778458908, 52.58288890937127 ], [ 5.841430766996741, 52.58380668188515 ], [ 5.837384532615569, 52.586114797121375 ], [ 5.835037471176884, 52.587246370713942 ], [ 5.834917469556753, 52.587792169937316 ], [ 5.834476770210553, 52.587891957041165 ], [ 5.834435427652078, 52.588194300403153 ], [ 5.83395426460432, 52.588458566578382 ], [ 5.833523715728106, 52.589124861967342 ], [ 5.833657872952482, 52.589405549374781 ], [ 5.834620515225527, 52.58981686510095 ], [ 5.834526701618254, 52.590039248782226 ], [ 5.833355589934222, 52.59039711127901 ], [ 5.832659671948604, 52.590023634955905 ], [ 5.832067112221812, 52.589995995443672 ], [ 5.831750978286496, 52.590211816813664 ], [ 5.831662539994566, 52.590878258900901 ], [ 5.831330537692303, 52.590981899342047 ], [ 5.831157268007945, 52.591279479783864 ], [ 5.831334412715582, 52.591512363330445 ], [ 5.831829818794627, 52.591608712542467 ], [ 5.832263533192572, 52.591452894867537 ], [ 5.832352783997965, 52.591216738750013 ], [ 5.832562626382476, 52.591223573188884 ], [ 5.832490672607134, 52.591437436448942 ], [ 5.832712697012512, 52.591693116544683 ], [ 5.832182782446716, 52.59223139229691 ], [ 5.832241960141592, 52.592617665968504 ], [ 5.832767943648991, 52.592821663516517 ], [ 5.832869321090799, 52.593241063497452 ], [ 5.833367101301239, 52.593520199920476 ], [ 5.833326605628481, 52.59389197844343 ], [ 5.833485792885172, 52.594113022983144 ], [ 5.834021671726244, 52.594500756483818 ], [ 5.835071271177037, 52.594799730267901 ], [ 5.835159700941586, 52.594895855587495 ], [ 5.834803685774848, 52.595190832834788 ], [ 5.834809537922542, 52.595466961725073 ], [ 5.835585961066353, 52.596078691191401 ], [ 5.835173341927341, 52.596551877162568 ], [ 5.83539078508154, 52.596939604090586 ], [ 5.835246915063121, 52.597081912254033 ], [ 5.832847610460283, 52.597492859777539 ], [ 5.832072625982452, 52.597781915173329 ], [ 5.831914890133484, 52.598588616997702 ], [ 5.832258829418516, 52.598878918752092 ], [ 5.832225151497621, 52.59944556711784 ], [ 5.831842117134332, 52.600035955795036 ], [ 5.831803138632017, 52.60036159163073 ], [ 5.832686186285147, 52.601211988621074 ], [ 5.832869053730587, 52.601642311142008 ], [ 5.832732004690854, 52.601887743542882 ], [ 5.832858513059373, 52.602152223241845 ], [ 5.834062026712781, 52.602459651328843 ], [ 5.834697730242261, 52.602143868015851 ], [ 5.834788182657253, 52.602306209294809 ], [ 5.834273329354804, 52.60250120384682 ], [ 5.83410313294601, 52.602787631970081 ], [ 5.834503593163779, 52.603336533004281 ], [ 5.835354010871346, 52.603369542573219 ], [ 5.835855268989181, 52.603798430499744 ], [ 5.835296317186193, 52.604347920075803 ], [ 5.835251724331319, 52.604719488739519 ], [ 5.835620837964104, 52.605136121592302 ], [ 5.836126046261317, 52.605002137467068 ], [ 5.835902354857101, 52.605146026410871 ], [ 5.835887836104057, 52.605341077150563 ], [ 5.836283582375733, 52.605759433478333 ], [ 5.836103922242748, 52.606020272157508 ], [ 5.836206011471692, 52.606225627233989 ], [ 5.836643030208383, 52.60641361538206 ], [ 5.836941623583841, 52.606187911273096 ], [ 5.837211148406196, 52.606398554346697 ], [ 5.837754967483001, 52.606436810741926 ], [ 5.839105880872859, 52.605845572614008 ], [ 5.837982603719919, 52.606786650791825 ], [ 5.837911035165131, 52.607134114954668 ], [ 5.838461462203679, 52.607194118692973 ], [ 5.83879988809602, 52.607408309869619 ], [ 5.839530716106703, 52.60710819859132 ], [ 5.841166615057968, 52.607209066356432 ], [ 5.840742813200825, 52.607460078299773 ], [ 5.840720594510059, 52.607636275436967 ], [ 5.839997584336391, 52.607719670064427 ], [ 5.839683179243974, 52.608749721876542 ], [ 5.839732739619584, 52.609227612827446 ], [ 5.840301079619655, 52.609975815847626 ], [ 5.840655091276071, 52.610186822797395 ], [ 5.840613483121036, 52.610524194864261 ], [ 5.841339728632188, 52.610622926305076 ], [ 5.84152869896324, 52.610450276782224 ], [ 5.841962544768773, 52.610688996845646 ], [ 5.842622182432959, 52.610597197797837 ], [ 5.843058533717116, 52.610663898494117 ], [ 5.843063768082787, 52.610859003873692 ], [ 5.896284963233049, 52.618073788934716 ], [ 5.897543320157426, 52.617803580489664 ], [ 5.897495713636146, 52.618073326926591 ], [ 5.897666393501968, 52.618256608740467 ], [ 5.899132825225951, 52.61845861728596 ], [ 5.899533721534004, 52.61823644966001 ], [ 5.900654614606926, 52.61819131069764 ], [ 5.903393581780686, 52.618592230300195 ], [ 5.904017858394631, 52.618310867357323 ], [ 5.90418560611331, 52.618443788220496 ], [ 5.904853827632782, 52.618262449596976 ], [ 5.905942434483853, 52.618382507244242 ], [ 5.90608200891233, 52.618241724384539 ], [ 5.90586285786921, 52.617581533697759 ], [ 5.905028537595723, 52.616628537652822 ], [ 5.905296692044099, 52.616593739435821 ], [ 5.905359520797919, 52.616214261360923 ], [ 5.905784599425263, 52.616072947916244 ], [ 5.905831066752342, 52.615869743073716 ], [ 5.906241060057056, 52.616025400147599 ], [ 5.906476482951086, 52.615506364964382 ], [ 5.906951091816941, 52.615806628485956 ], [ 5.907210653827032, 52.616279094975937 ], [ 5.907807449458646, 52.616142816180286 ], [ 5.907898750710387, 52.615821602772328 ], [ 5.907719787952521, 52.615612734525889 ], [ 5.907714527127959, 52.615100804356153 ], [ 5.907526403508133, 52.614973766898018 ], [ 5.907961414836599, 52.615057132257903 ], [ 5.90818217588351, 52.61554329356472 ], [ 5.908677412765532, 52.615394644216543 ], [ 5.908935775705394, 52.615578168411801 ], [ 5.91015468598002, 52.615605186884132 ], [ 5.91025296164266, 52.615855074940193 ], [ 5.910524284795285, 52.615922604715593 ], [ 5.911018138286545, 52.615622201467829 ], [ 5.912667193345204, 52.615278566811412 ], [ 5.913574305001185, 52.614813029923113 ], [ 5.913743870673185, 52.614077899472043 ], [ 5.914692004723343, 52.613410539660578 ], [ 5.915431013670588, 52.613428475509323 ], [ 5.91626150000116, 52.612959349472284 ], [ 5.916694149894228, 52.613043761047727 ], [ 5.917769781693226, 52.612708918417766 ], [ 5.918164212062675, 52.613097075375123 ], [ 5.918365500099949, 52.612957600946608 ], [ 5.918722540220092, 52.613073233755195 ], [ 5.918989009577321, 52.612942153986282 ], [ 5.920430640166026, 52.613016778708371 ], [ 5.92079713487008, 52.612880092067059 ], [ 5.921358801759039, 52.613197492380657 ], [ 5.921557272459453, 52.613679097139382 ], [ 5.922051746624547, 52.61364171978218 ], [ 5.922248719486825, 52.613966283904666 ], [ 5.923192997176685, 52.61354872798848 ], [ 5.923716083107115, 52.613502255417785 ], [ 5.924254201461864, 52.613668868335793 ], [ 5.924391772689482, 52.613531576814061 ], [ 5.925520275070779, 52.613447633397008 ], [ 5.925937256750492, 52.613276081341411 ], [ 5.926309387637827, 52.613317933478783 ], [ 5.926630321960612, 52.613954357610019 ], [ 5.926967035943435, 52.614187314328504 ], [ 5.927621694603539, 52.614067473473327 ], [ 5.927714274633399, 52.613851556986596 ], [ 5.928110434352404, 52.613722379602052 ], [ 5.930987760923861, 52.614005370795724 ], [ 5.931449858950221, 52.613970193631744 ], [ 5.931612844257316, 52.613808720008137 ], [ 5.932579793514884, 52.61414630306632 ], [ 5.93235008146862, 52.61468235066198 ], [ 5.932716383908059, 52.614892856074555 ], [ 5.933656530587271, 52.614806059767254 ], [ 5.935009599136986, 52.615198784874806 ], [ 5.935554813088299, 52.615211460619449 ], [ 5.93618755789978, 52.615498725250525 ], [ 5.937361922619121, 52.615549264044866 ], [ 5.937603307715064, 52.615888984912026 ], [ 5.937817521190085, 52.615767897648396 ], [ 5.938247290941207, 52.615903526365052 ], [ 5.939601999969524, 52.61589887942111 ], [ 5.939614129507075, 52.616254851524666 ], [ 5.940763739420285, 52.616921005832744 ], [ 5.94076054231439, 52.617665630388807 ], [ 5.941234687698445, 52.618062566508861 ], [ 5.941726173053478, 52.61791149552883 ], [ 5.941737799789575, 52.617689067056347 ], [ 5.942233549286445, 52.617673633361839 ], [ 5.943214045686817, 52.618216165654246 ], [ 5.943839936324299, 52.618265363917203 ], [ 5.944411507404647, 52.618736718173508 ], [ 5.945155964909723, 52.618621661740249 ], [ 5.945885992098979, 52.6190198835167 ], [ 5.94661325591316, 52.619018806402245 ], [ 5.946901276008264, 52.61919680041251 ], [ 5.947646023326763, 52.619132442990171 ], [ 5.947691246775391, 52.619346614619737 ], [ 5.948514287788581, 52.619597484533621 ], [ 5.949071227788122, 52.619364995068359 ], [ 5.949166830575193, 52.619594102558224 ], [ 5.949624432337921, 52.619824992741769 ], [ 5.950902101986568, 52.62008728409311 ], [ 5.952129974611996, 52.620719690088741 ], [ 5.952988640008136, 52.620773191421215 ], [ 5.953545807066665, 52.621307609019318 ], [ 5.955050639144867, 52.621474941579642 ], [ 5.955325232060241, 52.621735472413782 ], [ 5.955264084231286, 52.62196325102213 ], [ 5.955752813417582, 52.622343810746585 ], [ 5.955715746729426, 52.623128986511183 ], [ 5.956819630856602, 52.623269264443302 ], [ 5.957238545541397, 52.623790345767731 ], [ 5.956996225086057, 52.623961423838033 ], [ 5.956987169709929, 52.624400094688525 ], [ 5.958188358206748, 52.624865390503842 ], [ 5.961486214664081, 52.624597635690371 ], [ 5.961731804125538, 52.624371929420057 ], [ 5.962167175898637, 52.624530901201261 ], [ 5.96384668722886, 52.624047618948723 ], [ 5.964849113026613, 52.624142127140431 ], [ 5.968659803096931, 52.623189290018765 ], [ 5.970911087563873, 52.623279134147253 ], [ 5.973169929583474, 52.623012353559425 ], [ 5.973824044456708, 52.62321469639312 ], [ 5.974988502375157, 52.623272921099357 ], [ 5.975256907339858, 52.623080064466876 ], [ 5.97531175324413, 52.623243179225163 ], [ 5.977110357517111, 52.623504256864791 ], [ 5.980273220322665, 52.623372266339835 ], [ 5.98198285704524, 52.623786674827109 ], [ 5.982060665528192, 52.62417607003087 ], [ 5.983219923463183, 52.624411488036586 ], [ 5.984182798392096, 52.624993649982343 ], [ 5.985411214339511, 52.625150146710638 ], [ 5.987579569701755, 52.625102046373179 ], [ 5.987650147455202, 52.625469872538439 ], [ 5.987118731259905, 52.625685099024963 ], [ 5.98713312925682, 52.626043998915463 ], [ 5.986734025424545, 52.626765848305119 ], [ 5.986870767067884, 52.626985745854 ], [ 5.986674527948272, 52.62726256894355 ], [ 5.986862202071372, 52.62741899569324 ], [ 5.988193876764387, 52.626246559795199 ], [ 5.989664027885397, 52.62545126763203 ], [ 6.010748667810742, 52.637236851436263 ], [ 6.011424578394736, 52.637291916641274 ], [ 6.012059881402764, 52.637045501926309 ], [ 6.011963494050914, 52.634202266644429 ], [ 6.012274737821883, 52.634224032769346 ], [ 6.012271402343565, 52.637104586075864 ], [ 6.011284156587944, 52.637530316607204 ], [ 6.012968397363468, 52.639263076343731 ], [ 6.012422852886393, 52.639449267696811 ], [ 6.012817293030769, 52.639833684897148 ], [ 6.013808647540991, 52.639701559855169 ], [ 6.014066330322998, 52.639522190225527 ], [ 6.014178677867333, 52.639181918055428 ], [ 6.014390648218177, 52.639137154613024 ], [ 6.015222001875951, 52.639338833863754 ], [ 6.017862702950194, 52.639164885015425 ], [ 6.018410854719688, 52.638800495632232 ], [ 6.018679224878373, 52.638228034463708 ], [ 6.019971231896269, 52.638207591980567 ], [ 6.020386134803546, 52.637997247966318 ], [ 6.020154082698078, 52.638250154089057 ], [ 6.020286546600025, 52.638736365127812 ], [ 6.021513323797747, 52.639111497271202 ], [ 6.022117383428978, 52.639510006032381 ], [ 6.02162936618352, 52.640518653247184 ], [ 6.021140583600552, 52.64072656117775 ], [ 6.021277038045644, 52.641034170980582 ], [ 6.021162518769975, 52.641399834648645 ], [ 6.023877362508277, 52.642047169595337 ], [ 6.02426243472885, 52.641437652021672 ], [ 6.024590296795666, 52.641222000785056 ], [ 6.03077682202176, 52.638899536914771 ], [ 6.03158307592992, 52.638738831502017 ], [ 6.033460847442477, 52.638808416007357 ], [ 6.034361118996126, 52.638653271909462 ], [ 6.036706564441634, 52.637918893530475 ], [ 6.038507918278388, 52.637151341110993 ], [ 6.04170996847126, 52.636349501722812 ], [ 6.044254292100855, 52.635093172039568 ], [ 6.044762583406316, 52.634603117488091 ], [ 6.045418872534249, 52.634753723741802 ], [ 6.047417043968931, 52.63415523166519 ], [ 6.048770838377996, 52.634117962452436 ], [ 6.049847597632964, 52.634317042487552 ], [ 6.056808478195711, 52.636023934632874 ], [ 6.058883608765491, 52.636607948984263 ], [ 6.059524093289527, 52.636979430767909 ], [ 6.060064380999869, 52.636777402075261 ], [ 6.060492908641296, 52.636915714174499 ], [ 6.061362821232459, 52.635454995067171 ], [ 6.062864937162692, 52.636580504509787 ], [ 6.064683612184511, 52.637313956401158 ], [ 6.065676750807019, 52.63753999833326 ], [ 6.068459534106442, 52.63776997384921 ], [ 6.070265682749232, 52.637644216789951 ], [ 6.071639492739114, 52.637359339646743 ], [ 6.073622728346324, 52.636723287604156 ], [ 6.075037219840837, 52.636028097324221 ], [ 6.075843158510368, 52.635486139237436 ], [ 6.07703027047935, 52.634349698016877 ], [ 6.078213141310763, 52.632558629369605 ], [ 6.078451994448388, 52.631542483847959 ], [ 6.078102601507728, 52.629477202863683 ], [ 6.077344380187731, 52.627025098766822 ], [ 6.076756541735262, 52.623527243955337 ], [ 6.076650516578007, 52.621687796605187 ], [ 6.076832376706453, 52.620540377921863 ], [ 6.077206921854421, 52.619678380791349 ], [ 6.077653874581316, 52.618952701054418 ], [ 6.078662415104044, 52.617952691973983 ], [ 6.082536726674451, 52.615041228749888 ], [ 6.085517081410964, 52.613283524071818 ], [ 6.090140255720033, 52.610904470876299 ], [ 6.091804452421056, 52.609775785657092 ], [ 6.09279193789434, 52.608880689698736 ], [ 6.093771734847692, 52.607369723786213 ], [ 6.093756272584574, 52.605300155479284 ], [ 6.091578078244969, 52.60222183495442 ], [ 6.090153317372214, 52.601227753519154 ], [ 6.09526190911131, 52.600183655441455 ], [ 6.097379332811119, 52.6008682068802 ], [ 6.097474326024871, 52.601037470975776 ], [ 6.100485221853697, 52.602343496219845 ], [ 6.10187505382323, 52.602420926372602 ], [ 6.105022906812424, 52.603579307144038 ], [ 6.104297108758043, 52.603965037189063 ], [ 6.102964340475842, 52.605639883529143 ], [ 6.106097469144181, 52.607085242119027 ], [ 6.10360244017104, 52.612702614928068 ], [ 6.106836302531269, 52.614907095439257 ], [ 6.106319742661311, 52.617902841487684 ], [ 6.107704923030955, 52.618012462462865 ], [ 6.10680247398823, 52.620813119611142 ], [ 6.106712858083228, 52.621547010276558 ], [ 6.104192308824549, 52.624383917388499 ], [ 6.103923076179764, 52.625915625126972 ], [ 6.098182165760364, 52.625775695276864 ], [ 6.097531933178921, 52.62751526569685 ], [ 6.095817414728802, 52.63092892387921 ], [ 6.096765928522369, 52.635683514343476 ], [ 6.09740499954239, 52.636313092833319 ], [ 6.111947674513234, 52.636922394367737 ], [ 6.115102749663976, 52.642341224420463 ], [ 6.129825126237077, 52.643926371912706 ], [ 6.136763270619912, 52.655523226585636 ], [ 6.159482881350613, 52.650946028939998 ], [ 6.157383819936369, 52.648483967985364 ], [ 6.155172965500137, 52.646669344336239 ], [ 6.148767149565781, 52.643751910151515 ], [ 6.14715974329919, 52.643945185241698 ], [ 6.146623915869046, 52.64292179768033 ], [ 6.147116320871415, 52.640218454753828 ], [ 6.158219321813391, 52.63790003330336 ], [ 6.160746006774517, 52.64127434728745 ], [ 6.166890764440551, 52.639876330373752 ], [ 6.171566705454269, 52.639012563457833 ], [ 6.174735555285205, 52.636653364580631 ], [ 6.174655534292164, 52.636473154164882 ], [ 6.172017031299268, 52.635178238545514 ], [ 6.174726807241631, 52.633163538834324 ], [ 6.184831959526502, 52.63803799424776 ], [ 6.191078747902949, 52.633238089552478 ], [ 6.192890772521418, 52.632122682465884 ], [ 6.203169239377241, 52.624458254685592 ], [ 6.20530036855334, 52.622321774829437 ], [ 6.205705668436225, 52.622454883079968 ], [ 6.206457762791902, 52.621990258829427 ], [ 6.208830220748408, 52.622227981350342 ], [ 6.214007448868862, 52.618153899062705 ], [ 6.216128742338449, 52.61754736745867 ], [ 6.213008838040703, 52.614893132293027 ], [ 6.20961273509737, 52.61594756223036 ], [ 6.208732659732357, 52.614760183763828 ], [ 6.210201236787745, 52.612617618330766 ], [ 6.208032613481067, 52.610903663222189 ], [ 6.217212518179696, 52.606341320167829 ], [ 6.223018572435706, 52.607904701782516 ], [ 6.223532020831304, 52.606986396063874 ], [ 6.225519662070921, 52.604339202683207 ], [ 6.230831537172015, 52.598122132380986 ], [ 6.241243298956454, 52.613517702114748 ], [ 6.241952454267774, 52.615309518723258 ], [ 6.240693893272106, 52.62330604869004 ], [ 6.240877209779034, 52.623750795463884 ], [ 6.241168663891543, 52.6238867001478 ], [ 6.24142799811137, 52.623767813264479 ], [ 6.243298400005361, 52.624686840309373 ], [ 6.246021514365589, 52.625482133673337 ], [ 6.247448564009001, 52.626397588880764 ], [ 6.248448540281032, 52.627436722286276 ], [ 6.249628701912609, 52.627903629028353 ], [ 6.249582880716985, 52.628158113042034 ], [ 6.252390093988586, 52.629513602293621 ], [ 6.256349401188855, 52.628210670349134 ], [ 6.258024876702958, 52.629396784848566 ], [ 6.259506037802405, 52.628930902143338 ], [ 6.265636227740661, 52.631590429299727 ], [ 6.266095058918626, 52.631291729685948 ], [ 6.2688677421599, 52.63239631338287 ], [ 6.270597918764883, 52.632381204114367 ], [ 6.270686205942383, 52.632594347833425 ], [ 6.271241045521442, 52.632704535869777 ], [ 6.272850016479723, 52.632845785764715 ], [ 6.274633198865027, 52.632585568848391 ], [ 6.274880278276461, 52.633046543010899 ], [ 6.275097599984418, 52.632881183371722 ], [ 6.274991904353324, 52.632532894583406 ], [ 6.27570066243358, 52.632412671183509 ], [ 6.278182367369333, 52.630732484373667 ], [ 6.279789222951311, 52.630039721760156 ], [ 6.281324171494911, 52.62966467715728 ], [ 6.281379469308435, 52.628840563463832 ], [ 6.281215543670273, 52.628307011163002 ], [ 6.286577649831433, 52.626744860423898 ], [ 6.287582491315237, 52.626324746806439 ], [ 6.28764654048375, 52.626158162721147 ], [ 6.287147410456247, 52.625446085880007 ], [ 6.288860316593965, 52.625003844810465 ], [ 6.289086128242179, 52.623955971859793 ], [ 6.290917845622789, 52.623450444910169 ], [ 6.291755103181794, 52.624724611196378 ], [ 6.291405098805647, 52.624955029492618 ], [ 6.29159109060092, 52.625447545580101 ], [ 6.292283521335477, 52.625785582840898 ], [ 6.292632935522134, 52.62644785601686 ], [ 6.29380645696618, 52.62625211374344 ], [ 6.297098099257367, 52.624780925364071 ], [ 6.297637001786285, 52.625208597600611 ], [ 6.298089572592314, 52.625308547850224 ], [ 6.29881575211227, 52.624779120979461 ], [ 6.299592362513383, 52.624558565772304 ], [ 6.299859085355334, 52.624258889746145 ], [ 6.30116931312067, 52.624782198042212 ], [ 6.301519416417178, 52.625738750401219 ], [ 6.302201171595125, 52.626857288945466 ], [ 6.303747012626517, 52.627763506471354 ], [ 6.30550506600206, 52.628151656080561 ], [ 6.307907073599553, 52.62818154663826 ], [ 6.314683931833971, 52.627893661546864 ], [ 6.314328627775769, 52.626379766415553 ], [ 6.303095476658725, 52.597046336416149 ], [ 6.286960761222593, 52.59509177626871 ], [ 6.286280289208096, 52.596101682123809 ], [ 6.283506907761915, 52.59564803039563 ], [ 6.283961921579134, 52.594840785042251 ], [ 6.283892092203907, 52.594702970187598 ], [ 6.274900645844825, 52.593604819810643 ], [ 6.274689725853472, 52.594683466039235 ], [ 6.271493733457628, 52.594538849131659 ], [ 6.270662294393994, 52.594906835012402 ], [ 6.270092305239083, 52.59484912866472 ], [ 6.268136346679519, 52.594459635850662 ], [ 6.259152814934444, 52.593496184302467 ], [ 6.258865280647822, 52.593307843930859 ], [ 6.258341759263776, 52.591925389029321 ], [ 6.24987393256911, 52.590746905177703 ], [ 6.249693038494264, 52.590389604484493 ], [ 6.235823058490441, 52.588727953422996 ], [ 6.235676066336658, 52.588892040748576 ], [ 6.225097053084916, 52.587572188208192 ], [ 6.22473517499706, 52.588680601142521 ], [ 6.223859184824938, 52.587425615039727 ], [ 6.202274416780051, 52.584863857061301 ], [ 6.203517264374661, 52.581356511989803 ], [ 6.203773599872743, 52.581242197580757 ], [ 6.205540658914808, 52.575317806159923 ], [ 6.209552911543294, 52.568595943906409 ], [ 6.210697035564568, 52.567859032296575 ], [ 6.205095310060557, 52.559561548246613 ], [ 6.205235711500182, 52.55920435954144 ], [ 6.196234123978862, 52.545978877728238 ], [ 6.196476619618803, 52.546095498002586 ], [ 6.19655094268095, 52.545939561125188 ], [ 6.195484642982501, 52.544415431297239 ], [ 6.195225178514979, 52.544345774842128 ], [ 6.192878811059201, 52.540858327184388 ], [ 6.192825617449762, 52.540304785176346 ], [ 6.19221793225643, 52.539876331950403 ], [ 6.189755218640042, 52.536164639806024 ], [ 6.193149189002081, 52.53183354623895 ], [ 6.187549635049982, 52.5247561193979 ], [ 6.187929475118086, 52.523453026515497 ], [ 6.186199209720344, 52.522608698180726 ], [ 6.183191709790036, 52.520819995240771 ], [ 6.182697092378225, 52.519591558716421 ], [ 6.183056413192412, 52.51950480749894 ], [ 6.182986407943226, 52.519240972288792 ], [ 6.18250276069109, 52.519134535307963 ], [ 6.181968239658273, 52.519321285362871 ], [ 6.178661278252824, 52.519309226966399 ], [ 6.173507858080503, 52.518764101119672 ], [ 6.184149389865273, 52.507803129913903 ], [ 6.184315494117084, 52.507450806243618 ], [ 6.184205727544811, 52.507223047734421 ], [ 6.18458813656988, 52.506626234091172 ], [ 6.184408004926521, 52.505939423619715 ], [ 6.184049558289561, 52.505612303827931 ], [ 6.186504922907096, 52.503509269475373 ], [ 6.186857462119364, 52.502489668918713 ], [ 6.186704778621982, 52.501621234306228 ], [ 6.187762101353218, 52.501024950191031 ], [ 6.187883113186855, 52.500781282164816 ], [ 6.18777373123061, 52.500430213685853 ], [ 6.188218586221366, 52.499630931350445 ], [ 6.188901188119389, 52.499410457972346 ], [ 6.189322098506861, 52.498899896273187 ], [ 6.18981139777065, 52.499113838057006 ], [ 6.190974036630555, 52.498736049773918 ], [ 6.191164685094781, 52.498550822351554 ], [ 6.191092839103772, 52.498164054869328 ], [ 6.19120122981672, 52.498076075105942 ], [ 6.192083890374733, 52.498173292865438 ], [ 6.192592282329751, 52.497513141386349 ], [ 6.193257352201089, 52.497437000816483 ], [ 6.194016818325244, 52.496908122899526 ], [ 6.194551778441946, 52.49677100532061 ], [ 6.194852244360597, 52.496493386558214 ], [ 6.195128453263516, 52.496519557600031 ], [ 6.196919824769586, 52.495582283108199 ], [ 6.197969429587794, 52.495870644241194 ], [ 6.199772520840825, 52.495354318132449 ], [ 6.200029618235709, 52.494941306164534 ], [ 6.199729116829891, 52.49414297901837 ], [ 6.200180312507046, 52.493657168653392 ], [ 6.200040842043451, 52.49314582007198 ], [ 6.198908937264609, 52.49276224178729 ], [ 6.200209951219184, 52.490993528162065 ], [ 6.200973349242775, 52.491156256773259 ], [ 6.20109711839638, 52.4909597353153 ], [ 6.198483829148547, 52.490363134222903 ], [ 6.196702986765335, 52.489660201622122 ], [ 6.196902669349669, 52.489371201067463 ], [ 6.1957243224213, 52.488775770948642 ], [ 6.194595262232728, 52.487535269361061 ], [ 6.194708741270829, 52.48724138023033 ], [ 6.193756109873549, 52.486182501993362 ], [ 6.193381895502923, 52.486133409634512 ], [ 6.192456448028111, 52.485542083703486 ], [ 6.193006942301607, 52.484834633355362 ], [ 6.19383022470174, 52.482896487138433 ], [ 6.193322274311497, 52.4828040675431 ], [ 6.192586620956136, 52.481538244907931 ], [ 6.190552305495411, 52.481651452692105 ], [ 6.189583384877793, 52.480600242270349 ], [ 6.188765132890818, 52.480511696588366 ], [ 6.185120241587415, 52.480432308974173 ], [ 6.184437688610716, 52.480729619942274 ], [ 6.18303113573092, 52.480726405512868 ], [ 6.182881547801396, 52.479811508248225 ], [ 6.182093704821482, 52.478958594268825 ], [ 6.180714203293133, 52.479183687899663 ], [ 6.180484799339515, 52.479352087300242 ], [ 6.177564381357601, 52.479727952748341 ], [ 6.177100452977744, 52.479355820926422 ], [ 6.178047904484476, 52.478020962669362 ], [ 6.17769517959451, 52.47776242185958 ], [ 6.176136941604211, 52.477765815643394 ], [ 6.175318730166591, 52.47807497181261 ], [ 6.174754973430796, 52.478110888528185 ], [ 6.173654694746359, 52.476706737757922 ], [ 6.173432499699899, 52.476772572529775 ], [ 6.173430354789849, 52.47699507771987 ], [ 6.171277446700943, 52.477274226115057 ], [ 6.170046424846608, 52.475783529624771 ], [ 6.169188460217631, 52.476025406503013 ], [ 6.167445840631686, 52.475910186017003 ], [ 6.162712903569824, 52.474350018240358 ], [ 6.169240414139538, 52.469432745858157 ], [ 6.170056921637199, 52.469133760015055 ], [ 6.171930567821141, 52.468865285916557 ], [ 6.174687158528268, 52.4686529104793 ], [ 6.176991169171949, 52.470555687299473 ], [ 6.177885784088923, 52.470715020910596 ], [ 6.182797692176468, 52.469384931586539 ], [ 6.187111345433691, 52.468466354830746 ], [ 6.191060536924282, 52.46849712018453 ], [ 6.193995403257975, 52.468136373067772 ], [ 6.196875052796867, 52.468609567642702 ], [ 6.200128668131988, 52.468319327999154 ], [ 6.20126327036931, 52.468695021502448 ], [ 6.202596384381759, 52.468826271419204 ], [ 6.2059631540306, 52.467771487560071 ], [ 6.211445818287488, 52.464952392946444 ], [ 6.21425609483104, 52.464717416767392 ], [ 6.215955015067132, 52.464356617947928 ], [ 6.218634275050699, 52.464573395143887 ], [ 6.218719415361997, 52.464933209311127 ], [ 6.236055658449446, 52.465723960484226 ], [ 6.239450328491425, 52.465430540893593 ], [ 6.248005149572799, 52.463367043001597 ], [ 6.25360147101444, 52.463182206569719 ], [ 6.272825999448028, 52.458360181273456 ], [ 6.278292664063441, 52.457141978887201 ], [ 6.278698433708562, 52.447466566538758 ], [ 6.281467722585283, 52.447326571588484 ], [ 6.284520471734936, 52.44673340389064 ], [ 6.28618870476306, 52.4467873221082 ], [ 6.290005896047593, 52.446526243597944 ], [ 6.289412901249947, 52.443784101377389 ], [ 6.290145660300369, 52.441478911450169 ], [ 6.291862173421263, 52.4377451816815 ], [ 6.291721621263651, 52.437427753599238 ], [ 6.29223208535952, 52.435953621029604 ], [ 6.291664787176009, 52.435799563123801 ], [ 6.291905555441764, 52.434824240392004 ], [ 6.294576112089717, 52.434908403114861 ], [ 6.294639699992461, 52.435157576919345 ], [ 6.297302889961857, 52.435157646454641 ], [ 6.297391984904717, 52.435336682514261 ], [ 6.301863872657532, 52.435323951867623 ], [ 6.302058159655271, 52.435159321940837 ], [ 6.302271352524166, 52.431545561275769 ], [ 6.314310956598685, 52.433126026737959 ], [ 6.318970277526028, 52.432201849007747 ], [ 6.328399779109024, 52.428283476385054 ], [ 6.33427588204618, 52.424777732035523 ], [ 6.33570662045527, 52.426543460540238 ], [ 6.337059512171958, 52.427909743515023 ], [ 6.343247538145108, 52.426146875825637 ], [ 6.343581048409271, 52.425900619743331 ], [ 6.343572338569426, 52.425396411282918 ], [ 6.349328169330489, 52.424957428102857 ], [ 6.349499107678762, 52.425009175773177 ], [ 6.349814829273822, 52.426332576013749 ], [ 6.350212778176665, 52.426566689444712 ], [ 6.355581365313869, 52.426050509665409 ], [ 6.356235098083316, 52.429202484482843 ], [ 6.368324723774032, 52.4278516955047 ], [ 6.380277886331538, 52.427898740254214 ], [ 6.380129084279218, 52.428977445044822 ], [ 6.38057044580031, 52.429870645384852 ], [ 6.390368857476655, 52.428228861003774 ], [ 6.405266586272004, 52.415517633524061 ], [ 6.400905182914887, 52.405037462748503 ], [ 6.389734999145128, 52.382453161879084 ], [ 6.382575724017478, 52.383447545493027 ], [ 6.382391556563762, 52.382577322962319 ], [ 6.381979718565147, 52.38178148283324 ], [ 6.380996958808256, 52.380713042439297 ], [ 6.380469153250114, 52.380400372802555 ], [ 6.378674866484741, 52.380433512490228 ], [ 6.376108745831353, 52.379635818614915 ], [ 6.356994735059628, 52.376887159515356 ], [ 6.343155265644937, 52.36995687845986 ], [ 6.333615104076251, 52.351400404325076 ], [ 6.338673687131842, 52.342304818389614 ], [ 6.342475103355405, 52.333220430562136 ], [ 6.346503484953662, 52.327889728113441 ], [ 6.356113750704274, 52.318199277843036 ], [ 6.349665881287202, 52.314556213017923 ], [ 6.341244995380193, 52.308992594309053 ], [ 6.32656517680994, 52.301537985856363 ], [ 6.305090025410669, 52.300445439464966 ], [ 6.286558241579782, 52.300421527913151 ], [ 6.267218441014658, 52.300706724488187 ], [ 6.26445696197627, 52.301999447993744 ], [ 6.235084736567141, 52.314367802457198 ], [ 6.235253241459972, 52.319724777992889 ], [ 6.20650069614561, 52.321021227299724 ], [ 6.203837094721488, 52.320221240487911 ], [ 6.203673193515436, 52.319682007336716 ], [ 6.203229777055387, 52.319687422050016 ], [ 6.202568158957568, 52.318074442393069 ], [ 6.20255649507032, 52.317673165998073 ], [ 6.202779208970956, 52.31718197542785 ], [ 6.199867397229687, 52.316254764860759 ], [ 6.199514792335104, 52.315781276863412 ], [ 6.190078876559037, 52.314656161363537 ], [ 6.184098912031517, 52.314948298930283 ], [ 6.181659683537545, 52.31476711220953 ], [ 6.182200165654934, 52.308813771930581 ], [ 6.170286567656276, 52.308684825861882 ], [ 6.168755937684651, 52.308208101227976 ], [ 6.141430598605044, 52.303878367492416 ], [ 6.134158539940366, 52.302249105885416 ], [ 6.12240801584148, 52.299925550725071 ], [ 6.118601179506806, 52.29879375385169 ], [ 6.112595212636805, 52.29807541612697 ], [ 6.112062020271773, 52.298718398871344 ], [ 6.11162267693356, 52.299772063380004 ], [ 6.111242441827742, 52.303541362364065 ], [ 6.10992526518929, 52.307160016836512 ], [ 6.108288675135925, 52.309243278480885 ], [ 6.107113382136388, 52.312796371355539 ], [ 6.105558729868528, 52.314173198512265 ], [ 6.101541744940205, 52.313046198835615 ], [ 6.102320751943741, 52.312344690582293 ], [ 6.103256836566952, 52.310839835005886 ], [ 6.103306015174836, 52.309621274740707 ], [ 6.102794208055939, 52.308133917146463 ], [ 6.10356296179577, 52.307942796753743 ], [ 6.102777535313687, 52.305699965463141 ], [ 6.101529344821614, 52.305266269427399 ], [ 6.101163945003659, 52.303057044296082 ], [ 6.101230043534753, 52.302072266931454 ], [ 6.101525896325986, 52.301136406923511 ], [ 6.101328133553709, 52.301324470758637 ], [ 6.098710557376635, 52.30125497274291 ], [ 6.099036692811269, 52.300227591731534 ], [ 6.09092232926021, 52.300087568530465 ], [ 6.087984242457474, 52.300488054318734 ], [ 6.086264756428807, 52.301993015920587 ], [ 6.084185375113196, 52.301677913895901 ], [ 6.084058357941269, 52.302080033433661 ], [ 6.084298916894979, 52.302217225350724 ], [ 6.083982818631092, 52.303354245784746 ], [ 6.083546204876161, 52.303399305389128 ], [ 6.083083364568671, 52.305498987921212 ], [ 6.08302798598692, 52.307114976369803 ], [ 6.08366678414286, 52.309491878665604 ], [ 6.084504369362469, 52.311445413142252 ], [ 6.084877346411989, 52.311765550322136 ], [ 6.081069160410268, 52.312002289171183 ], [ 6.080410841133524, 52.314650634081261 ], [ 6.080418935828006, 52.315100509677308 ], [ 6.08006399285556, 52.315689499405948 ], [ 6.080004048617142, 52.316317207531533 ], [ 6.080170458074662, 52.317135703241512 ], [ 6.079889806536961, 52.3176675950386 ], [ 6.077527224900516, 52.31792363483256 ], [ 6.0737224295597, 52.317844174519649 ], [ 6.071837671903422, 52.317285638007391 ], [ 6.06806406407836, 52.317852645410881 ], [ 6.066623668202256, 52.317902324875973 ], [ 6.066588172503272, 52.31840343279071 ], [ 6.066278437864196, 52.319031992693297 ], [ 6.066503583672673, 52.319790302659385 ], [ 6.066194173391462, 52.32022575640859 ], [ 6.067165215272363, 52.321181838978092 ], [ 6.068623024952113, 52.321783551299994 ], [ 6.068815607884473, 52.32167237812736 ], [ 6.069392026452546, 52.321864064392358 ], [ 6.070634604822597, 52.321683922006528 ], [ 6.070784816000684, 52.321820766747727 ], [ 6.070867125725318, 52.322424437768177 ], [ 6.071158733908175, 52.322477288237614 ], [ 6.071841989148321, 52.324871727977062 ], [ 6.071645839977032, 52.325000934209626 ], [ 6.072270647555348, 52.326476098802694 ], [ 6.072338404234428, 52.3277239291779 ], [ 6.073243419731802, 52.328793875572551 ], [ 6.074142120900922, 52.33145903712451 ], [ 6.074161947492412, 52.3321222068721 ], [ 6.07493506842514, 52.332902219963522 ], [ 6.075728421728502, 52.333272187458647 ], [ 6.075422255132872, 52.333710680689968 ], [ 6.074307442505478, 52.334226518593468 ], [ 6.074159626618431, 52.334457648144088 ], [ 6.075695130563636, 52.334710833740466 ], [ 6.07686324978243, 52.338637413577025 ], [ 6.076679235068768, 52.338764149915313 ], [ 6.076893893056547, 52.339738498635072 ], [ 6.076830475323531, 52.340149342877957 ], [ 6.076110561899877, 52.341826475567338 ], [ 6.075717807881636, 52.341933405431675 ], [ 6.075890224203897, 52.344404890147864 ], [ 6.075502565963945, 52.344608402363882 ], [ 6.07623016759995, 52.345654930232229 ], [ 6.076170213788694, 52.350520915868714 ], [ 6.07758505465558, 52.351585706916552 ], [ 6.078166151312943, 52.351661660431553 ], [ 6.078121737912418, 52.352343769900813 ], [ 6.087264165064184, 52.353792839569842 ], [ 6.089816546039173, 52.354654638280337 ], [ 6.09492378805013, 52.356893171045918 ], [ 6.094583892853001, 52.357566547729228 ], [ 6.093817926616092, 52.358507346789061 ], [ 6.09227999961626, 52.3597301542693 ], [ 6.090351800131981, 52.360698098554323 ], [ 6.088509179102326, 52.361243249218205 ], [ 6.08591334887265, 52.361601641827008 ], [ 6.082410503708815, 52.361827423298912 ], [ 6.080912618078276, 52.36213133866179 ], [ 6.079153035739551, 52.362953764298631 ], [ 6.077840133184238, 52.364396946169677 ], [ 6.074246721779172, 52.363114766366564 ], [ 6.074688621399628, 52.361994717901609 ], [ 6.074160507710956, 52.361902550335785 ], [ 6.052388472027025, 52.361099248969246 ], [ 6.051826009158957, 52.360405830620216 ], [ 6.049935278301348, 52.359922602554484 ], [ 6.04813955722325, 52.358612704412245 ], [ 6.04756077289382, 52.357979429510017 ], [ 6.045087349729663, 52.357150633310908 ], [ 6.041874493637951, 52.356625877759122 ], [ 6.041863846485384, 52.358329151784083 ], [ 6.042756252916059, 52.36359608938529 ], [ 6.037808565919881, 52.362174369941556 ], [ 6.033997349423504, 52.364773536260806 ], [ 6.034731946269316, 52.366186903039065 ], [ 6.031684844918517, 52.367377310016749 ], [ 6.029923656033841, 52.367859033461045 ], [ 6.017422947834633, 52.369991829195918 ], [ 6.016312841080252, 52.370604334598511 ], [ 6.01330850974062, 52.371395447401504 ], [ 6.003802799898277, 52.374543704791613 ], [ 6.003716868675998, 52.375661765260467 ], [ 6.001640245723205, 52.375966700272798 ], [ 6.001528758569949, 52.376557438752094 ], [ 6.000418167606596, 52.376480342836913 ], [ 6.000397051405431, 52.376940699058693 ], [ 5.999966827321566, 52.377004042492793 ], [ 5.999896809216131, 52.377547109351617 ], [ 5.997370426097494, 52.377322206398681 ], [ 5.996822274545782, 52.377461080226333 ], [ 5.996105263842016, 52.377391865719396 ], [ 5.994208018393776, 52.377700508231072 ], [ 5.993681327671252, 52.378348135129848 ], [ 5.992424421591448, 52.378291146812543 ], [ 5.991370730722932, 52.378690760911716 ], [ 5.98828844869935, 52.379988066222403 ], [ 5.988239532760911, 52.380150297553918 ], [ 5.987911511952426, 52.380151817827858 ], [ 5.986324392361398, 52.380834220265342 ], [ 5.985878095399674, 52.38166657343605 ], [ 5.985549071507173, 52.381771763077701 ], [ 5.984630613220943, 52.381547663762504 ], [ 5.983166603721684, 52.382155704926262 ], [ 5.982960136839501, 52.382582869080018 ], [ 5.981590539774991, 52.382878699928135 ], [ 5.981521384668409, 52.383017958405318 ], [ 5.981802316571029, 52.383313495860705 ], [ 5.981195395207023, 52.383596583656569 ], [ 5.981049608548892, 52.383869695349681 ], [ 5.981281315026471, 52.387648675140603 ], [ 5.980458466012776, 52.387914741181461 ], [ 5.980423324315025, 52.388284845237564 ], [ 5.980208897056787, 52.388534456570873 ], [ 5.981350746462565, 52.38885897646464 ], [ 5.981792133253567, 52.391557472958532 ], [ 5.982176726066578, 52.392594319980105 ], [ 5.98116972474481, 52.392966257695718 ], [ 5.980545998376315, 52.393689827332565 ], [ 5.980115254969876, 52.393820704588272 ], [ 5.979782363008716, 52.393386641776964 ], [ 5.966078235773733, 52.397505949940758 ], [ 5.964697790263766, 52.397782541846908 ], [ 5.964596894390284, 52.397948659351371 ], [ 5.960987824010849, 52.399056554917415 ], [ 5.958727104724913, 52.400075300434892 ], [ 5.95612235210959, 52.398561832865653 ], [ 5.954695335180787, 52.400027685099701 ], [ 5.955960271362891, 52.400609143519731 ], [ 5.955974335528412, 52.40081466557654 ], [ 5.949397244070759, 52.404258344886351 ], [ 5.948755249400334, 52.404841902659278 ], [ 5.949772870194703, 52.405779106063548 ], [ 5.953558586159387, 52.408264564858079 ], [ 5.958872802215459, 52.409471462067302 ], [ 5.959844078052355, 52.410292678741349 ], [ 5.962852247881866, 52.411690129652634 ], [ 5.963980864975363, 52.411993465222729 ], [ 5.958943385342788, 52.418008246107803 ], [ 5.956870070351589, 52.417062568633966 ], [ 5.954960090352743, 52.415541567218462 ], [ 5.952104836540955, 52.418148768050138 ], [ 5.950728942922783, 52.417518235876663 ], [ 5.94989841478065, 52.41665478942911 ], [ 5.948239691176612, 52.415617983973704 ], [ 5.94352425254646, 52.413774922999295 ], [ 5.941640548418546, 52.412841430491106 ], [ 5.939513322945031, 52.415023487688352 ], [ 5.938791712976811, 52.415528710469715 ], [ 5.938101756172792, 52.416613538739639 ], [ 5.936608712668585, 52.415938970386968 ], [ 5.937464649049807, 52.414746482136415 ], [ 5.937320821043577, 52.413430172338749 ], [ 5.936764727089062, 52.412852869988392 ], [ 5.935529591812507, 52.41188773992554 ], [ 5.933258351889813, 52.410667589883026 ], [ 5.932476102599745, 52.411273290505534 ], [ 5.930746617867652, 52.410193936243509 ], [ 5.930769508253508, 52.411751112252752 ], [ 5.930459667922841, 52.412267960565401 ], [ 5.919922114838605, 52.415852617416562 ], [ 5.91563147086559, 52.41895913131227 ], [ 5.912762819769695, 52.417530312575323 ], [ 5.911361681679231, 52.417655211787434 ], [ 5.908469617667237, 52.416284341519571 ], [ 5.900006725646905, 52.419902716919914 ], [ 5.898879952873934, 52.420800093641276 ], [ 5.898529430636701, 52.420706369312093 ], [ 5.897845379580096, 52.420827130872574 ], [ 5.897854826953558, 52.421511786723201 ], [ 5.893125669159544, 52.425544955538683 ], [ 5.891983294333023, 52.426280472339762 ], [ 5.88894697017823, 52.427798722974856 ], [ 5.886797589403837, 52.429738628028105 ], [ 5.886824323231694, 52.429882764118759 ], [ 5.88641063770173, 52.430262386994507 ], [ 5.884584592779125, 52.431908289897827 ], [ 5.884410831564055, 52.431891548687382 ], [ 5.876352598212853, 52.43917899124348 ], [ 5.875791260163829, 52.439395356134618 ], [ 5.872304793459549, 52.443109265543882 ], [ 5.870705821443394, 52.442633933204753 ], [ 5.868947029251217, 52.444769165546106 ], [ 5.871157958736909, 52.445443127707939 ], [ 5.872305279580373, 52.446271393999503 ], [ 5.873835465869902, 52.446923060718191 ], [ 5.873806854785167, 52.447085726577605 ], [ 5.871598608774156, 52.447885564934147 ], [ 5.872019894208383, 52.448316499583846 ], [ 5.874406774859991, 52.449685988814871 ], [ 5.875059626854172, 52.450526549959456 ], [ 5.874959297843182, 52.450684610365435 ], [ 5.876571502752971, 52.451922222195925 ], [ 5.877719320373629, 52.453148485340492 ], [ 5.874636125807801, 52.454327034679523 ], [ 5.874463808555545, 52.454494899392699 ], [ 5.874403562046565, 52.455324484486837 ], [ 5.874105536192745, 52.455751518101856 ], [ 5.872603620114229, 52.455362387410908 ], [ 5.8725371327905, 52.455514058621738 ], [ 5.872825441704982, 52.455702300956162 ], [ 5.872113952622169, 52.456744309536937 ], [ 5.871547985052, 52.456730359482535 ], [ 5.871413604354256, 52.457879519041704 ], [ 5.870662105351765, 52.458010356482177 ], [ 5.863190382113282, 52.460944017068378 ], [ 5.864899667369132, 52.461974954722486 ], [ 5.86489175671226, 52.46214081713331 ], [ 5.86396039085438, 52.462475051713227 ], [ 5.863399876711597, 52.462505746467968 ], [ 5.862344174264684, 52.461563860739282 ], [ 5.861904780759652, 52.461728116738627 ], [ 5.861619392490105, 52.461653446050057 ], [ 5.858934619423096, 52.462620657887967 ], [ 5.853186137872235, 52.458500071489162 ], [ 5.853024403610154, 52.458237443791383 ], [ 5.853063013883911, 52.457824951549846 ], [ 5.8494015136356, 52.456804791843311 ], [ 5.848045018427038, 52.456906169343284 ], [ 5.841502187303641, 52.458784779941233 ], [ 5.840110425417115, 52.458678583796001 ], [ 5.835982240206618, 52.45766805025665 ], [ 5.835961239699084, 52.457986142581831 ], [ 5.835397763402407, 52.458492063589738 ], [ 5.833479069468804, 52.459664034305092 ], [ 5.831863917613478, 52.459132080241268 ], [ 5.831318075234359, 52.45924645353842 ], [ 5.831474522281311, 52.460021215946433 ], [ 5.831915119731503, 52.460771242566366 ], [ 5.836375508553055, 52.466701905685895 ], [ 5.836966761319776, 52.466862944306023 ], [ 5.837730080547654, 52.466329810163991 ], [ 5.839566066029259, 52.466024822049341 ], [ 5.840096707794892, 52.466365524755297 ], [ 5.841113379567735, 52.467652002950146 ], [ 5.842023969394786, 52.469707001485638 ], [ 5.841689680930279, 52.470632878843155 ], [ 5.843117713437156, 52.472176999465852 ], [ 5.843935689528896, 52.47348370502808 ], [ 5.844089209206526, 52.47449740964764 ], [ 5.844785561913057, 52.475488443111146 ], [ 5.84539029870556, 52.476759538909342 ], [ 5.84642665509165, 52.477606801603585 ], [ 5.846734489165486, 52.47828635875193 ], [ 5.847089302701239, 52.478249523031899 ], [ 5.847331808883439, 52.478640986020181 ], [ 5.847451779038706, 52.479110352488497 ], [ 5.847246145179783, 52.479670775724578 ], [ 5.849142896863029, 52.483537047157277 ], [ 5.849760169459652, 52.48515774100683 ], [ 5.850121255902049, 52.485637744551433 ], [ 5.850513630740196, 52.487342198502589 ], [ 5.850841903239367, 52.487845354377527 ], [ 5.850777599574378, 52.488151868439566 ], [ 5.851021719923822, 52.4883647285073 ], [ 5.851012710410742, 52.490099044177313 ], [ 5.850781507123607, 52.490513450051488 ], [ 5.850600506065357, 52.490316570401497 ], [ 5.850311755082198, 52.490326002554177 ], [ 5.85017093071831, 52.490697461182897 ], [ 5.85030345575227, 52.490953204194803 ], [ 5.850880878129901, 52.491229755205069 ], [ 5.85122371936145, 52.491802712963526 ], [ 5.851317936781578, 52.492380212711772 ], [ 5.851950856316592, 52.493883650298606 ], [ 5.852041195997704, 52.494784146272075 ], [ 5.85268841051228, 52.49544134205987 ], [ 5.852571416244247, 52.495612433074861 ], [ 5.852674077626848, 52.495822020374199 ], [ 5.853998040298877, 52.49629307904226 ], [ 5.853943785961693, 52.496721797766284 ], [ 5.855344575905483, 52.497250583550588 ], [ 5.855776260585955, 52.49809633360892 ], [ 5.856223342575119, 52.498400644912735 ], [ 5.856745169762802, 52.498515000281564 ], [ 5.856971993834984, 52.498872603223916 ], [ 5.858414757861459, 52.499878783350304 ], [ 5.85812258536244, 52.500268866344229 ], [ 5.858327082484621, 52.500680232626159 ], [ 5.858363347343085, 52.501654810781432 ], [ 5.859171908027483, 52.502707987424252 ], [ 5.859042934174878, 52.503068462835877 ], [ 5.859373871021182, 52.503206391024833 ], [ 5.85948587857801, 52.503488213826657 ], [ 5.859812476472102, 52.503707595136738 ], [ 5.859870213282353, 52.504396269200271 ], [ 5.860508379629781, 52.504820684748267 ], [ 5.86044147815376, 52.505087630557362 ], [ 5.860649305854454, 52.505502214914308 ], [ 5.860463741838571, 52.505715364416332 ], [ 5.860441168537845, 52.506227139346308 ], [ 5.860653803624233, 52.506547711132605 ], [ 5.860939404315285, 52.506581794312623 ], [ 5.860878955031301, 52.506993666876966 ], [ 5.861145190459585, 52.507379924779549 ], [ 5.860886738763166, 52.507765591493175 ], [ 5.860971389657117, 52.508290135117178 ], [ 5.861631563439664, 52.508600033749076 ], [ 5.862215456101317, 52.509968915934998 ], [ 5.8625666930335, 52.509930586072386 ], [ 5.862108905931361, 52.51060467853182 ], [ 5.862618937092869, 52.511068417659295 ], [ 5.8627790637768, 52.511725958442597 ], [ 5.863531682155635, 52.512737048920563 ], [ 5.86354987964511, 52.513632415012054 ], [ 5.863832311338693, 52.514247449001452 ], [ 5.863940413829313, 52.515538833635659 ], [ 5.864434908854405, 52.515943775851184 ], [ 5.864875028661035, 52.515960965997699 ], [ 5.865256445030576, 52.516547447775743 ], [ 5.865502519805657, 52.516621951993478 ], [ 5.865421658022826, 52.51680169371658 ], [ 5.866353438322395, 52.517701082853506 ], [ 5.866240111578447, 52.517916507296157 ], [ 5.866463284251147, 52.518086267377278 ], [ 5.865866263466772, 52.518387940612669 ], [ 5.865660291126659, 52.518722927364472 ], [ 5.865780694058706, 52.5193239483756 ], [ 5.865678023906645, 52.519964630594096 ], [ 5.864780571230518, 52.520092338822707 ], [ 5.864156248444805, 52.520664501201708 ], [ 5.863937190097879, 52.521249177586618 ], [ 5.863112616071001, 52.52133167101254 ], [ 5.862767451243375, 52.521717879429282 ], [ 5.862652847641331, 52.52205358092047 ], [ 5.862920591472434, 52.522507643515333 ], [ 5.863722192947767, 52.522882571420048 ], [ 5.863707208988343, 52.523747711500391 ], [ 5.863440527670991, 52.524050335148587 ], [ 5.862967489309399, 52.524104599413427 ], [ 5.862490634465868, 52.524746572461432 ], [ 5.862663560427611, 52.525142621748877 ], [ 5.863149655299539, 52.525382415431913 ], [ 5.863252248903305, 52.525751849492778 ], [ 5.862495795036313, 52.526204288097297 ], [ 5.862281659673265, 52.526874321207821 ], [ 5.86238486233589, 52.52702765405089 ], [ 5.862221895013922, 52.527157720643167 ], [ 5.862332982352727, 52.527473364739109 ], [ 5.861991075886416, 52.527601446241682 ], [ 5.860922786190288, 52.527352592332825 ], [ 5.860994467294555, 52.527483157053048 ], [ 5.86074200006238, 52.527933104458548 ], [ 5.86168240708692, 52.52815062033487 ], [ 5.861419408265139, 52.528365347223939 ], [ 5.861388727071482, 52.528636890618834 ], [ 5.862091122021496, 52.52921937458094 ], [ 5.862272273740394, 52.529715127462019 ], [ 5.861952145340645, 52.530002032012106 ], [ 5.862304790985124, 52.530200585824389 ], [ 5.862195423567012, 52.530352609535882 ], [ 5.8623167187331, 52.530842763125399 ], [ 5.861994810452634, 52.531073977391131 ], [ 5.861876211972548, 52.531769903147371 ], [ 5.862388566108591, 52.532028691251334 ], [ 5.862153978315628, 52.532319551894055 ], [ 5.861644037087311, 52.532505156272912 ], [ 5.861524621568345, 52.532818700030091 ], [ 5.861616231636935, 52.533204151206 ], [ 5.861281829930238, 52.533253704643897 ], [ 5.860866253863166, 52.533683895758372 ], [ 5.860940625411276, 52.533932516265118 ], [ 5.86056097448778, 52.534231387938917 ], [ 5.860743127045217, 52.535093891671224 ], [ 5.860329639781823, 52.535355221077417 ], [ 5.860136521895295, 52.535860947299916 ], [ 5.859910500490639, 52.536006615764386 ], [ 5.860059639070196, 52.536311695576302 ], [ 5.860314190353005, 52.536366151960756 ], [ 5.860442840880992, 52.536716560538324 ], [ 5.860944849424408, 52.536961171281717 ], [ 5.859216158420256, 52.537611265580502 ], [ 5.859424465644361, 52.537736781552404 ], [ 5.860561973403095, 52.53748788103664 ], [ 5.862379096107, 52.538173172314217 ], [ 5.862200493092272, 52.538337783918927 ], [ 5.860791000579646, 52.538430616915434 ], [ 5.860655451363475, 52.537876026569414 ], [ 5.860300075332496, 52.537831720010495 ], [ 5.859661232009728, 52.538807856344121 ], [ 5.859495018765907, 52.539757355227124 ], [ 5.859226028359187, 52.539942428731386 ], [ 5.85969364604834, 52.540350205722213 ], [ 5.859243831731495, 52.540770772843153 ], [ 5.859541074916094, 52.541178991632947 ], [ 5.859223635999288, 52.541687033136306 ], [ 5.859252846085186, 52.542220983423434 ], [ 5.858392147347544, 52.542729444684817 ], [ 5.857793531431136, 52.542804617046194 ], [ 5.857968851441157, 52.543517068102979 ], [ 5.856883583514783, 52.543696420084856 ], [ 5.856875096836367, 52.544093091227261 ], [ 5.857754457849633, 52.544650373670343 ], [ 5.857515691660918, 52.545579284607058 ], [ 5.85700418916969, 52.545769695737718 ], [ 5.856465246214563, 52.545759793302963 ], [ 5.85633447065706, 52.546198036155843 ], [ 5.856950261029145, 52.546171493059695 ], [ 5.856998796075827, 52.546013961378129 ], [ 5.857610155803577, 52.545776237538945 ], [ 5.857159336926417, 52.546085265795568 ], [ 5.857213854985742, 52.546556181286768 ], [ 5.857698018106721, 52.546917453349323 ], [ 5.858166645770476, 52.546929003595984 ], [ 5.858475773247715, 52.547112737981209 ], [ 5.858185133266003, 52.547429757324927 ], [ 5.857258980186065, 52.547349803960991 ], [ 5.856539882821298, 52.550412023962252 ], [ 5.856580584889369, 52.550957652768027 ], [ 5.856043678652059, 52.551309196112179 ], [ 5.856410524108711, 52.551781744590123 ], [ 5.85618235537899, 52.551880546098729 ], [ 5.855305807748602, 52.551104916070159 ], [ 5.854480166185007, 52.551487540318853 ], [ 5.854356207072306, 52.551761514149462 ], [ 5.854491496340226, 52.552310617891898 ], [ 5.853586086654214, 52.552589362021479 ], [ 5.853378596795508, 52.552413937690801 ], [ 5.852782047540797, 52.552632815208931 ], [ 5.85256138052063, 52.553086811173578 ], [ 5.85290648857095, 52.553188563776963 ], [ 5.852869182524854, 52.553530437075246 ], [ 5.852604957601972, 52.553809500265089 ], [ 5.852885286397155, 52.554943529498459 ], [ 5.852638680962939, 52.555569768099993 ], [ 5.851900909185714, 52.555676954467799 ], [ 5.851733615487706, 52.556256635857409 ], [ 5.85117298074782, 52.556491972974996 ], [ 5.850922780186549, 52.557494443823067 ], [ 5.849829019780474, 52.557610438694795 ], [ 5.847601080438809, 52.558227583432753 ], [ 5.847540956606271, 52.558479476033675 ], [ 5.847727348352247, 52.558818977947702 ], [ 5.848486121054975, 52.558961957458784 ], [ 5.848329031153576, 52.559300097048428 ], [ 5.847481728483242, 52.559206754055914 ], [ 5.847136269871374, 52.55947696642702 ], [ 5.846743670428847, 52.560161568714044 ], [ 5.845401355109066, 52.560645068330132 ], [ 5.844452113435946, 52.56144032384843 ], [ 5.843761601344771, 52.561657010993372 ], [ 5.84342241665621, 52.562222139458925 ], [ 5.842481600755363, 52.562162415944449 ], [ 5.841950051878097, 52.562440379710338 ], [ 5.841801643065449, 52.562827507637131 ], [ 5.842149227385018, 52.563065840202569 ], [ 5.842029811605297, 52.563448094934884 ], [ 5.841300829158246, 52.564234198287863 ], [ 5.840679676210929, 52.564571344072675 ], [ 5.840753090687013, 52.565005828946312 ], [ 5.8404712045116, 52.565198608799285 ], [ 5.840720703000564, 52.565620488650389 ], [ 5.840451081082394, 52.566019900485038 ], [ 5.840855064548991, 52.566323330574157 ], [ 5.840914821148251, 52.566632091321658 ], [ 5.840745930546693, 52.566988028089298 ], [ 5.840871446882966, 52.567215241179184 ], [ 5.840037666031933, 52.567544693663436 ], [ 5.839845853212544, 52.568603995324573 ], [ 5.840148633910817, 52.568888471516175 ], [ 5.839822016811819, 52.56967193939407 ], [ 5.839481434362182, 52.570097677752507 ], [ 5.838074466512775, 52.57115252917562 ], [ 5.83802174819682, 52.571491340030242 ], [ 5.837185200340305, 52.57187099293261 ], [ 5.83685055271838, 52.572257005802527 ], [ 5.83690745908788, 52.572458534603975 ], [ 5.836277696739944, 52.573018932779398 ], [ 5.835684819169197, 52.57322856134023 ], [ 5.835175395803615, 52.574134005078463 ], [ 5.835197805064949, 52.57438705337016 ], [ 5.83492731433925, 52.574467785108318 ], [ 5.835094638669723, 52.574806318282967 ], [ 5.832499855378892, 52.576171295199352 ], [ 5.832013944464039, 52.576853989073904 ], [ 5.831159335502271, 52.577102650266909 ], [ 5.830014340319046, 52.576909346489821 ], [ 5.829566907047467, 52.577385366899669 ], [ 5.828794018131839, 52.57782504987965 ], [ 5.828357064821476, 52.577787695229219 ], [ 5.827848782736059, 52.57796565187688 ], [ 5.827510434765127, 52.578289583614556 ], [ 5.827517437815915, 52.57851605973849 ], [ 5.826984545200542, 52.578589098586008 ], [ 5.825428437080195, 52.579631133664151 ], [ 5.825046743851701, 52.579736210136403 ], [ 5.824120045829299, 52.579782702498321 ], [ 5.823786195698609, 52.579550291976091 ], [ 5.822803815349829, 52.579468891611512 ], [ 5.82031088419163, 52.580078214666074 ], [ 5.818987654968434, 52.579949615657156 ], [ 5.818517248602427, 52.580155378920587 ], [ 5.818184181367412, 52.580577244110792 ], [ 5.817102591266185, 52.581078943538429 ], [ 5.816742276679581, 52.581079097041481 ], [ 5.815578676243898, 52.581630719030059 ], [ 5.814892707004973, 52.581700072842061 ], [ 5.814229791267544, 52.581986472173043 ], [ 5.814054517701766, 52.582467261619506 ], [ 5.812529693514384, 52.582326747305551 ], [ 5.812182664155846, 52.582525991404125 ], [ 5.811156488835701, 52.582409436495382 ], [ 5.810796098902443, 52.582544630260024 ], [ 5.810279537548173, 52.582312411860208 ], [ 5.809293022942527, 52.582571450991871 ], [ 5.807312631446854, 52.582654766817981 ], [ 5.806956421859075, 52.582591623484717 ], [ 5.806778576351787, 52.582299073228313 ], [ 5.805946128202088, 52.58224753618061 ], [ 5.805516399124421, 52.582327139378343 ], [ 5.805216260523066, 52.582596780728373 ], [ 5.804446759679294, 52.582442180369057 ], [ 5.803385265035709, 52.582733548267498 ], [ 5.800946843166933, 52.582824446914813 ], [ 5.785182149626006, 52.582856274826021 ], [ 5.785091162037062, 52.582557843311925 ], [ 5.782390221838027, 52.582570391596413 ], [ 5.782264286638855, 52.582871154421483 ], [ 5.77784569886756, 52.582913150470162 ], [ 5.77765557063482, 52.583102001283521 ], [ 5.77791397630423, 52.583269907247555 ], [ 5.782727251536909, 52.583148496166494 ], [ 5.782841718493313, 52.582958160677613 ], [ 5.782599110428409, 52.582843885759758 ], [ 5.784836998126234, 52.582835672013495 ], [ 5.784708568789165, 52.582934259148573 ], [ 5.784780739342039, 52.583130975780449 ], [ 5.803766392949113, 52.583114760531295 ], [ 5.829829853464573, 52.582540212738863 ], [ 5.835062231851571, 52.582256109536161 ], [ 5.839457938413759, 52.581673369703203 ], [ 5.839691193609876, 52.582636667200255 ], [ 5.838500259210519, 52.582983556279835 ], [ 5.838085949156071, 52.583029534105293 ], [ 5.837921413938738, 52.582906332492051 ], [ 5.837784671351276, 52.583081858487958 ], [ 5.837309121146347, 52.583163286392455 ], [ 5.829839786173833, 52.583658537799032 ], [ 5.803486822200431, 52.584039161187007 ], [ 5.789708526756221, 52.583772448438943 ], [ 5.778038760515948, 52.583870661411112 ], [ 5.777991233005648, 52.584129791935567 ], [ 5.778821347270923, 52.584127014232273 ], [ 5.778995895473105, 52.584633808541511 ], [ 5.7789907163623, 52.585517424176707 ], [ 5.778553059683984, 52.586931794453101 ], [ 5.777949651041142, 52.588106665448635 ] ], [ [ 5.858123793542426, 52.545586862044914 ], [ 5.858176665592079, 52.545575618993517 ], [ 5.858202204779179, 52.545577437210959 ], [ 5.858118496970336, 52.545587988147993 ], [ 5.858123793542426, 52.545586862044914 ] ], [ [ 6.216824890798268, 52.464171688808989 ], [ 6.216817675702263, 52.46418437012818 ], [ 6.216704113704002, 52.464197365124861 ], [ 6.216824890798268, 52.464171688808989 ] ], [ [ 5.906222513463288, 52.61510877823217 ], [ 5.905735518351894, 52.615057513328111 ], [ 5.905709374663262, 52.614961567401515 ], [ 5.906177696332587, 52.614930590262723 ], [ 5.906222513463288, 52.61510877823217 ] ], [ [ 5.905460981576653, 52.614937025533862 ], [ 5.905248874473232, 52.614944865302668 ], [ 5.90511191939772, 52.614672100679805 ], [ 5.905337525738293, 52.614831526003613 ], [ 5.905460981576653, 52.614937025533862 ] ], [ [ 5.904817655169643, 52.614904584330581 ], [ 5.904731434689068, 52.614987582676029 ], [ 5.90452581312904, 52.614879582624809 ], [ 5.904742841130606, 52.614787791874484 ], [ 5.904817655169643, 52.614904584330581 ] ], [ [ 5.841596896821694, 52.607022391780603 ], [ 5.84165804383896, 52.606943757614751 ], [ 5.841742485249789, 52.607198788011054 ], [ 5.841596896821694, 52.607022391780603 ] ], [ [ 5.833000897006272, 52.585696271267217 ], [ 5.832550406680843, 52.585566855659117 ], [ 5.831685627679508, 52.585081127834407 ], [ 5.831571053913636, 52.584952967550834 ], [ 5.831704726012278, 52.584849329401287 ], [ 5.83182834068424, 52.585134493303642 ], [ 5.833000897006272, 52.585696271267217 ] ], [ [ 5.863774129435713, 52.527444485570413 ], [ 5.863911779810426, 52.527454576826507 ], [ 5.863947997630313, 52.527463002482804 ], [ 5.863676593786169, 52.527455943556369 ], [ 5.863774129435713, 52.527444485570413 ] ] ] } }
]
}
