{
"type": "FeatureCollection",
"name": "SWVPO3001",
"crs": { "type": "name", "properties": { "name": "urn:ogc:def:crs:OGC:1.3:CRS84" } },
"features": [
{ "type": "Feature", "properties": { "PO SWV": "PO3001", "strokeColor": "#A9A9A9", "strokeWidth": 2, "fillColor": "#ADD8E6" }, "geometry": { "type": "Polygon", "coordinates": [ [ [ 4.239505343230815, 51.632716423498614 ], [ 4.239817368775934, 51.632339953437274 ], [ 4.240984011177495, 51.632151299322381 ], [ 4.245910818298304, 51.632169330864265 ], [ 4.24840245152811, 51.631910452503163 ], [ 4.250325076671685, 51.631953588512168 ], [ 4.251612459216544, 51.632209196082378 ], [ 4.252646191414487, 51.632001345558898 ], [ 4.252756112669845, 51.631781215246264 ], [ 4.25246966401118, 51.631264357818885 ], [ 4.25281819094153, 51.630948992477229 ], [ 4.252820854774775, 51.632293353118193 ], [ 4.25265536783748, 51.632524122463813 ], [ 4.252825767988416, 51.632648809602813 ], [ 4.253099416094264, 51.632379129887212 ], [ 4.253058063614362, 51.631297411745471 ], [ 4.253211544931809, 51.630533301757552 ], [ 4.253222085457403, 51.629569921024881 ], [ 4.253026632689219, 51.62930664816993 ], [ 4.253251312956922, 51.629217420505981 ], [ 4.253742587741006, 51.62828595136412 ], [ 4.254331206983751, 51.626329865615588 ], [ 4.25480769810317, 51.626111629802772 ], [ 4.254352197163429, 51.627494239728982 ], [ 4.254517133882601, 51.627982024565853 ], [ 4.255267999944738, 51.627421030142074 ], [ 4.255862364541194, 51.626719757939789 ], [ 4.25612001634404, 51.626287810704476 ], [ 4.256019509661006, 51.6261096083851 ], [ 4.256250255982975, 51.625839837634366 ], [ 4.256894089355299, 51.62593705583182 ], [ 4.257006139821996, 51.626077978503822 ], [ 4.256271368340428, 51.626634807187806 ], [ 4.256294944405171, 51.626972810097584 ], [ 4.256044110218276, 51.627218158494536 ], [ 4.256171310472581, 51.627633205688483 ], [ 4.261396974350695, 51.627177538967651 ], [ 4.263356842767796, 51.62647635046843 ], [ 4.263673474101058, 51.626234210520877 ], [ 4.263390820235765, 51.626715386129284 ], [ 4.263185686051023, 51.626641333933833 ], [ 4.261007022011344, 51.627400209155027 ], [ 4.25689577811928, 51.627771591523761 ], [ 4.256137676534347, 51.628145999353805 ], [ 4.255536360397401, 51.628156827846006 ], [ 4.254918992393057, 51.628386729183454 ], [ 4.254700595901608, 51.629080112502898 ], [ 4.254789787110311, 51.629235410678497 ], [ 4.254319301649011, 51.629228505904159 ], [ 4.253618555055107, 51.63102151822568 ], [ 4.253828747154134, 51.631065560855241 ], [ 4.253997160956074, 51.630785900209489 ], [ 4.254928310840187, 51.631123540831226 ], [ 4.258397228384299, 51.631574257208648 ], [ 4.262373372910317, 51.631489398054811 ], [ 4.263424671094175, 51.631685022785682 ], [ 4.264617579437877, 51.632237738845731 ], [ 4.265898233578623, 51.632514040289308 ], [ 4.263946222133724, 51.632368840499772 ], [ 4.263236479078986, 51.632138139859329 ], [ 4.260142480055896, 51.632085412635398 ], [ 4.259487879816258, 51.632163205106551 ], [ 4.258880396828738, 51.632789782694637 ], [ 4.259331338924012, 51.633322467748314 ], [ 4.26088341185522, 51.634260202570736 ], [ 4.26182202079742, 51.634564974981792 ], [ 4.264218912691838, 51.635970208785501 ], [ 4.267055178304071, 51.636783188409723 ], [ 4.271531682260555, 51.638036319976386 ], [ 4.273452347331735, 51.638307079453803 ], [ 4.274467802992399, 51.638242222865557 ], [ 4.276291107004927, 51.637327493141896 ], [ 4.276204371576188, 51.637000888623689 ], [ 4.275488216779859, 51.636300992728806 ], [ 4.273525668638959, 51.635707310070529 ], [ 4.273561418756897, 51.635655423017425 ], [ 4.275614448097087, 51.636220643673163 ], [ 4.276092405064067, 51.636217629103278 ], [ 4.275954159983383, 51.636330932953584 ], [ 4.275994346960049, 51.636574311877851 ], [ 4.276457530000018, 51.637012030951851 ], [ 4.277509236595922, 51.636834678566053 ], [ 4.277240860874406, 51.637091648213207 ], [ 4.277306434033919, 51.637796039919742 ], [ 4.27816770715094, 51.638489160797384 ], [ 4.282414581343026, 51.639906883689051 ], [ 4.283158096208369, 51.639808610866794 ], [ 4.284448852246495, 51.640066028860886 ], [ 4.285158991285007, 51.63997653435343 ], [ 4.287530840670862, 51.640536214699907 ], [ 4.290984868454746, 51.640760806260495 ], [ 4.293460508315951, 51.642590818592645 ], [ 4.293862944354813, 51.642511793312551 ], [ 4.294010655652292, 51.642292773580735 ], [ 4.292770003280685, 51.641136928256451 ], [ 4.291695455578706, 51.640500803972891 ], [ 4.292205767900098, 51.640535773659586 ], [ 4.293106409146285, 51.641073392216029 ], [ 4.294087720362128, 51.64107438137178 ], [ 4.294025302262549, 51.640425754661031 ], [ 4.292636431669823, 51.639628089613488 ], [ 4.292635305593443, 51.639247366684138 ], [ 4.29329119761167, 51.63930968676204 ], [ 4.293525539977473, 51.639000807388257 ], [ 4.293458994854495, 51.638582271053529 ], [ 4.293592359544796, 51.638947861691136 ], [ 4.29393601930444, 51.638882147734698 ], [ 4.294652967120664, 51.637973661952778 ], [ 4.293989814038577, 51.63927678138689 ], [ 4.294107313023749, 51.639420663873693 ], [ 4.294511139071262, 51.639396211909954 ], [ 4.29459215241703, 51.639193657458911 ], [ 4.294412174153156, 51.63902233109652 ], [ 4.294624196022619, 51.638962770819113 ], [ 4.294979332640919, 51.639397799766677 ], [ 4.294567734169622, 51.640107255695568 ], [ 4.295073891974186, 51.640368724688344 ], [ 4.294364441949442, 51.64141520548386 ], [ 4.294586375326162, 51.64144422919302 ], [ 4.295262372097938, 51.640881064158172 ], [ 4.295440227494123, 51.64086755920961 ], [ 4.29552812998649, 51.641062513663933 ], [ 4.294860568499648, 51.641914588883544 ], [ 4.294920913283963, 51.642131742529401 ], [ 4.295913342250659, 51.642492053089079 ], [ 4.297416701935351, 51.642228922621733 ], [ 4.297591816903463, 51.641828651589783 ], [ 4.297247774959261, 51.641405626436011 ], [ 4.297318508461042, 51.64106428104305 ], [ 4.297507498502746, 51.641050359342053 ], [ 4.297655504314688, 51.641494459479716 ], [ 4.298635485822897, 51.641927286866732 ], [ 4.303257755090574, 51.64324119189569 ], [ 4.308867081781014, 51.645324772639519 ], [ 4.312649077335488, 51.645465953433586 ], [ 4.317597585208004, 51.646349084999763 ], [ 4.317446548675743, 51.645355640666374 ], [ 4.31782586448698, 51.644913182458538 ], [ 4.318057789386366, 51.644095475638423 ], [ 4.31779192697763, 51.643489403283063 ], [ 4.317253175792782, 51.643065743596168 ], [ 4.318242062223292, 51.643673819563396 ], [ 4.318359866395743, 51.644427741473478 ], [ 4.317986142738362, 51.645248860427991 ], [ 4.317953719559791, 51.64570702081366 ], [ 4.318126765055235, 51.646154872913144 ], [ 4.318413360107657, 51.646329344081899 ], [ 4.318929154447417, 51.646276081695298 ], [ 4.319161201551679, 51.646001575778165 ], [ 4.320785717030152, 51.646172951477809 ], [ 4.323384587141333, 51.645894229223835 ], [ 4.322977781953786, 51.645278476383446 ], [ 4.322559614266647, 51.644972649590933 ], [ 4.320467157368861, 51.643994135778257 ], [ 4.322621439451981, 51.644737975949084 ], [ 4.324152121792866, 51.645634475207245 ], [ 4.330918436301014, 51.644919458586912 ], [ 4.333801843925041, 51.644783405315415 ], [ 4.33479618127001, 51.644915451748759 ], [ 4.335178862175712, 51.645206783993899 ], [ 4.336343326770812, 51.645115793539347 ], [ 4.343839026032487, 51.646758601503969 ], [ 4.34669265197706, 51.647728382293231 ], [ 4.350016693507341, 51.64815431857722 ], [ 4.358700209663345, 51.65195268198012 ], [ 4.360750178892824, 51.652437093822407 ], [ 4.365324537549155, 51.654746970596342 ], [ 4.367884480104815, 51.656865883538813 ], [ 4.367537891592963, 51.657896198378381 ], [ 4.367715966211827, 51.658386925320031 ], [ 4.368120170143221, 51.658531436079649 ], [ 4.368346458227061, 51.658291038837667 ], [ 4.368169156481874, 51.657766460659744 ], [ 4.368301243320059, 51.657246893051237 ], [ 4.369095473339776, 51.657208526136166 ], [ 4.371269316410798, 51.656291911383292 ], [ 4.374195217016371, 51.653331890492552 ], [ 4.375907737954759, 51.652019865605368 ], [ 4.376481187585396, 51.652101099435704 ], [ 4.376403694502486, 51.652317789724549 ], [ 4.374847704151009, 51.653537637815063 ], [ 4.37485754296663, 51.653830604495603 ], [ 4.375370456178425, 51.653816056696684 ], [ 4.37658613373517, 51.653273483841623 ], [ 4.376448794432248, 51.653212936758607 ], [ 4.376473337045617, 51.652894802284557 ], [ 4.376709121441004, 51.652689126520791 ], [ 4.380085303010432, 51.652064797958296 ], [ 4.380135332596198, 51.650695746354366 ], [ 4.381395071943185, 51.650108689456346 ], [ 4.383761005977562, 51.648564039259682 ], [ 4.384995557037455, 51.647222863188155 ], [ 4.386803750661675, 51.645981074744469 ], [ 4.388361761168937, 51.645363806701383 ], [ 4.391131232216428, 51.645014170117143 ], [ 4.394859151642366, 51.644164339636845 ], [ 4.396085217274549, 51.643630042042318 ], [ 4.397311725866291, 51.642734620504207 ], [ 4.397639901721213, 51.641904970093904 ], [ 4.399262308282765, 51.63929905666852 ], [ 4.39984004295981, 51.638728808727237 ], [ 4.402369252006745, 51.636996971105248 ], [ 4.404043174830755, 51.636075592364605 ], [ 4.4068949622429, 51.633965049524292 ], [ 4.409064980250268, 51.632629217975889 ], [ 4.412103420536067, 51.631383936621155 ], [ 4.413477454832586, 51.631065244060885 ], [ 4.420776917451645, 51.630784665501601 ], [ 4.423330260851793, 51.630340662495897 ], [ 4.424257753086136, 51.629921082610366 ], [ 4.425736714612271, 51.630351886382073 ], [ 4.427901477866309, 51.628813933438707 ], [ 4.430426286054329, 51.628631389670232 ], [ 4.428730954723496, 51.623218061911857 ], [ 4.42985489212596, 51.622211756554606 ], [ 4.433508563730446, 51.619625846511958 ], [ 4.437614480608949, 51.617102000564451 ], [ 4.437355420862986, 51.616911950426854 ], [ 4.437284826858913, 51.616286520716528 ], [ 4.436501347409301, 51.61556431762768 ], [ 4.436128438405256, 51.615687573182846 ], [ 4.435657745765837, 51.615267417042865 ], [ 4.433695271783376, 51.616010670251079 ], [ 4.431795235572269, 51.614079902792376 ], [ 4.431642424141328, 51.612326645064414 ], [ 4.431272932573237, 51.611721396892122 ], [ 4.431408016782378, 51.611543996936497 ], [ 4.431324902635122, 51.611327633091548 ], [ 4.43096338576329, 51.611285579738613 ], [ 4.430817036139475, 51.611097290110003 ], [ 4.430919753535271, 51.610898200304085 ], [ 4.426578477771828, 51.611767071792599 ], [ 4.428002215633694, 51.604917731622081 ], [ 4.428577821076414, 51.6001242924156 ], [ 4.429350630535377, 51.599516944535232 ], [ 4.429532896875104, 51.598267993679201 ], [ 4.431320531075955, 51.598272746032812 ], [ 4.43175599204634, 51.597701132337178 ], [ 4.432166282060249, 51.597713320495259 ], [ 4.433318043195672, 51.594532522144405 ], [ 4.433313210657866, 51.594196402236825 ], [ 4.432223651397265, 51.593998312118579 ], [ 4.430868539733196, 51.592756548480196 ], [ 4.429439764331108, 51.59254979005572 ], [ 4.429656309106004, 51.590955464634618 ], [ 4.430987418756867, 51.58625181393959 ], [ 4.431613612780967, 51.584832932526744 ], [ 4.432842090412188, 51.58274273538764 ], [ 4.434571580685388, 51.580542015309369 ], [ 4.43804013804066, 51.576894447348636 ], [ 4.441498368545294, 51.571732054657041 ], [ 4.443812701939957, 51.56913739475889 ], [ 4.442485215200107, 51.568445717996333 ], [ 4.441858021662348, 51.567413402507491 ], [ 4.44182026922127, 51.566197832463288 ], [ 4.441471977348522, 51.565093840966426 ], [ 4.441527117743745, 51.564204821429222 ], [ 4.441081480570847, 51.562523607398717 ], [ 4.440804253283454, 51.560136378637907 ], [ 4.441023566546686, 51.558641908476012 ], [ 4.439140775498339, 51.558169717211314 ], [ 4.438542668544478, 51.556592550874427 ], [ 4.428999093202385, 51.555795588390346 ], [ 4.428739532631087, 51.554696281440989 ], [ 4.428126016401356, 51.553661115734094 ], [ 4.426838875771478, 51.552480851075416 ], [ 4.411449563428, 51.551697400452589 ], [ 4.375358844869022, 51.543823067226754 ], [ 4.359618431850477, 51.546314904291563 ], [ 4.357831388400016, 51.545566150450625 ], [ 4.356527667681312, 51.546776819722574 ], [ 4.354461242958838, 51.547091995082916 ], [ 4.317969470923508, 51.551315422341183 ], [ 4.318030869714995, 51.550291916450313 ], [ 4.316239412186213, 51.545593077816584 ], [ 4.313138486359336, 51.546129865156452 ], [ 4.31244190479312, 51.546068153794621 ], [ 4.308185226057538, 51.546832632090329 ], [ 4.306708925610033, 51.543512823434597 ], [ 4.314577715268626, 51.540984994405086 ], [ 4.315676027726145, 51.540171998881448 ], [ 4.322236539975797, 51.537498122960933 ], [ 4.327494693498135, 51.535117879030722 ], [ 4.328611152718712, 51.531779723830631 ], [ 4.327857750722376, 51.531013726044016 ], [ 4.328185201896959, 51.530757905673411 ], [ 4.325694415311315, 51.530033945099852 ], [ 4.325604581416279, 51.529524634722009 ], [ 4.330376469860663, 51.529118597399858 ], [ 4.329915635145959, 51.528308543252948 ], [ 4.329989749073531, 51.528167860041393 ], [ 4.332454439034169, 51.528169552844737 ], [ 4.33657320132754, 51.527322395104264 ], [ 4.337640788361941, 51.527461139561801 ], [ 4.342694711929633, 51.526303414211107 ], [ 4.342787097986378, 51.526211405562854 ], [ 4.340502768420116, 51.522714431324687 ], [ 4.342232924514748, 51.517963572531094 ], [ 4.350096247986707, 51.518211597772698 ], [ 4.351432588280153, 51.517507654682575 ], [ 4.352212081024971, 51.514179347517924 ], [ 4.350385884440433, 51.505543082158312 ], [ 4.35121837855929, 51.505536549672449 ], [ 4.353989494056752, 51.506221613870402 ], [ 4.354238244773017, 51.505839793017145 ], [ 4.352829946500696, 51.505383768301854 ], [ 4.351133734154415, 51.503942581293728 ], [ 4.349450153315945, 51.503524536591136 ], [ 4.351510268716263, 51.499867590363429 ], [ 4.358124266498294, 51.492515780501485 ], [ 4.363669814562683, 51.491180251660332 ], [ 4.365558721101472, 51.490054061180139 ], [ 4.372583624574159, 51.487686213731934 ], [ 4.372397392216157, 51.487322818391313 ], [ 4.371723679281971, 51.483918341842092 ], [ 4.371556619076398, 51.479075891330005 ], [ 4.361541282296506, 51.476412910758178 ], [ 4.362551657551658, 51.47174965609242 ], [ 4.361298291630825, 51.471202146205741 ], [ 4.363586024931698, 51.465262282573065 ], [ 4.36110207713654, 51.465055618048012 ], [ 4.360999196918804, 51.464479233877903 ], [ 4.360720113217853, 51.464197352682739 ], [ 4.359194128077692, 51.460985519449643 ], [ 4.360933369198125, 51.460964335970061 ], [ 4.360800638370803, 51.460517327490265 ], [ 4.360912528138912, 51.460391469649764 ], [ 4.362691266418709, 51.460400855346528 ], [ 4.365593929574854, 51.460115661182996 ], [ 4.365972529511131, 51.45914204475649 ], [ 4.364066537632013, 51.458459193150709 ], [ 4.363980818770298, 51.458283465771778 ], [ 4.36418653765022, 51.458103702688483 ], [ 4.366390158138494, 51.458068014681416 ], [ 4.366939217138653, 51.456622479793651 ], [ 4.383382970130128, 51.45501834053379 ], [ 4.391091334603533, 51.451384626168952 ], [ 4.384853990152992, 51.44921712837894 ], [ 4.382747674008163, 51.450106844919183 ], [ 4.381560556081463, 51.448256175209366 ], [ 4.379877326233957, 51.447674556833107 ], [ 4.379475572934244, 51.446861409975035 ], [ 4.386643560937427, 51.445348169041935 ], [ 4.387664981969376, 51.445647229461883 ], [ 4.387885266982832, 51.445413925781004 ], [ 4.392085733063108, 51.446461998702183 ], [ 4.393098846859274, 51.44533861139459 ], [ 4.393277392255009, 51.445337044836521 ], [ 4.395908898877233, 51.442936212190006 ], [ 4.396722169539251, 51.442074219912072 ], [ 4.397066354982671, 51.441339950917154 ], [ 4.397120428398555, 51.44084274425002 ], [ 4.395580606589954, 51.439716161986745 ], [ 4.395638597477999, 51.439472348150389 ], [ 4.395280341903279, 51.438237794624001 ], [ 4.395344525449863, 51.436770648190951 ], [ 4.395780683483828, 51.436670438699871 ], [ 4.395539565876168, 51.435606818281876 ], [ 4.398827148317347, 51.435343255813244 ], [ 4.398915971962804, 51.435222476549384 ], [ 4.397241372608306, 51.431504482211189 ], [ 4.392641997694736, 51.43267282950621 ], [ 4.392421933176772, 51.431515540975219 ], [ 4.39475527262034, 51.431582030924119 ], [ 4.394339674174357, 51.429753772093648 ], [ 4.394796293896381, 51.428875160923326 ], [ 4.394665211219694, 51.428099355463992 ], [ 4.395509754934856, 51.427691528201095 ], [ 4.395271994814907, 51.426831659702231 ], [ 4.391411465590375, 51.427242354029872 ], [ 4.390590778430084, 51.424189847478992 ], [ 4.389714347482035, 51.424339969514392 ], [ 4.383799862733144, 51.421040124364481 ], [ 4.391687256162597, 51.408238672766132 ], [ 4.406904145572995, 51.395847267055984 ], [ 4.431770041742836, 51.375111131176482 ], [ 4.431741102337016, 51.374962088443041 ], [ 4.425278825812238, 51.371287077460025 ], [ 4.427821901757599, 51.369752774041942 ], [ 4.429890213868175, 51.367441574630064 ], [ 4.431218663421109, 51.365058144115416 ], [ 4.431412736583205, 51.363773939502799 ], [ 4.421866619198388, 51.365127659310538 ], [ 4.398767379554828, 51.356790620071088 ], [ 4.394021284628204, 51.355581520390395 ], [ 4.389431296631423, 51.355221139350249 ], [ 4.384550367370858, 51.354252140050136 ], [ 4.384060937690937, 51.35513153755479 ], [ 4.378749799226651, 51.354821097635941 ], [ 4.369810135733259, 51.356599448217828 ], [ 4.368215900689235, 51.356006613492148 ], [ 4.367528687550089, 51.356834797088453 ], [ 4.366710668334342, 51.35720581307433 ], [ 4.36120846966855, 51.357311920123941 ], [ 4.359001903943784, 51.35762398353819 ], [ 4.350969455903693, 51.358105449485187 ], [ 4.350806099976466, 51.358581029046292 ], [ 4.348965401379186, 51.358542074591092 ], [ 4.347249519548125, 51.358094651277483 ], [ 4.343756417429757, 51.357576765271787 ], [ 4.341339483640762, 51.357464275636296 ], [ 4.340930906270458, 51.358167062209709 ], [ 4.339986990254196, 51.361410327744117 ], [ 4.334434604144854, 51.377536551024896 ], [ 4.305773213461298, 51.376911227668707 ], [ 4.277418702350208, 51.37593541376804 ], [ 4.273636711913847, 51.383054153586386 ], [ 4.2682993157281, 51.383489719907615 ], [ 4.26624939379524, 51.386549247544785 ], [ 4.268535752589377, 51.388180265981923 ], [ 4.268960427558454, 51.40033324235511 ], [ 4.2663987390362, 51.40813247459802 ], [ 4.264011325424918, 51.41388021185319 ], [ 4.263633261835841, 51.416463247124327 ], [ 4.265213136726989, 51.418331262514712 ], [ 4.266385155745991, 51.420058166011387 ], [ 4.275704493203814, 51.425083106978427 ], [ 4.21882862318168, 51.504841717950946 ], [ 4.218648009777802, 51.507156666500585 ], [ 4.218700699651139, 51.508974887633158 ], [ 4.219381171524176, 51.51255283802319 ], [ 4.220011074635555, 51.514326319944097 ], [ 4.22082371504904, 51.516057522742685 ], [ 4.234204409933801, 51.539795479101763 ], [ 4.235560596495857, 51.543268430803103 ], [ 4.236167824665388, 51.546820366395742 ], [ 4.236186912375675, 51.548606997971206 ], [ 4.23565594675593, 51.552163504360536 ], [ 4.235107790773736, 51.553918118744562 ], [ 4.233457753785151, 51.557341950540845 ], [ 4.232362650223729, 51.558996152850028 ], [ 4.229655583047925, 51.562152551060059 ], [ 4.228055556054873, 51.563640720397821 ], [ 4.198830208477203, 51.585896295161177 ], [ 4.195646633298121, 51.588905101510861 ], [ 4.193134505718317, 51.592154423276554 ], [ 4.192140800862822, 51.593859504421559 ], [ 4.190722638681934, 51.597351555153161 ], [ 4.190063145955116, 51.60094108978614 ], [ 4.190024470570433, 51.602759653920586 ], [ 4.190531314443209, 51.60635910992859 ], [ 4.191800961316522, 51.60987357914631 ], [ 4.192720679209635, 51.611591959153714 ], [ 4.194853299826584, 51.614944240490878 ], [ 4.197586348801557, 51.618116145326745 ], [ 4.19921013690311, 51.619616612642254 ], [ 4.202909476752168, 51.622386797105058 ], [ 4.207163821938602, 51.624820908985775 ], [ 4.209484936556511, 51.625902830939403 ], [ 4.211911722286194, 51.626883068063343 ], [ 4.217041992494798, 51.628528078552208 ], [ 4.227796225539578, 51.631119169690109 ], [ 4.237302168958605, 51.634112088421872 ], [ 4.240986012357691, 51.633290476107014 ], [ 4.240923756495823, 51.633160985561638 ], [ 4.23940882946109, 51.632824896707838 ], [ 4.239505343230815, 51.632716423498614 ] ], [ [ 4.238447587221446, 51.632556439998325 ], [ 4.23847361993145, 51.632597799231071 ], [ 4.238371742167366, 51.632572769750674 ], [ 4.238447587221446, 51.632556439998325 ] ], [ [ 4.252512622495074, 51.628986517639611 ], [ 4.252418085637943, 51.628884184683869 ], [ 4.252411195402194, 51.628854235644042 ], [ 4.252563607575794, 51.629008160310285 ], [ 4.252512622495074, 51.628986517639611 ] ], [ [ 4.252184888685727, 51.628411926729285 ], [ 4.25216440440463, 51.628301571568649 ], [ 4.25225657322756, 51.628528752473102 ], [ 4.252184888685727, 51.628411926729285 ] ], [ [ 4.255049815741115, 51.625674303367639 ], [ 4.255437118150737, 51.625211481834988 ], [ 4.255538934946988, 51.625249019317714 ], [ 4.255129095521803, 51.625664756357686 ], [ 4.255049815741115, 51.625674303367639 ] ], [ [ 4.263781855262948, 51.626115446312944 ], [ 4.264557364108954, 51.62528807091249 ], [ 4.264751976010016, 51.625216455266276 ], [ 4.265069462872439, 51.625156581762745 ], [ 4.265440505212326, 51.625111532727232 ], [ 4.26573263136882, 51.625099750155442 ], [ 4.265711273849017, 51.625262124129861 ], [ 4.265353723345582, 51.62513410816431 ], [ 4.264689721974547, 51.62528172365964 ], [ 4.263688209846864, 51.626218484774917 ], [ 4.263781855262948, 51.626115446312944 ] ], [ [ 4.265719907125309, 51.625663938146396 ], [ 4.265627883295057, 51.625989452885946 ], [ 4.265587707584877, 51.626059967235108 ], [ 4.265626787260807, 51.625819102832374 ], [ 4.265719907125309, 51.625663938146396 ] ], [ [ 4.265382885181442, 51.626772252742477 ], [ 4.265403187595377, 51.626571895938312 ], [ 4.265441639167173, 51.626457393115864 ], [ 4.265382885181442, 51.626772252742477 ] ], [ [ 4.267048184804951, 51.627243546442827 ], [ 4.267103425886281, 51.627336774654509 ], [ 4.267103054759956, 51.627351792649804 ], [ 4.267024308322874, 51.627232039913174 ], [ 4.267048184804951, 51.627243546442827 ] ], [ [ 4.274044602830345, 51.634396844056198 ], [ 4.274044611245222, 51.634393921990714 ], [ 4.274044196676371, 51.634356399208919 ], [ 4.274043627607067, 51.634408443286013 ], [ 4.274044602830345, 51.634396844056198 ] ], [ [ 4.277510897287788, 51.63575219303344 ], [ 4.277678378430203, 51.635496955523749 ], [ 4.277765401479289, 51.635417251000554 ], [ 4.27763491914187, 51.635813353169432 ], [ 4.277351018768747, 51.635894261570783 ], [ 4.277510897287788, 51.63575219303344 ] ], [ [ 4.294701276930883, 51.63790709698862 ], [ 4.294706291068134, 51.637778887143369 ], [ 4.294883126591184, 51.637711466054952 ], [ 4.294699668900245, 51.637912924273685 ], [ 4.294701276930883, 51.63790709698862 ] ], [ [ 4.295016608250854, 51.637507098158395 ], [ 4.2950414262695, 51.637502207312657 ], [ 4.29517752862083, 51.63750347748627 ], [ 4.295015635201151, 51.637547461221615 ], [ 4.295016608250854, 51.637507098158395 ] ], [ [ 4.298225653907906, 51.637377345403863 ], [ 4.298221985384173, 51.637389387595711 ], [ 4.29817445006632, 51.637372875362686 ], [ 4.298225653907906, 51.637377345403863 ] ], [ [ 4.320395650628233, 51.643950586090284 ], [ 4.320380345180539, 51.643942512225017 ], [ 4.320019083454501, 51.643788349919291 ], [ 4.320416945680432, 51.643963555397377 ], [ 4.320395650628233, 51.643950586090284 ] ], [ [ 4.255440982016683, 51.629256764134738 ], [ 4.255466859374906, 51.629231353426306 ], [ 4.255526170468451, 51.629146057858847 ], [ 4.255546349085004, 51.629235742901223 ], [ 4.255440982016683, 51.629256764134738 ] ], [ [ 4.25462923229364, 51.627628510980792 ], [ 4.254627719664996, 51.627599825244801 ], [ 4.254648122092568, 51.62761380266457 ], [ 4.25462923229364, 51.627628510980792 ] ] ] } }
]
}
