{
"type": "FeatureCollection",
"name": "SWVPO2503",
"crs": { "type": "name", "properties": { "name": "urn:ogc:def:crs:OGC:1.3:CRS84" } },
"features": [
{ "type": "Feature", "properties": { "PO SWV": "PO2503", "strokeColor": "#A9A9A9", "strokeWidth": 2, "fillColor": "#ADD8E6" }, "geometry": { "type": "Polygon", "coordinates": [ [ [ 6.137608371572956, 52.059475818966703 ], [ 6.139396465898041, 52.061444970691085 ], [ 6.140742158964131, 52.062231930839147 ], [ 6.14572485401941, 52.063868313997055 ], [ 6.148269255881893, 52.065027808932889 ], [ 6.151067050299608, 52.067955187922081 ], [ 6.152543439064175, 52.068713957475055 ], [ 6.154840387148738, 52.069607574991025 ], [ 6.156674206597434, 52.070597838195646 ], [ 6.159545960886747, 52.072835873572451 ], [ 6.161750718650318, 52.073890390924902 ], [ 6.166130079661252, 52.075247564223893 ], [ 6.168270353728789, 52.076416362691667 ], [ 6.170637946044884, 52.078961929492408 ], [ 6.171285016980646, 52.080090741489848 ], [ 6.172593668961411, 52.085699786974324 ], [ 6.173439718486313, 52.087741022621337 ], [ 6.174826380581273, 52.089735087586504 ], [ 6.176250919362376, 52.090707723834782 ], [ 6.177931399043249, 52.091318546371248 ], [ 6.180125807236945, 52.091628368794737 ], [ 6.185615514394931, 52.091207499291293 ], [ 6.189803721014526, 52.091438720968171 ], [ 6.192415469110355, 52.091906894395763 ], [ 6.197789007884826, 52.093609518827741 ], [ 6.199728954868448, 52.093898553683012 ], [ 6.20145643387244, 52.093895585728546 ], [ 6.203063314036465, 52.093686661477918 ], [ 6.206846159169594, 52.092519342928043 ], [ 6.209184893759658, 52.092372224095712 ], [ 6.210511681038756, 52.09254969937929 ], [ 6.211854625276312, 52.092995600499286 ], [ 6.215261901370897, 52.094966698658965 ], [ 6.216944681648084, 52.096576475317413 ], [ 6.217895096912655, 52.097981231661308 ], [ 6.21857210456535, 52.097847145386467 ], [ 6.219291239416639, 52.096214371705727 ], [ 6.218692584260098, 52.09564820025011 ], [ 6.218305048312823, 52.094962770237231 ], [ 6.216966859187773, 52.094441860663672 ], [ 6.217027162512595, 52.093772262088962 ], [ 6.216860672002414, 52.093332312950047 ], [ 6.218520520851762, 52.092823511583177 ], [ 6.218823491429898, 52.092563792798522 ], [ 6.218952533653148, 52.091808162220865 ], [ 6.218644454776793, 52.090695458199697 ], [ 6.218185567888604, 52.090275393122532 ], [ 6.21847642803411, 52.08996665764392 ], [ 6.218260587778956, 52.08961634134775 ], [ 6.218919632259613, 52.089368812145921 ], [ 6.219364898725869, 52.0888673415581 ], [ 6.219529692668588, 52.088847537484263 ], [ 6.220224882342675, 52.089704724960747 ], [ 6.220735505049289, 52.089085266076466 ], [ 6.222476437157233, 52.088850773382809 ], [ 6.232201732964203, 52.089860218949944 ], [ 6.237015963723112, 52.089099776086506 ], [ 6.242690597325373, 52.088527217391253 ], [ 6.252171458772358, 52.087959244763304 ], [ 6.252760349414541, 52.087250839766362 ], [ 6.251177023142053, 52.086638069718113 ], [ 6.253118523021097, 52.084824844962675 ], [ 6.253585277669976, 52.084032126522558 ], [ 6.253573540413111, 52.082190884856622 ], [ 6.254222101696118, 52.081843005976012 ], [ 6.256423205664954, 52.080101885393425 ], [ 6.257746834960425, 52.07809810512682 ], [ 6.258060166512195, 52.076797024486467 ], [ 6.262639023889457, 52.074964270642461 ], [ 6.263801840830133, 52.074014484093937 ], [ 6.266712592876329, 52.073974146501051 ], [ 6.269155943236395, 52.073671529207196 ], [ 6.270661962549163, 52.072412347922651 ], [ 6.271763666867367, 52.072403261354722 ], [ 6.272743855623022, 52.073478767378518 ], [ 6.277436724263231, 52.073269042047983 ], [ 6.27899397951114, 52.072923766295823 ], [ 6.282375023389257, 52.071504836144882 ], [ 6.286186364323426, 52.073906934411326 ], [ 6.287504037639605, 52.073422589860094 ], [ 6.291137531050579, 52.073947208510134 ], [ 6.291510266933794, 52.074189692202914 ], [ 6.292160972070907, 52.074251482001912 ], [ 6.293474907548424, 52.074270956053098 ], [ 6.296970026761319, 52.07384223392701 ], [ 6.301331434401267, 52.073823290303132 ], [ 6.303777882496644, 52.075397132144388 ], [ 6.306934327476099, 52.076471341898682 ], [ 6.308342202189848, 52.075385122562338 ], [ 6.313709440146632, 52.074337322760776 ], [ 6.315272028401697, 52.078156599768263 ], [ 6.3160875636759, 52.078029219926641 ], [ 6.316778915592447, 52.077699554199739 ], [ 6.320797626803278, 52.080031941291303 ], [ 6.321646904264705, 52.078911959701628 ], [ 6.324192269067029, 52.077489111901961 ], [ 6.332060693127599, 52.077189419113459 ], [ 6.331879621249741, 52.076623918975798 ], [ 6.329767356009783, 52.073527839257736 ], [ 6.331930872024073, 52.073385892376372 ], [ 6.333411450971148, 52.071209993359425 ], [ 6.33977024520063, 52.070873288601952 ], [ 6.340411515709465, 52.072918434374451 ], [ 6.340512786077864, 52.072800512578894 ], [ 6.339999095235281, 52.070838456630014 ], [ 6.351343869815197, 52.070461535617305 ], [ 6.351818347511991, 52.07075666423394 ], [ 6.351172328750851, 52.071378055064763 ], [ 6.351301147847476, 52.071791934195709 ], [ 6.352589197851906, 52.072661079787892 ], [ 6.352505225530837, 52.072979626159437 ], [ 6.351890457652736, 52.073654112996984 ], [ 6.351759240648553, 52.074015882477774 ], [ 6.351838330409284, 52.074285766490426 ], [ 6.352084476767279, 52.074681287650535 ], [ 6.352984757069255, 52.074938068465542 ], [ 6.353250015537488, 52.075187326706718 ], [ 6.3533805952353, 52.076730990964862 ], [ 6.353779890792699, 52.076820474871184 ], [ 6.353956711656281, 52.076717740324455 ], [ 6.354323085183619, 52.075094330051151 ], [ 6.355033904213895, 52.073756046166537 ], [ 6.360237366565274, 52.074951852137694 ], [ 6.364497669693143, 52.075116199862336 ], [ 6.366047486746017, 52.074741753264668 ], [ 6.365984051937406, 52.074612837391179 ], [ 6.365540381955403, 52.074588015259451 ], [ 6.371794738178888, 52.074075576775947 ], [ 6.371741448624991, 52.073695253305893 ], [ 6.372342203765136, 52.072771056364751 ], [ 6.375497209795746, 52.073726074184933 ], [ 6.380270854229014, 52.0730694174514 ], [ 6.381872244668648, 52.070203270199016 ], [ 6.385455437913119, 52.071543127413577 ], [ 6.395565285185345, 52.073092753402094 ], [ 6.395633407522151, 52.072774407064678 ], [ 6.394930219136299, 52.070595641801063 ], [ 6.393214751689116, 52.068763092301921 ], [ 6.397491935786586, 52.066849305537744 ], [ 6.405771530969708, 52.066168310716918 ], [ 6.406856507968315, 52.065125213986114 ], [ 6.410843354599698, 52.064482695614934 ], [ 6.411597658929101, 52.064785315376881 ], [ 6.413317577818191, 52.062650502912874 ], [ 6.41372884675551, 52.05791653073031 ], [ 6.414199711917581, 52.057750073252571 ], [ 6.4134896622584, 52.056590395994043 ], [ 6.413392249286221, 52.055451821125537 ], [ 6.415011148338697, 52.051760084163888 ], [ 6.415890147097683, 52.050362965357252 ], [ 6.416415199898581, 52.050569729109426 ], [ 6.418220785631453, 52.048731606490797 ], [ 6.418449158946015, 52.048803425814995 ], [ 6.419152237261663, 52.048328905970571 ], [ 6.419049214199563, 52.048101929767554 ], [ 6.41934011649903, 52.047796097644152 ], [ 6.418937844827027, 52.04753791551807 ], [ 6.420375215767367, 52.046570626052478 ], [ 6.423285664820289, 52.047568650616832 ], [ 6.425802448086361, 52.044835852585216 ], [ 6.425757844514362, 52.044702817081756 ], [ 6.423866656557587, 52.043963317805833 ], [ 6.424601315258796, 52.042371368187858 ], [ 6.422421156642128, 52.042116851398312 ], [ 6.423248527859397, 52.041043445681062 ], [ 6.425041777266989, 52.041684004598515 ], [ 6.42752844292973, 52.042928826147573 ], [ 6.428666295054366, 52.041213443442544 ], [ 6.430039312563196, 52.041143830261994 ], [ 6.43276516690716, 52.040613387540247 ], [ 6.431715184724652, 52.039279527677742 ], [ 6.430972985950107, 52.038657275700132 ], [ 6.433825100176213, 52.038015937910082 ], [ 6.433416543530617, 52.037041632313304 ], [ 6.435048044395965, 52.034766620345941 ], [ 6.434945156175189, 52.034671522797574 ], [ 6.432638146991229, 52.034951310448925 ], [ 6.435459592881943, 52.030505206063481 ], [ 6.436252349877773, 52.030759022805569 ], [ 6.440123592743259, 52.027173609387042 ], [ 6.437927398982677, 52.026532951920665 ], [ 6.438232531137415, 52.025928608021218 ], [ 6.437193274368858, 52.025678357473595 ], [ 6.438560031673982, 52.025108261438035 ], [ 6.457612212611071, 52.02243891996708 ], [ 6.459454747529796, 52.018453726438104 ], [ 6.461257210747026, 52.017659801191712 ], [ 6.46115641751495, 52.017405223000324 ], [ 6.462135663041794, 52.01697792337054 ], [ 6.460855105213962, 52.015848572244529 ], [ 6.461623309236743, 52.01535486749367 ], [ 6.460496620938375, 52.014573465737506 ], [ 6.462780304793626, 52.013383754296058 ], [ 6.462733474888928, 52.01323068890828 ], [ 6.461992985853131, 52.013116058716932 ], [ 6.461968926320361, 52.012067316442149 ], [ 6.463086077847536, 52.010847155303622 ], [ 6.463758907723601, 52.009463904274092 ], [ 6.465730939076822, 52.007682340469096 ], [ 6.460417578827823, 52.006117343680167 ], [ 6.461175718611612, 52.005219179612851 ], [ 6.467587406717687, 52.000744219178408 ], [ 6.459327219900451, 51.997695149308029 ], [ 6.46015545884095, 51.996479224810926 ], [ 6.460184149675952, 51.995203537599728 ], [ 6.475872416994409, 51.98814568792654 ], [ 6.472185835775181, 51.983467497585984 ], [ 6.471588890896094, 51.983590979350595 ], [ 6.468891965809575, 51.981125372490581 ], [ 6.467090687267121, 51.978662663982718 ], [ 6.469182710508321, 51.977616988250261 ], [ 6.473170560179652, 51.976082123889732 ], [ 6.476438892801231, 51.975559339873818 ], [ 6.479167666436103, 51.974600610419614 ], [ 6.481446100357383, 51.973969036865995 ], [ 6.482876766643036, 51.973768586994595 ], [ 6.486571710531435, 51.972432097523992 ], [ 6.487027015967624, 51.9732292720687 ], [ 6.488189941487096, 51.973125428059689 ], [ 6.488258516116637, 51.972849515332449 ], [ 6.494819605485263, 51.970689148358488 ], [ 6.505975586404166, 51.969239234939131 ], [ 6.524666645172001, 51.967897463217078 ], [ 6.5329266232565, 51.962331889526915 ], [ 6.532310815744604, 51.961756827464512 ], [ 6.527692462815214, 51.959089882312178 ], [ 6.521539541874265, 51.956405557931078 ], [ 6.519895328120252, 51.95548324385468 ], [ 6.519121293334265, 51.954634222214942 ], [ 6.518709767528185, 51.953699164181963 ], [ 6.518730788754027, 51.953228941502495 ], [ 6.518962733918511, 51.952815160739853 ], [ 6.518739216483539, 51.951148834169068 ], [ 6.517887745576835, 51.948522215691767 ], [ 6.517991469237927, 51.948376963168243 ], [ 6.517506932310126, 51.947820503958326 ], [ 6.516205046801474, 51.948149995396669 ], [ 6.515371673301775, 51.947514789599218 ], [ 6.511473558769405, 51.946734261980396 ], [ 6.504856681168185, 51.945893748320408 ], [ 6.5034648402625, 51.943808701722851 ], [ 6.503598536152865, 51.943508777865667 ], [ 6.503156733613046, 51.942248006589381 ], [ 6.503000023112163, 51.941146422450984 ], [ 6.501785398159397, 51.940500322379293 ], [ 6.500970320683509, 51.939605461275768 ], [ 6.503146005603653, 51.939411406402591 ], [ 6.503212156779438, 51.939259891687854 ], [ 6.49885499090888, 51.934398899846961 ], [ 6.497852967610156, 51.93281908214 ], [ 6.497558102472449, 51.932700017075341 ], [ 6.495750295018047, 51.930338348998433 ], [ 6.497133754926263, 51.929689215219483 ], [ 6.497176212487411, 51.929549929660382 ], [ 6.494121304771573, 51.926615999825202 ], [ 6.493670632879557, 51.925991786059171 ], [ 6.492594977709952, 51.92620406391972 ], [ 6.492480684797384, 51.925315309067607 ], [ 6.492248557787326, 51.925042940186245 ], [ 6.492689669219515, 51.924944167967375 ], [ 6.492927197690538, 51.924373069454838 ], [ 6.492866155776354, 51.923933811290098 ], [ 6.492683186241097, 51.923858276668568 ], [ 6.493429411805903, 51.920055405118141 ], [ 6.492566899286491, 51.919216168444429 ], [ 6.493181593346378, 51.918571673705365 ], [ 6.493371808337923, 51.917983336824904 ], [ 6.492877658354084, 51.917207001298465 ], [ 6.491845628533027, 51.917278447844453 ], [ 6.490732117055104, 51.917102448423556 ], [ 6.490661109202521, 51.917021673772553 ], [ 6.490960848780746, 51.916691367272428 ], [ 6.490903247449175, 51.916098648455886 ], [ 6.491227637666731, 51.915556453790302 ], [ 6.48730037576186, 51.914065368982037 ], [ 6.488798028645701, 51.912930724979503 ], [ 6.488799409960631, 51.912780011281995 ], [ 6.488009659444304, 51.912293205851554 ], [ 6.484465841892408, 51.911295478429004 ], [ 6.482620097331718, 51.910195825294096 ], [ 6.481057966348362, 51.909798133318183 ], [ 6.479534293360681, 51.909834518995012 ], [ 6.478752804248713, 51.909674962364612 ], [ 6.477755539334867, 51.909376691024505 ], [ 6.477416698692291, 51.909186903882059 ], [ 6.477392103770256, 51.909014689185632 ], [ 6.476720468238232, 51.90870956959084 ], [ 6.475188242271227, 51.908263927797158 ], [ 6.474149539682466, 51.907760476504556 ], [ 6.47278939969685, 51.907564522722943 ], [ 6.472497685266375, 51.907357386544085 ], [ 6.472720937080439, 51.907099354663394 ], [ 6.473401950780402, 51.905145704014693 ], [ 6.473837137950005, 51.905129489683205 ], [ 6.475209585161486, 51.902851939312356 ], [ 6.476150166166819, 51.902023931944306 ], [ 6.475850043445721, 51.901737311299044 ], [ 6.476449012935181, 51.901177772538063 ], [ 6.47888563240083, 51.897366121383804 ], [ 6.479983455107634, 51.894469489696 ], [ 6.480507464786578, 51.894023730774286 ], [ 6.4805718853541, 51.893177202346941 ], [ 6.48042885852735, 51.892827388631474 ], [ 6.480112235786642, 51.892803700976899 ], [ 6.480195529104664, 51.891462896269452 ], [ 6.47993229345772, 51.890151588824146 ], [ 6.480084455615965, 51.889513729505154 ], [ 6.479181028545185, 51.889133123697569 ], [ 6.479549889302849, 51.888675603341447 ], [ 6.479498215973392, 51.888352045061922 ], [ 6.479183563425843, 51.888260935546931 ], [ 6.480336385571659, 51.887997051898793 ], [ 6.480451788863133, 51.887309187668599 ], [ 6.480175232324397, 51.887199393538317 ], [ 6.480039664547487, 51.886710746462882 ], [ 6.480137808748011, 51.886099150641954 ], [ 6.48072548865952, 51.885614084261064 ], [ 6.480510092372714, 51.8851187041938 ], [ 6.480691760236462, 51.884346428958622 ], [ 6.48092844805566, 51.88403885636523 ], [ 6.482040210229951, 51.884165402993652 ], [ 6.482236425107902, 51.883755367837388 ], [ 6.482002595726626, 51.883409554071612 ], [ 6.482006060015543, 51.883118757669543 ], [ 6.482208442448282, 51.882701502355232 ], [ 6.481589783872716, 51.882366149470542 ], [ 6.481953392041072, 51.882299299690047 ], [ 6.48228902813289, 51.881996003109144 ], [ 6.483586778347128, 51.880447408252316 ], [ 6.48435074120417, 51.878832017159105 ], [ 6.484118889331908, 51.878112954283097 ], [ 6.482597229497665, 51.875986530203654 ], [ 6.482018190674395, 51.874912862446536 ], [ 6.481231321296651, 51.874121589406009 ], [ 6.479566727238005, 51.873185785124072 ], [ 6.477710636522317, 51.87149610387354 ], [ 6.4754407588791, 51.870640790406114 ], [ 6.474374339784429, 51.869369284654169 ], [ 6.472019814369399, 51.868879234572965 ], [ 6.471835201644597, 51.867131867834487 ], [ 6.47203690476666, 51.86601950834568 ], [ 6.471622059928873, 51.865235285696976 ], [ 6.471467199589256, 51.864426070305775 ], [ 6.468718928696115, 51.864000168739103 ], [ 6.468811574640228, 51.86186222109562 ], [ 6.468369076658174, 51.860154450402852 ], [ 6.46679751429774, 51.857906585199288 ], [ 6.464581799770134, 51.855147908787295 ], [ 6.461533007949498, 51.856461006499494 ], [ 6.458255885017252, 51.858603878482654 ], [ 6.456318480855824, 51.860263883985255 ], [ 6.454024860420489, 51.862795660431608 ], [ 6.451704015563517, 51.86452460225582 ], [ 6.451118793469582, 51.865142590353592 ], [ 6.448477385764027, 51.865403757386218 ], [ 6.44673016353234, 51.864917765290045 ], [ 6.445548146879243, 51.863662110676955 ], [ 6.443710895467695, 51.862574185830347 ], [ 6.442513238550161, 51.862291142862581 ], [ 6.441390468487196, 51.861759332412674 ], [ 6.438755923521112, 51.86200092153409 ], [ 6.43434322862351, 51.860163320582267 ], [ 6.433924291162029, 51.85992789009034 ], [ 6.433974161788374, 51.859652066974085 ], [ 6.432348628788415, 51.859283930810427 ], [ 6.431025200515929, 51.860047609373751 ], [ 6.429355573962064, 51.860655286676028 ], [ 6.429108667603662, 51.861760245110347 ], [ 6.42949036529546, 51.862076944041434 ], [ 6.429044937070929, 51.86269724497344 ], [ 6.42917177230107, 51.863239477267399 ], [ 6.428724630544465, 51.863496838430265 ], [ 6.42853352264058, 51.864234745966222 ], [ 6.428671351617298, 51.864639546492633 ], [ 6.4284886572594, 51.865054067126877 ], [ 6.427328301490809, 51.865766494820789 ], [ 6.426104970809783, 51.866149631659418 ], [ 6.425341154548299, 51.865788161692173 ], [ 6.424284584894371, 51.865873749084436 ], [ 6.423746173006347, 51.866414523601371 ], [ 6.423021693350829, 51.86625024484001 ], [ 6.42250532104494, 51.866679394667514 ], [ 6.421943965467445, 51.866870621054829 ], [ 6.421221708983935, 51.866633516932104 ], [ 6.420207047804921, 51.866681813548944 ], [ 6.418305582983016, 51.867215409450964 ], [ 6.415131789068146, 51.868644345785505 ], [ 6.413670462920256, 51.869704361545409 ], [ 6.412248691365816, 51.870994562728107 ], [ 6.411085706551816, 51.870322738503525 ], [ 6.411295791704356, 51.870006137050304 ], [ 6.410863267299816, 51.869862980775153 ], [ 6.410411325782034, 51.869472937316026 ], [ 6.410083341242419, 51.869481090995507 ], [ 6.40988034414728, 51.869733350160004 ], [ 6.409266859728528, 51.869332391162239 ], [ 6.408706416753783, 51.869374595512127 ], [ 6.408592840686786, 51.869523079041883 ], [ 6.408745334946961, 51.869789019898143 ], [ 6.408046137839388, 51.869792242874468 ], [ 6.407702862249206, 51.870125249333498 ], [ 6.406632600917934, 51.870590048206651 ], [ 6.405756817093145, 51.870611560717748 ], [ 6.404655966216271, 51.87035644991829 ], [ 6.402474128816774, 51.869037357027935 ], [ 6.401184403331265, 51.86941206014086 ], [ 6.400668214298235, 51.870311640923873 ], [ 6.399164936792551, 51.870174180140559 ], [ 6.398325905821123, 51.870882599795024 ], [ 6.396720486903253, 51.870237172829455 ], [ 6.396053079195642, 51.870666336719317 ], [ 6.395916451365185, 51.871080296893531 ], [ 6.39537307737019, 51.871555576144083 ], [ 6.395197562690304, 51.871962535247178 ], [ 6.39382149764754, 51.872843004934531 ], [ 6.39324832197431, 51.872983812095363 ], [ 6.393169690437356, 51.873193148524649 ], [ 6.393333454398411, 51.873372163702598 ], [ 6.392967364951916, 51.873531570368236 ], [ 6.393024201792795, 51.87374442474399 ], [ 6.392363474380377, 51.873928027911198 ], [ 6.390754515777718, 51.873851026288321 ], [ 6.391255939256888, 51.872956894026252 ], [ 6.391119945752098, 51.872286623574801 ], [ 6.390439572608562, 51.871839136650372 ], [ 6.389767056305702, 51.870617956474987 ], [ 6.388490860267924, 51.867174508921416 ], [ 6.387086328619064, 51.865029751200289 ], [ 6.386950307020058, 51.86441234468581 ], [ 6.387682198236697, 51.863701842708963 ], [ 6.388064594044295, 51.862000281626798 ], [ 6.388978657806936, 51.861873759324538 ], [ 6.389583851340277, 51.86200375132313 ], [ 6.390367121289622, 51.861500796240819 ], [ 6.390718176144943, 51.86169550679611 ], [ 6.391478936197819, 51.861493429882572 ], [ 6.391610129843924, 51.860784505604045 ], [ 6.391858682755428, 51.860512518096137 ], [ 6.395351080833786, 51.859273614935859 ], [ 6.396820495435298, 51.857906296953992 ], [ 6.398979708097555, 51.85700056761862 ], [ 6.400471710673964, 51.855925007277513 ], [ 6.401757271557186, 51.855431886464324 ], [ 6.405027416283589, 51.854710247000064 ], [ 6.407740564545225, 51.854459827525268 ], [ 6.409047862753762, 51.853378415122542 ], [ 6.409250217815999, 51.852296264151377 ], [ 6.408413111492583, 51.851763639962215 ], [ 6.40504111833451, 51.848788167573829 ], [ 6.405429082719399, 51.848258402421969 ], [ 6.405237244009014, 51.84726376896748 ], [ 6.403223335722293, 51.845684876307928 ], [ 6.402477052264524, 51.844525104665394 ], [ 6.402574273971674, 51.843185709863313 ], [ 6.403451005354519, 51.841940743356517 ], [ 6.404305222827753, 51.841090198832312 ], [ 6.404774221947426, 51.840237515205722 ], [ 6.405506640136074, 51.839717308526119 ], [ 6.406217054225421, 51.838883215937599 ], [ 6.406846992447093, 51.838535873503695 ], [ 6.407312417161124, 51.837990226749774 ], [ 6.408236162312658, 51.835924965928861 ], [ 6.4074046937776, 51.835620881051163 ], [ 6.403095511257177, 51.836494320834625 ], [ 6.404638432590312, 51.833348967057937 ], [ 6.406808974027096, 51.829497824857185 ], [ 6.407263774765574, 51.829091026311573 ], [ 6.407515797703184, 51.827992559170546 ], [ 6.401788528488367, 51.827167207505106 ], [ 6.399926702937401, 51.828586833786467 ], [ 6.39607532356728, 51.830053620352466 ], [ 6.395114628829646, 51.829995899999254 ], [ 6.393838622505794, 51.830701522850219 ], [ 6.392533666904511, 51.831081031573738 ], [ 6.392320516736525, 51.83122263035272 ], [ 6.392251570983738, 51.831673345426701 ], [ 6.391975434497139, 51.83206759310152 ], [ 6.390819519977198, 51.832585716602303 ], [ 6.390016969937434, 51.832607239040414 ], [ 6.38958859562613, 51.832928127929307 ], [ 6.389491718744955, 51.833204323320857 ], [ 6.386564640689049, 51.833847725583233 ], [ 6.382944021482, 51.834230622941831 ], [ 6.382213655471653, 51.834681444627329 ], [ 6.378866786249077, 51.834901709778904 ], [ 6.374561098449401, 51.834745836449393 ], [ 6.371731631951628, 51.834251068149158 ], [ 6.369019703922869, 51.833187798550554 ], [ 6.367923684054889, 51.833306388003628 ], [ 6.363294374043855, 51.835062652900582 ], [ 6.362862142660313, 51.835382459907912 ], [ 6.362743009579607, 51.835707565335404 ], [ 6.362865421703747, 51.836242068366388 ], [ 6.363945952034443, 51.838517199881018 ], [ 6.362396736502124, 51.842791756672334 ], [ 6.360745758316698, 51.845080760284553 ], [ 6.359941716792956, 51.845951354039286 ], [ 6.358137665566644, 51.847192395812847 ], [ 6.355944533482963, 51.848051015532192 ], [ 6.352065007229323, 51.849303057888143 ], [ 6.348702045953309, 51.849991820702506 ], [ 6.34718457227371, 51.850583154115171 ], [ 6.343443691053253, 51.850946666186779 ], [ 6.339415790138339, 51.850640185916475 ], [ 6.333137470044395, 51.851491356222937 ], [ 6.326858727698712, 51.851516855707573 ], [ 6.324579500678523, 51.851308357980301 ], [ 6.320430343207383, 51.851581432258506 ], [ 6.319094511382692, 51.85149870171545 ], [ 6.317522478699846, 51.851057366638685 ], [ 6.312523827151778, 51.850178229848396 ], [ 6.311135079071486, 51.850240084537795 ], [ 6.309228420124438, 51.849923591442291 ], [ 6.306168150269501, 51.848984470895239 ], [ 6.304474238947984, 51.852852445150589 ], [ 6.303681790751805, 51.853505520142456 ], [ 6.30238477002147, 51.856498382666125 ], [ 6.302336615009498, 51.856792750748752 ], [ 6.302712226542755, 51.856984078781856 ], [ 6.300587003442619, 51.862011070787382 ], [ 6.300406604306096, 51.864449281883523 ], [ 6.298705212108445, 51.865077325468526 ], [ 6.298128483336797, 51.865909003354204 ], [ 6.298285218300676, 51.866384929855954 ], [ 6.298992985435782, 51.867178251332916 ], [ 6.298916558962929, 51.867671879649343 ], [ 6.295687893521542, 51.868148063538094 ], [ 6.29406886877192, 51.868972144282793 ], [ 6.287925679600002, 51.871439038345656 ], [ 6.283446831468919, 51.872053625360998 ], [ 6.282170748336902, 51.872983644533996 ], [ 6.279709878082871, 51.874016728528488 ], [ 6.276405845696585, 51.874469718466685 ], [ 6.272700187832716, 51.874611576341415 ], [ 6.270997519534238, 51.874352083096134 ], [ 6.269857944808281, 51.873998618321615 ], [ 6.268881971024662, 51.873395890551258 ], [ 6.2653894039604, 51.869911916935941 ], [ 6.261848641827941, 51.868038384251541 ], [ 6.256645034062617, 51.868336754738365 ], [ 6.248416667519521, 51.869374999227233 ], [ 6.246291861716241, 51.869849777625312 ], [ 6.244200999232004, 51.869508806401626 ], [ 6.242020211830722, 51.868879324610454 ], [ 6.240605056815481, 51.869069107491434 ], [ 6.239365654159101, 51.869000787491167 ], [ 6.236126860340196, 51.869753225587324 ], [ 6.233737558148869, 51.870100244678774 ], [ 6.227147673668609, 51.869018110145255 ], [ 6.224643085807353, 51.868443981061553 ], [ 6.222476285995156, 51.868348193392592 ], [ 6.215028705315397, 51.867530277205788 ], [ 6.206663126098191, 51.870088850225294 ], [ 6.202979216268862, 51.871477595840588 ], [ 6.198259559841346, 51.873517845238801 ], [ 6.191130932451303, 51.877258623910805 ], [ 6.184739663382925, 51.881491387011771 ], [ 6.183467363620118, 51.882473987417377 ], [ 6.183360765535758, 51.882947471791958 ], [ 6.183496399888907, 51.883232254888611 ], [ 6.182201232575397, 51.884952474735925 ], [ 6.181923797430649, 51.885828208798877 ], [ 6.185972084515392, 51.886949569115835 ], [ 6.191192449942974, 51.887432611871233 ], [ 6.189416329875983, 51.888938233401724 ], [ 6.189781853282305, 51.889719280310551 ], [ 6.191192266885493, 51.891227245566498 ], [ 6.191019431140287, 51.891565739380951 ], [ 6.187225979225394, 51.892128177239286 ], [ 6.184211552444685, 51.893320243984363 ], [ 6.182519992794781, 51.893814352625526 ], [ 6.182568434699401, 51.894122572542564 ], [ 6.169768862626309, 51.901173090878167 ], [ 6.168929805445757, 51.90072244735655 ], [ 6.167955252653543, 51.900840185701334 ], [ 6.167936574906349, 51.901071306048664 ], [ 6.166815665959749, 51.901144444546361 ], [ 6.165447188184903, 51.902449780382213 ], [ 6.164937672643608, 51.902392653439996 ], [ 6.163023703912837, 51.902955586739843 ], [ 6.161945833404022, 51.903890774342941 ], [ 6.160248707049297, 51.904732032874591 ], [ 6.159855135693232, 51.905111878060531 ], [ 6.159493687278508, 51.905023611125578 ], [ 6.158744384079729, 51.905934155002413 ], [ 6.157398660151997, 51.906906806255869 ], [ 6.156650737438802, 51.908223443500681 ], [ 6.156406018406196, 51.909222490143279 ], [ 6.156157297833604, 51.909364950739011 ], [ 6.156208522119195, 51.910650380787303 ], [ 6.155422381193849, 51.911639859750508 ], [ 6.154832750209892, 51.911405000239959 ], [ 6.154698151130755, 51.912080414911799 ], [ 6.156305600046567, 51.912154518707936 ], [ 6.157495150241425, 51.91269430901125 ], [ 6.158548071575944, 51.912305985991743 ], [ 6.160196491449628, 51.912869958371552 ], [ 6.163005768075409, 51.913260803297682 ], [ 6.168524377276222, 51.915154547828017 ], [ 6.170239485301833, 51.91624303742126 ], [ 6.170491788910579, 51.916517063065896 ], [ 6.171653649276867, 51.919060321596213 ], [ 6.177854595820405, 51.925559573207977 ], [ 6.179486187010493, 51.928837085661861 ], [ 6.18067300070199, 51.930384375520205 ], [ 6.183880148576186, 51.932539276931415 ], [ 6.184868235686769, 51.933768831378075 ], [ 6.187754549775557, 51.9357534298831 ], [ 6.190652047142279, 51.938010283886811 ], [ 6.192009711793007, 51.939199877548411 ], [ 6.193361662480871, 51.940867680135156 ], [ 6.191822951141943, 51.942518183964303 ], [ 6.190125723633185, 51.942806031605691 ], [ 6.188486596576644, 51.943418503696968 ], [ 6.188641454495621, 51.943984056886329 ], [ 6.188558664300028, 51.944242791615594 ], [ 6.188941273032414, 51.944772243598479 ], [ 6.188638119983334, 51.945642954819981 ], [ 6.186716263899935, 51.945894979736678 ], [ 6.186130348400092, 51.946288325759049 ], [ 6.184585892606934, 51.947833316131721 ], [ 6.18309006727121, 51.948029814504082 ], [ 6.182336068115626, 51.948373679586034 ], [ 6.181809412250585, 51.948287360113447 ], [ 6.181051371081974, 51.948513206395575 ], [ 6.180414150432045, 51.948370703665177 ], [ 6.178454294212991, 51.948831368067161 ], [ 6.176548113096378, 51.950071531515029 ], [ 6.17599663506469, 51.950861482377789 ], [ 6.174324946568513, 51.951605364906079 ], [ 6.174153174973505, 51.95227602771682 ], [ 6.172454214818697, 51.952612368577704 ], [ 6.172756376531538, 51.952986626675361 ], [ 6.172285289229675, 51.953365588599226 ], [ 6.169943082724993, 51.953570859308115 ], [ 6.169151167043399, 51.95338411594259 ], [ 6.168305711275382, 51.953949475589738 ], [ 6.165984862406162, 51.95496163366235 ], [ 6.163182619424114, 51.955415176461607 ], [ 6.162131016528459, 51.956262478254473 ], [ 6.162086036052849, 51.956870065825306 ], [ 6.161399320485611, 51.957590641803229 ], [ 6.158101367093547, 51.958828032477918 ], [ 6.157291397293446, 51.960546456940946 ], [ 6.155834988853544, 51.961497451519449 ], [ 6.1530027050517, 51.964666535606213 ], [ 6.150962737470188, 51.966406245055133 ], [ 6.149954270242188, 51.968736769855738 ], [ 6.149984396373809, 51.969612440093577 ], [ 6.149210745297718, 51.970544700788544 ], [ 6.148361971137177, 51.972562740353858 ], [ 6.14819409765528, 51.973980190619081 ], [ 6.146929300111545, 51.974327973487583 ], [ 6.146770574854025, 51.974534458611359 ], [ 6.146846582782596, 51.974769411293437 ], [ 6.14615030502074, 51.975247738343825 ], [ 6.146564238185664, 51.975632233171801 ], [ 6.144823481344324, 51.980422175420379 ], [ 6.146693388281959, 51.980406998831555 ], [ 6.149800852896657, 51.98075325287148 ], [ 6.151572765820503, 51.980367425388017 ], [ 6.160751790386613, 51.980988031358898 ], [ 6.16078125225409, 51.981763666822744 ], [ 6.161311841116483, 51.984020562210034 ], [ 6.161505860985297, 51.990587245369674 ], [ 6.161676316593732, 51.990648088721088 ], [ 6.161670661202766, 51.991594326033699 ], [ 6.162075308593254, 51.992799369980297 ], [ 6.161958046627897, 51.993321089396105 ], [ 6.160586371213626, 51.994247161951208 ], [ 6.160671340073438, 51.994704252990097 ], [ 6.159668164922027, 51.996028450769529 ], [ 6.159981710421279, 51.997666626324424 ], [ 6.160615530874064, 51.997971786507961 ], [ 6.161671853142936, 51.998071162962979 ], [ 6.161992803721899, 51.998383805648764 ], [ 6.164172587580412, 51.998653147620765 ], [ 6.164359487285404, 51.998794309617686 ], [ 6.164383756074341, 51.999070075894871 ], [ 6.16305454816389, 51.999717666847623 ], [ 6.159258928944101, 51.999839448627789 ], [ 6.155450308189169, 52.000381779192985 ], [ 6.152931585170921, 52.000983575018992 ], [ 6.149024880281266, 52.002213452672748 ], [ 6.146200663650094, 52.00085996863875 ], [ 6.14251071819432, 51.999520873293314 ], [ 6.140488950342231, 51.998925599641275 ], [ 6.140058492021489, 51.999423939983387 ], [ 6.139235187154939, 51.999182289036163 ], [ 6.138801310692592, 51.998791100161846 ], [ 6.138886033206746, 51.998013456577091 ], [ 6.138368453311418, 51.997197816676241 ], [ 6.136096655878283, 51.997529959702533 ], [ 6.130361036333115, 51.997020750159166 ], [ 6.130182738378767, 51.997306619535472 ], [ 6.127026566577783, 51.997142877521306 ], [ 6.117057816887479, 51.997131565936279 ], [ 6.114521290826278, 51.9969289068531 ], [ 6.114378927959477, 51.997058712586131 ], [ 6.11267770944381, 51.996674274582602 ], [ 6.110432217141885, 51.995798035933191 ], [ 6.109742081586347, 51.996431983630828 ], [ 6.111175075988911, 51.997587462496362 ], [ 6.112366872796576, 51.998922307445348 ], [ 6.113374059002722, 52.000940997959226 ], [ 6.113905662576721, 52.003275061854353 ], [ 6.114832799856888, 52.004490616041558 ], [ 6.116322844147811, 52.005328388680788 ], [ 6.11991628510059, 52.006264281703615 ], [ 6.1223803492707, 52.007261769215219 ], [ 6.124437096475062, 52.008543256588517 ], [ 6.126040617068311, 52.010067704893437 ], [ 6.126642322335154, 52.010895772104611 ], [ 6.127497206292697, 52.012692115362277 ], [ 6.127704581329021, 52.013970353746039 ], [ 6.127457841821379, 52.015761985962847 ], [ 6.12773038931016, 52.016663232541816 ], [ 6.128794062423211, 52.018347878533326 ], [ 6.130150474030106, 52.01944024373104 ], [ 6.13081197496522, 52.020293308990041 ], [ 6.131934848594124, 52.022314873820662 ], [ 6.132356426384636, 52.024285906085026 ], [ 6.132168970644629, 52.02638476170231 ], [ 6.131388066032715, 52.028262109419948 ], [ 6.130102681572173, 52.030014789329456 ], [ 6.127961320933008, 52.031882072187955 ], [ 6.126372188021639, 52.032891209342772 ], [ 6.123951787807233, 52.033979312369134 ], [ 6.118737602225411, 52.035338496346348 ], [ 6.116428903388318, 52.036158192843423 ], [ 6.114046066598902, 52.037317971528495 ], [ 6.112665973584716, 52.038309675776908 ], [ 6.111807168315963, 52.039307186182157 ], [ 6.111152504218642, 52.040691750212858 ], [ 6.110913760197938, 52.042037318575034 ], [ 6.111014350777773, 52.042939966178032 ], [ 6.111400561906195, 52.044116734243467 ], [ 6.112121092295861, 52.04526115629178 ], [ 6.11365739021035, 52.046969687545534 ], [ 6.115772732691199, 52.048631129763457 ], [ 6.118215064283375, 52.050199858602127 ], [ 6.121797282337254, 52.051965827627861 ], [ 6.129369333496596, 52.054432029053757 ], [ 6.132438323615912, 52.055792222708988 ], [ 6.135905083312656, 52.057748648080924 ], [ 6.137538222688461, 52.059108719585005 ], [ 6.137442169691083, 52.059294729000165 ], [ 6.137608371572956, 52.059475818966703 ] ] ] } }
]
}
