{
"type": "FeatureCollection",
"name": "SWVPO2705",
"crs": { "type": "name", "properties": { "name": "urn:ogc:def:crs:OGC:1.3:CRS84" } },
"features": [
{ "type": "Feature", "properties": { "PO SWV": "PO2705", "strokeColor": "#A9A9A9", "strokeWidth": 2, "fillColor": "#ADD8E6" }, "geometry": { "type": "Polygon", "coordinates": [ [ [ 4.782828313060572, 52.519658428543657 ], [ 4.784888132318144, 52.519525240031712 ], [ 4.78500207077255, 52.519654576273126 ], [ 4.785088926996912, 52.519512254461759 ], [ 4.78837640787744, 52.519264446520133 ], [ 4.790247779895179, 52.51934165747673 ], [ 4.792185816787252, 52.519707281960116 ], [ 4.793766517686758, 52.520804417672615 ], [ 4.797837311606966, 52.524255061686567 ], [ 4.79924265444844, 52.524683049112532 ], [ 4.803599847423021, 52.525112656006812 ], [ 4.804887683025086, 52.525529281106749 ], [ 4.811590991035454, 52.530283909143826 ], [ 4.813649105536285, 52.530857649661549 ], [ 4.81948909781979, 52.531191660158441 ], [ 4.821129443859473, 52.5317254484914 ], [ 4.824205976187044, 52.533788279625831 ], [ 4.81696913448835, 52.535551096564141 ], [ 4.816896941216686, 52.535676024733313 ], [ 4.818955892624753, 52.538795804879896 ], [ 4.820947075809269, 52.538358963543494 ], [ 4.824470488335978, 52.54278888603644 ], [ 4.828069002952548, 52.541761358068719 ], [ 4.831473374489286, 52.539967548660712 ], [ 4.833890938395724, 52.539086139711088 ], [ 4.833829248540991, 52.53890189302092 ], [ 4.835013001880445, 52.537834851672386 ], [ 4.835247847947804, 52.537319114848117 ], [ 4.835880320544357, 52.533805909816557 ], [ 4.836516644558952, 52.532761969360223 ], [ 4.836955988707696, 52.531361987359652 ], [ 4.837490085104434, 52.530478475045818 ], [ 4.839273570092907, 52.529621116703645 ], [ 4.840831968865231, 52.528321967213536 ], [ 4.843077301721424, 52.526785534157845 ], [ 4.84792651988606, 52.525209867140482 ], [ 4.851497149699603, 52.524761347068186 ], [ 4.857327791981502, 52.525112719502431 ], [ 4.859360304235864, 52.524936324570589 ], [ 4.863643657074863, 52.523803384210169 ], [ 4.865469034114018, 52.523048605497806 ], [ 4.865692590514811, 52.523180949143509 ], [ 4.867685299228912, 52.522288144735853 ], [ 4.867682656176384, 52.522051937194497 ], [ 4.871663079913378, 52.520670848178426 ], [ 4.874786011262827, 52.519930050292992 ], [ 4.874950592846021, 52.520083034471405 ], [ 4.87628933194791, 52.519984558826586 ], [ 4.884017279855745, 52.519226586023159 ], [ 4.889079542330924, 52.518276238143741 ], [ 4.893689364790244, 52.517736375620281 ], [ 4.90281308359715, 52.517951940766245 ], [ 4.908614563146128, 52.51729257551343 ], [ 4.908594913084838, 52.517040872714773 ], [ 4.910401097476231, 52.516693380920799 ], [ 4.912670831108035, 52.515485425027343 ], [ 4.915057982868958, 52.514740510251151 ], [ 4.91875543851986, 52.512632064474872 ], [ 4.921608850779989, 52.511537713526451 ], [ 4.922855389011696, 52.511277218273584 ], [ 4.928528011263809, 52.510707085198661 ], [ 4.934275807531035, 52.511532673963025 ], [ 4.934595731103336, 52.510368529228558 ], [ 4.933970927916886, 52.510383895943612 ], [ 4.933496882156699, 52.509707464338348 ], [ 4.929201790687281, 52.507496462734331 ], [ 4.929223586784231, 52.507304000313923 ], [ 4.925301894682009, 52.50551805644227 ], [ 4.925895262941456, 52.505068893012016 ], [ 4.926377923990545, 52.504262297194686 ], [ 4.926128621682919, 52.500260145980569 ], [ 4.925524623872185, 52.499037787930327 ], [ 4.92448647330464, 52.497863003013947 ], [ 4.923897362215568, 52.496913852321718 ], [ 4.92362733159503, 52.493095898930981 ], [ 4.922829190766797, 52.491928503066198 ], [ 4.920660098410892, 52.490576097440695 ], [ 4.918650015233958, 52.488381016332823 ], [ 4.917453513283693, 52.487765658001443 ], [ 4.916478927671279, 52.486889200829744 ], [ 4.915254543555632, 52.486181797916515 ], [ 4.910065247060358, 52.48425259144058 ], [ 4.908021035977717, 52.483063888813305 ], [ 4.90761244706342, 52.480930492431312 ], [ 4.90639063680002, 52.479887779694607 ], [ 4.905215804742975, 52.477728949769016 ], [ 4.904198840853249, 52.474022778209701 ], [ 4.903780927499332, 52.473106928202938 ], [ 4.903267541315939, 52.472482152515553 ], [ 4.901305228545578, 52.468934838544037 ], [ 4.899648157146561, 52.467240546594688 ], [ 4.899473669125426, 52.466881368422179 ], [ 4.899570898484081, 52.466466233122844 ], [ 4.898738135646065, 52.465792399776177 ], [ 4.898741529973518, 52.465111464698538 ], [ 4.898138092871181, 52.464387493129252 ], [ 4.897096186759611, 52.463870248688124 ], [ 4.896741261106238, 52.462703452555679 ], [ 4.896009571603197, 52.461772280408283 ], [ 4.895922135387358, 52.461167325168809 ], [ 4.898062719575894, 52.461085654508366 ], [ 4.898616671536566, 52.461623322247462 ], [ 4.899701493178759, 52.461347987911658 ], [ 4.899460309651258, 52.461116931705504 ], [ 4.899198891293605, 52.461114774162489 ], [ 4.89837078246784, 52.460257155133846 ], [ 4.897881906647489, 52.460180905399653 ], [ 4.897880574711986, 52.45911392473176 ], [ 4.896464173780148, 52.459129767157037 ], [ 4.895417727642709, 52.458709192513957 ], [ 4.89507232204512, 52.458865356948117 ], [ 4.894419505321664, 52.458723061955197 ], [ 4.893226816692255, 52.457314894514049 ], [ 4.892935316983178, 52.455518317978289 ], [ 4.892979525184582, 52.454094244334158 ], [ 4.893559822391129, 52.452815537776459 ], [ 4.894796199637123, 52.450786149226353 ], [ 4.895050267901, 52.449603872841244 ], [ 4.89688982867142, 52.449744429205005 ], [ 4.897278116409847, 52.449650078746338 ], [ 4.897815908953701, 52.448381640916764 ], [ 4.897301447826581, 52.447440152206624 ], [ 4.897514447442765, 52.446387398871074 ], [ 4.896376922650426, 52.446250747096869 ], [ 4.896208176842646, 52.444603151231192 ], [ 4.896463421944036, 52.443922690941072 ], [ 4.895999176912581, 52.441393057395949 ], [ 4.896091894201231, 52.440723688657087 ], [ 4.896622889417618, 52.440080807231702 ], [ 4.896211864235437, 52.439623603106938 ], [ 4.895960074381249, 52.438898881741984 ], [ 4.894544172139099, 52.437608925085691 ], [ 4.894352481360811, 52.437183139510694 ], [ 4.894767692151984, 52.436498259196362 ], [ 4.895776444328872, 52.435881077313425 ], [ 4.89686943959572, 52.434933926192578 ], [ 4.89710328153001, 52.434332538403361 ], [ 4.89793293895195, 52.434141686083095 ], [ 4.898602599337575, 52.433750360482108 ], [ 4.898425728416905, 52.433418008134829 ], [ 4.898769876858893, 52.433367866930737 ], [ 4.899184839654123, 52.432754615137966 ], [ 4.899181024712607, 52.431141733578094 ], [ 4.898712140049211, 52.427838015898701 ], [ 4.898645691675247, 52.424580078961867 ], [ 4.895525403044516, 52.425187444942338 ], [ 4.890102690459412, 52.425715976764813 ], [ 4.889959449477576, 52.425642505618868 ], [ 4.890023249389098, 52.425361869031043 ], [ 4.889252593971905, 52.425356862918051 ], [ 4.888447177128898, 52.424959701513245 ], [ 4.88775058510572, 52.425689901866775 ], [ 4.883008571256492, 52.425610805032434 ], [ 4.882460044629578, 52.425994961505367 ], [ 4.881767852159451, 52.426122144637937 ], [ 4.88146814566004, 52.426068377325954 ], [ 4.88147433017304, 52.425902799189245 ], [ 4.880343543398369, 52.425661780715366 ], [ 4.878272623837941, 52.425702565055083 ], [ 4.876595817357374, 52.426308938633788 ], [ 4.876394512396747, 52.426176013946439 ], [ 4.874257554338147, 52.427573051204192 ], [ 4.873662495217991, 52.427515981479239 ], [ 4.873455829683246, 52.427642838056023 ], [ 4.872399677001704, 52.428430807385546 ], [ 4.872889419817755, 52.428691436253231 ], [ 4.87288960442342, 52.428875152017397 ], [ 4.87077667822781, 52.430488016167025 ], [ 4.869701584681808, 52.429862966675643 ], [ 4.868956917447909, 52.430348909703426 ], [ 4.867942433178012, 52.430622629221425 ], [ 4.865971331793273, 52.430778660467276 ], [ 4.864992989296806, 52.430647085778901 ], [ 4.862616174546663, 52.430020340528046 ], [ 4.862638241571025, 52.429332936895882 ], [ 4.862380591293431, 52.428844338104753 ], [ 4.857962633118616, 52.42494118939031 ], [ 4.857718804186602, 52.424293118033447 ], [ 4.857773343601837, 52.423791660160425 ], [ 4.85963773111371, 52.421229025430669 ], [ 4.859760207373125, 52.420496126578442 ], [ 4.859416392440727, 52.41985504726464 ], [ 4.856046534497503, 52.416768833782257 ], [ 4.845299265664481, 52.418567380741955 ], [ 4.767550574696422, 52.428597295453152 ], [ 4.767115601604597, 52.427577795629389 ], [ 4.722720059152579, 52.433124392900929 ], [ 4.72199988620938, 52.433232525488691 ], [ 4.722009671631708, 52.433432572003845 ], [ 4.718324383501118, 52.434118609615062 ], [ 4.715097143911606, 52.434921307301813 ], [ 4.711990253408106, 52.435891256912996 ], [ 4.710011047211847, 52.436735805336802 ], [ 4.675038335366157, 52.455530828286165 ], [ 4.685133665597606, 52.462480216633509 ], [ 4.684747366878903, 52.463272460889868 ], [ 4.684442396193035, 52.463469110068502 ], [ 4.68515592379574, 52.463558207117252 ], [ 4.689879751139642, 52.46542070878634 ], [ 4.693490422796761, 52.467250627212728 ], [ 4.695365096408596, 52.46851469853469 ], [ 4.697977670807383, 52.471079746033695 ], [ 4.697976925080606, 52.471378358936008 ], [ 4.697479753860267, 52.472082770584365 ], [ 4.698023801748421, 52.472530131099461 ], [ 4.699377006039867, 52.474514205434133 ], [ 4.699324207119457, 52.475722214960186 ], [ 4.698706748495192, 52.476387468645413 ], [ 4.698832291683754, 52.477113236148398 ], [ 4.699532859043889, 52.477858371414435 ], [ 4.699584600285042, 52.47824821482974 ], [ 4.699879635189713, 52.478652651404936 ], [ 4.700602872324828, 52.479274610646023 ], [ 4.700809448706237, 52.480175386801392 ], [ 4.701439139427581, 52.480564757940051 ], [ 4.702684896676608, 52.480860949207191 ], [ 4.703991482184226, 52.480958962820253 ], [ 4.705609779551335, 52.481848608423405 ], [ 4.706257928957875, 52.482827705288805 ], [ 4.705949964447049, 52.483512367487286 ], [ 4.705961498793435, 52.484335965219309 ], [ 4.70707354663287, 52.485184204825899 ], [ 4.707821258270608, 52.48552616962769 ], [ 4.708319213719029, 52.487136628763743 ], [ 4.708246621555397, 52.487927007355829 ], [ 4.708527837681598, 52.488561016963587 ], [ 4.710686396715278, 52.489843157295475 ], [ 4.713925591426928, 52.492602709796337 ], [ 4.714697271054084, 52.493107694584381 ], [ 4.716688780036114, 52.493946049254284 ], [ 4.720688386885043, 52.494941177830448 ], [ 4.721110493453431, 52.49476927410123 ], [ 4.721501943571949, 52.495053621597449 ], [ 4.729595786816277, 52.495780521687273 ], [ 4.73161147696718, 52.496237503720948 ], [ 4.732852081065999, 52.497008017658622 ], [ 4.736770504052732, 52.499974019360799 ], [ 4.738024501194177, 52.500468840381558 ], [ 4.740073461796625, 52.501704233937787 ], [ 4.741132491517673, 52.501706976765405 ], [ 4.74115060247981, 52.501853725480515 ], [ 4.740805897925164, 52.502108215327162 ], [ 4.742327079094442, 52.502952803963289 ], [ 4.744595682392196, 52.504948369295398 ], [ 4.74618535211208, 52.505822295085075 ], [ 4.748463511829224, 52.507576776863701 ], [ 4.750131673965707, 52.507892789595537 ], [ 4.750742041328926, 52.508217583214915 ], [ 4.752867741886307, 52.510595550576433 ], [ 4.751497603871536, 52.512063003822377 ], [ 4.750955687410181, 52.512437031210041 ], [ 4.750780988020744, 52.512988097830863 ], [ 4.749060889336681, 52.514358091834978 ], [ 4.748348810338254, 52.515347326405838 ], [ 4.748302113137424, 52.517261151956859 ], [ 4.749258675935781, 52.518189268969152 ], [ 4.749532244621278, 52.519578138972918 ], [ 4.749887751878687, 52.520063013926354 ], [ 4.752456042393205, 52.521136319476966 ], [ 4.752760837026387, 52.521138889695116 ], [ 4.761226280564768, 52.518453814629616 ], [ 4.761910282160797, 52.518936084290225 ], [ 4.763624264543894, 52.519606278335637 ], [ 4.766967223438518, 52.518763383231772 ], [ 4.767314649322381, 52.518880056327532 ], [ 4.767219137637178, 52.519640479361698 ], [ 4.773873078051112, 52.519461809517701 ], [ 4.77548106443346, 52.519277581496645 ], [ 4.776526956734574, 52.519489070348435 ], [ 4.780789732178121, 52.519328794153488 ], [ 4.782493511337793, 52.519482431533909 ], [ 4.78254785706334, 52.519676554243958 ], [ 4.782828313060572, 52.519658428543657 ] ] ] } }
]
}
