{
"type": "FeatureCollection",
"name": "SWVPO3106",
"crs": { "type": "name", "properties": { "name": "urn:ogc:def:crs:OGC:1.3:CRS84" } },
"features": [
{ "type": "Feature", "properties": { "PO SWV": "PO3106", "strokeColor": "#A9A9A9", "strokeWidth": 2, "fillColor": "#ADD8E6" }, "geometry": { "type": "Polygon", "coordinates": [ [ [ 5.787300380329617, 50.897596510757417 ], [ 5.786761012570897, 50.898081420259182 ], [ 5.786589928466195, 50.89899852135126 ], [ 5.785347718979166, 50.899599094281839 ], [ 5.785204060610425, 50.900100105821444 ], [ 5.787565998038086, 50.900657992463643 ], [ 5.789440875271257, 50.900796938951437 ], [ 5.792482962567614, 50.899589870887489 ], [ 5.794816929206096, 50.90153376579741 ], [ 5.797606263683531, 50.901076961233173 ], [ 5.798686713971623, 50.901161166108494 ], [ 5.801336645785895, 50.902257511508992 ], [ 5.804849830590052, 50.903104679262299 ], [ 5.806264190893032, 50.903632812990502 ], [ 5.810487929801564, 50.904421149895278 ], [ 5.813344284063412, 50.906061249372641 ], [ 5.812288818514601, 50.907710434446571 ], [ 5.80885652544598, 50.907463174678369 ], [ 5.80169615069937, 50.907343265432402 ], [ 5.799087344229047, 50.907774545516794 ], [ 5.798442950528288, 50.908062053705244 ], [ 5.798466461753808, 50.908237472786759 ], [ 5.800871425922415, 50.90882625475092 ], [ 5.800329224936291, 50.910364027422773 ], [ 5.800491347146645, 50.91198114867337 ], [ 5.800860211116897, 50.912649556239401 ], [ 5.801425825704812, 50.912716365643703 ], [ 5.802242365542259, 50.913719804127552 ], [ 5.801646885380288, 50.914056471629607 ], [ 5.80168355621489, 50.91422506933003 ], [ 5.818933907502819, 50.916227049757744 ], [ 5.819375621138263, 50.915828319415461 ], [ 5.831525251123165, 50.917277148558014 ], [ 5.831795336435999, 50.917430674995991 ], [ 5.831156403056847, 50.91943663516836 ], [ 5.83332160701381, 50.920017686429588 ], [ 5.833358876955903, 50.920227451556663 ], [ 5.833179356498907, 50.920442890142347 ], [ 5.833269255917598, 50.920551271085692 ], [ 5.834015131234024, 50.920118787137554 ], [ 5.841291501103925, 50.919717549167679 ], [ 5.842820381909154, 50.920794958536312 ], [ 5.847215318296887, 50.92587234117714 ], [ 5.84972721711849, 50.92413799393865 ], [ 5.851176149542746, 50.924890839954003 ], [ 5.852559490873319, 50.925470254939725 ], [ 5.852803236399748, 50.925406066228504 ], [ 5.85524870119899, 50.926532557088791 ], [ 5.856853790668634, 50.92676655768679 ], [ 5.861224665632599, 50.9256148503285 ], [ 5.864531277564683, 50.925387977339909 ], [ 5.864738110682751, 50.92552685814551 ], [ 5.86658763492549, 50.92494207696739 ], [ 5.868068294789611, 50.926387321492257 ], [ 5.87048370014279, 50.927290001952159 ], [ 5.869426331961318, 50.928180083678249 ], [ 5.869457283270743, 50.928341488998029 ], [ 5.872898294958992, 50.929446662328743 ], [ 5.877401500797137, 50.931205586765074 ], [ 5.882039722468033, 50.932563383393145 ], [ 5.884244163778415, 50.933015684736617 ], [ 5.888260851325192, 50.934382188309577 ], [ 5.890086446915481, 50.934796667629136 ], [ 5.891628457713054, 50.932443769284987 ], [ 5.892087390255091, 50.930345896888717 ], [ 5.893732419247807, 50.931028452911796 ], [ 5.89477166480678, 50.931084303785163 ], [ 5.89708404774972, 50.932077513391512 ], [ 5.898609112372753, 50.932368616899005 ], [ 5.900029377117909, 50.932880960388459 ], [ 5.901965072827247, 50.932987545670954 ], [ 5.903798314170403, 50.932834320077141 ], [ 5.905223148520896, 50.932956798055677 ], [ 5.908240757908023, 50.933560465126405 ], [ 5.912419621474295, 50.93509074424653 ], [ 5.915845144209438, 50.934164152244833 ], [ 5.917540214036769, 50.934510294111718 ], [ 5.918846869322061, 50.93366788975775 ], [ 5.919471478656456, 50.932742146182619 ], [ 5.922062811444206, 50.934098500323422 ], [ 5.926413406250343, 50.935909540624046 ], [ 5.931613325082689, 50.937359278898356 ], [ 5.934816991533048, 50.938540229390497 ], [ 5.933746476068297, 50.938790055909152 ], [ 5.931319900366812, 50.94161629797437 ], [ 5.935968964652334, 50.946404943838708 ], [ 5.94082758634301, 50.94799097720788 ], [ 5.941738107447333, 50.948506454498762 ], [ 5.942134541839491, 50.948965286529869 ], [ 5.92990173921851, 50.951597014797315 ], [ 5.92996374164797, 50.951915479931628 ], [ 5.926334470458273, 50.953147735902753 ], [ 5.922407202416439, 50.954898279782903 ], [ 5.922048093186892, 50.954660505862499 ], [ 5.917542225690229, 50.956755082599152 ], [ 5.917520789382865, 50.956894489666972 ], [ 5.917783400078476, 50.95706409302143 ], [ 5.91399296724637, 50.958711742405846 ], [ 5.911014438524377, 50.959701038524059 ], [ 5.911045978262546, 50.959908372849846 ], [ 5.911286200030583, 50.959959796014452 ], [ 5.912190815176039, 50.95968323516027 ], [ 5.918120447260451, 50.957266581899049 ], [ 5.921506437314447, 50.958592770743863 ], [ 5.920412729448801, 50.959169758977666 ], [ 5.918918430859598, 50.959668503356447 ], [ 5.918615182120008, 50.960017187054163 ], [ 5.922536541403406, 50.962902314208797 ], [ 5.921108525974921, 50.963685742680504 ], [ 5.917489716388542, 50.967517849674969 ], [ 5.915576746187916, 50.967331496875801 ], [ 5.912731354510971, 50.967914069094761 ], [ 5.912735537250811, 50.968067306984665 ], [ 5.915199625971141, 50.970044190434386 ], [ 5.91595502122271, 50.970075959732704 ], [ 5.916159302180763, 50.970405284096287 ], [ 5.915409186137564, 50.970520347863129 ], [ 5.91405822991562, 50.971064364503697 ], [ 5.913957786171522, 50.971259320119323 ], [ 5.914815555269017, 50.971856891315156 ], [ 5.914460399103486, 50.972098230523997 ], [ 5.914488824516248, 50.972307973541874 ], [ 5.916677467393689, 50.972467248795176 ], [ 5.918498574522155, 50.972931001468822 ], [ 5.92574858000336, 50.976440879257098 ], [ 5.925773552952495, 50.977093428280646 ], [ 5.925239129385529, 50.977778540807613 ], [ 5.922867933519835, 50.979439884619694 ], [ 5.922850889657427, 50.979582726506777 ], [ 5.927607292039985, 50.982375132266803 ], [ 5.933850127936842, 50.985446407583481 ], [ 5.950117013732282, 50.987305861465352 ], [ 5.955180442628675, 50.988516894376083 ], [ 5.957462079148729, 50.985081403863425 ], [ 5.960926340757662, 50.98324407961762 ], [ 5.960959966683821, 50.983096500290294 ], [ 5.965065756579413, 50.981023095239593 ], [ 5.966371555349612, 50.979858434778187 ], [ 5.967586526121911, 50.979495421309785 ], [ 5.968492304603814, 50.979525651300285 ], [ 5.973907202757684, 50.980649026749006 ], [ 5.9795437127406, 50.983011174745741 ], [ 5.981354526903607, 50.983317232438516 ], [ 5.982277818525883, 50.98316214698594 ], [ 5.984243501595293, 50.982215314466742 ], [ 6.017205406341581, 50.983495192587995 ], [ 6.017196858295268, 50.983774055901385 ], [ 6.018695906493458, 50.983918438605116 ], [ 6.022937571383021, 50.983369581476687 ], [ 6.02655242923503, 50.98336338621472 ], [ 6.026993768140335, 50.981653103693922 ], [ 6.026889154899915, 50.981259888915822 ], [ 6.022734257142769, 50.973974705930871 ], [ 6.021246433447888, 50.970947621628433 ], [ 6.019535361286682, 50.968888821582809 ], [ 6.017395254523604, 50.965225161982204 ], [ 6.015284188154419, 50.962300841579804 ], [ 6.013050056480938, 50.960310967462874 ], [ 6.010710434134655, 50.959934212692744 ], [ 6.009120722391895, 50.959392951030203 ], [ 6.007787904036489, 50.958733695205304 ], [ 6.005387154845454, 50.956810349334589 ], [ 6.011841542906903, 50.95439339606552 ], [ 6.016940219740114, 50.952691277767698 ], [ 6.015182882931882, 50.947876419051873 ], [ 6.018284065767924, 50.934787596670326 ], [ 6.038599001753475, 50.930961979709743 ], [ 6.039812540691018, 50.930950396504734 ], [ 6.044460088983029, 50.929429984058629 ], [ 6.045070281347365, 50.929025929912022 ], [ 6.045630175256036, 50.928191281470021 ], [ 6.04715836367417, 50.928518250540421 ], [ 6.049114334563203, 50.92947611368588 ], [ 6.050900334733686, 50.930000962163753 ], [ 6.056253987419121, 50.927187908053853 ], [ 6.054168098189934, 50.92232953143602 ], [ 6.061781758798569, 50.921342067483486 ], [ 6.062973714198922, 50.922134750507212 ], [ 6.066842378218237, 50.920853988184987 ], [ 6.068157897822608, 50.920755780447074 ], [ 6.071755776426717, 50.923231433777502 ], [ 6.077474124944456, 50.922678052330077 ], [ 6.082160928751441, 50.921635397862296 ], [ 6.083879836308181, 50.921024355527805 ], [ 6.086870404636493, 50.919464236224883 ], [ 6.089395779587695, 50.918642811813655 ], [ 6.090109892405453, 50.919657231276027 ], [ 6.093692911405303, 50.921325076401473 ], [ 6.094280477222551, 50.920574414199706 ], [ 6.094187814108873, 50.920136234206723 ], [ 6.093434207943422, 50.918876379234746 ], [ 6.092210665483509, 50.917435173937029 ], [ 6.091343883118452, 50.916878196848387 ], [ 6.089391379793942, 50.916147957404419 ], [ 6.086921024772004, 50.91403620260526 ], [ 6.086811904804891, 50.913725148744554 ], [ 6.086894856947317, 50.912988151051174 ], [ 6.086416397691713, 50.912183667099924 ], [ 6.082598600255244, 50.910132331378449 ], [ 6.081370322323241, 50.90904379399408 ], [ 6.080440854281384, 50.907297544998613 ], [ 6.079824229522089, 50.905454889904341 ], [ 6.080289830162382, 50.903888470506232 ], [ 6.08001122163562, 50.90347197762145 ], [ 6.080002545726491, 50.902880565148635 ], [ 6.07825800565404, 50.900462936081105 ], [ 6.077495181260458, 50.899078225302539 ], [ 6.077416131541288, 50.897009479880097 ], [ 6.076794308960156, 50.896336635665236 ], [ 6.076539381897473, 50.894920173290089 ], [ 6.076645817281189, 50.894606098648772 ], [ 6.076208828289823, 50.894496830080918 ], [ 6.076301727248299, 50.894181339137425 ], [ 6.075862238872297, 50.894011051099696 ], [ 6.076009403096862, 50.893672989766557 ], [ 6.07528619386866, 50.892927957207483 ], [ 6.076286113803454, 50.89205208307078 ], [ 6.076386414399929, 50.891481586124044 ], [ 6.075482134345239, 50.891075826203782 ], [ 6.075483598868413, 50.890596080722467 ], [ 6.076320834091528, 50.88972693208315 ], [ 6.076533106071226, 50.888870184867265 ], [ 6.076984105766649, 50.888449550955762 ], [ 6.07739822698741, 50.887696489685872 ], [ 6.077632811010295, 50.887638342125648 ], [ 6.077736211096568, 50.88809305520212 ], [ 6.078255526223191, 50.888066026282686 ], [ 6.078917359676826, 50.887519397004603 ], [ 6.078912278474879, 50.886991252824792 ], [ 6.079428743997073, 50.886773489819767 ], [ 6.079173929436063, 50.886403860593845 ], [ 6.079440396430123, 50.886154184835021 ], [ 6.079414073834158, 50.88590886104987 ], [ 6.078321762348458, 50.885166160923738 ], [ 6.078383447733338, 50.884965981594831 ], [ 6.078849237954789, 50.884887288254411 ], [ 6.079073228404425, 50.884356004122928 ], [ 6.079772932623839, 50.883657434588443 ], [ 6.079808224313592, 50.883214230455124 ], [ 6.079495729158987, 50.882705221714787 ], [ 6.079714310406051, 50.882294147433448 ], [ 6.079948003115859, 50.882316236768141 ], [ 6.080072214145831, 50.882671360248523 ], [ 6.080470513967973, 50.882830349325076 ], [ 6.080770876562066, 50.882776528521241 ], [ 6.081369348085745, 50.882255439417563 ], [ 6.082115625766988, 50.882612652055769 ], [ 6.08257056146483, 50.88260117309234 ], [ 6.082991115063231, 50.882309889638321 ], [ 6.083061853945378, 50.882068457414348 ], [ 6.082426526033959, 50.881723452865444 ], [ 6.084736417481388, 50.880803925448838 ], [ 6.085003874185842, 50.88060718470242 ], [ 6.085074885309832, 50.880271643821793 ], [ 6.086379260961177, 50.879965496195325 ], [ 6.086766261608338, 50.87950275791448 ], [ 6.0872973146605, 50.878428581704014 ], [ 6.086603202657155, 50.877479135402261 ], [ 6.085228658874938, 50.876369123909519 ], [ 6.086394799383457, 50.875246710696238 ], [ 6.087375830578751, 50.87346850964628 ], [ 6.088202291426491, 50.872425652347694 ], [ 6.088121148786386, 50.872205122920761 ], [ 6.086280067586895, 50.871461333642202 ], [ 6.086678742227441, 50.871055854775761 ], [ 6.086820281002644, 50.870463599144699 ], [ 6.086635078566224, 50.869296151766086 ], [ 6.083472718655337, 50.864772600142224 ], [ 6.081125907954518, 50.864453761468901 ], [ 6.081111107512057, 50.862493163947178 ], [ 6.077807988928682, 50.861059343210492 ], [ 6.077386056710917, 50.860707396970312 ], [ 6.0742511145982, 50.846478169757049 ], [ 6.06985249460481, 50.848002860913375 ], [ 6.063980237898316, 50.849762306353711 ], [ 6.063355215721974, 50.850117510561667 ], [ 6.060861095037674, 50.850449439091854 ], [ 6.059970395033353, 50.850820555951927 ], [ 6.059003756863428, 50.850945667171231 ], [ 6.056650279687263, 50.850965300536899 ], [ 6.056656201158411, 50.851188641838171 ], [ 6.056414520581385, 50.851396108418299 ], [ 6.056582085255855, 50.851630830227158 ], [ 6.056800832835128, 50.851651742933761 ], [ 6.056715834919272, 50.851946361092971 ], [ 6.057096952287166, 50.852084947775346 ], [ 6.056810996480043, 50.852978398780252 ], [ 6.056977145537902, 50.854279838252374 ], [ 6.056585799562659, 50.854252700988987 ], [ 6.056469246760748, 50.854380981563388 ], [ 6.056566032925438, 50.85499637034934 ], [ 6.057035628850018, 50.85553411171184 ], [ 6.056480990281562, 50.857046331232901 ], [ 6.055085891717972, 50.857157354136419 ], [ 6.053955334850127, 50.856817970679785 ], [ 6.053322961713136, 50.856153627081582 ], [ 6.052514650468853, 50.855861261154949 ], [ 6.052284454627666, 50.85547422477746 ], [ 6.050811165672851, 50.855323447577362 ], [ 6.050372865101112, 50.854979480596135 ], [ 6.050420401159181, 50.854566916013809 ], [ 6.050118624424471, 50.854131593073284 ], [ 6.047619111833807, 50.853467942161608 ], [ 6.046917407942008, 50.853143170436127 ], [ 6.046555497336666, 50.852767889767733 ], [ 6.045407851421614, 50.852646458033696 ], [ 6.045096273617333, 50.852289118885686 ], [ 6.04461968389779, 50.852404255928022 ], [ 6.044459255713033, 50.852600503525991 ], [ 6.04388784367597, 50.852199363560203 ], [ 6.043928001111678, 50.851892902251542 ], [ 6.043141358624108, 50.851816424253727 ], [ 6.042128969030407, 50.851120673451035 ], [ 6.041641219332668, 50.851209355167121 ], [ 6.040012685577698, 50.850934088844703 ], [ 6.039714265520883, 50.851089538312763 ], [ 6.039121268040379, 50.850816791499724 ], [ 6.03754534891668, 50.850916650501325 ], [ 6.036098118015034, 50.85034288050263 ], [ 6.034300561239889, 50.850476179952693 ], [ 6.032639861652649, 50.849934559421058 ], [ 6.031799000201628, 50.849412967026005 ], [ 6.031767751840025, 50.849255072905805 ], [ 6.027866644744369, 50.847534037520226 ], [ 6.026032522593221, 50.847137592158411 ], [ 6.025612975577858, 50.84760458176077 ], [ 6.022015796818795, 50.846287741832754 ], [ 6.019014365080668, 50.846162131942634 ], [ 6.016067754986691, 50.838841072174112 ], [ 6.018550022292349, 50.837332269861861 ], [ 6.016432819286242, 50.833881460852119 ], [ 6.018821180106727, 50.829780956414474 ], [ 6.0253610845257, 50.827862886364265 ], [ 6.025311037014438, 50.827697045867453 ], [ 6.022903108934563, 50.826568257774447 ], [ 6.02405011188125, 50.825136491430598 ], [ 6.024778101168381, 50.821683975382719 ], [ 6.025199066133283, 50.821531801486543 ], [ 6.026301715755934, 50.820440019128235 ], [ 6.026451286114949, 50.820006207183937 ], [ 6.025703717986111, 50.819105511648985 ], [ 6.023846551954819, 50.818345327740744 ], [ 6.023833548863609, 50.818188931371743 ], [ 6.02319500475042, 50.817795834686173 ], [ 6.02224733649725, 50.816872437691643 ], [ 6.024557471315433, 50.815996975614453 ], [ 6.02367729877092, 50.814704411153613 ], [ 6.025123048929506, 50.814098349742075 ], [ 6.024470400394094, 50.813606973971019 ], [ 6.016553286886077, 50.809695257928972 ], [ 6.014576090819717, 50.808239826260667 ], [ 6.013199922814874, 50.806607648502677 ], [ 6.010040475352041, 50.803899702625984 ], [ 6.007672837131872, 50.802659333679671 ], [ 6.003634621077924, 50.801362635014137 ], [ 5.998815738146098, 50.804120571624267 ], [ 5.993767729692789, 50.806393145010865 ], [ 5.991330817167881, 50.807959775029268 ], [ 5.986780870431144, 50.809808292022083 ], [ 5.985506098563694, 50.810469794470841 ], [ 5.984403964836289, 50.810136413267401 ], [ 5.981532831213791, 50.808565713320519 ], [ 5.980271566290132, 50.80709071750951 ], [ 5.980299732486865, 50.805785545066527 ], [ 5.980085865024439, 50.805581419571347 ], [ 5.973993528666321, 50.808230713369205 ], [ 5.972689069263377, 50.80818483245433 ], [ 5.972651780230641, 50.808357479970226 ], [ 5.973153335970424, 50.808689064092299 ], [ 5.972634392707825, 50.80990002952084 ], [ 5.973647243230893, 50.810268307640605 ], [ 5.974206989016682, 50.810664119063929 ], [ 5.974635354994841, 50.811222574166123 ], [ 5.977190443575351, 50.812112045710194 ], [ 5.977904005181856, 50.812599080033422 ], [ 5.978888314444499, 50.812679441859615 ], [ 5.98035862229186, 50.813121978118858 ], [ 5.979460688107602, 50.814494332125591 ], [ 5.96928121325073, 50.816552616560465 ], [ 5.969306243563204, 50.816854208226211 ], [ 5.969107217042329, 50.817209797241127 ], [ 5.966269347687504, 50.819207285776351 ], [ 5.964482713196928, 50.820141347948947 ], [ 5.962731869134861, 50.819775459747135 ], [ 5.956614219295308, 50.819325888432921 ], [ 5.954111253975523, 50.818922662442425 ], [ 5.953306021053538, 50.819693220837465 ], [ 5.952027454007344, 50.820434353818634 ], [ 5.950944170401377, 50.821748832640807 ], [ 5.95058971622847, 50.82285940943153 ], [ 5.962134668684739, 50.826727537040725 ], [ 5.9600517360589, 50.828009143433405 ], [ 5.959374456269449, 50.828019431277298 ], [ 5.959400950562218, 50.828429205235807 ], [ 5.958198951610013, 50.830181639356809 ], [ 5.957375761957329, 50.83173032266621 ], [ 5.956927864804837, 50.832943682586617 ], [ 5.955456958059179, 50.83527161139596 ], [ 5.955473229275881, 50.835494024959416 ], [ 5.955839547036279, 50.835874791552193 ], [ 5.956794350154805, 50.835949353004963 ], [ 5.955647096319217, 50.839304441045115 ], [ 5.956015085021057, 50.840878284389156 ], [ 5.956043976594422, 50.842219398795123 ], [ 5.9547488941736, 50.845814120826347 ], [ 5.951071729701502, 50.844489701103875 ], [ 5.947979355477303, 50.844766425298083 ], [ 5.946789152934865, 50.844560217164265 ], [ 5.942322363854197, 50.842187249899283 ], [ 5.939468217622484, 50.840981145271883 ], [ 5.936138571682347, 50.840067468564136 ], [ 5.933117503598138, 50.839463248231112 ], [ 5.932344757806898, 50.83968245713131 ], [ 5.930711208497119, 50.8397467937911 ], [ 5.929452965349931, 50.840165649398514 ], [ 5.929832995610438, 50.840564358860092 ], [ 5.929896647806481, 50.840970175079782 ], [ 5.929021356966765, 50.842993201867017 ], [ 5.928035369203861, 50.844557626927326 ], [ 5.926301265174147, 50.846191979537728 ], [ 5.924968421881104, 50.848679071778569 ], [ 5.921834171368951, 50.848718123746117 ], [ 5.920310624480206, 50.848481959862376 ], [ 5.918162499249298, 50.848682425017003 ], [ 5.916138963926227, 50.848632859370483 ], [ 5.910675862207889, 50.847402380351689 ], [ 5.911131146468827, 50.846754774954803 ], [ 5.911031944189217, 50.846590828231861 ], [ 5.904521697896087, 50.845841672055002 ], [ 5.903515956943253, 50.845576311987259 ], [ 5.898793076705464, 50.843253216747563 ], [ 5.892700116100745, 50.842977999134639 ], [ 5.891214943921947, 50.842651265015562 ], [ 5.89048924512665, 50.843733804760333 ], [ 5.890146185691774, 50.843896955138391 ], [ 5.88940534349504, 50.845101179021015 ], [ 5.886102345862995, 50.849410523326199 ], [ 5.884476836465346, 50.850925908804157 ], [ 5.880986353554559, 50.853239326063196 ], [ 5.879814130443289, 50.853786729486146 ], [ 5.879567321990367, 50.853707218289749 ], [ 5.876986702999404, 50.854676761474707 ], [ 5.876427640924258, 50.855122238332989 ], [ 5.875597208315331, 50.855340478403555 ], [ 5.87574280477314, 50.855754387371555 ], [ 5.876485481856512, 50.856558006785981 ], [ 5.875894685360713, 50.856881067441023 ], [ 5.874329057052755, 50.857132482574706 ], [ 5.874499838640536, 50.856685776278674 ], [ 5.872409354731696, 50.856222764694564 ], [ 5.870083719673001, 50.856178278517824 ], [ 5.867969140283112, 50.856535240452942 ], [ 5.86838166177818, 50.858473144279429 ], [ 5.868837864156887, 50.859328267790119 ], [ 5.86907347055014, 50.859334478740585 ], [ 5.869451945810281, 50.858663457334131 ], [ 5.869752655275515, 50.859319919795219 ], [ 5.8709194505429, 50.860137535918724 ], [ 5.870565398592804, 50.860380026367885 ], [ 5.871288042234962, 50.860988283824064 ], [ 5.871086665237851, 50.861141932325665 ], [ 5.871314264711677, 50.863040988725025 ], [ 5.872596283043691, 50.864194691585915 ], [ 5.873208078634332, 50.864489472416722 ], [ 5.87239597765275, 50.865206895539906 ], [ 5.872757031891008, 50.865425966144869 ], [ 5.871282162541754, 50.867704505878677 ], [ 5.870361788118154, 50.867623854107173 ], [ 5.870064929460647, 50.868544368618018 ], [ 5.869225139057131, 50.868399943287791 ], [ 5.868945673174315, 50.868665813477314 ], [ 5.869116521919628, 50.869077611849619 ], [ 5.870537970316271, 50.870751847106135 ], [ 5.869026632369938, 50.872175987135186 ], [ 5.869896774499637, 50.873003114138115 ], [ 5.865296665700912, 50.875755476897488 ], [ 5.863910251350799, 50.877014794198971 ], [ 5.863424989977071, 50.878534134403402 ], [ 5.862765254255719, 50.879190202621245 ], [ 5.862804724759613, 50.879949074063404 ], [ 5.861796059216621, 50.882342216277948 ], [ 5.857635830116127, 50.881845911116685 ], [ 5.85550037703779, 50.881821402577096 ], [ 5.851783239120595, 50.882087511547986 ], [ 5.851689356895855, 50.881862994829895 ], [ 5.850186513199056, 50.882162401447125 ], [ 5.850458343873, 50.883154317050334 ], [ 5.850104604048494, 50.883568629157189 ], [ 5.84915357713002, 50.883631145799988 ], [ 5.845295338890136, 50.882666100419961 ], [ 5.842550484463732, 50.882406492126371 ], [ 5.835805011635191, 50.881396062606747 ], [ 5.835407729827708, 50.88123431990477 ], [ 5.835332692636529, 50.880830025983862 ], [ 5.83462513528954, 50.880549656821216 ], [ 5.834524515154252, 50.881123938242666 ], [ 5.834797079412885, 50.881719207230546 ], [ 5.834185905698289, 50.881860626481597 ], [ 5.833635274045148, 50.882300839315278 ], [ 5.832875041521469, 50.883377822387324 ], [ 5.832819248180698, 50.884329624316031 ], [ 5.832581253292371, 50.885126135753573 ], [ 5.832617682571381, 50.885787540462438 ], [ 5.833692067530795, 50.887694963589652 ], [ 5.836117547703695, 50.89071910241131 ], [ 5.836506054304119, 50.89152445380504 ], [ 5.833157326599418, 50.892118788525195 ], [ 5.830606889852818, 50.890976376829606 ], [ 5.828992232676123, 50.889871804193746 ], [ 5.827806495497859, 50.889452544936276 ], [ 5.827174355703423, 50.889065313347778 ], [ 5.82622639653076, 50.888027954114158 ], [ 5.825753751957189, 50.887779428023023 ], [ 5.82547935979581, 50.887851569815801 ], [ 5.824478400916503, 50.887002576609746 ], [ 5.822497131915604, 50.88650435339931 ], [ 5.821247992898058, 50.885997376371819 ], [ 5.820278198505763, 50.88534613937864 ], [ 5.819358412331246, 50.884340293301499 ], [ 5.819460276847706, 50.884195293880602 ], [ 5.819223691039335, 50.883744551755683 ], [ 5.817346527112442, 50.884394684890388 ], [ 5.816999155370811, 50.884865126233102 ], [ 5.814944058050748, 50.886148821727431 ], [ 5.814736576923543, 50.88621899620567 ], [ 5.814051427298601, 50.885978024609955 ], [ 5.812122918455863, 50.886916253680539 ], [ 5.809855765960327, 50.887747422799904 ], [ 5.808939223099751, 50.88774627464371 ], [ 5.807037052523871, 50.887337567721048 ], [ 5.80239054930542, 50.886981512840308 ], [ 5.799820986858296, 50.88557512437518 ], [ 5.798371933192449, 50.887827354455105 ], [ 5.797843202841772, 50.88833785714607 ], [ 5.797119684097284, 50.889892459996432 ], [ 5.797263537146693, 50.890244687676272 ], [ 5.796964987198964, 50.890661272183372 ], [ 5.796604305184686, 50.892306946271233 ], [ 5.797512381714355, 50.895058233142969 ], [ 5.796491266535748, 50.894925067189867 ], [ 5.794021612935701, 50.894033104290692 ], [ 5.792572293542849, 50.893259385475304 ], [ 5.792581920313999, 50.892830954761159 ], [ 5.79196371841643, 50.892619470610128 ], [ 5.791910323111579, 50.892777965990696 ], [ 5.79224785137666, 50.893005551053697 ], [ 5.790880254296761, 50.894816717567025 ], [ 5.790558182909941, 50.895024040258292 ], [ 5.789218244474772, 50.895262219824716 ], [ 5.787998611347635, 50.896042713667384 ], [ 5.787676863487666, 50.896372226776997 ], [ 5.78779890364203, 50.896965627636106 ], [ 5.787300380329617, 50.897596510757417 ] ] ] } }
]
}
