{
"type": "FeatureCollection",
"name": "SWVPO2401",
"crs": { "type": "name", "properties": { "name": "urn:ogc:def:crs:OGC:1.3:CRS84" } },
"features": [
{ "type": "Feature", "properties": { "PO SWV": "PO2401", "strokeColor": "#A9A9A9", "strokeWidth": 2, "fillColor": "#ADD8E6" }, "geometry": { "type": "MultiPolygon", "coordinates": [ [ [ [ 5.121117520594196, 52.384662149376531 ], [ 5.121293001885143, 52.38493310471172 ], [ 5.161360449441271, 52.399595714397549 ], [ 5.161571219966507, 52.399896600298007 ], [ 5.208058992560906, 52.416904262765222 ], [ 5.208231805400562, 52.416977607581074 ], [ 5.20820940478659, 52.417284386914929 ], [ 5.208692745532765, 52.41741276823246 ], [ 5.208927405491142, 52.41723833877839 ], [ 5.210648135757768, 52.417857686451086 ], [ 5.210728506007875, 52.418156390448331 ], [ 5.211109926589292, 52.418314869976079 ], [ 5.211454726974721, 52.418147957586484 ], [ 5.226649392796024, 52.423689164863539 ], [ 5.227222909284182, 52.423705008843321 ], [ 5.227393958914239, 52.423430591301369 ], [ 5.227210507441264, 52.423245075325774 ], [ 5.208663066174612, 52.416464526708914 ], [ 5.216950125522167, 52.416532364077462 ], [ 5.220370920283739, 52.417772423898462 ], [ 5.219930780006338, 52.418268346476069 ], [ 5.220074965996509, 52.418451302062763 ], [ 5.222161439441718, 52.417988388973882 ], [ 5.222295944654666, 52.418069267802622 ], [ 5.222234951558451, 52.418258425252986 ], [ 5.221670867107123, 52.418899043414321 ], [ 5.221862086202367, 52.419125991601874 ], [ 5.222740496275993, 52.418454540258303 ], [ 5.223957581984524, 52.417903874687404 ], [ 5.224477028520895, 52.418090129226009 ], [ 5.224300834957262, 52.418852028602679 ], [ 5.224502682730905, 52.419248139969213 ], [ 5.228417165358882, 52.420714536837806 ], [ 5.232481192946529, 52.425172153012177 ], [ 5.230229093574007, 52.424351229913874 ], [ 5.229759145993959, 52.424475212298027 ], [ 5.229723016922214, 52.42470441596285 ], [ 5.229885288513608, 52.424869026191836 ], [ 5.254843038882034, 52.433995035322397 ], [ 5.331032432981054, 52.466823764158988 ], [ 5.331079008943833, 52.466620038072364 ], [ 5.331704083028886, 52.466634459396552 ], [ 5.331352992441462, 52.466467332246665 ], [ 5.331370027133552, 52.466282509874169 ], [ 5.348254892739876, 52.447953236748482 ], [ 5.348961707545763, 52.447466681060597 ], [ 5.350945949767438, 52.446939932164113 ], [ 5.373597051966392, 52.442744583329763 ], [ 5.407794877240531, 52.445207699881493 ], [ 5.40823508301582, 52.445024480901345 ], [ 5.407340866210709, 52.441344692873137 ], [ 5.406634793324243, 52.439324859987096 ], [ 5.405368047753464, 52.436901219839463 ], [ 5.404700065043409, 52.435904366703419 ], [ 5.404241703730831, 52.435582749064707 ], [ 5.400470903208901, 52.433971264613433 ], [ 5.392580204376369, 52.433886711087865 ], [ 5.390522162484189, 52.434814394059558 ], [ 5.39027744113708, 52.433761150231611 ], [ 5.390594750846879, 52.432437201407254 ], [ 5.39122756776923, 52.431527596690842 ], [ 5.392362895532328, 52.430478477076527 ], [ 5.356252193176033, 52.414898577727172 ], [ 5.355428070215913, 52.41483261864888 ], [ 5.35262523488568, 52.415372021095529 ], [ 5.351965247230279, 52.415629646670695 ], [ 5.350938898625013, 52.415307010005669 ], [ 5.35072159610739, 52.413955385456639 ], [ 5.350194869027893, 52.413790862101244 ], [ 5.35026986352317, 52.413459839357046 ], [ 5.348234749091636, 52.413219096295251 ], [ 5.348036582909811, 52.413086321842243 ], [ 5.348035030297564, 52.412889806544527 ], [ 5.34712847197571, 52.41279843878862 ], [ 5.347031672368072, 52.412456796268458 ], [ 5.346033201140877, 52.412400946943805 ], [ 5.346198230945813, 52.412181399760115 ], [ 5.34683797843373, 52.412089858028565 ], [ 5.347879893625642, 52.411631866739341 ], [ 5.348125839453492, 52.411414664189245 ], [ 5.348067622632327, 52.411076202016773 ], [ 5.348867241072028, 52.410641450035605 ], [ 5.343160281086333, 52.4081841754615 ], [ 5.343149015000546, 52.408831330963757 ], [ 5.342775383283755, 52.409291485158633 ], [ 5.342004848895654, 52.40912954275381 ], [ 5.341798991371872, 52.408736636325088 ], [ 5.341930707522042, 52.408115228588855 ], [ 5.341495944300181, 52.407810472887398 ], [ 5.341651119818535, 52.407533891597005 ], [ 5.339249573178352, 52.406485820689063 ], [ 5.339507443338585, 52.405629853733025 ], [ 5.339871392076061, 52.405481013346183 ], [ 5.339502292566027, 52.405332509980539 ], [ 5.339478355412276, 52.405187309549284 ], [ 5.340983654541465, 52.40404871424554 ], [ 5.338230209956658, 52.402927501653544 ], [ 5.338206654789811, 52.402724624617242 ], [ 5.338741466977059, 52.402422630162619 ], [ 5.33859741236499, 52.402258521014687 ], [ 5.338847632492724, 52.401984894642013 ], [ 5.337414239809573, 52.401466640657489 ], [ 5.336764767114378, 52.401740069150968 ], [ 5.331519487590892, 52.399876582088844 ], [ 5.331515563829601, 52.399706174421503 ], [ 5.333123744853415, 52.397628932866297 ], [ 5.330346318719644, 52.399507295197694 ], [ 5.309589944749761, 52.392564100483746 ], [ 5.309630514513571, 52.392205460974807 ], [ 5.310820837693131, 52.390868372587782 ], [ 5.310516800072786, 52.390462404788224 ], [ 5.313118189523143, 52.388344600165283 ], [ 5.315950085654498, 52.389381460779219 ], [ 5.318986001503856, 52.38940588351813 ], [ 5.32080919549234, 52.389820527295058 ], [ 5.316969777937825, 52.388388239595052 ], [ 5.316894792005073, 52.38818128939252 ], [ 5.316078919236702, 52.387885427539246 ], [ 5.316028550939489, 52.387712692026057 ], [ 5.314616916171987, 52.387191872149245 ], [ 5.314616609906521, 52.387021085318047 ], [ 5.315273419975307, 52.386484102943975 ], [ 5.313537564906018, 52.385855232999951 ], [ 5.313006607513018, 52.386347217913162 ], [ 5.302046939739163, 52.38251973281865 ], [ 5.299531007588067, 52.381527230835573 ], [ 5.29741578086064, 52.380376690989458 ], [ 5.297601659323878, 52.379920016117225 ], [ 5.298047717161005, 52.379440831726349 ], [ 5.299250192522498, 52.378800752542062 ], [ 5.303137674196231, 52.378131435964661 ], [ 5.304158036741871, 52.377777340292589 ], [ 5.305303161409321, 52.377131182631473 ], [ 5.306294368144263, 52.377421445267984 ], [ 5.378928299225838, 52.314350678862816 ], [ 5.379063851883849, 52.314069770236948 ], [ 5.353992911589479, 52.309506482714205 ], [ 5.351499338267407, 52.309335438070612 ], [ 5.348960740240385, 52.309402132477501 ], [ 5.348601948590873, 52.30926679868103 ], [ 5.348170008413598, 52.309479927707656 ], [ 5.344207848673541, 52.310266953775013 ], [ 5.333484387989852, 52.31437160516596 ], [ 5.320169026675877, 52.305443437334546 ], [ 5.317113485328656, 52.303645621591137 ], [ 5.317128101719943, 52.303475084784253 ], [ 5.31598416204381, 52.304037787027717 ], [ 5.313948339308188, 52.303011620409642 ], [ 5.313967968090448, 52.303177081353311 ], [ 5.313367425572299, 52.303462441779679 ], [ 5.315230833626119, 52.304406284347337 ], [ 5.302386723076815, 52.310309780315571 ], [ 5.292034237721318, 52.314484698646233 ], [ 5.284317804554814, 52.317285676048392 ], [ 5.274008758289876, 52.320665356081442 ], [ 5.266112363616437, 52.32299676030329 ], [ 5.257273770112563, 52.325329767539856 ], [ 5.246419211640478, 52.327835799305888 ], [ 5.235080975307601, 52.330052654038752 ], [ 5.223668596649217, 52.332067552369118 ], [ 5.223425171452196, 52.331857111612351 ], [ 5.223080358582172, 52.331903139952168 ], [ 5.221303657981436, 52.331266674696572 ], [ 5.22047667590042, 52.3307041796864 ], [ 5.220344203838142, 52.330909591712611 ], [ 5.22058452481282, 52.331047345964322 ], [ 5.220818353568098, 52.331657413480734 ], [ 5.220110533609345, 52.332533759993609 ], [ 5.221200551485876, 52.332457910866246 ], [ 5.221471344980973, 52.33307231450717 ], [ 5.220868038330745, 52.333725049223922 ], [ 5.220147257334935, 52.333867058589135 ], [ 5.219419038614559, 52.333620679246792 ], [ 5.219150499413952, 52.333091134172179 ], [ 5.220084028048415, 52.332167833919229 ], [ 5.220224145690991, 52.331792447229084 ], [ 5.219352289241568, 52.331359299551742 ], [ 5.219112411794688, 52.330969730511079 ], [ 5.218800024242564, 52.331032842780033 ], [ 5.218884978484011, 52.331478602761599 ], [ 5.218273937408512, 52.332117415508968 ], [ 5.215901723854372, 52.331249155187223 ], [ 5.216870625285161, 52.33029902286453 ], [ 5.217890015733176, 52.330628161949555 ], [ 5.218810859588089, 52.330438968609165 ], [ 5.219621551664495, 52.330683817721756 ], [ 5.219802974318106, 52.330593889568661 ], [ 5.219784478373207, 52.330413527255423 ], [ 5.216378626597927, 52.329290834734579 ], [ 5.212932343833238, 52.329857944021924 ], [ 5.212536763343329, 52.330104499039237 ], [ 5.212734045436907, 52.331224426082677 ], [ 5.212830308246419, 52.331560526515844 ], [ 5.213408790082523, 52.332070949830431 ], [ 5.213019103300057, 52.332585731022377 ], [ 5.212407486773984, 52.332933579688152 ], [ 5.212105810562489, 52.332997532948504 ], [ 5.211785929341861, 52.332665848858866 ], [ 5.211579414417533, 52.332709808859263 ], [ 5.211657707880505, 52.332990179356045 ], [ 5.210998948846291, 52.333503359201536 ], [ 5.210345220674801, 52.333653455493383 ], [ 5.20958853423232, 52.333560456245806 ], [ 5.209428747029122, 52.333284778957008 ], [ 5.209611222296746, 52.332860706289679 ], [ 5.208368572753789, 52.332435935825465 ], [ 5.206288362593731, 52.333202999390764 ], [ 5.206073650967491, 52.333470419720634 ], [ 5.20588268795121, 52.334541058178615 ], [ 5.204729078506623, 52.335415451395761 ], [ 5.200222193580633, 52.336097854907166 ], [ 5.196507904301226, 52.336374595209712 ], [ 5.191381484370888, 52.336282607406538 ], [ 5.186446118407265, 52.335659648444128 ], [ 5.179165565036206, 52.334231427341088 ], [ 5.178973088650758, 52.334031728550464 ], [ 5.178417951632898, 52.333924735070198 ], [ 5.178249438586157, 52.334045671201693 ], [ 5.166881807081253, 52.331765666277292 ], [ 5.157501770373663, 52.329138420367613 ], [ 5.155772863358343, 52.328912667148138 ], [ 5.152984661498797, 52.329027739576205 ], [ 5.152204134407221, 52.328836502484762 ], [ 5.151168569474221, 52.327859158926188 ], [ 5.151025650412766, 52.328048939646948 ], [ 5.151509294961233, 52.328543535347407 ], [ 5.15122093859621, 52.328815422486379 ], [ 5.150155341236839, 52.329077139475032 ], [ 5.149152479535724, 52.329014110416033 ], [ 5.1474204485926, 52.328425393319613 ], [ 5.146517254232807, 52.327665004970967 ], [ 5.146055266020573, 52.327673148258285 ], [ 5.1448736664891, 52.32699885980972 ], [ 5.144494735277448, 52.326225015373566 ], [ 5.144496972055331, 52.325690512264252 ], [ 5.145207336261659, 52.325600792417404 ], [ 5.1453094562973, 52.325445046101898 ], [ 5.144829490409274, 52.324758947248284 ], [ 5.144998131075606, 52.32393402243958 ], [ 5.144486116374744, 52.323776075745556 ], [ 5.142328945587368, 52.32493433550443 ], [ 5.14046091717633, 52.326239893854932 ], [ 5.13886791160516, 52.325429395595783 ], [ 5.138890841561, 52.325591585506437 ], [ 5.138279273492239, 52.325990973151796 ], [ 5.139774300591489, 52.326745688404117 ], [ 5.137770978526403, 52.328342268216957 ], [ 5.136856492816297, 52.329346006933591 ], [ 5.137025342316564, 52.32954013273212 ], [ 5.137281352791602, 52.329530914673335 ], [ 5.137729417557932, 52.329056871210383 ], [ 5.138046857220609, 52.329058900868716 ], [ 5.138383969749035, 52.328809182985182 ], [ 5.138593905797832, 52.328426363253897 ], [ 5.139237411316763, 52.328134549404702 ], [ 5.140285032222872, 52.32811550881604 ], [ 5.141282381112295, 52.328359966885948 ], [ 5.143539047611839, 52.32971085995009 ], [ 5.144827472164407, 52.331443248755214 ], [ 5.144732246032402, 52.331805972629873 ], [ 5.144145403349662, 52.332047168453713 ], [ 5.143653121317946, 52.332861758857881 ], [ 5.143041907408324, 52.333226836607658 ], [ 5.140383608130263, 52.334041403769156 ], [ 5.139014624807737, 52.334964388335422 ], [ 5.137699949480643, 52.336388282106391 ], [ 5.136839911400228, 52.336952050469847 ], [ 5.135031398447183, 52.337739821195918 ], [ 5.134079933046491, 52.337822238530357 ], [ 5.134087071198515, 52.338002663954242 ], [ 5.135140619339088, 52.338667889944617 ], [ 5.13595591652805, 52.33883086328099 ], [ 5.135963885380634, 52.339002382768264 ], [ 5.135659739701234, 52.339148081872871 ], [ 5.134148910514806, 52.338310488719529 ], [ 5.13280799721167, 52.337896988493078 ], [ 5.132933683770958, 52.337659200607511 ], [ 5.132229390339913, 52.337478072426336 ], [ 5.132345442168848, 52.337149159754226 ], [ 5.13221284378112, 52.336993886430058 ], [ 5.130902520823567, 52.337570605983146 ], [ 5.130791004228725, 52.337892200578807 ], [ 5.130925771160859, 52.338317046906575 ], [ 5.132113932399146, 52.33821512639264 ], [ 5.13451670404523, 52.341093959992726 ], [ 5.134480708131376, 52.341306664044879 ], [ 5.132678555952488, 52.342055356487123 ], [ 5.131783693981144, 52.342343387786208 ], [ 5.129763547430658, 52.339780694953731 ], [ 5.129455660634426, 52.33873704081163 ], [ 5.130212441144516, 52.33826011198822 ], [ 5.130154869183081, 52.337754218412215 ], [ 5.12985351869605, 52.337759156901207 ], [ 5.12984708986825, 52.338090372235513 ], [ 5.129065505182727, 52.338654618740648 ], [ 5.129418563498797, 52.339930418387091 ], [ 5.131106257373419, 52.341957308923199 ], [ 5.130862235230047, 52.343834928952347 ], [ 5.131073958013064, 52.343853469096828 ], [ 5.131258669277029, 52.343565648367658 ], [ 5.131905128713289, 52.343659514775709 ], [ 5.131958435285708, 52.34383200969085 ], [ 5.132561159694526, 52.344023780150181 ], [ 5.13277052792174, 52.344003846689745 ], [ 5.132770361646992, 52.343819993896176 ], [ 5.132852186150482, 52.343797948351202 ], [ 5.132901580180148, 52.343951115907004 ], [ 5.133336783269095, 52.34410412921882 ], [ 5.133464541191445, 52.34390789533483 ], [ 5.133762097821397, 52.343954639585888 ], [ 5.133273168981773, 52.344198975081071 ], [ 5.133212181057727, 52.344593086902997 ], [ 5.133437398110226, 52.344640405095348 ], [ 5.133603866027511, 52.344321485806702 ], [ 5.134030091757882, 52.344750454418119 ], [ 5.13363988583748, 52.345179700199054 ], [ 5.133392216012041, 52.34513868405508 ], [ 5.133369067748763, 52.344810409763099 ], [ 5.133096893345038, 52.344877946048058 ], [ 5.133100154170337, 52.345252250892713 ], [ 5.13355551097575, 52.345584806962052 ], [ 5.133530818622167, 52.345736603702967 ], [ 5.132983324448157, 52.346023289164457 ], [ 5.132945445574069, 52.346383657931902 ], [ 5.133167419845647, 52.346433288129866 ], [ 5.13335410449741, 52.34611506195796 ], [ 5.133771933507835, 52.346505735589211 ], [ 5.133416918279326, 52.346902933639321 ], [ 5.133147824716183, 52.346900538231615 ], [ 5.133175028639927, 52.346615742503147 ], [ 5.132966824273063, 52.346578883343263 ], [ 5.13284118775002, 52.347095606239833 ], [ 5.133515834099541, 52.347550350741628 ], [ 5.13412282889093, 52.347609821309554 ], [ 5.13165147831342, 52.36377323841608 ], [ 5.131236624086298, 52.365233640602206 ], [ 5.130066484798817, 52.366947698417739 ], [ 5.122777579006576, 52.374440681588162 ], [ 5.122099672444973, 52.376114547738915 ], [ 5.122161269109467, 52.377624091942295 ], [ 5.122388494874552, 52.378351052548304 ], [ 5.122933907919934, 52.379253997385334 ], [ 5.124235206225741, 52.380614651523452 ], [ 5.125604719478351, 52.381422412453219 ], [ 5.128142904735946, 52.382486426466997 ], [ 5.128440104817575, 52.382810096677318 ], [ 5.127140252521657, 52.38420328918852 ], [ 5.127186617874527, 52.384377474671957 ], [ 5.127379409874939, 52.384392852740255 ], [ 5.12873665414209, 52.38296507779333 ], [ 5.128911080726213, 52.382981907733836 ], [ 5.141025629183859, 52.387430217813964 ], [ 5.139703129107743, 52.388783824940028 ], [ 5.13977993155738, 52.388982952157015 ], [ 5.139970935726918, 52.388954434808326 ], [ 5.141373374975451, 52.387564856915048 ], [ 5.156502409865177, 52.39309838023199 ], [ 5.157470463954074, 52.39392750941574 ], [ 5.161635921514074, 52.399372882220852 ], [ 5.12548042774097, 52.386093741477623 ], [ 5.121378983910587, 52.384623804172946 ], [ 5.121117520594196, 52.384662149376531 ] ], [ [ 5.132611215816646, 52.343779882714159 ], [ 5.132555871143811, 52.343766128978437 ], [ 5.132616078000412, 52.343780780053066 ], [ 5.132611215816646, 52.343779882714159 ] ] ], [ [ [ 5.329832378510405, 52.396746131961173 ], [ 5.32907568291453, 52.397517371238209 ], [ 5.328755941651681, 52.397824807979781 ], [ 5.329632934233945, 52.397514435404453 ], [ 5.329832378510405, 52.396746131961173 ] ] ] ] } }
]
}
