{
"type": "FeatureCollection",
"name": "SWVPO2804",
"crs": { "type": "name", "properties": { "name": "urn:ogc:def:crs:OGC:1.3:CRS84" } },
"features": [
{ "type": "Feature", "properties": { "PO SWV": "PO2804", "strokeColor": "#A9A9A9", "strokeWidth": 2, "fillColor": "#ADD8E6" }, "geometry": { "type": "MultiPolygon", "coordinates": [ [ [ [ 4.227506832240296, 51.781487493842576 ], [ 4.228016049550843, 51.782147492315111 ], [ 4.228703119530332, 51.782519190422718 ], [ 4.229586463907319, 51.782719521318079 ], [ 4.230709663585564, 51.782707857805043 ], [ 4.231770469782882, 51.782378792526565 ], [ 4.232462647156956, 51.781790085326087 ], [ 4.232507161633583, 51.781295355807856 ], [ 4.232263746241274, 51.780773805747046 ], [ 4.232268765253433, 51.780190835053084 ], [ 4.232298123940343, 51.780120792792275 ], [ 4.232372195524426, 51.780849884019553 ], [ 4.233287758823816, 51.781237989830544 ], [ 4.233803814367344, 51.780788625538577 ], [ 4.234430501170772, 51.780516404869118 ], [ 4.234814464124897, 51.780691642064362 ], [ 4.235214410880553, 51.780657365937309 ], [ 4.235291339677077, 51.780410894882237 ], [ 4.23566893671502, 51.78020944847303 ], [ 4.236087144511335, 51.780261496466856 ], [ 4.237612626668918, 51.77993596973166 ], [ 4.238461412306714, 51.780290571635568 ], [ 4.239053632286489, 51.780240087823501 ], [ 4.239767354140484, 51.778841422484902 ], [ 4.240077185803518, 51.777026692290661 ], [ 4.241011110491884, 51.776221001031494 ], [ 4.240724089807365, 51.775525891748494 ], [ 4.240790123202633, 51.775155018941355 ], [ 4.241266510528959, 51.774125607746605 ], [ 4.2416301959221, 51.7737977437802 ], [ 4.241285323708651, 51.77421255220986 ], [ 4.241128792006687, 51.774866245077675 ], [ 4.240899182439374, 51.775163608399268 ], [ 4.241493017244222, 51.776463657214251 ], [ 4.242721319719365, 51.777150524281488 ], [ 4.243994858322825, 51.777490520675592 ], [ 4.244194281599515, 51.777347299375052 ], [ 4.244235417139724, 51.776424208568159 ], [ 4.244335430393612, 51.776339051634096 ], [ 4.24462880702681, 51.776286924161532 ], [ 4.24433856722627, 51.776439249539933 ], [ 4.244329786310383, 51.7772987636069 ], [ 4.24403371576952, 51.777540749943711 ], [ 4.242769974079848, 51.777214265954598 ], [ 4.241528881202095, 51.776614672553407 ], [ 4.240996998979626, 51.776725096640448 ], [ 4.240581669183265, 51.777567471276122 ], [ 4.24068288295591, 51.77817287809841 ], [ 4.240221688835026, 51.779323544407148 ], [ 4.240578742876809, 51.779783974040996 ], [ 4.241039834841601, 51.77995693264981 ], [ 4.240545405277539, 51.780441437240725 ], [ 4.24083318522321, 51.780941981607086 ], [ 4.241149281480009, 51.781153267237542 ], [ 4.242130169329358, 51.781181877616589 ], [ 4.242880986321119, 51.781423417294889 ], [ 4.243144613290579, 51.781339101482935 ], [ 4.244459831841887, 51.782377432757592 ], [ 4.245083095878122, 51.782530341222802 ], [ 4.24621692601536, 51.783116735088065 ], [ 4.247486154476297, 51.784050190038954 ], [ 4.249094599108269, 51.784374277972361 ], [ 4.248358143084301, 51.7844151068416 ], [ 4.246584759829747, 51.785249175785886 ], [ 4.252955311626315, 51.79228938247654 ], [ 4.259621526217489, 51.798230101542458 ], [ 4.261317526134415, 51.800005904634261 ], [ 4.263279384133529, 51.802581100863286 ], [ 4.265651208076593, 51.803880803104519 ], [ 4.268617483089622, 51.80474125705225 ], [ 4.270209757189679, 51.804979573195233 ], [ 4.27310610271869, 51.804998104860069 ], [ 4.280045026209182, 51.803761460410151 ], [ 4.283710925020312, 51.803642028730664 ], [ 4.28825540535724, 51.803190820653633 ], [ 4.293200653959353, 51.802432834263755 ], [ 4.295932467050637, 51.803733117842064 ], [ 4.298089228847321, 51.803238486958591 ], [ 4.303737092726963, 51.807277161750633 ], [ 4.305901182706371, 51.808504844554378 ], [ 4.307397804391012, 51.809089392152899 ], [ 4.312951081762049, 51.810404791719435 ], [ 4.321351412900014, 51.811937070489108 ], [ 4.330726000153971, 51.812851595512456 ], [ 4.3324959344823, 51.813429945758408 ], [ 4.336160971067342, 51.815812929780044 ], [ 4.337124519730645, 51.816346369354015 ], [ 4.338167426008681, 51.81667243146682 ], [ 4.339960596209508, 51.81673376662647 ], [ 4.344356368958765, 51.817312255640523 ], [ 4.354533386157805, 51.819091377192805 ], [ 4.355972811124447, 51.819086194270909 ], [ 4.360324701249908, 51.818496876840051 ], [ 4.366158009170347, 51.817127483199023 ], [ 4.367624102569837, 51.816860203774802 ], [ 4.369102293575621, 51.816883462252044 ], [ 4.371998758979751, 51.818211646806361 ], [ 4.374859208977713, 51.820006683128419 ], [ 4.376297219555949, 51.820577024276623 ], [ 4.380591653042127, 51.823221658828771 ], [ 4.397159762665985, 51.831177688933153 ], [ 4.399322958141659, 51.831314771560635 ], [ 4.403918031209742, 51.830588856394023 ], [ 4.415417174187204, 51.829577588780182 ], [ 4.418336476197736, 51.829487555711459 ], [ 4.421017832665104, 51.829775568069778 ], [ 4.421924009195595, 51.830055418674796 ], [ 4.421996740088955, 51.831506911422089 ], [ 4.423540492521765, 51.832439399737325 ], [ 4.424007173306712, 51.831054635407611 ], [ 4.424148245723361, 51.831003597875871 ], [ 4.43249713710801, 51.83693429593076 ], [ 4.439989321804213, 51.834448039554957 ], [ 4.444186336283448, 51.833249786244245 ], [ 4.449711711104668, 51.832124867937395 ], [ 4.453767670089943, 51.83172029790142 ], [ 4.461158060160645, 51.83155484765085 ], [ 4.467131052782102, 51.831844512800039 ], [ 4.473198560070919, 51.832712446540853 ], [ 4.478986335802248, 51.834115616919 ], [ 4.482310451298956, 51.834589168172727 ], [ 4.482387441192738, 51.830689001032717 ], [ 4.492034026161452, 51.830149654488416 ], [ 4.495269684153319, 51.829514781477805 ], [ 4.498556659144241, 51.831375869539457 ], [ 4.50065765465687, 51.83145028117751 ], [ 4.502200072496628, 51.834761946877173 ], [ 4.50506085592075, 51.83421906899617 ], [ 4.519639145593381, 51.830626923883351 ], [ 4.522559487405313, 51.830047972977233 ], [ 4.525468032310524, 51.829754734310804 ], [ 4.528381495793099, 51.829803649619798 ], [ 4.531282782290933, 51.830099539623227 ], [ 4.537066343820259, 51.83122912317706 ], [ 4.53995731190836, 51.831564576837522 ], [ 4.545749345018323, 51.831844937829487 ], [ 4.548638606440207, 51.831663791532705 ], [ 4.552533212636394, 51.830341302372247 ], [ 4.554439250054068, 51.829333948627273 ], [ 4.555764552794212, 51.828359111570613 ], [ 4.557156435521139, 51.826805160000582 ], [ 4.559168404100437, 51.823246027572758 ], [ 4.560067797134442, 51.819655226933953 ], [ 4.561099088169078, 51.817876043340206 ], [ 4.562575177493517, 51.816061132026462 ], [ 4.564398570942831, 51.814252888624125 ], [ 4.56635038703529, 51.812923121589463 ], [ 4.570248832036785, 51.810929865708218 ], [ 4.574656418433617, 51.80935337365262 ], [ 4.57953285143673, 51.80790588168918 ], [ 4.582664961950011, 51.807405050644391 ], [ 4.59335007580678, 51.806678405269047 ], [ 4.599018527312339, 51.806007075231747 ], [ 4.602874317215763, 51.805150445973815 ], [ 4.617303348418011, 51.801389915547183 ], [ 4.62113695182756, 51.8007164075429 ], [ 4.622647969569894, 51.793710843872788 ], [ 4.623757757962866, 51.790871349553058 ], [ 4.626009676966003, 51.786593228915301 ], [ 4.626750135943205, 51.784708241261896 ], [ 4.629510487810292, 51.784589833511937 ], [ 4.629236893079957, 51.784046046116337 ], [ 4.629805801508589, 51.782209616734001 ], [ 4.630081999227638, 51.780064030427653 ], [ 4.63010770130876, 51.777637692598404 ], [ 4.629773823433908, 51.775052930774258 ], [ 4.629084817930122, 51.77184886045675 ], [ 4.629146378367979, 51.771663602577469 ], [ 4.629383478627457, 51.771629834937194 ], [ 4.629558152056819, 51.769719806985066 ], [ 4.62896329573342, 51.768041776460606 ], [ 4.628881275284686, 51.767029431147144 ], [ 4.628629254108266, 51.766348924673046 ], [ 4.628567001823455, 51.764614484935855 ], [ 4.629220014187833, 51.760611402963839 ], [ 4.62701022401937, 51.760282473275112 ], [ 4.628149331482653, 51.757217400415087 ], [ 4.630641988428181, 51.75159646032931 ], [ 4.63125703121992, 51.749166331906324 ], [ 4.631494868055641, 51.747240102774811 ], [ 4.631419115860234, 51.743996786872344 ], [ 4.630466658910117, 51.739370205652136 ], [ 4.628891179827077, 51.734211399231 ], [ 4.627175705621016, 51.729875729040607 ], [ 4.623505505568448, 51.721436131231606 ], [ 4.623559596589061, 51.721303141081258 ], [ 4.619627808867278, 51.722991211081002 ], [ 4.619361409740447, 51.722928595593523 ], [ 4.618872087193978, 51.72315745998101 ], [ 4.618704179593828, 51.72294240625898 ], [ 4.615994656175678, 51.721744073321226 ], [ 4.610697074892853, 51.718964103589109 ], [ 4.609068941396703, 51.718490153183453 ], [ 4.605959041896836, 51.716971261881291 ], [ 4.595821632461098, 51.715143032366377 ], [ 4.595687839243798, 51.714829710264489 ], [ 4.594896478347733, 51.714549814525512 ], [ 4.594430445794739, 51.714203303569775 ], [ 4.592875791035862, 51.713710775912169 ], [ 4.591716850039222, 51.713126003059045 ], [ 4.589706271730432, 51.712662980885732 ], [ 4.589609131618831, 51.712438500714299 ], [ 4.588865005663619, 51.712158454841514 ], [ 4.590035851264722, 51.71100776183345 ], [ 4.590013277842358, 51.710859857077395 ], [ 4.589817240946313, 51.710835169829103 ], [ 4.588647671537936, 51.711983228608318 ], [ 4.588404815757734, 51.711881449005126 ], [ 4.589675777099948, 51.710859407283692 ], [ 4.589604540837415, 51.710659635927932 ], [ 4.588441237697607, 51.711427364038215 ], [ 4.587876143785031, 51.711989946221962 ], [ 4.587533266728963, 51.711696694124456 ], [ 4.585842679944564, 51.711422760900831 ], [ 4.584872829994493, 51.711446259642159 ], [ 4.584354794153895, 51.711036415879576 ], [ 4.58385039577924, 51.711425709474661 ], [ 4.58316573539007, 51.711624964060064 ], [ 4.581707722471916, 51.71151592570034 ], [ 4.581260336180653, 51.711804713252256 ], [ 4.580986696491214, 51.711736163413327 ], [ 4.580575385181872, 51.711957333496905 ], [ 4.576875687794613, 51.710577888841563 ], [ 4.576122435200201, 51.710446295165625 ], [ 4.575252468247544, 51.71060592540249 ], [ 4.573745730403596, 51.710475155415949 ], [ 4.571823720558798, 51.710008618516468 ], [ 4.571858412417765, 51.709327265724419 ], [ 4.570489197708914, 51.70860724875012 ], [ 4.569910929533405, 51.708503797039995 ], [ 4.569054333444907, 51.707807002963115 ], [ 4.568336143520086, 51.707676554702502 ], [ 4.567501941121581, 51.707133986708712 ], [ 4.566550385760275, 51.706846217705014 ], [ 4.564934928142676, 51.706766089411623 ], [ 4.5634725519402, 51.706458561697197 ], [ 4.562065279195414, 51.705726322192277 ], [ 4.561108188007913, 51.70570497270775 ], [ 4.560987697089685, 51.705558393075862 ], [ 4.56116246911561, 51.705398782939255 ], [ 4.560994277455563, 51.705263245303676 ], [ 4.559804206554529, 51.705037325902481 ], [ 4.558390935311503, 51.704444344139425 ], [ 4.556752641863807, 51.704380453328312 ], [ 4.55660329154705, 51.70457939018624 ], [ 4.556044740788853, 51.704209275821469 ], [ 4.554945491513451, 51.704042190206494 ], [ 4.55356218188377, 51.704419891980947 ], [ 4.552431709172621, 51.704249823143307 ], [ 4.551301873849411, 51.704282306382183 ], [ 4.549018705340687, 51.703638747459046 ], [ 4.544579443629611, 51.703183467548079 ], [ 4.53833912716814, 51.702020984912991 ], [ 4.53842552016795, 51.701674816299672 ], [ 4.538278677711116, 51.701550172922232 ], [ 4.537992215679469, 51.701634966685468 ], [ 4.538059310351951, 51.701981681001051 ], [ 4.536583047892098, 51.701768522459382 ], [ 4.535408315150147, 51.701911647181134 ], [ 4.534450617937528, 51.701644840102936 ], [ 4.533761339676459, 51.701643788147443 ], [ 4.533422629384668, 51.701437638063318 ], [ 4.533166359193333, 51.701561480280624 ], [ 4.53306662107305, 51.701403285522652 ], [ 4.532455160328742, 51.701279814087478 ], [ 4.532408574960232, 51.700945672853493 ], [ 4.53137452539905, 51.700852645075038 ], [ 4.531306447689707, 51.700441117285628 ], [ 4.53042902648569, 51.700474075754151 ], [ 4.530272582788072, 51.701097010584107 ], [ 4.529321035972662, 51.701163057904594 ], [ 4.528868996355808, 51.700918584633754 ], [ 4.528721953390577, 51.70169442918538 ], [ 4.528446672623626, 51.701407451747116 ], [ 4.527938591279465, 51.7015658663734 ], [ 4.527319391269836, 51.701247560266161 ], [ 4.526916330972448, 51.701579635781279 ], [ 4.524779689591544, 51.7017808391684 ], [ 4.524345773502268, 51.701554842800334 ], [ 4.524140045767235, 51.701621893663919 ], [ 4.523960342238314, 51.701475647058942 ], [ 4.524070174753658, 51.701305570903976 ], [ 4.523957547493772, 51.70121087243718 ], [ 4.523046685912172, 51.701719812285063 ], [ 4.522546374351223, 51.701724712904898 ], [ 4.522384480084799, 51.701909939624215 ], [ 4.522462170367069, 51.702077368701801 ], [ 4.521365515264182, 51.70254278727711 ], [ 4.520193865873781, 51.702785226848576 ], [ 4.518172527599197, 51.702838117664022 ], [ 4.517237006883446, 51.703248083087345 ], [ 4.516244670581135, 51.703200838287998 ], [ 4.516250868719066, 51.703023717136304 ], [ 4.516079668427824, 51.702949102345677 ], [ 4.51581866366971, 51.703308812909597 ], [ 4.51472510728437, 51.703763636694937 ], [ 4.512135040268845, 51.704171709842171 ], [ 4.511819554057364, 51.704334385577212 ], [ 4.511775785670355, 51.704596883808186 ], [ 4.510645305008274, 51.705064339279893 ], [ 4.510430370542936, 51.705469634569212 ], [ 4.509888326319063, 51.705852670602489 ], [ 4.509356640965019, 51.705811535293414 ], [ 4.509065575657771, 51.706242451166723 ], [ 4.508690357948161, 51.706463689394795 ], [ 4.507130511088002, 51.706798894263144 ], [ 4.506230325572162, 51.70686021748579 ], [ 4.505844453723391, 51.706675605826881 ], [ 4.504540433890229, 51.706519955261982 ], [ 4.504003489977872, 51.706616393155684 ], [ 4.503937462398086, 51.706462769597266 ], [ 4.503480783028776, 51.706431860115337 ], [ 4.501822036031923, 51.706840289524941 ], [ 4.501202166688427, 51.707381896909673 ], [ 4.499808479064465, 51.707501434412542 ], [ 4.499372337092159, 51.707754235295823 ], [ 4.499023788483312, 51.707746090991513 ], [ 4.498129265924596, 51.70827292694279 ], [ 4.497487742947834, 51.708148525737343 ], [ 4.497363437842869, 51.708313611728535 ], [ 4.496687732366737, 51.708145538579288 ], [ 4.495482000680013, 51.708212870593506 ], [ 4.495334462871528, 51.7080347341006 ], [ 4.495125149511262, 51.708272417356547 ], [ 4.493776866439134, 51.70877613560198 ], [ 4.49379782481437, 51.709383862603346 ], [ 4.494029728840447, 51.70991565229172 ], [ 4.493500773704064, 51.709184921359935 ], [ 4.492562148387056, 51.707230816365225 ], [ 4.492122042296489, 51.706756609764973 ], [ 4.492027371827845, 51.706931310003405 ], [ 4.492290722253485, 51.707435120117658 ], [ 4.49125467359792, 51.708122256884394 ], [ 4.490392287901006, 51.708421153245943 ], [ 4.488529938610638, 51.708584634114061 ], [ 4.488580971927528, 51.708738867613128 ], [ 4.4889157064351, 51.708771411183136 ], [ 4.490463115150533, 51.708658916266835 ], [ 4.49138598468214, 51.708339163972283 ], [ 4.492463404118502, 51.707642640686402 ], [ 4.493007990086436, 51.708730212096967 ], [ 4.491938868141628, 51.709323410127098 ], [ 4.49078297366623, 51.710339379634569 ], [ 4.490267519391516, 51.710535558277549 ], [ 4.486240035286218, 51.711405878219225 ], [ 4.482587285644327, 51.711700775067818 ], [ 4.475415319834487, 51.712885168675371 ], [ 4.475217961998224, 51.712890962058324 ], [ 4.475415872401403, 51.712057601733918 ], [ 4.475237552200874, 51.711914552328601 ], [ 4.47473316330747, 51.713732313850308 ], [ 4.475080887958637, 51.71203866649924 ], [ 4.474879879769664, 51.711883911746241 ], [ 4.47455367277826, 51.713208862887782 ], [ 4.472449908120039, 51.713826929662297 ], [ 4.470987710388282, 51.714010647973204 ], [ 4.468805686829834, 51.714929747659802 ], [ 4.467211576471621, 51.714983148766322 ], [ 4.466974833679977, 51.715464119840163 ], [ 4.467243274684605, 51.716095462306413 ], [ 4.467141491267581, 51.716141268541264 ], [ 4.466750816451779, 51.716148901616279 ], [ 4.466786640228224, 51.715840683802703 ], [ 4.466502988877767, 51.715678901421512 ], [ 4.466310778708666, 51.714958135412793 ], [ 4.465880710912733, 51.714701865951128 ], [ 4.461963199405437, 51.714792497999504 ], [ 4.460235462089509, 51.715168995935002 ], [ 4.459841112348665, 51.715419772880082 ], [ 4.459258279693197, 51.717677669707761 ], [ 4.459676914949926, 51.715404126189384 ], [ 4.459435378808824, 51.715145764978288 ], [ 4.459522013876717, 51.714926548008378 ], [ 4.460542941055923, 51.714689975719118 ], [ 4.460503765993616, 51.714374342419376 ], [ 4.459225358481572, 51.71465952977767 ], [ 4.458944934989484, 51.715153197102772 ], [ 4.45798145805297, 51.715618440434028 ], [ 4.454054769913259, 51.715624445002248 ], [ 4.45348305921781, 51.715430159100023 ], [ 4.453149381487717, 51.715480467264399 ], [ 4.452884369374456, 51.715282780263315 ], [ 4.453594906578165, 51.715238295948325 ], [ 4.453705510536318, 51.715110548094479 ], [ 4.453611556165632, 51.714988096678802 ], [ 4.452349563603121, 51.715126867162567 ], [ 4.451848638041643, 51.715547609893449 ], [ 4.451954908348988, 51.716673409587926 ], [ 4.451531783804627, 51.717801465396136 ], [ 4.449729510228022, 51.717441087416354 ], [ 4.448745890010192, 51.71779938247014 ], [ 4.448048319604372, 51.717586537870929 ], [ 4.448510464091178, 51.717539163135584 ], [ 4.448468051872533, 51.717369742186463 ], [ 4.448245582348485, 51.717327251680331 ], [ 4.448320248687169, 51.716968897623083 ], [ 4.448883941372231, 51.717027302582267 ], [ 4.44901293403548, 51.717270894735627 ], [ 4.45029166816905, 51.717141618257763 ], [ 4.450403598846413, 51.716623831608636 ], [ 4.451381595629748, 51.716676428584769 ], [ 4.451479270543508, 51.716314374063387 ], [ 4.451341910472143, 51.715767902634248 ], [ 4.45166207506513, 51.715014373230076 ], [ 4.4515920836799, 51.714885886481142 ], [ 4.447863076453278, 51.715058517029689 ], [ 4.446138988519591, 51.715393367568929 ], [ 4.445680722379794, 51.71588230976667 ], [ 4.445714652647148, 51.716061452732454 ], [ 4.445881957038612, 51.716091030537235 ], [ 4.44609020384878, 51.715853325738756 ], [ 4.446737884294813, 51.716045555819356 ], [ 4.446913612078679, 51.715850596588304 ], [ 4.447826140028406, 51.715921991018277 ], [ 4.446246157070578, 51.716341770663121 ], [ 4.445690515452437, 51.716103416317722 ], [ 4.444888993770758, 51.716818310521447 ], [ 4.444898289420176, 51.716985858377953 ], [ 4.445266143008038, 51.717194135190404 ], [ 4.446590902731279, 51.717147482354491 ], [ 4.446483019940093, 51.717566475168205 ], [ 4.445388091405253, 51.717324882638998 ], [ 4.444867307848406, 51.717469424549975 ], [ 4.444054690046381, 51.717423036767386 ], [ 4.444145599642111, 51.717060583072886 ], [ 4.444513404229923, 51.717031283946419 ], [ 4.444914517065704, 51.716577753829988 ], [ 4.445410260608488, 51.715575928301298 ], [ 4.44521887628762, 51.715326284616367 ], [ 4.44439248502109, 51.71524140678342 ], [ 4.442941444368891, 51.715474051807654 ], [ 4.442605855119765, 51.715742757279784 ], [ 4.442227677203237, 51.716587207837499 ], [ 4.440905104070138, 51.716138423149424 ], [ 4.440190564025078, 51.715643166900428 ], [ 4.439449033069951, 51.715478770393041 ], [ 4.438710420592682, 51.715504590936398 ], [ 4.436537284502708, 51.716011263460004 ], [ 4.436562122974836, 51.714698898581048 ], [ 4.436429298878831, 51.714598649950304 ], [ 4.43620722387831, 51.716321276878055 ], [ 4.43531391850934, 51.71680646815549 ], [ 4.433326956698689, 51.717231819401903 ], [ 4.431413966087699, 51.717364802158372 ], [ 4.424820919175186, 51.718657691532592 ], [ 4.423959107437028, 51.718591398773668 ], [ 4.423872667752595, 51.71875210044464 ], [ 4.423040769860907, 51.719014509815516 ], [ 4.419276676198407, 51.719263970062492 ], [ 4.418846022175314, 51.718793310515224 ], [ 4.418149656316729, 51.718525373551081 ], [ 4.417400464798183, 51.717653716128268 ], [ 4.417109957785254, 51.717614709665988 ], [ 4.417028734863864, 51.717802776144119 ], [ 4.418950727871084, 51.719987729015017 ], [ 4.418975936977945, 51.720264098782884 ], [ 4.419389881618208, 51.720772333383778 ], [ 4.419049457681727, 51.720923060867058 ], [ 4.418448072313018, 51.720867974329458 ], [ 4.417054943321278, 51.719097509665446 ], [ 4.416170142548236, 51.717576068700239 ], [ 4.415905164663836, 51.717523095731273 ], [ 4.415801537690712, 51.717756454833399 ], [ 4.416563226467081, 51.718899021511206 ], [ 4.416241559279259, 51.719189191439945 ], [ 4.414473044596237, 51.72009908108047 ], [ 4.412219755207074, 51.720856936403635 ], [ 4.409647117108315, 51.721107287913469 ], [ 4.40921243215356, 51.720819506311706 ], [ 4.40919639796475, 51.721075458393706 ], [ 4.408658868034095, 51.721505653869364 ], [ 4.407403914430443, 51.722120842904133 ], [ 4.406147959192615, 51.72195837703633 ], [ 4.405781313637057, 51.721279872209635 ], [ 4.40472373311775, 51.720313019576729 ], [ 4.403862943440195, 51.72015932453759 ], [ 4.398316092756748, 51.711282188467827 ], [ 4.398263407344608, 51.711428872061489 ], [ 4.397813908180287, 51.711465351020273 ], [ 4.403304970156579, 51.720286552946959 ], [ 4.400506152568935, 51.72122220281549 ], [ 4.399902566662012, 51.72155044684078 ], [ 4.399544715842578, 51.722038176271496 ], [ 4.39960602245515, 51.72248488369781 ], [ 4.399871867121095, 51.722580349712246 ], [ 4.399904130211741, 51.72205858841523 ], [ 4.400102073826925, 51.72179952773164 ], [ 4.400826484691304, 51.721534246401248 ], [ 4.40162817196492, 51.72150468485475 ], [ 4.401959055615642, 51.721262743150966 ], [ 4.402878930291982, 51.721479478101891 ], [ 4.403392002766647, 51.721858943926179 ], [ 4.40386648887608, 51.72252640777446 ], [ 4.404117721441655, 51.723299676953694 ], [ 4.402177450283407, 51.724281254967451 ], [ 4.400449848310897, 51.724910528311419 ], [ 4.398231294905926, 51.725119913126122 ], [ 4.398185737652201, 51.725440327488627 ], [ 4.39692630583435, 51.726156442825875 ], [ 4.393083296580236, 51.72743438179954 ], [ 4.39330980314383, 51.727883798127863 ], [ 4.392716422822588, 51.727544611279804 ], [ 4.385329661517838, 51.730339609341058 ], [ 4.38468848142302, 51.730471642599234 ], [ 4.384323431789773, 51.730205687654845 ], [ 4.384254533681638, 51.730343942674978 ], [ 4.384514504726914, 51.730953931072023 ], [ 4.383563672906075, 51.731659944445909 ], [ 4.371119614978342, 51.735030783258892 ], [ 4.370887139046368, 51.735558100451584 ], [ 4.370075252990369, 51.73602503740392 ], [ 4.364489906359608, 51.73759156473286 ], [ 4.363386992747434, 51.737036180048371 ], [ 4.363323270321696, 51.737215129198511 ], [ 4.363720217895431, 51.737661917308024 ], [ 4.363226427511816, 51.737994342754014 ], [ 4.356508674528962, 51.740915713922057 ], [ 4.355922184186986, 51.740997015971431 ], [ 4.355603966297026, 51.740834815648569 ], [ 4.351960101904756, 51.742196171576296 ], [ 4.351933911392597, 51.742484266410827 ], [ 4.351590114227018, 51.742277397179826 ], [ 4.349782547162561, 51.743133629193927 ], [ 4.345823748059931, 51.744365059507224 ], [ 4.344992517755021, 51.744465494472934 ], [ 4.344625871007145, 51.744695806060946 ], [ 4.340268160818511, 51.745381347482514 ], [ 4.328730443077704, 51.748669236406386 ], [ 4.326875690099971, 51.749343245351447 ], [ 4.326053859388406, 51.74942654114939 ], [ 4.323025848153391, 51.750310898336629 ], [ 4.317257618850912, 51.751649087704195 ], [ 4.317104415427593, 51.751815904223534 ], [ 4.317125378261223, 51.752120214707062 ], [ 4.317665468012695, 51.75429491908109 ], [ 4.317498680661427, 51.754311661190847 ], [ 4.317510168876748, 51.753941094451207 ], [ 4.316695053217636, 51.751682424832801 ], [ 4.316532950534227, 51.752104309669626 ], [ 4.314475161351971, 51.752624343682548 ], [ 4.307287781835189, 51.753925117329466 ], [ 4.305258502117513, 51.754450311706201 ], [ 4.303331428913523, 51.754681784818793 ], [ 4.30319855898526, 51.754838779319861 ], [ 4.301175059485949, 51.755040990889242 ], [ 4.294474482269476, 51.756577735515449 ], [ 4.29307932933577, 51.756736547231824 ], [ 4.290618770622703, 51.757414665973386 ], [ 4.290139359098126, 51.757361614727117 ], [ 4.290089314220233, 51.757567906865027 ], [ 4.29043637331535, 51.757830302644422 ], [ 4.295862416894186, 51.756691078039132 ], [ 4.296200128789975, 51.757284856918844 ], [ 4.290159682093073, 51.758446579778806 ], [ 4.289900214793062, 51.757949752209299 ], [ 4.290000611362829, 51.75758493306423 ], [ 4.289820243685378, 51.75744162371587 ], [ 4.289719438023237, 51.757640385252607 ], [ 4.284511789798763, 51.758550764057986 ], [ 4.284152337385837, 51.758654839845647 ], [ 4.284103747443996, 51.758813324623162 ], [ 4.283288511790259, 51.758312525317436 ], [ 4.280191741834411, 51.758911617196212 ], [ 4.279551219650291, 51.758797494917872 ], [ 4.277964409637734, 51.759191228107063 ], [ 4.277499300139582, 51.759126124378604 ], [ 4.275941082739627, 51.759509153953324 ], [ 4.274671598246895, 51.759634107230376 ], [ 4.274330965132688, 51.759880737789693 ], [ 4.272302999604394, 51.759934752246281 ], [ 4.272142619635313, 51.760107602627123 ], [ 4.270757492581513, 51.760517538505034 ], [ 4.268929766155661, 51.760766337789988 ], [ 4.268291376105915, 51.761406985187897 ], [ 4.267064998892643, 51.760704243526092 ], [ 4.266958911548501, 51.760807867908412 ], [ 4.267047504369854, 51.761017223238021 ], [ 4.266269303469696, 51.761425886468508 ], [ 4.265143762559684, 51.761670675268306 ], [ 4.26520344163094, 51.761287560515918 ], [ 4.264851758716929, 51.760980267471346 ], [ 4.264749795077127, 51.761109604206318 ], [ 4.264925229297653, 51.761368880584264 ], [ 4.264870052395713, 51.761700447305863 ], [ 4.264372592710347, 51.761974948482759 ], [ 4.263135369402264, 51.762101838304694 ], [ 4.263025984731371, 51.762244793080065 ], [ 4.262808168876711, 51.76171469415268 ], [ 4.262625129883242, 51.761646640016231 ], [ 4.26266708707754, 51.762374522897375 ], [ 4.261253923215209, 51.762741152426322 ], [ 4.260752610200027, 51.762753793646709 ], [ 4.260488788962626, 51.762566842091744 ], [ 4.260405167164641, 51.763136784690815 ], [ 4.258872345096458, 51.763640080410788 ], [ 4.258717543095979, 51.763434487925778 ], [ 4.260085674234675, 51.762875168861818 ], [ 4.260138317267325, 51.762691264088978 ], [ 4.259893012719715, 51.762619024221074 ], [ 4.258620246453552, 51.763187693593586 ], [ 4.258411071363333, 51.762571607366198 ], [ 4.258201575828223, 51.762509596174866 ], [ 4.258101853768192, 51.762768501791562 ], [ 4.258527424303561, 51.763946754916553 ], [ 4.255604969283084, 51.764270497752477 ], [ 4.250601880046768, 51.765744137290326 ], [ 4.249172869459032, 51.765654562439778 ], [ 4.248681141097797, 51.765771622408892 ], [ 4.248140641624961, 51.766280578028798 ], [ 4.248553823706983, 51.767005982581864 ], [ 4.250453966541054, 51.767369359194156 ], [ 4.250735147210801, 51.767459997948222 ], [ 4.250825333363502, 51.767533585916084 ], [ 4.24980351010872, 51.767337581745373 ], [ 4.24872542148906, 51.767481059240581 ], [ 4.247827362210721, 51.767239100310412 ], [ 4.245930838774456, 51.76754740961114 ], [ 4.244963461697851, 51.76826723625301 ], [ 4.244924601192758, 51.768565256285221 ], [ 4.244586457752977, 51.768496782380055 ], [ 4.243551337757528, 51.769352815156083 ], [ 4.242436160997745, 51.769604688346476 ], [ 4.241741058835026, 51.770268898468601 ], [ 4.240843056234973, 51.770670513268485 ], [ 4.239690119436086, 51.771597912928264 ], [ 4.23947728369465, 51.772031297465851 ], [ 4.238704306597435, 51.772331715048864 ], [ 4.23810476950381, 51.772958141945843 ], [ 4.237683145640095, 51.773164707538257 ], [ 4.236972332661885, 51.774373981360114 ], [ 4.236056762292878, 51.775157924584875 ], [ 4.235884266290325, 51.77539797996775 ], [ 4.2359260835948, 51.775643999107949 ], [ 4.2355991663681, 51.776001050640041 ], [ 4.23469464693031, 51.776252426560973 ], [ 4.234390952258125, 51.776725541578962 ], [ 4.233691225217475, 51.777115095179127 ], [ 4.233347801532868, 51.777794613569924 ], [ 4.232946232243075, 51.777847054612295 ], [ 4.232538982981264, 51.778222399473343 ], [ 4.232005591995301, 51.778397405267015 ], [ 4.230785234989206, 51.779178029934414 ], [ 4.230326191135587, 51.780571888026408 ], [ 4.23111191983809, 51.78120951521359 ], [ 4.232179783323562, 51.781402580760968 ], [ 4.232154012404915, 51.781670166622909 ], [ 4.231640713793851, 51.782087920635391 ], [ 4.230707228954815, 51.782402931132211 ], [ 4.229883918829348, 51.782432012440012 ], [ 4.228949550951899, 51.782284488513611 ], [ 4.228173373284648, 51.781869831213058 ], [ 4.227861065484772, 51.78144588530224 ], [ 4.227849108522191, 51.780870979101508 ], [ 4.228178588287526, 51.78045772877465 ], [ 4.229033269805028, 51.780079832636531 ], [ 4.228938078285772, 51.77984111298521 ], [ 4.228162978460112, 51.780077092981713 ], [ 4.227714541322911, 51.780454162239856 ], [ 4.227465664874461, 51.781036320010614 ], [ 4.227506832240296, 51.781487493842576 ] ], [ [ 4.352164439196976, 51.742412680329863 ], [ 4.352177944358123, 51.742414196342942 ], [ 4.352188412954436, 51.742422294221569 ], [ 4.352150400579082, 51.742417211371567 ], [ 4.352164439196976, 51.742412680329863 ] ], [ [ 4.448658665302522, 51.715649955116405 ], [ 4.449325983279414, 51.715576506345208 ], [ 4.449532382110875, 51.715628452560175 ], [ 4.4490715547953, 51.71566206645231 ], [ 4.448881319400931, 51.715829761666797 ], [ 4.448448072460327, 51.715731686359923 ], [ 4.448658665302522, 51.715649955116405 ] ], [ [ 4.250859466206742, 51.78403312077667 ], [ 4.250910068732814, 51.783908423586169 ], [ 4.25102719142466, 51.783941549603284 ], [ 4.251030347848604, 51.78400954911514 ], [ 4.250859466206742, 51.78403312077667 ] ], [ [ 4.243172294268936, 51.781228139293582 ], [ 4.243174240661261, 51.78121683028774 ], [ 4.243381108249615, 51.781122769204536 ], [ 4.243332205641596, 51.781203477092888 ], [ 4.243172294268936, 51.781228139293582 ] ], [ [ 4.245075887768056, 51.776142455894522 ], [ 4.245139512775541, 51.776093040022644 ], [ 4.245359709576763, 51.775980218175583 ], [ 4.245666543156577, 51.77599380492601 ], [ 4.245990701519659, 51.776535549066082 ], [ 4.245890437864812, 51.776773111135853 ], [ 4.245549413004027, 51.776036337795148 ], [ 4.244980485146483, 51.776203028963032 ], [ 4.245075887768056, 51.776142455894522 ] ], [ [ 4.241954457377516, 51.773368581856481 ], [ 4.242030018995392, 51.772683603476302 ], [ 4.242192297617327, 51.77229264128124 ], [ 4.242089003775437, 51.77295243396533 ], [ 4.241954457377516, 51.773368581856481 ] ], [ [ 4.61854250461402, 51.723401106769984 ], [ 4.618392749316697, 51.723280682824949 ], [ 4.618695560671044, 51.723287314058538 ], [ 4.61854250461402, 51.723401106769984 ] ], [ [ 4.571626733136489, 51.710128362370135 ], [ 4.571599325954301, 51.710157415856479 ], [ 4.571592322247664, 51.71016560359913 ], [ 4.571640081751418, 51.710114208956497 ], [ 4.571626733136489, 51.710128362370135 ] ], [ [ 4.474664109577641, 51.714032595119996 ], [ 4.474682915013094, 51.714490380489224 ], [ 4.474499050688284, 51.715119146038617 ], [ 4.474426706794037, 51.715001121180698 ], [ 4.474664109577641, 51.714032595119996 ] ], [ [ 4.393503434281599, 51.728023671760177 ], [ 4.393511987940088, 51.728028789558913 ], [ 4.393595252739352, 51.728078622065446 ], [ 4.393562421265464, 51.728084154089991 ], [ 4.393438857982905, 51.727985023559469 ], [ 4.393503434281599, 51.728023671760177 ] ], [ [ 4.364880235279169, 51.737793893487087 ], [ 4.364924367824152, 51.737758372856916 ], [ 4.366661828930599, 51.737293493678216 ], [ 4.365272501812023, 51.737808172515983 ], [ 4.365356379645325, 51.738015987426493 ], [ 4.364880235279169, 51.737793893487087 ] ], [ [ 4.284396467919283, 51.759245560499153 ], [ 4.284499894159483, 51.759594601426912 ], [ 4.284416006174384, 51.759710943755735 ], [ 4.284345277815331, 51.759167024487489 ], [ 4.284396467919283, 51.759245560499153 ] ], [ [ 4.269187111360076, 51.762042435608038 ], [ 4.269213575669952, 51.762035041284747 ], [ 4.269273115490106, 51.762041706365117 ], [ 4.269212290624113, 51.762069933831299 ], [ 4.269187111360076, 51.762042435608038 ] ], [ [ 4.263211687208499, 51.762381139840315 ], [ 4.264048056980163, 51.762309309252366 ], [ 4.26412209192697, 51.762314808435093 ], [ 4.263323756736852, 51.762570246563136 ], [ 4.263211687208499, 51.762381139840315 ] ], [ [ 4.251628471281215, 51.767923056314594 ], [ 4.252694209341755, 51.768233863466499 ], [ 4.253251771660883, 51.76847367933226 ], [ 4.252766967709337, 51.768361289583304 ], [ 4.251628471281215, 51.767923056314594 ] ], [ [ 4.253960064923398, 51.768602884792692 ], [ 4.254479070756011, 51.76874635128204 ], [ 4.255038380902638, 51.769019921465244 ], [ 4.25372745220905, 51.768577642689607 ], [ 4.253960064923398, 51.768602884792692 ] ], [ [ 4.257743601197395, 51.769760095340793 ], [ 4.257689379244862, 51.769746976326445 ], [ 4.257634457475885, 51.769730631463815 ], [ 4.257743601197395, 51.769760095340793 ] ], [ [ 4.245042227265444, 51.769017979327188 ], [ 4.245043067508072, 51.769020136940334 ], [ 4.245120393002359, 51.769212094569156 ], [ 4.245024380268097, 51.768970533781932 ], [ 4.245042227265444, 51.769017979327188 ] ] ], [ [ [ 4.258096385926542, 51.749190256025209 ], [ 4.258061683348483, 51.749547731753232 ], [ 4.258274029323867, 51.750099938191845 ], [ 4.258918116632711, 51.75126737941568 ], [ 4.26015564107644, 51.752276063260247 ], [ 4.260788981955701, 51.752413265702856 ], [ 4.261656637375313, 51.753364318545515 ], [ 4.261987004127207, 51.753504857554447 ], [ 4.262214576735802, 51.753975102458419 ], [ 4.262490355660551, 51.754101488861252 ], [ 4.263355639178963, 51.754170346388221 ], [ 4.264198663382231, 51.753857236079284 ], [ 4.266515811652516, 51.753622347372726 ], [ 4.268932898292142, 51.752926446988162 ], [ 4.269405525467067, 51.753112445557178 ], [ 4.269364192639371, 51.753404017446393 ], [ 4.268832566609603, 51.753510686562663 ], [ 4.269027206747699, 51.753722672597 ], [ 4.271930274658021, 51.753362053183274 ], [ 4.272144579230086, 51.752901171733363 ], [ 4.272400428388829, 51.752931386259746 ], [ 4.272293326786815, 51.753122178218788 ], [ 4.272405877521813, 51.753227034006464 ], [ 4.274311550393803, 51.753038903004239 ], [ 4.27643956346653, 51.752978862004205 ], [ 4.276842115395787, 51.753089796066732 ], [ 4.277348756583746, 51.752746995138146 ], [ 4.278173795876701, 51.752740584881764 ], [ 4.278634410989792, 51.752953505328868 ], [ 4.279217824735838, 51.752838121326526 ], [ 4.2792816742468, 51.752699754819304 ], [ 4.27955632186763, 51.752783580258701 ], [ 4.295223873069535, 51.750020328331985 ], [ 4.295502026833899, 51.750177202367006 ], [ 4.295549690343243, 51.750019527890096 ], [ 4.295156322567811, 51.749471133264869 ], [ 4.294617592653057, 51.748708926581195 ], [ 4.294601230502422, 51.748652178267072 ], [ 4.295672257568101, 51.750096701775661 ], [ 4.295813813579263, 51.749949910693118 ], [ 4.295715508327448, 51.74976599615124 ], [ 4.29608742323634, 51.74989683074579 ], [ 4.299628185317349, 51.74916311743371 ], [ 4.303892826072703, 51.74864079319746 ], [ 4.304196121702425, 51.748494084948334 ], [ 4.304562012768623, 51.748549955646531 ], [ 4.31133331514406, 51.747211025370525 ], [ 4.317406832003137, 51.745634341461447 ], [ 4.319199241385381, 51.744865431018134 ], [ 4.321718529473605, 51.744317776629899 ], [ 4.323123853135404, 51.744192931855288 ], [ 4.323080888458898, 51.743998887887521 ], [ 4.322570045360057, 51.743708610908797 ], [ 4.322054777780144, 51.743211505878641 ], [ 4.323302754116994, 51.744080088135831 ], [ 4.323368492093125, 51.743888482254249 ], [ 4.325221082757798, 51.743447280117671 ], [ 4.328778478625542, 51.742085151041316 ], [ 4.33429951713021, 51.740600722938694 ], [ 4.337098445877552, 51.740021493640093 ], [ 4.337178065269396, 51.739748760772663 ], [ 4.337545671062642, 51.739879027535515 ], [ 4.338508400074338, 51.739728114673497 ], [ 4.342781503397664, 51.738661845678322 ], [ 4.350757771589094, 51.737096147597171 ], [ 4.353171181233608, 51.73693312131612 ], [ 4.353350497555856, 51.736697122918066 ], [ 4.356177618967298, 51.735593918643914 ], [ 4.356889393499388, 51.735089262186186 ], [ 4.357380142136524, 51.734542660914272 ], [ 4.357776154932265, 51.733558636686503 ], [ 4.35795218755376, 51.733445325763952 ], [ 4.357785865240356, 51.733335169709925 ], [ 4.357236719471826, 51.731773855839172 ], [ 4.357047642196489, 51.731613384425664 ], [ 4.355006291815706, 51.7313412029823 ], [ 4.354468699646436, 51.731100778140288 ], [ 4.352521582102455, 51.730994855913359 ], [ 4.35082703572089, 51.73048451647356 ], [ 4.350551287281079, 51.730768825729207 ], [ 4.350169046075575, 51.730759596941738 ], [ 4.345476220032992, 51.729350387886697 ], [ 4.344058079090576, 51.729140864157316 ], [ 4.341567406270481, 51.728470023823157 ], [ 4.336350995769812, 51.726171575958965 ], [ 4.336120524873088, 51.726208861948443 ], [ 4.335971209353747, 51.726499173226046 ], [ 4.335263267655943, 51.726499232041306 ], [ 4.335296109710952, 51.726739178564387 ], [ 4.335798364265049, 51.726720993000768 ], [ 4.335427915781468, 51.727377135892979 ], [ 4.335250387447221, 51.727350576072851 ], [ 4.33520276288137, 51.727136187012782 ], [ 4.334675755326001, 51.726687509968663 ], [ 4.335140570833903, 51.726653170864715 ], [ 4.335151211769568, 51.726439533528335 ], [ 4.33038930291806, 51.726000473570103 ], [ 4.319059757722557, 51.726678570921344 ], [ 4.31736984729677, 51.726572750914514 ], [ 4.316757680621207, 51.726696555411948 ], [ 4.316700415397333, 51.726886645828095 ], [ 4.316906293356044, 51.727220075975104 ], [ 4.316521735183481, 51.727357287368669 ], [ 4.315777047865494, 51.726856058701735 ], [ 4.315508780001008, 51.726916890659183 ], [ 4.315408688188519, 51.727141708188555 ], [ 4.313162475292785, 51.72743777829016 ], [ 4.313101647397706, 51.727608536520435 ], [ 4.312125489791965, 51.727600040869689 ], [ 4.31148403694479, 51.727926254259287 ], [ 4.311243650305227, 51.727865209968684 ], [ 4.311318954068596, 51.72756132520297 ], [ 4.310894326716958, 51.727552589199071 ], [ 4.308734519967941, 51.728236926672295 ], [ 4.30822531153671, 51.728699793748135 ], [ 4.307434656704828, 51.728571419578124 ], [ 4.303972962233957, 51.729737932034794 ], [ 4.303740801436144, 51.730026568850583 ], [ 4.302128643506009, 51.730053675427563 ], [ 4.301317655272594, 51.729486493073075 ], [ 4.301240603806384, 51.729632203323888 ], [ 4.301380381506189, 51.729801718379392 ], [ 4.300936347735285, 51.730135381982016 ], [ 4.299284847345645, 51.730907510592104 ], [ 4.29585281645527, 51.732149784130954 ], [ 4.295481351629108, 51.732639703952749 ], [ 4.294358602801674, 51.733056760813447 ], [ 4.294292495875389, 51.733260725910114 ], [ 4.293466304603462, 51.733106206883896 ], [ 4.291777930845152, 51.733627219636588 ], [ 4.291603829759936, 51.733965808456112 ], [ 4.29078515157722, 51.734122484248005 ], [ 4.290379540976951, 51.734417915253132 ], [ 4.290376260992662, 51.734652597736662 ], [ 4.2911309843587, 51.73487143107598 ], [ 4.291067884759562, 51.735226457981348 ], [ 4.290322945897907, 51.73521523808278 ], [ 4.29021315763366, 51.734910351566377 ], [ 4.2898446002387, 51.734923887328542 ], [ 4.289802697884931, 51.735203544185566 ], [ 4.289355363509134, 51.735071935240825 ], [ 4.289117796171709, 51.735192663042731 ], [ 4.289098248956506, 51.735419764398856 ], [ 4.288445647974748, 51.73566624443005 ], [ 4.288451860308644, 51.735956531522156 ], [ 4.2879092291628, 51.736121929746815 ], [ 4.287513044281813, 51.736548204126244 ], [ 4.286643722650322, 51.736920972150052 ], [ 4.285831910505707, 51.736849075944995 ], [ 4.285528634775137, 51.73655145727593 ], [ 4.285008237200926, 51.736706334037549 ], [ 4.284161096599065, 51.737141439269742 ], [ 4.284317382596281, 51.737542236683559 ], [ 4.284680583470156, 51.737718427022024 ], [ 4.284391733486753, 51.738203076588974 ], [ 4.283058625593437, 51.738346625812923 ], [ 4.2828502202832, 51.738567063387592 ], [ 4.282545000545349, 51.738402903315325 ], [ 4.282499084501154, 51.738643311722306 ], [ 4.28178003930071, 51.738775438028981 ], [ 4.281138036379511, 51.739235319390808 ], [ 4.280856332565693, 51.73922755390285 ], [ 4.280762929061163, 51.739506662618851 ], [ 4.280399526420339, 51.73942450477643 ], [ 4.280117321409314, 51.7396299573306 ], [ 4.280057840829363, 51.739899682266341 ], [ 4.279578837001707, 51.739996270703351 ], [ 4.279556998048561, 51.740231302203462 ], [ 4.279038173726526, 51.740307714078092 ], [ 4.278713683059496, 51.740646673505623 ], [ 4.278209100403628, 51.740610334510237 ], [ 4.278129175464598, 51.740868901350808 ], [ 4.277200083009181, 51.74067682861525 ], [ 4.277014365597109, 51.740815034747655 ], [ 4.277101699160307, 51.741004896603705 ], [ 4.276698555128442, 51.74109240708264 ], [ 4.276700848473281, 51.741504723506971 ], [ 4.27642481951334, 51.74172318548338 ], [ 4.272489600400308, 51.743206948578063 ], [ 4.27163647347674, 51.743334552457391 ], [ 4.270637188183428, 51.744105752404941 ], [ 4.269034656511467, 51.74461473194458 ], [ 4.267687713082303, 51.745247268252221 ], [ 4.267618069619619, 51.745388539406662 ], [ 4.267797387154901, 51.745546129327145 ], [ 4.267631737440362, 51.745572712449061 ], [ 4.267666632126566, 51.745756354479411 ], [ 4.266215060043033, 51.74616498147487 ], [ 4.264968686337054, 51.746005711627511 ], [ 4.263535491630453, 51.746278481600193 ], [ 4.26457486930081, 51.745887772455269 ], [ 4.265323545977318, 51.745424828145325 ], [ 4.2656534175851, 51.745035649148562 ], [ 4.265876702411209, 51.745018933520441 ], [ 4.265847923299976, 51.744845198323603 ], [ 4.265501701197715, 51.744803043489028 ], [ 4.264440130964222, 51.745669374778522 ], [ 4.261917014978773, 51.74664863890488 ], [ 4.261917531024365, 51.746877833582055 ], [ 4.262249864014312, 51.746796377914045 ], [ 4.262195066825938, 51.746932630290665 ], [ 4.26054254872466, 51.747684756668498 ], [ 4.258698017310806, 51.748230400022713 ], [ 4.258207532943115, 51.748597307614581 ], [ 4.258096385926542, 51.749190256025209 ] ], [ [ 4.337786113889488, 51.727554564752246 ], [ 4.337803090581931, 51.727566303461586 ], [ 4.337792475471606, 51.727626731493906 ], [ 4.337783961117777, 51.727552528063214 ], [ 4.337786113889488, 51.727554564752246 ] ], [ [ 4.303786834950809, 51.730094532938004 ], [ 4.303909921027959, 51.730240853680293 ], [ 4.304287328864896, 51.730423726466839 ], [ 4.303730653104978, 51.730239536429828 ], [ 4.303786834950809, 51.730094532938004 ] ], [ [ 4.305888896280217, 51.731031265886983 ], [ 4.305936179684414, 51.731091719839981 ], [ 4.305891793408025, 51.731129376964546 ], [ 4.305858173603576, 51.731008341284216 ], [ 4.305888896280217, 51.731031265886983 ] ], [ [ 4.292476285754303, 51.736006468591256 ], [ 4.292505428583897, 51.736048000135177 ], [ 4.292512765616121, 51.73609452938566 ], [ 4.292449537027378, 51.735980831877214 ], [ 4.292476285754303, 51.736006468591256 ] ], [ [ 4.268199212301077, 51.745805212892741 ], [ 4.268166745409135, 51.745801715596045 ], [ 4.268147643384704, 51.745752986329997 ], [ 4.268199212301077, 51.745805212892741 ] ], [ [ 4.263267515852853, 51.746442072610741 ], [ 4.263260179364738, 51.746459023835982 ], [ 4.263159533785871, 51.746483191591857 ], [ 4.263267826017596, 51.74644061177225 ], [ 4.263267515852853, 51.746442072610741 ] ], [ [ 4.263048832038746, 51.746522503361192 ], [ 4.26296760749452, 51.746575162474976 ], [ 4.262863634409255, 51.746580562604862 ], [ 4.26305337365375, 51.746519835530144 ], [ 4.263048832038746, 51.746522503361192 ] ] ] ] } }
]
}
