{
"type": "FeatureCollection",
"name": "SWVPO3009",
"crs": { "type": "name", "properties": { "name": "urn:ogc:def:crs:OGC:1.3:CRS84" } },
"features": [
{ "type": "Feature", "properties": { "PO SWV": "PO3009", "strokeColor": "#A9A9A9", "strokeWidth": 2, "fillColor": "#ADD8E6" }, "geometry": { "type": "Polygon", "coordinates": [ [ [ 5.106516818176233, 51.423125960900705 ], [ 5.108773649217471, 51.424462763986938 ], [ 5.110467497373672, 51.423737245315628 ], [ 5.112963767458549, 51.425394402558403 ], [ 5.1145573293083, 51.427275453118924 ], [ 5.122404787401035, 51.427050843382005 ], [ 5.122608584154014, 51.428431983531787 ], [ 5.141857052133298, 51.428873300593722 ], [ 5.148401463009545, 51.428827250735047 ], [ 5.15244658948917, 51.429126007549776 ], [ 5.153153875930193, 51.428435897004789 ], [ 5.153447211683794, 51.428544965520494 ], [ 5.153300142544356, 51.428722198315931 ], [ 5.153420874639942, 51.428874098711631 ], [ 5.154179306328515, 51.428716265096782 ], [ 5.15426481713632, 51.428899494945355 ], [ 5.154732814198733, 51.428965293247686 ], [ 5.154878778770164, 51.42913762671985 ], [ 5.154979298770146, 51.428882920715083 ], [ 5.15786397587539, 51.428926667204394 ], [ 5.158543218449401, 51.432273751510451 ], [ 5.170795264821423, 51.429828590043115 ], [ 5.17346174767892, 51.428352511153669 ], [ 5.175384329371539, 51.429264151885327 ], [ 5.175554005887301, 51.429546151889369 ], [ 5.177668513290678, 51.43028864589288 ], [ 5.180785873502552, 51.431851161360669 ], [ 5.178256215649383, 51.433558578132335 ], [ 5.180998030138984, 51.434963762151405 ], [ 5.182845477673708, 51.435033255002082 ], [ 5.190053652547248, 51.430253882423266 ], [ 5.190956109810414, 51.43030862446556 ], [ 5.209731397907604, 51.465828489771589 ], [ 5.220349827227931, 51.472942395976709 ], [ 5.225318886736895, 51.48887165214731 ], [ 5.226138778671948, 51.489209476191959 ], [ 5.229904131550707, 51.489819209554845 ], [ 5.230136300213673, 51.490514317076027 ], [ 5.230315451745728, 51.490562356018906 ], [ 5.230505132629974, 51.490959205397644 ], [ 5.230284274247029, 51.492280360528234 ], [ 5.229595093900916, 51.492814160360069 ], [ 5.228366009308067, 51.49876266643237 ], [ 5.23302025895372, 51.498938016184503 ], [ 5.247020615924798, 51.498977831697388 ], [ 5.247804617811488, 51.506384588033981 ], [ 5.250692585823445, 51.506320524958319 ], [ 5.250432510968429, 51.506563131622514 ], [ 5.249973708057524, 51.50802099320741 ], [ 5.251084387819741, 51.509573377501859 ], [ 5.235982663610343, 51.513794405917068 ], [ 5.232415067400997, 51.508834310079685 ], [ 5.226452383690218, 51.507416105422607 ], [ 5.224340850595998, 51.517182737122283 ], [ 5.230768811716409, 51.521009233326801 ], [ 5.23288822331922, 51.525731828425208 ], [ 5.234776578675771, 51.531148673791172 ], [ 5.244119522098218, 51.52598578618597 ], [ 5.245381782822418, 51.527698580367613 ], [ 5.248776306136761, 51.530900996336662 ], [ 5.249411440179875, 51.531689951336091 ], [ 5.253213970381306, 51.540371093134226 ], [ 5.25839372747756, 51.540854774090491 ], [ 5.25855946403437, 51.541041873588497 ], [ 5.259194384211487, 51.543888493969959 ], [ 5.25980292566534, 51.544973100328725 ], [ 5.267952229403201, 51.5433314512698 ], [ 5.268552739444146, 51.543712899601019 ], [ 5.269842696006509, 51.546307253554282 ], [ 5.276821188154863, 51.544977137374417 ], [ 5.277454440997489, 51.54679378629195 ], [ 5.277392885000045, 51.54865308633304 ], [ 5.271840280670399, 51.54976866825303 ], [ 5.273250472450197, 51.552918676020575 ], [ 5.299012881115146, 51.547946952907573 ], [ 5.299488672787361, 51.54702042228336 ], [ 5.299485486629605, 51.546616087054261 ], [ 5.302491445173052, 51.54594751046789 ], [ 5.30260431652909, 51.545955726492778 ], [ 5.30210874851859, 51.546755384724634 ], [ 5.302204832625414, 51.547302581840327 ], [ 5.30839040469812, 51.54608282029794 ], [ 5.323896967431497, 51.550933595071648 ], [ 5.325175023285756, 51.551475792766617 ], [ 5.329301947856371, 51.5513145029811 ], [ 5.32949770951799, 51.551192375405122 ], [ 5.330420289770274, 51.551380047207758 ], [ 5.33308049205626, 51.551226860729962 ], [ 5.334128640473513, 51.550723668609663 ], [ 5.334013761432456, 51.550209459609498 ], [ 5.334189284179888, 51.549655299037013 ], [ 5.337251417021585, 51.5464851929788 ], [ 5.342591870822001, 51.544868043832345 ], [ 5.346407761542, 51.544309756460031 ], [ 5.35125604071531, 51.544374283467143 ], [ 5.352585450549239, 51.544691889058683 ], [ 5.353380345807165, 51.545134722101864 ], [ 5.357304917327093, 51.544795531918091 ], [ 5.362974896842616, 51.538523501311225 ], [ 5.362885787145516, 51.538336402115746 ], [ 5.368730790285376, 51.531901764831147 ], [ 5.368689987760847, 51.531456068317397 ], [ 5.368505768123899, 51.531339856645559 ], [ 5.363150111725546, 51.529640443712708 ], [ 5.361075739375667, 51.529283869977142 ], [ 5.355436245189283, 51.528879185676523 ], [ 5.355260403653932, 51.528197181284575 ], [ 5.353729349027761, 51.526086469825117 ], [ 5.353539224336865, 51.524421763063629 ], [ 5.353807824258381, 51.523099375824224 ], [ 5.353673520920894, 51.522994900694954 ], [ 5.353766746884864, 51.521407322305713 ], [ 5.354319087062114, 51.520432133198561 ], [ 5.353581883560527, 51.520006913751644 ], [ 5.352338529811678, 51.52007238155133 ], [ 5.352140936505302, 51.519174623268974 ], [ 5.351578753744636, 51.51793742112379 ], [ 5.350549661175116, 51.517873090496373 ], [ 5.35040855929233, 51.517251796086519 ], [ 5.349623126310208, 51.517181072400568 ], [ 5.349493215215374, 51.517014833858667 ], [ 5.349504884639162, 51.516415166966496 ], [ 5.350209626373283, 51.51502291856395 ], [ 5.350553179078337, 51.513624950479198 ], [ 5.350337747495375, 51.512883141778595 ], [ 5.351025824837591, 51.512437197145935 ], [ 5.350775290572067, 51.511319379114617 ], [ 5.350909979923217, 51.511061266387898 ], [ 5.350767555511259, 51.510123912365266 ], [ 5.350923612146336, 51.509285484551455 ], [ 5.350611701020633, 51.508474233466877 ], [ 5.350839067643649, 51.507612628233943 ], [ 5.351119349159867, 51.507386011298749 ], [ 5.351417066430331, 51.506147313391367 ], [ 5.352698222709844, 51.506032444363122 ], [ 5.352768649032748, 51.504523856306605 ], [ 5.353429851221497, 51.501767108088885 ], [ 5.355272000154452, 51.49920169902866 ], [ 5.354820799507747, 51.498787474923525 ], [ 5.355726497878147, 51.497212055048919 ], [ 5.355629924346513, 51.497070628675928 ], [ 5.355968641122242, 51.496174840076819 ], [ 5.361330058619179, 51.492976155465186 ], [ 5.362958584760782, 51.492575580019704 ], [ 5.366543894325575, 51.493846768849338 ], [ 5.367082424440686, 51.493049171020587 ], [ 5.367606029629639, 51.492783457032772 ], [ 5.370158420400124, 51.492948858404226 ], [ 5.370420077818577, 51.493208675562073 ], [ 5.371350233229233, 51.493528478103805 ], [ 5.371882862582998, 51.49344497421491 ], [ 5.371777424068045, 51.492913563235739 ], [ 5.373236103727646, 51.491889834245121 ], [ 5.372664291231808, 51.490981758373756 ], [ 5.371188927863117, 51.491266780594479 ], [ 5.371074035745771, 51.49094565868343 ], [ 5.372253642600602, 51.489752849525146 ], [ 5.374380591112252, 51.489227876084065 ], [ 5.374233989763878, 51.488963633633659 ], [ 5.373257484841839, 51.488413336235546 ], [ 5.372923656898704, 51.487335649865784 ], [ 5.373870903613579, 51.48676482442572 ], [ 5.374533379247721, 51.486634678762158 ], [ 5.374554744025607, 51.486329952734657 ], [ 5.375651230494446, 51.485722564824719 ], [ 5.375615123859345, 51.48558032120318 ], [ 5.374549942709097, 51.485078468305183 ], [ 5.37657093233838, 51.484555779333824 ], [ 5.378490799386744, 51.483578018623014 ], [ 5.382744354625076, 51.485245739796156 ], [ 5.384755894285894, 51.484924133072475 ], [ 5.385532636662818, 51.484646035604655 ], [ 5.387543829668697, 51.485999354229172 ], [ 5.390150223902418, 51.485494298769638 ], [ 5.390241313394005, 51.485869901917219 ], [ 5.391082172969981, 51.485630296330505 ], [ 5.391137794334164, 51.485119091352715 ], [ 5.392097462153354, 51.484915114521115 ], [ 5.392178224596227, 51.485041258397104 ], [ 5.392466281450361, 51.484985688452426 ], [ 5.392695382590877, 51.484652627259614 ], [ 5.395326413536642, 51.483777609860653 ], [ 5.395867800428784, 51.483365122438677 ], [ 5.395617292460861, 51.483158661850126 ], [ 5.397890687395183, 51.481001535708124 ], [ 5.397748145036772, 51.480804984592524 ], [ 5.395619910739502, 51.48000664012487 ], [ 5.395546089248083, 51.480142308834715 ], [ 5.39585717852948, 51.480793204578269 ], [ 5.392111391839, 51.482519727019039 ], [ 5.392428286291478, 51.475936995947713 ], [ 5.391325345097298, 51.474307121949579 ], [ 5.391131276256524, 51.474240509361664 ], [ 5.391283055792122, 51.471728985395799 ], [ 5.390694539419266, 51.470986196474421 ], [ 5.390811779458399, 51.470737263786283 ], [ 5.390661764252445, 51.470488204630662 ], [ 5.38967573232787, 51.470536924294059 ], [ 5.388876358121641, 51.469927707865267 ], [ 5.387267439301304, 51.469350981758268 ], [ 5.387236156700657, 51.469090356953494 ], [ 5.387619701059523, 51.468538850229123 ], [ 5.387594405845993, 51.468032861687043 ], [ 5.385532936208483, 51.467821222378362 ], [ 5.38440346279338, 51.467419969917913 ], [ 5.381245962987029, 51.465376451309176 ], [ 5.37916663657973, 51.463743613300267 ], [ 5.369511493506989, 51.465205592933145 ], [ 5.367234251086846, 51.459355212733229 ], [ 5.363757526399205, 51.460220321365057 ], [ 5.361437978554054, 51.456941345047028 ], [ 5.358072256024831, 51.454054520468979 ], [ 5.357108064747441, 51.453502132821924 ], [ 5.358345537927222, 51.451979788853173 ], [ 5.360545414137918, 51.450152512135958 ], [ 5.361187130434654, 51.449070669866089 ], [ 5.361319870701744, 51.448460948941722 ], [ 5.361080106353633, 51.443587989263939 ], [ 5.36083475711152, 51.442710781845093 ], [ 5.35764996581272, 51.4397865007886 ], [ 5.357367249014999, 51.439290995139885 ], [ 5.357230998889859, 51.438279052154549 ], [ 5.362245829488229, 51.436322628151714 ], [ 5.362488593452347, 51.436435050327468 ], [ 5.36390518815245, 51.435880608031106 ], [ 5.364596768454501, 51.435830261753139 ], [ 5.366697165319292, 51.436330893900106 ], [ 5.366579829100588, 51.437096380778591 ], [ 5.366733518174549, 51.437494367395885 ], [ 5.36775958240082, 51.438456651026613 ], [ 5.371234977241991, 51.439007802079772 ], [ 5.373239057097394, 51.437702429418465 ], [ 5.382534063690432, 51.436202163671567 ], [ 5.387571658134737, 51.437856819244054 ], [ 5.388349683671508, 51.438258657254337 ], [ 5.38909558795693, 51.438377123236904 ], [ 5.389886576155025, 51.437601135153024 ], [ 5.393885165648272, 51.434991394109986 ], [ 5.393922295227532, 51.434714558064563 ], [ 5.400845903000727, 51.433187540961107 ], [ 5.402594166166462, 51.434933091006599 ], [ 5.402699329768955, 51.43539631829853 ], [ 5.403022221702265, 51.435321182308691 ], [ 5.404928534635927, 51.437227822392934 ], [ 5.407348162419259, 51.436065436152575 ], [ 5.408848978629967, 51.434749170797673 ], [ 5.410678512351085, 51.435347249070354 ], [ 5.412154260140333, 51.431411617620029 ], [ 5.414480479803422, 51.430176899394617 ], [ 5.416789527725212, 51.431748334050475 ], [ 5.417164403906701, 51.431603286272235 ], [ 5.418941246017944, 51.432707079110983 ], [ 5.419353514651951, 51.433378329762149 ], [ 5.420943907293929, 51.432800936243709 ], [ 5.421002523341746, 51.432612620581061 ], [ 5.421882765018331, 51.432281931088191 ], [ 5.422581525886106, 51.432243516349175 ], [ 5.423046791450557, 51.432088827130251 ], [ 5.423123460135229, 51.431906289703747 ], [ 5.425226774667873, 51.431348215137064 ], [ 5.427687365554572, 51.429805987161842 ], [ 5.427852558445128, 51.428500833680182 ], [ 5.42770219122982, 51.427885117677121 ], [ 5.427809181736853, 51.427001387079251 ], [ 5.427409233420451, 51.426727139041255 ], [ 5.428134197774165, 51.422236517890966 ], [ 5.428443394279426, 51.42214528164201 ], [ 5.428153836080766, 51.421979485754498 ], [ 5.428176291060681, 51.419508592093635 ], [ 5.427874789044997, 51.41814121832202 ], [ 5.428607262059763, 51.417851891655324 ], [ 5.428732757637341, 51.417183358581418 ], [ 5.429274613530522, 51.417245905225059 ], [ 5.42953598506586, 51.41544361249931 ], [ 5.429959056072716, 51.415276327745154 ], [ 5.430631664720017, 51.411597086065925 ], [ 5.4300472991338, 51.411441065783194 ], [ 5.430466203745632, 51.410387722839367 ], [ 5.430508459699978, 51.409049263350191 ], [ 5.43076958558674, 51.40791168697573 ], [ 5.432117208601255, 51.406475837567562 ], [ 5.432246187377351, 51.406135057151481 ], [ 5.434046772213719, 51.405305718687842 ], [ 5.43557611889241, 51.405363968280156 ], [ 5.435667046239551, 51.405067780518173 ], [ 5.435483300670692, 51.404988730747839 ], [ 5.448675344404205, 51.405317488153756 ], [ 5.448742872930672, 51.404887556439711 ], [ 5.449283643703029, 51.404769998198169 ], [ 5.45153962562922, 51.405261055103921 ], [ 5.454794120652448, 51.405349124020198 ], [ 5.455618150661389, 51.405879483450306 ], [ 5.461961563738034, 51.405976535677866 ], [ 5.462178968693762, 51.405453086015768 ], [ 5.468690817062869, 51.405520226214826 ], [ 5.480373341484007, 51.405156903183403 ], [ 5.48051732705829, 51.405441409637611 ], [ 5.481340074724293, 51.405670586940893 ], [ 5.484086602318955, 51.405687244690611 ], [ 5.485579757294166, 51.404894088891098 ], [ 5.48654309027717, 51.404865610411761 ], [ 5.48793507947676, 51.4055177317192 ], [ 5.490128337051288, 51.405409228492175 ], [ 5.490171452981114, 51.404854264944547 ], [ 5.493751101677008, 51.404532734466308 ], [ 5.49709195004233, 51.404434283847742 ], [ 5.499428455137963, 51.404746545391234 ], [ 5.500920608717544, 51.40459823434265 ], [ 5.501652237595273, 51.404282785460836 ], [ 5.502158816931125, 51.404365635289302 ], [ 5.50592701898385, 51.404090380077619 ], [ 5.507600331313142, 51.404631433694711 ], [ 5.514842224770656, 51.404807780167872 ], [ 5.515048522687048, 51.404980940218813 ], [ 5.515455626367238, 51.404980737788897 ], [ 5.515470166686216, 51.403624690194505 ], [ 5.51377420261632, 51.402145448680365 ], [ 5.514476456852494, 51.401176634054266 ], [ 5.512873349467214, 51.399760492729484 ], [ 5.513090639898266, 51.399590192139051 ], [ 5.513165930768592, 51.399139933854258 ], [ 5.513532213761464, 51.398643114839423 ], [ 5.513518604964201, 51.397891129257012 ], [ 5.511758800571863, 51.397175116283492 ], [ 5.511078285487166, 51.396337082690962 ], [ 5.512097653642402, 51.394356718084509 ], [ 5.513199841405396, 51.3947812265328 ], [ 5.513535446981647, 51.393895800871427 ], [ 5.511731567175518, 51.393149417880387 ], [ 5.510918806963156, 51.392068933798733 ], [ 5.511676410201006, 51.390984498899833 ], [ 5.511866064717216, 51.390014655493175 ], [ 5.513864998269381, 51.3885769445356 ], [ 5.514773407206325, 51.388218975667591 ], [ 5.51381049400302, 51.386937569300258 ], [ 5.51280534124998, 51.38520509157609 ], [ 5.5139648200237, 51.384036042539286 ], [ 5.515654642408445, 51.38439421669073 ], [ 5.516129883783814, 51.384359882133715 ], [ 5.519169912997692, 51.382800535908601 ], [ 5.519412119781874, 51.382002708157025 ], [ 5.520709306020174, 51.381382345877149 ], [ 5.521873034925725, 51.381154820588705 ], [ 5.522816365911051, 51.379686375818565 ], [ 5.522613008146013, 51.379434255268748 ], [ 5.523178996591667, 51.378731255717994 ], [ 5.523922177920051, 51.376995264252912 ], [ 5.524497004580849, 51.377074883566038 ], [ 5.524750445372319, 51.376816982541129 ], [ 5.526172527959316, 51.377180601428037 ], [ 5.526885240234549, 51.377104736973983 ], [ 5.527615949869617, 51.37672174887237 ], [ 5.527590247965215, 51.376564510929988 ], [ 5.527235936444291, 51.376533416792938 ], [ 5.526366262220746, 51.376009951152845 ], [ 5.52711457384408, 51.374601300987422 ], [ 5.524365958923735, 51.373624084450348 ], [ 5.527364819722568, 51.37430295193623 ], [ 5.528773763448398, 51.371292722330374 ], [ 5.526173330283104, 51.370506699790006 ], [ 5.525552232467819, 51.370125660731304 ], [ 5.524928508801751, 51.369472081236175 ], [ 5.52778858379039, 51.36648768778069 ], [ 5.52819293052613, 51.365876437398242 ], [ 5.529678143243082, 51.36467845689549 ], [ 5.531191459866988, 51.363048428276123 ], [ 5.532103484821609, 51.363219301868313 ], [ 5.53172083933024, 51.363513890144652 ], [ 5.531833716792714, 51.363702235366809 ], [ 5.532524934948646, 51.363344782447278 ], [ 5.543356428599079, 51.365513349811536 ], [ 5.544151125000617, 51.364332526762887 ], [ 5.544716020394091, 51.363961291292469 ], [ 5.5468159589056, 51.363001161726302 ], [ 5.547101619035563, 51.363280869432046 ], [ 5.548268538742692, 51.362710198118876 ], [ 5.548979713177866, 51.362967471794839 ], [ 5.549163976853308, 51.363276938277487 ], [ 5.550206411906211, 51.363573884398768 ], [ 5.550508911152754, 51.364151924065432 ], [ 5.553731517807183, 51.362851709104852 ], [ 5.554427681350578, 51.362881854833411 ], [ 5.55468180674888, 51.363227639999863 ], [ 5.556615862448484, 51.362053273454897 ], [ 5.556876398705551, 51.362119961602964 ], [ 5.558307358968948, 51.361725866187797 ], [ 5.55882795933229, 51.362612062851326 ], [ 5.559362383961253, 51.362587043965462 ], [ 5.563209339140158, 51.361457777725647 ], [ 5.565494781311522, 51.36122401749946 ], [ 5.566536971329722, 51.361821245246396 ], [ 5.567768061861152, 51.361370798534644 ], [ 5.568219973597145, 51.361992606157855 ], [ 5.568919943792801, 51.361934251993596 ], [ 5.568907277471063, 51.361164829733397 ], [ 5.571389826000163, 51.361863122656871 ], [ 5.572521031289967, 51.361771624319367 ], [ 5.572606735158777, 51.361648383534792 ], [ 5.572463655676128, 51.361465363756103 ], [ 5.57119605242429, 51.360676274254985 ], [ 5.571500671464857, 51.36014468132371 ], [ 5.571225724447103, 51.359873667844248 ], [ 5.571307042500027, 51.359677012758674 ], [ 5.570809484793733, 51.35939124984494 ], [ 5.572824643358947, 51.359287382173662 ], [ 5.576137900350139, 51.359509632839575 ], [ 5.576810594405655, 51.358255272246616 ], [ 5.577416706706688, 51.355701944423387 ], [ 5.580997283256126, 51.351375525878012 ], [ 5.588607169189565, 51.350738419228271 ], [ 5.593487814396502, 51.350990363042222 ], [ 5.593181597758309, 51.351249061115162 ], [ 5.593223818677667, 51.351599838658359 ], [ 5.592994990795908, 51.351380916026038 ], [ 5.592694783980942, 51.351434639396466 ], [ 5.592594113705421, 51.351796548020253 ], [ 5.592845781203514, 51.352005610760081 ], [ 5.592741828572239, 51.35217824540193 ], [ 5.592883341676293, 51.352279055787136 ], [ 5.592398929465477, 51.352448005179696 ], [ 5.592391118761206, 51.352749634011388 ], [ 5.592710264749212, 51.3530277645228 ], [ 5.593668136309694, 51.353149410117695 ], [ 5.59345193760109, 51.353965746439862 ], [ 5.593698178123375, 51.354830637597516 ], [ 5.594260591755742, 51.354893776175601 ], [ 5.594856243716233, 51.355328171588397 ], [ 5.596139770289171, 51.355669966201518 ], [ 5.595983285615771, 51.356145232672318 ], [ 5.596867639567211, 51.356434872379133 ], [ 5.596848485823178, 51.356798786567907 ], [ 5.598016735758112, 51.358076558608282 ], [ 5.597410715104145, 51.358893465315397 ], [ 5.598535996205546, 51.3616521101685 ], [ 5.618007869223317, 51.375004266450794 ], [ 5.614392236637393, 51.377199474282392 ], [ 5.614922612591703, 51.379524179474174 ], [ 5.621512810131954, 51.380777706505683 ], [ 5.621663718482171, 51.380690615016633 ], [ 5.621924657542674, 51.379687337172996 ], [ 5.625704742480418, 51.380266061670213 ], [ 5.638871190843934, 51.389260605662876 ], [ 5.641190770129972, 51.389731029618588 ], [ 5.641812529101438, 51.388279815691419 ], [ 5.639848242110993, 51.38781116847597 ], [ 5.640304155890149, 51.38681432003613 ], [ 5.640174989881043, 51.386612991030745 ], [ 5.640395655471125, 51.386119887836188 ], [ 5.640670834841916, 51.386020311365286 ], [ 5.641593722989001, 51.383953702592962 ], [ 5.646124230326307, 51.384807044204756 ], [ 5.647161164048847, 51.38327302147389 ], [ 5.649163719221712, 51.383590632857171 ], [ 5.650032913128269, 51.378375744410882 ], [ 5.650656107976032, 51.378435707519621 ], [ 5.650951481641578, 51.377512433723147 ], [ 5.650863214331512, 51.377317008625297 ], [ 5.650218381299675, 51.377174126788063 ], [ 5.650725098480105, 51.373895325240433 ], [ 5.651665166762874, 51.373568413240562 ], [ 5.653614288866637, 51.371234296267751 ], [ 5.655460825714168, 51.370465524951001 ], [ 5.65737347723765, 51.369031886433142 ], [ 5.658482826938906, 51.367281261595231 ], [ 5.658541794817174, 51.366693672958995 ], [ 5.658277955162443, 51.36584211385118 ], [ 5.657277884547504, 51.363878522484839 ], [ 5.657349047254892, 51.363594699735323 ], [ 5.658290353712458, 51.36241418644989 ], [ 5.654237483340056, 51.361696647139233 ], [ 5.65375415319309, 51.362186934672046 ], [ 5.653778628904045, 51.361631859445268 ], [ 5.651486023808307, 51.361301044924744 ], [ 5.654804655437111, 51.353899490063135 ], [ 5.654413214261176, 51.35370043172756 ], [ 5.654567179628718, 51.352437446258797 ], [ 5.653444755044289, 51.352277651882098 ], [ 5.653806341182857, 51.351025489973971 ], [ 5.654660725315783, 51.351073926708899 ], [ 5.654624674576491, 51.350498504552021 ], [ 5.654272609280209, 51.350284363185445 ], [ 5.654516719229725, 51.349548191542588 ], [ 5.654162375621226, 51.348289247220066 ], [ 5.657063218855488, 51.348858436000327 ], [ 5.666833927925741, 51.326830946971164 ], [ 5.667673461227546, 51.326363894917854 ], [ 5.668940626962309, 51.32603985077337 ], [ 5.669272945927699, 51.326138451773332 ], [ 5.669608568786174, 51.325802723488557 ], [ 5.670154575017009, 51.325737760105163 ], [ 5.670876032038912, 51.324882805532226 ], [ 5.671239539089637, 51.324723022897899 ], [ 5.671320323838641, 51.324380160168808 ], [ 5.671650942529193, 51.324291107898908 ], [ 5.671662269501979, 51.32401600634774 ], [ 5.672177365498424, 51.32364200654267 ], [ 5.672042193486276, 51.323326490771393 ], [ 5.671690073851797, 51.323081198178919 ], [ 5.671729816610882, 51.322273601280578 ], [ 5.671935528058484, 51.321693664709045 ], [ 5.671622269772733, 51.321516002451204 ], [ 5.67166315570777, 51.32130338641069 ], [ 5.671388275345715, 51.320802358222409 ], [ 5.671030837437828, 51.320580221260087 ], [ 5.670812446227592, 51.320183626803683 ], [ 5.6708601365069, 51.319903336557523 ], [ 5.670597468602658, 51.319774195777512 ], [ 5.67069610327342, 51.319584661487625 ], [ 5.670440315828177, 51.319384276452112 ], [ 5.67068113798723, 51.319283590589059 ], [ 5.670752896006158, 51.318855937673206 ], [ 5.670373051285137, 51.31852208608187 ], [ 5.670740004144954, 51.318320720890796 ], [ 5.670562487024589, 51.318032213263862 ], [ 5.67070767552222, 51.317819135228675 ], [ 5.670415609447291, 51.317638750109403 ], [ 5.670807391653773, 51.317273032064868 ], [ 5.67060872028567, 51.316846990597874 ], [ 5.670669388240121, 51.316561809945945 ], [ 5.672206771391909, 51.315220300874351 ], [ 5.670179649892793, 51.313664750279706 ], [ 5.656032136253671, 51.301655308651476 ], [ 5.633625572090065, 51.281242851366628 ], [ 5.625889984454442, 51.273658535742257 ], [ 5.625161069730805, 51.271468258891247 ], [ 5.623374964698231, 51.249041322878107 ], [ 5.618698968309392, 51.229509798533861 ], [ 5.594508425453084, 51.224302949311543 ], [ 5.594312612129614, 51.226173371702906 ], [ 5.566027410774108, 51.221007798548115 ], [ 5.566020544135857, 51.220812521039186 ], [ 5.560390567912066, 51.222247353467424 ], [ 5.555130746839539, 51.244320065378922 ], [ 5.554766842580659, 51.244487658975132 ], [ 5.555268857669706, 51.245690374361502 ], [ 5.55516563079635, 51.247464518759834 ], [ 5.556494540196487, 51.250264786923161 ], [ 5.556455937074858, 51.252645466991893 ], [ 5.556234642092651, 51.252710552178051 ], [ 5.556137398003623, 51.253800290757816 ], [ 5.555887094977203, 51.25440474979272 ], [ 5.556240699657865, 51.255332984797718 ], [ 5.556750930343728, 51.255812723179432 ], [ 5.556408739194505, 51.256140589969903 ], [ 5.556393614084072, 51.256347768076523 ], [ 5.557312156431378, 51.257268662818014 ], [ 5.556380677856914, 51.25747927000279 ], [ 5.556711945581814, 51.258652765187165 ], [ 5.556669879577774, 51.260072632770381 ], [ 5.556836710897175, 51.260271617998804 ], [ 5.557483347718351, 51.260124891057906 ], [ 5.557624736547836, 51.260360953656026 ], [ 5.557589462221048, 51.261271424130427 ], [ 5.55782761629414, 51.262405616649744 ], [ 5.557795297907329, 51.262689594507265 ], [ 5.556693352086809, 51.262732702386067 ], [ 5.55651763499986, 51.263271323687277 ], [ 5.556955396591603, 51.264231754842875 ], [ 5.556898472863384, 51.2647461544734 ], [ 5.556145578406643, 51.266570775302014 ], [ 5.555206401366137, 51.266755358859719 ], [ 5.54454268334177, 51.271099234802712 ], [ 5.544362602126512, 51.271291712647411 ], [ 5.544551796799462, 51.271856355972218 ], [ 5.543700087951662, 51.271640602012184 ], [ 5.543040412701632, 51.271967689916593 ], [ 5.5286293845015, 51.281673657045268 ], [ 5.518936785860459, 51.289403386142169 ], [ 5.515705725281775, 51.295112047314639 ], [ 5.487304072601697, 51.299665872640567 ], [ 5.483130874251121, 51.300051182357464 ], [ 5.483270174396447, 51.298574996065661 ], [ 5.479500674468426, 51.2966874994055 ], [ 5.477698523703373, 51.294911095883705 ], [ 5.477167787027968, 51.293636458081899 ], [ 5.476952726118775, 51.29131550095201 ], [ 5.474275245332283, 51.290124304609854 ], [ 5.470279041920085, 51.288062196043711 ], [ 5.465667929225638, 51.285159951842857 ], [ 5.464876320701708, 51.284473725364577 ], [ 5.441853960352957, 51.28201301337365 ], [ 5.441408391346914, 51.280800053241954 ], [ 5.441295523745565, 51.279675643142134 ], [ 5.440695001120925, 51.278534097670459 ], [ 5.439829678301648, 51.277788755669448 ], [ 5.438436240095593, 51.275950174004805 ], [ 5.437694820100885, 51.275929124696496 ], [ 5.436109005887089, 51.276298999587574 ], [ 5.43333791858862, 51.276234013273985 ], [ 5.425703605819882, 51.269175078102208 ], [ 5.417430671488611, 51.262187582862765 ], [ 5.396096641476808, 51.266843182456725 ], [ 5.346176840025348, 51.275656428120797 ], [ 5.346121037989582, 51.275081534748161 ], [ 5.345824131037686, 51.274864779866284 ], [ 5.34589629799389, 51.274472441396135 ], [ 5.345616788109043, 51.27397139696928 ], [ 5.34645822708117, 51.273048632225745 ], [ 5.346204084219927, 51.272828590514891 ], [ 5.346048359743429, 51.272116155401122 ], [ 5.345692418524664, 51.272042811002422 ], [ 5.345036171473885, 51.270896784876413 ], [ 5.3442422438323, 51.27013802493488 ], [ 5.34420257976407, 51.269828079007105 ], [ 5.343470120029274, 51.269260102052137 ], [ 5.343079575461363, 51.269330548919129 ], [ 5.343209326968799, 51.268552273113301 ], [ 5.342821236735698, 51.267251682914001 ], [ 5.342839910472009, 51.266343472779234 ], [ 5.342644398908597, 51.26561784850292 ], [ 5.342293101186145, 51.265395181438876 ], [ 5.341472963102614, 51.265596159488751 ], [ 5.340165711088907, 51.264272370482217 ], [ 5.336489668922596, 51.262968208191815 ], [ 5.315930541396489, 51.263437153264945 ], [ 5.296146583715632, 51.261381881933268 ], [ 5.263122408635298, 51.26670004872409 ], [ 5.237893550437151, 51.261255306896139 ], [ 5.225872929026636, 51.268273760609425 ], [ 5.231244274580312, 51.27971664297565 ], [ 5.242062039900922, 51.305164556012194 ], [ 5.200263847344194, 51.322548840606984 ], [ 5.196589757963397, 51.320262424187348 ], [ 5.190569991224149, 51.319970687856198 ], [ 5.177405956123367, 51.316911887784535 ], [ 5.173100133326733, 51.31567832780226 ], [ 5.162649759359338, 51.310217106628684 ], [ 5.134275906706357, 51.315437072649125 ], [ 5.13159196965639, 51.346984894005857 ], [ 5.124494548108383, 51.351172877703661 ], [ 5.119336893406094, 51.355563570417409 ], [ 5.11648553205805, 51.361064275053501 ], [ 5.071085466779359, 51.393460264246123 ], [ 5.092661468657848, 51.419524734458228 ], [ 5.095088731663621, 51.42227824010515 ], [ 5.09883504116269, 51.426001586973513 ], [ 5.104414947672402, 51.424302156016864 ], [ 5.106516818176233, 51.423125960900705 ] ] ] } }
]
}
