{
"type": "FeatureCollection",
"name": "SWVPO3004",
"crs": { "type": "name", "properties": { "name": "urn:ogc:def:crs:OGC:1.3:CRS84" } },
"features": [
{ "type": "Feature", "properties": { "PO SWV": "PO3004", "strokeColor": "#A9A9A9", "strokeWidth": 2, "fillColor": "#ADD8E6" }, "geometry": { "type": "MultiPolygon", "coordinates": [ [ [ [ 4.89782742190071, 51.486009565400373 ], [ 4.897843649322733, 51.486165214893362 ], [ 4.898563744469837, 51.486437471049001 ], [ 4.899792900916299, 51.486120097452527 ], [ 4.901005151692112, 51.488064485049726 ], [ 4.908397442946792, 51.494297488733672 ], [ 4.909501822787478, 51.500362007123194 ], [ 4.908507691644768, 51.500969046471177 ], [ 4.9082340808278, 51.501393862499867 ], [ 4.908494199656277, 51.501586180799677 ], [ 4.9096029930389, 51.501571657371706 ], [ 4.910330441294874, 51.506085357174392 ], [ 4.909655417213239, 51.506439547536687 ], [ 4.909907851878709, 51.507644154858085 ], [ 4.90869607801549, 51.508364303897494 ], [ 4.910481112323852, 51.510221620176679 ], [ 4.907713299959121, 51.512034848490771 ], [ 4.910674606153094, 51.514898024248708 ], [ 4.911593512232148, 51.514403678167206 ], [ 4.911345607342204, 51.513188097287575 ], [ 4.914707958000196, 51.51087442576916 ], [ 4.956589932287554, 51.518768416239858 ], [ 4.974058894233166, 51.53990407362501 ], [ 4.975318072448739, 51.540005088442776 ], [ 4.9759323312696, 51.541464954613978 ], [ 4.976592492607205, 51.542486817698475 ], [ 4.978043041055286, 51.543078667812765 ], [ 4.979391165784779, 51.544183869207231 ], [ 4.9783611144393, 51.544778906999113 ], [ 4.979003658976333, 51.545599955175724 ], [ 4.978702222887208, 51.54616130363992 ], [ 4.977817915739161, 51.545948978392751 ], [ 4.977194316843972, 51.546138683627632 ], [ 4.976376627583006, 51.545989595969026 ], [ 4.971831714990611, 51.5480293741278 ], [ 4.968181272037417, 51.549158489604409 ], [ 4.965106705949, 51.54971417284554 ], [ 4.958998987611619, 51.550308275562593 ], [ 4.955157347794916, 51.550328476505712 ], [ 4.953328892128373, 51.550501319962223 ], [ 4.953489900672031, 51.551421771449597 ], [ 4.953060162343389, 51.551539973361066 ], [ 4.953318383673157, 51.553234608532492 ], [ 4.95305242674943, 51.554592033779343 ], [ 4.951766234290238, 51.556949606055312 ], [ 4.951399470624967, 51.557921646204342 ], [ 4.951315443311613, 51.557552690333708 ], [ 4.951137566981932, 51.557589935705707 ], [ 4.950943073174879, 51.559729418583196 ], [ 4.951104097750335, 51.560960634404125 ], [ 4.951368707537179, 51.56098750367677 ], [ 4.951460870984768, 51.560553715123419 ], [ 4.951913453273115, 51.560308123509905 ], [ 4.952826491375025, 51.561213206739737 ], [ 4.954293221126427, 51.562038417059938 ], [ 4.954331618063938, 51.562346691536767 ], [ 4.964121725786272, 51.565328659458885 ], [ 4.965525808983947, 51.567261527880021 ], [ 4.96680640525936, 51.567338163766344 ], [ 4.966480127172213, 51.567876590127696 ], [ 4.967750699588873, 51.568785128540881 ], [ 4.968039284247316, 51.569400475908722 ], [ 4.968803033023389, 51.569278147438034 ], [ 4.969948303162353, 51.572153431404701 ], [ 4.973613224154287, 51.587780984203434 ], [ 4.974034394362411, 51.590372968510799 ], [ 4.974144590752728, 51.592841874531423 ], [ 4.973736348432374, 51.595974566890789 ], [ 4.973804465325156, 51.597202432304115 ], [ 4.967705866008737, 51.597707317082978 ], [ 4.968627498810325, 51.60202226191965 ], [ 4.967782989026101, 51.602779252107155 ], [ 4.961127907388088, 51.606084374607242 ], [ 4.948770750313884, 51.610283756437639 ], [ 4.947953780903744, 51.610986276508321 ], [ 4.948001247498685, 51.61113434216081 ], [ 4.949690960517198, 51.611752519641705 ], [ 4.95183345107453, 51.613699615147574 ], [ 4.953310126959772, 51.614330758436758 ], [ 4.955174213160501, 51.614422146778658 ], [ 4.957992313734572, 51.613766860553035 ], [ 4.965009183111365, 51.61311475462459 ], [ 4.970876359038833, 51.611113911499714 ], [ 4.977354535054315, 51.60923265036952 ], [ 4.978322135474208, 51.609117732849015 ], [ 4.981079056592052, 51.609311095444653 ], [ 4.981343502421014, 51.609143870121748 ], [ 4.981946266606098, 51.609173628359272 ], [ 4.983114194874445, 51.608684456710243 ], [ 4.984016771834857, 51.607603544277254 ], [ 4.98630569473225, 51.608008918928803 ], [ 4.988507960032907, 51.607998217001217 ], [ 4.988687710681654, 51.608132689321366 ], [ 4.991420777137516, 51.608017818145669 ], [ 4.991587134360691, 51.60816983373968 ], [ 4.997538386669857, 51.608110760118571 ], [ 5.004043977464486, 51.607808037192122 ], [ 5.004289648168488, 51.607697934630053 ], [ 5.004338606520621, 51.607501130254043 ], [ 5.004168834615964, 51.607207251011054 ], [ 5.003935967218006, 51.60720369339267 ], [ 5.003828945663003, 51.606827545098028 ], [ 5.006666622033468, 51.60609151957307 ], [ 5.013266900557015, 51.603610718109813 ], [ 5.016255430055718, 51.606878939557532 ], [ 5.018753827907844, 51.607112816465204 ], [ 5.021421739545809, 51.606854451201549 ], [ 5.029157475705382, 51.606756856848207 ], [ 5.041374032890504, 51.606115128853588 ], [ 5.041139325315875, 51.607664147074516 ], [ 5.038178838671514, 51.610220994467845 ], [ 5.038088706371124, 51.610561193698643 ], [ 5.042503508114107, 51.611458939932177 ], [ 5.04718369927684, 51.612095975341994 ], [ 5.051639432369615, 51.612179209954114 ], [ 5.058040605382875, 51.611710627384291 ], [ 5.059321477475903, 51.611462655538475 ], [ 5.060409629852717, 51.610615451043799 ], [ 5.067586595173512, 51.612303963323107 ], [ 5.070011621522106, 51.612477042597575 ], [ 5.07083219923063, 51.608615448603324 ], [ 5.071008432025835, 51.608538602584282 ], [ 5.070813792007785, 51.610836261757449 ], [ 5.070208774320317, 51.613107458742711 ], [ 5.06937336931912, 51.615200410183306 ], [ 5.06795053974816, 51.617711252454733 ], [ 5.069209579835456, 51.615548435135331 ], [ 5.069588014064378, 51.614782228900573 ], [ 5.070095679290472, 51.613505340331777 ], [ 5.07082404989242, 51.611034929075196 ], [ 5.071272296696365, 51.608198705700637 ], [ 5.072094876114989, 51.608217997688286 ], [ 5.073284729223465, 51.609152477952229 ], [ 5.073958246826449, 51.609349744413983 ], [ 5.073931992029328, 51.605644710138456 ], [ 5.075555065737735, 51.60566889824053 ], [ 5.075570897747697, 51.608855469637987 ], [ 5.08022989560589, 51.609454726531233 ], [ 5.080268565358046, 51.609591631544674 ], [ 5.079545160703323, 51.610686850363003 ], [ 5.093773065758379, 51.611153217200837 ], [ 5.09607956016081, 51.612401131787678 ], [ 5.097192565718437, 51.614020929616238 ], [ 5.097369902128867, 51.614067666972971 ], [ 5.099268366962456, 51.617707744425232 ], [ 5.100422273187978, 51.617749972812362 ], [ 5.101322616036019, 51.616341113685152 ], [ 5.101421987334661, 51.61649842954612 ], [ 5.10303515148234, 51.616846740789967 ], [ 5.102089370538233, 51.61852871039931 ], [ 5.101314833454976, 51.620430437049954 ], [ 5.100996853606163, 51.622985379296438 ], [ 5.100268076178559, 51.62571807856623 ], [ 5.099735185501506, 51.62698301371605 ], [ 5.099943006356829, 51.627886104160915 ], [ 5.098223814874769, 51.628322452026829 ], [ 5.09840560311557, 51.628981479805006 ], [ 5.100544316433326, 51.631166927647797 ], [ 5.101457289199935, 51.63255122987313 ], [ 5.101636027433895, 51.634089967099378 ], [ 5.102897890877434, 51.63440701304517 ], [ 5.103741849903995, 51.634349810751274 ], [ 5.105287487847453, 51.635225422175147 ], [ 5.105875055724701, 51.635793831926954 ], [ 5.107655123491524, 51.636194010398327 ], [ 5.10996484124336, 51.636312946518352 ], [ 5.109959740049983, 51.63655954479399 ], [ 5.110668032003454, 51.636480738096679 ], [ 5.110708105197555, 51.636646257269433 ], [ 5.110194471044883, 51.636954388352734 ], [ 5.110749903787774, 51.637235077363805 ], [ 5.112222661901709, 51.637556771142407 ], [ 5.113860395747396, 51.637235564720122 ], [ 5.11371282372366, 51.636772506148368 ], [ 5.113765069808033, 51.636332259927485 ], [ 5.113908450143009, 51.636258717178215 ], [ 5.11504647957694, 51.637208355904789 ], [ 5.114364449672273, 51.639058268274006 ], [ 5.114871151858607, 51.639350336352088 ], [ 5.115918916873497, 51.63944905899664 ], [ 5.116631138977541, 51.639759799025569 ], [ 5.117340090882752, 51.639775703363867 ], [ 5.118410671791115, 51.640204433151723 ], [ 5.119909888970067, 51.640436880204781 ], [ 5.120362288158331, 51.64071271772638 ], [ 5.123664625200171, 51.641181368938767 ], [ 5.125760064791518, 51.640965395496252 ], [ 5.126977121585007, 51.640483460644631 ], [ 5.127689449977821, 51.640510432588989 ], [ 5.128453785049082, 51.640809148373755 ], [ 5.129250559070964, 51.640543669281975 ], [ 5.130444845554188, 51.63980857492475 ], [ 5.130893738820338, 51.639837198250753 ], [ 5.131385439442915, 51.640125039972425 ], [ 5.131995373059532, 51.639988155524442 ], [ 5.132170144820066, 51.639767944383728 ], [ 5.133033950808626, 51.639877991690838 ], [ 5.133554025563946, 51.640274686178699 ], [ 5.134224960256481, 51.639313119575696 ], [ 5.135033779700827, 51.639623727085976 ], [ 5.138021112349218, 51.640212783370806 ], [ 5.14246374629682, 51.640478855904782 ], [ 5.1450619097, 51.640396666400001 ], [ 5.145607531, 51.640279972599998 ], [ 5.1465597137, 51.638692129900001 ], [ 5.1474465033, 51.638973517499998 ], [ 5.1477829328, 51.6384492225 ], [ 5.1491759514, 51.638545088100003 ], [ 5.1537557686, 51.634237352600003 ], [ 5.1525712535, 51.633931393200001 ], [ 5.1525357587, 51.633765666899997 ], [ 5.1529609551, 51.633396518300003 ], [ 5.1542691745, 51.633765131300002 ], [ 5.163942385, 51.623920615499998 ], [ 5.1639516449, 51.623759702299999 ], [ 5.1631693995, 51.6234533222 ], [ 5.1638460685, 51.622689391800002 ], [ 5.1632605534, 51.622339210699998 ], [ 5.1633155617, 51.622136757200003 ], [ 5.1645298994, 51.6211541869 ], [ 5.1656895625, 51.621954394100001 ], [ 5.1690434659, 51.618716876 ], [ 5.1686118415, 51.617950251899998 ], [ 5.1673114929, 51.616587504199998 ], [ 5.1674703752, 51.6162854831 ], [ 5.1680543081, 51.615903391899998 ], [ 5.1674197333, 51.615370778299997 ], [ 5.166778791, 51.615612557399999 ], [ 5.1653375452, 51.614780517600003 ], [ 5.1651282697, 51.614509062700002 ], [ 5.1651595832, 51.614372941200003 ], [ 5.1665824482, 51.613664461100001 ], [ 5.1651949789, 51.612560103299998 ], [ 5.1651967642, 51.612414548099999 ], [ 5.1678297293, 51.611317361300003 ], [ 5.1676802478, 51.611122506199997 ], [ 5.1677561137, 51.611003776499999 ], [ 5.1707385495, 51.611797955599997 ], [ 5.1747978422, 51.610416834399999 ], [ 5.1749532226, 51.609627638900001 ], [ 5.1751154168, 51.6094925915 ], [ 5.1693876494, 51.603662357 ], [ 5.1694058102, 51.603507153099997 ], [ 5.1702437666, 51.603636065499998 ], [ 5.1725517584, 51.602485561899996 ], [ 5.1754112352, 51.600207644800001 ], [ 5.179363395, 51.5976717311 ], [ 5.1863229459, 51.6019109267 ], [ 5.1897167023, 51.599698504 ], [ 5.1910881118, 51.598361791199999 ], [ 5.1915143118, 51.597175853800003 ], [ 5.1912529332, 51.595594389299997 ], [ 5.1925892646, 51.593594909899998 ], [ 5.1940877259, 51.594537379199998 ], [ 5.1952650629, 51.594948639800002 ], [ 5.2004798217, 51.592468486400001 ], [ 5.202030413, 51.591419873699998 ], [ 5.2045526824, 51.588950083100002 ], [ 5.2062957527, 51.589578854400003 ], [ 5.2089931233, 51.590903406400002 ], [ 5.209930123, 51.590012631100002 ], [ 5.210384602, 51.589112584299997 ], [ 5.2117575149, 51.587481544100001 ], [ 5.2129928186, 51.586903345800003 ], [ 5.2133773841, 51.586541413699997 ], [ 5.2131717097, 51.586151966800003 ], [ 5.2139210954, 51.585445397199997 ], [ 5.2304796176, 51.5863961051 ], [ 5.2305638591, 51.586202482700003 ], [ 5.2471265515, 51.5869353223 ], [ 5.246100903, 51.579414048700002 ], [ 5.2536061142, 51.5704324298 ], [ 5.2594455958, 51.571308553100003 ], [ 5.2613655259, 51.569017646200003 ], [ 5.2613985388, 51.567508223 ], [ 5.2607174205, 51.565826058100001 ], [ 5.2624538732, 51.563832162899999 ], [ 5.262198448, 51.563537674099997 ], [ 5.2621659232, 51.562941640699997 ], [ 5.261727833, 51.562423934199998 ], [ 5.261413813, 51.561499018799999 ], [ 5.2613844909, 51.5609102007 ], [ 5.2654492057, 51.5567976926 ], [ 5.2688398954, 51.553646755499997 ], [ 5.273121675040795, 51.552747734453142 ], [ 5.271811070531188, 51.549941289381252 ], [ 5.27186946192319, 51.549729484285791 ], [ 5.277392885000045, 51.54865308633304 ], [ 5.277454440997489, 51.54679378629195 ], [ 5.276821188154863, 51.544977137374417 ], [ 5.269842696006509, 51.546307253554282 ], [ 5.268552739444146, 51.543712899601019 ], [ 5.267952229403201, 51.5433314512698 ], [ 5.25980292566534, 51.544973100328725 ], [ 5.259194384211487, 51.543888493969959 ], [ 5.25855946403437, 51.541041873588497 ], [ 5.25839372747756, 51.540854774090491 ], [ 5.253213970381306, 51.540371093134226 ], [ 5.249411440179875, 51.531689951336091 ], [ 5.248776306136761, 51.530900996336662 ], [ 5.245381782822418, 51.527698580367613 ], [ 5.244119522098218, 51.52598578618597 ], [ 5.234784430073983, 51.531154279284586 ], [ 5.23288822331922, 51.525731828425208 ], [ 5.230768811716409, 51.521009233326801 ], [ 5.224354290011062, 51.517207780095156 ], [ 5.226499198793381, 51.507379975449567 ], [ 5.232415067400997, 51.508834310079685 ], [ 5.235982663610343, 51.513794405917068 ], [ 5.251084387819741, 51.509573377501859 ], [ 5.249973708057524, 51.50802099320741 ], [ 5.250432510968429, 51.506563131622514 ], [ 5.250692585823445, 51.506320524958319 ], [ 5.247804617811488, 51.506384588033981 ], [ 5.247020615924798, 51.498977831697388 ], [ 5.23302025895372, 51.498938016184503 ], [ 5.228366009308067, 51.49876266643237 ], [ 5.229595093900916, 51.492814160360069 ], [ 5.230284274247029, 51.492280360528234 ], [ 5.230505132629974, 51.490959205397644 ], [ 5.230315451745728, 51.490562356018906 ], [ 5.230136300213673, 51.490514317076027 ], [ 5.229904131550707, 51.489819209554845 ], [ 5.226138778671948, 51.489209476191959 ], [ 5.225318886736895, 51.48887165214731 ], [ 5.220349827227931, 51.472942395976709 ], [ 5.209731397907604, 51.465828489771589 ], [ 5.190956109810414, 51.43030862446556 ], [ 5.190053652547248, 51.430253882423266 ], [ 5.182845477673708, 51.435033255002082 ], [ 5.180998030138984, 51.434963762151405 ], [ 5.178256215649383, 51.433558578132335 ], [ 5.180785873502552, 51.431851161360669 ], [ 5.177668513290678, 51.43028864589288 ], [ 5.175554005887301, 51.429546151889369 ], [ 5.175384329371539, 51.429264151885327 ], [ 5.17346174767892, 51.428352511153669 ], [ 5.170795264821423, 51.429828590043115 ], [ 5.158543218449401, 51.432273751510451 ], [ 5.15786397587539, 51.428926667204394 ], [ 5.154979298770146, 51.428882920715083 ], [ 5.154878778770164, 51.42913762671985 ], [ 5.154732814198733, 51.428965293247686 ], [ 5.15426481713632, 51.428899494945355 ], [ 5.154179306328515, 51.428716265096782 ], [ 5.153420874639942, 51.428874098711631 ], [ 5.153300142544356, 51.428722198315931 ], [ 5.153447211683794, 51.428544965520494 ], [ 5.153153875930193, 51.428435897004789 ], [ 5.15244658948917, 51.429126007549776 ], [ 5.148401463009545, 51.428827250735047 ], [ 5.141857052133298, 51.428873300593722 ], [ 5.122608584154014, 51.428431983531787 ], [ 5.122404787401035, 51.427050843382005 ], [ 5.1145573293083, 51.427275453118924 ], [ 5.112963767458549, 51.425394402558403 ], [ 5.110467497373672, 51.423737245315628 ], [ 5.108773649217471, 51.424462763986938 ], [ 5.106502154965875, 51.423122831332691 ], [ 5.104414947672402, 51.424302156016864 ], [ 5.098827290534435, 51.425994872480203 ], [ 5.104444023167798, 51.431364617899035 ], [ 5.081095032925819, 51.46778431561723 ], [ 5.079162578982423, 51.470940632321714 ], [ 5.079241273467769, 51.471251027691494 ], [ 5.078975388673597, 51.471410238922353 ], [ 5.07845589528211, 51.471199778675022 ], [ 5.078077571780204, 51.471397177236383 ], [ 5.07231769950727, 51.471000021387994 ], [ 5.045730448361581, 51.471022446008526 ], [ 5.045823823737873, 51.471756150591503 ], [ 5.045203571807527, 51.472823650941038 ], [ 5.043330504348388, 51.474633430727231 ], [ 5.042806246783415, 51.474465645085068 ], [ 5.042401120371397, 51.474778441232857 ], [ 5.042435949934516, 51.47491337725657 ], [ 5.04303645037419, 51.475137649275538 ], [ 5.041603384146448, 51.476220403625135 ], [ 5.04083154791392, 51.476531502078757 ], [ 5.040337043334275, 51.47744095647672 ], [ 5.039700064581377, 51.477335524110238 ], [ 5.037795755676608, 51.479312346152099 ], [ 5.039042170717734, 51.479837190753017 ], [ 5.038749029385869, 51.480662244707872 ], [ 5.039750138109626, 51.485164429724342 ], [ 5.040002606782214, 51.48521280857441 ], [ 5.040101834641346, 51.486433897412802 ], [ 5.038673235000131, 51.486448645812573 ], [ 5.038668883014661, 51.486907639999465 ], [ 5.034945432323326, 51.487158007412908 ], [ 5.033270928142123, 51.487098234838015 ], [ 5.033051154544765, 51.486280291946166 ], [ 5.032143690270968, 51.486062694389823 ], [ 5.032175095241427, 51.485765171002782 ], [ 5.031997823294137, 51.485576397288142 ], [ 5.030832073891704, 51.485329866989744 ], [ 5.030444217066169, 51.485402140990125 ], [ 5.030342931901123, 51.485152286397543 ], [ 5.029779176560175, 51.485003771888913 ], [ 5.029525160562462, 51.484618575395316 ], [ 5.028899330965576, 51.484320793493268 ], [ 5.027497444645754, 51.483794071583986 ], [ 5.026937392901825, 51.483791620892696 ], [ 5.026009241965619, 51.483425459050231 ], [ 5.0258170183945, 51.48317017712619 ], [ 5.024984500656637, 51.48303853482043 ], [ 5.023829349969457, 51.482445730754783 ], [ 5.023307887681409, 51.481979648282575 ], [ 5.022311401943739, 51.481681703026339 ], [ 5.020861106473431, 51.480201300998168 ], [ 5.020881468753322, 51.479799026389074 ], [ 5.020105241239837, 51.478815900303267 ], [ 5.019527591233791, 51.478488732950659 ], [ 5.018551726886482, 51.47692893368788 ], [ 5.016652487549339, 51.475410735257398 ], [ 5.016714031602032, 51.475128710341238 ], [ 5.014038918840105, 51.473681990907465 ], [ 5.010907414878022, 51.472236691353125 ], [ 5.008228195761681, 51.467156452116612 ], [ 5.007351953661566, 51.464383255503932 ], [ 5.0078764091882, 51.462319837565111 ], [ 5.008861912104215, 51.462311122106179 ], [ 5.010098820912068, 51.460084959609638 ], [ 5.010455014743039, 51.459897125156189 ], [ 5.010593060194661, 51.459530557056901 ], [ 5.01086100064532, 51.459330264089466 ], [ 5.010810261006934, 51.459009286133195 ], [ 5.010339198833362, 51.458704243183156 ], [ 5.010481949806604, 51.458568578071635 ], [ 5.01049329969191, 51.458149217068957 ], [ 4.982444660015104, 51.460289930720222 ], [ 4.979980861388609, 51.460448407219829 ], [ 4.977312632818327, 51.460387892387566 ], [ 4.97680389414553, 51.460985856435002 ], [ 4.976453272356863, 51.461039385605048 ], [ 4.974816661587191, 51.460527487728214 ], [ 4.973745060567825, 51.45966335903325 ], [ 4.972517615829063, 51.459431234279556 ], [ 4.970086027301029, 51.458641288183678 ], [ 4.969447037308035, 51.459413766901783 ], [ 4.968402001570703, 51.458832542211709 ], [ 4.966216604397979, 51.458946501373987 ], [ 4.96605548459638, 51.459451014198287 ], [ 4.9627031514757, 51.459082631167206 ], [ 4.959548152565466, 51.459180452116172 ], [ 4.959865732652331, 51.458564290994495 ], [ 4.958851538045853, 51.458320061329424 ], [ 4.957197704660341, 51.459796412834002 ], [ 4.956539158148071, 51.459598239022895 ], [ 4.947198802000463, 51.458472876399561 ], [ 4.944869158045901, 51.456676398413613 ], [ 4.940227352721779, 51.457268512009016 ], [ 4.94019705983205, 51.457490294925691 ], [ 4.93701959747822, 51.45827660608397 ], [ 4.932075962354182, 51.459124097587996 ], [ 4.91791908908853, 51.466656625897691 ], [ 4.917971832038281, 51.467315581674356 ], [ 4.91701663479158, 51.467942119904436 ], [ 4.915708847264107, 51.468015698072179 ], [ 4.91399788797783, 51.46893925716553 ], [ 4.897504862128287, 51.476051029171884 ], [ 4.891954310193489, 51.477885105794506 ], [ 4.891336987465109, 51.478447861127947 ], [ 4.891350459104752, 51.478747135690533 ], [ 4.889144056862795, 51.48075526530419 ], [ 4.88926649749525, 51.480917489434269 ], [ 4.891915626490702, 51.480569558852096 ], [ 4.896554092079984, 51.484444722593452 ], [ 4.898663882962105, 51.485188579489318 ], [ 4.89782742190071, 51.486009565400373 ] ] ], [ [ [ 5.06594289548766, 51.620573357668825 ], [ 5.06597781191255, 51.620522989820202 ], [ 5.066191442907424, 51.620223403081845 ], [ 5.06587636135043, 51.620650210390856 ], [ 5.06594289548766, 51.620573357668825 ] ] ] ] } }
]
}
