{
"type": "FeatureCollection",
"name": "SWVPO2505",
"crs": { "type": "name", "properties": { "name": "urn:ogc:def:crs:OGC:1.3:CRS84" } },
"features": [
{ "type": "Feature", "properties": { "PO SWV": "PO2505", "strokeColor": "#A9A9A9", "strokeWidth": 2, "fillColor": "#ADD8E6" }, "geometry": { "type": "Polygon", "coordinates": [ [ [ 6.036091125866926, 52.267967907714791 ], [ 6.035650503604305, 52.267426691176276 ], [ 6.034898740237796, 52.265914571536946 ], [ 6.034933118519194, 52.265361997647609 ], [ 6.037769745314089, 52.263658183808701 ], [ 6.037588354892446, 52.260888893246701 ], [ 6.03718517686091, 52.260580756479492 ], [ 6.036566898744674, 52.259410476602454 ], [ 6.035852869635781, 52.25941152282347 ], [ 6.035478650980113, 52.258874771459432 ], [ 6.035390713624657, 52.258421714921838 ], [ 6.035122491613373, 52.258192802837719 ], [ 6.034277638939529, 52.257998260859956 ], [ 6.031881787773107, 52.258481646623096 ], [ 6.032014659669687, 52.257539330315431 ], [ 6.031516407061962, 52.256403706510433 ], [ 6.032061612389993, 52.255856861891729 ], [ 6.031346326497485, 52.255341453898602 ], [ 6.03139026746978, 52.253626356627038 ], [ 6.031034892581479, 52.252184448753134 ], [ 6.030677697209254, 52.25130758551375 ], [ 6.028531905773959, 52.24858275841251 ], [ 6.024931431088064, 52.249131691544612 ], [ 6.024900669535445, 52.248955681190459 ], [ 6.027182115743927, 52.246109047081731 ], [ 6.028481561136501, 52.245444768057801 ], [ 6.028064488303956, 52.244898052813539 ], [ 6.029023864357786, 52.244416294237595 ], [ 6.026692661618219, 52.242909800864162 ], [ 6.028395826874442, 52.241826560952482 ], [ 6.028571710918952, 52.239093268943208 ], [ 6.030545539336117, 52.237557633341993 ], [ 6.032427958942144, 52.235677571504311 ], [ 6.034035775584728, 52.234978171726169 ], [ 6.036142775060436, 52.232035949939338 ], [ 6.035924040807946, 52.231694023052988 ], [ 6.035008280625784, 52.231296873546427 ], [ 6.034306937843931, 52.231353088356748 ], [ 6.034632067911332, 52.228177774879008 ], [ 6.033572083814581, 52.224237600164521 ], [ 6.035373611129069, 52.224614169205502 ], [ 6.040898944513466, 52.224257102817724 ], [ 6.042444725511479, 52.222572581370265 ], [ 6.046933955854863, 52.221464607445306 ], [ 6.047093766362657, 52.221264945909056 ], [ 6.047081910480498, 52.220420002096155 ], [ 6.046904445778463, 52.220139283161693 ], [ 6.047310904294129, 52.21947084943141 ], [ 6.047974282346382, 52.217606671933332 ], [ 6.048009951185061, 52.217101627976284 ], [ 6.04838832538553, 52.216362102854134 ], [ 6.04859434817797, 52.214817194966315 ], [ 6.048016484732132, 52.213024122942016 ], [ 6.048609880288008, 52.212169483822407 ], [ 6.049061524946304, 52.21187652389419 ], [ 6.05033207520258, 52.21006651547652 ], [ 6.050907046874229, 52.207975723757706 ], [ 6.052335235752944, 52.205154785548949 ], [ 6.052354343588276, 52.204646266196463 ], [ 6.052093402447404, 52.204367743434716 ], [ 6.052704062095002, 52.203204856226002 ], [ 6.053539539467496, 52.20256072408435 ], [ 6.053557388804112, 52.201273079552344 ], [ 6.054304332477478, 52.200439943474976 ], [ 6.054541239186672, 52.199789791030852 ], [ 6.056184909929261, 52.198307392751133 ], [ 6.056334585345669, 52.19791213317562 ], [ 6.056946184169891, 52.19723422928169 ], [ 6.056958300248193, 52.196951507811903 ], [ 6.057341727186799, 52.196888148164248 ], [ 6.057392661879756, 52.196672796413253 ], [ 6.058350788289911, 52.196175923879267 ], [ 6.058244976930025, 52.195835172092472 ], [ 6.056080060360456, 52.195939686822612 ], [ 6.053958849407119, 52.19494596501081 ], [ 6.05377700409453, 52.193527484546294 ], [ 6.051230753685608, 52.188759339165152 ], [ 6.051353918964583, 52.188635930435836 ], [ 6.051034106906848, 52.187150483229502 ], [ 6.049556907730679, 52.185408452791791 ], [ 6.049470174051926, 52.184947332393151 ], [ 6.049633559552175, 52.18432171407413 ], [ 6.050299470773026, 52.183224750906696 ], [ 6.051445908041851, 52.182374250465507 ], [ 6.052462048207707, 52.181805036382116 ], [ 6.053868313665702, 52.181430937434719 ], [ 6.054990321105366, 52.180272870285968 ], [ 6.055393278580868, 52.179585237215406 ], [ 6.056290856810878, 52.17916031745844 ], [ 6.057116967526371, 52.17833900838086 ], [ 6.058511346700147, 52.177520636347616 ], [ 6.059867950417965, 52.176288290462082 ], [ 6.060755103746811, 52.175210283333833 ], [ 6.061877586710358, 52.17330578071342 ], [ 6.065792208165446, 52.165240706850824 ], [ 6.066520959857232, 52.161506499785936 ], [ 6.065787980067069, 52.159839063485627 ], [ 6.064842973755423, 52.158582458562101 ], [ 6.064408321339243, 52.158299983932451 ], [ 6.064333915742814, 52.15759980770649 ], [ 6.064461663087022, 52.157031427606555 ], [ 6.067528560687006, 52.153907832282144 ], [ 6.069421089702609, 52.152727333066309 ], [ 6.072392911782392, 52.150466819815307 ], [ 6.074803592122914, 52.148225485608855 ], [ 6.074477126002836, 52.14778231035082 ], [ 6.074464300100557, 52.14733348868964 ], [ 6.07525537253751, 52.146575985710207 ], [ 6.076111202444633, 52.143848259641487 ], [ 6.078581461277364, 52.138855271615114 ], [ 6.071467314453469, 52.134500963897679 ], [ 6.06967052507544, 52.131217397392135 ], [ 6.063050991052499, 52.129057704890954 ], [ 6.051190955226351, 52.12413295417241 ], [ 6.047711357872465, 52.119118877546008 ], [ 6.043229670576313, 52.116825488379568 ], [ 6.040691260106791, 52.114533150525332 ], [ 6.041214527340388, 52.112318047355444 ], [ 6.035903379395766, 52.109398973973541 ], [ 6.035581671267019, 52.108343887664915 ], [ 6.035624158042109, 52.107848125527887 ], [ 6.035325850494605, 52.10713980749366 ], [ 6.034294581745328, 52.106064332477921 ], [ 6.034115591569489, 52.105486959210268 ], [ 6.034012456912665, 52.104225513648409 ], [ 6.034918727571889, 52.102864180225708 ], [ 6.032518891041328, 52.101417329029942 ], [ 6.034355961564208, 52.098368638195197 ], [ 6.034111914581739, 52.095642878856324 ], [ 6.031640778360775, 52.095507583150187 ], [ 6.029181747164484, 52.092706239307063 ], [ 6.024644196744193, 52.089229790652105 ], [ 6.023250884227297, 52.089838209844814 ], [ 6.022479886700208, 52.089826391634645 ], [ 6.020367706422834, 52.090853821774964 ], [ 6.017684011267465, 52.088327979022033 ], [ 6.017474564183719, 52.087570108492613 ], [ 6.015675010682706, 52.086370011951182 ], [ 6.014719284688131, 52.086092088371913 ], [ 6.009897435245593, 52.086727409870797 ], [ 6.008151810273493, 52.087603598206094 ], [ 6.007854470338884, 52.08818962131668 ], [ 6.007238061214093, 52.08823490210505 ], [ 6.001463240142913, 52.086690706917729 ], [ 6.001286568069253, 52.08647809677506 ], [ 6.000981255404308, 52.080013256430462 ], [ 5.998196833663149, 52.076931795447074 ], [ 5.994239518881963, 52.078087942789587 ], [ 5.993860568675757, 52.078319593599694 ], [ 5.990467830879412, 52.079063647331232 ], [ 5.984086582464277, 52.078880142072379 ], [ 5.981801311074551, 52.078663973453978 ], [ 5.981734637118529, 52.078853459687508 ], [ 5.97593210075302, 52.078274215670575 ], [ 5.964621650604738, 52.076419218970429 ], [ 5.955938324929823, 52.073446888811411 ], [ 5.947245490120642, 52.077515981812169 ], [ 5.946918310069449, 52.077806461983585 ], [ 5.947673697622778, 52.08093743981658 ], [ 5.948399557123329, 52.082232070313445 ], [ 5.948276669252124, 52.082364948409946 ], [ 5.946625216150233, 52.082526796389828 ], [ 5.948311252832009, 52.090804551332702 ], [ 5.950300385305614, 52.096020820491127 ], [ 5.950782258160436, 52.096438614596956 ], [ 5.951645743711199, 52.100007697303326 ], [ 5.946179658994557, 52.099399949671955 ], [ 5.934522005638916, 52.099817368586208 ], [ 5.926819152738322, 52.100379637349846 ], [ 5.922329697589483, 52.100496138535291 ], [ 5.911739514322243, 52.100333061746099 ], [ 5.900119375126333, 52.10388350661281 ], [ 5.883500392087245, 52.106435289607361 ], [ 5.876373426500391, 52.114497064284635 ], [ 5.874938383785866, 52.115947656535596 ], [ 5.874675322222017, 52.115938850305966 ], [ 5.874215242448427, 52.116832638239963 ], [ 5.867595806378064, 52.123098146168282 ], [ 5.867595806378064, 52.126342335488538 ], [ 5.869357528350335, 52.125789659697283 ], [ 5.870935563111105, 52.127743704926573 ], [ 5.870248408199823, 52.129422043313696 ], [ 5.870250217406705, 52.132530038015418 ], [ 5.872009792215543, 52.134267205300397 ], [ 5.87185878168823, 52.134434809802471 ], [ 5.871525370910607, 52.136199312191835 ], [ 5.870011716657547, 52.135880936478515 ], [ 5.866179479507986, 52.140958554956164 ], [ 5.866601493959068, 52.141915069224787 ], [ 5.867333080164109, 52.142127899406574 ], [ 5.868232337070983, 52.143666274624778 ], [ 5.868761453815114, 52.147100431819574 ], [ 5.861279473375885, 52.145396631828341 ], [ 5.859582877473187, 52.148842136009861 ], [ 5.845771490809472, 52.151708974939794 ], [ 5.809941851459088, 52.151515440312885 ], [ 5.809840911499917, 52.157513455753268 ], [ 5.809396063559952, 52.157560636573521 ], [ 5.809102668221448, 52.157340100402031 ], [ 5.806591970780056, 52.158576573907638 ], [ 5.80425839193525, 52.158968822413833 ], [ 5.802821167918171, 52.158811338365503 ], [ 5.80219384442591, 52.160155657490009 ], [ 5.798888784049476, 52.163031231792125 ], [ 5.806302175325038, 52.165510985688925 ], [ 5.806329825109572, 52.165678903966914 ], [ 5.805849914628667, 52.166130937680137 ], [ 5.809625379826251, 52.166830177295331 ], [ 5.808883745650499, 52.167897737394611 ], [ 5.80109333962847, 52.172071174660026 ], [ 5.804399391458319, 52.174095188738676 ], [ 5.802097377580962, 52.177342801553202 ], [ 5.805074363292024, 52.179586185198694 ], [ 5.806440153534053, 52.179506174591097 ], [ 5.80740386751832, 52.179759795872172 ], [ 5.807789860223968, 52.180041753951066 ], [ 5.809321595739501, 52.180163600792504 ], [ 5.811669433700874, 52.180875267546597 ], [ 5.812628109749918, 52.180940553382847 ], [ 5.812935814639694, 52.181049496782876 ], [ 5.813233364289295, 52.181507380111334 ], [ 5.814635308879035, 52.181572831986195 ], [ 5.814625716065718, 52.181955842463921 ], [ 5.814126493743413, 52.183134025243568 ], [ 5.813134975264187, 52.184115313838404 ], [ 5.7997195111469, 52.194729989531041 ], [ 5.797623929887848, 52.19577405277056 ], [ 5.797436565069861, 52.197481161194112 ], [ 5.782747004380988, 52.196204307016473 ], [ 5.782825121883655, 52.196581154649714 ], [ 5.77963198418667, 52.196342766568492 ], [ 5.778790421968695, 52.198779639353816 ], [ 5.762350640452733, 52.196914117390932 ], [ 5.762289701966174, 52.19671340402116 ], [ 5.763671949718549, 52.195761033415842 ], [ 5.76252419159114, 52.195585814274757 ], [ 5.762150291296752, 52.195668476127928 ], [ 5.761263777874119, 52.196281211540985 ], [ 5.759824635365716, 52.196381771903937 ], [ 5.757911537526462, 52.195928913506364 ], [ 5.757669086931751, 52.19509590206281 ], [ 5.752524869605698, 52.194812755134166 ], [ 5.74983258444781, 52.194506022523839 ], [ 5.741129377340075, 52.201963075896778 ], [ 5.73084519163942, 52.208665727485048 ], [ 5.729884341038934, 52.21096345189877 ], [ 5.730078887737849, 52.211126483791389 ], [ 5.727617057776735, 52.219054378948904 ], [ 5.73263456946745, 52.21945620436513 ], [ 5.741599559256139, 52.219646253161777 ], [ 5.743128757813378, 52.223488279053043 ], [ 5.738618962930024, 52.230553722384187 ], [ 5.738460418091392, 52.231548091443571 ], [ 5.738227314451364, 52.231677770475763 ], [ 5.734107424862205, 52.232008581618366 ], [ 5.730997529532369, 52.231671881474952 ], [ 5.730755982195842, 52.232970062931457 ], [ 5.731114991140027, 52.233048698997678 ], [ 5.731552023193786, 52.23340322320923 ], [ 5.73309524916364, 52.233406202640218 ], [ 5.733177487335539, 52.233643971702257 ], [ 5.732976589535437, 52.233850505480468 ], [ 5.732060438114493, 52.23415621134297 ], [ 5.731916145363105, 52.235265741422936 ], [ 5.731008447965592, 52.235859917749309 ], [ 5.730197772795106, 52.235977079149833 ], [ 5.72963880197056, 52.238973543391005 ], [ 5.726584979104762, 52.242432239425874 ], [ 5.728114158856746, 52.242692437845662 ], [ 5.728999563407151, 52.245081113703698 ], [ 5.730905700604008, 52.245469288935304 ], [ 5.730053087003074, 52.247936708508085 ], [ 5.730928882232976, 52.250368609592734 ], [ 5.729753980468296, 52.251345974150667 ], [ 5.72977612746868, 52.252228674480335 ], [ 5.729373597396213, 52.254020784565263 ], [ 5.730105915321755, 52.254272230215108 ], [ 5.730256973613075, 52.256213506720428 ], [ 5.729990725820607, 52.258655599825715 ], [ 5.74564440881596, 52.252932008533037 ], [ 5.746913707193586, 52.248958905564557 ], [ 5.747205146780225, 52.249030491728647 ], [ 5.747771362388544, 52.248127334511032 ], [ 5.745018811719366, 52.247293978755593 ], [ 5.744902938053701, 52.247116108165599 ], [ 5.745341822432704, 52.246511611717175 ], [ 5.745804967584457, 52.246308039435839 ], [ 5.746891060956888, 52.245320597810782 ], [ 5.750939114143691, 52.245798157627597 ], [ 5.754895475730669, 52.246613246987074 ], [ 5.761537648782673, 52.248258178045539 ], [ 5.753097830411571, 52.262147760690645 ], [ 5.752630219639781, 52.263211342309312 ], [ 5.75067332393328, 52.266475170225164 ], [ 5.749369734003796, 52.268244707248179 ], [ 5.751295410080315, 52.269463220958308 ], [ 5.779921673620797, 52.270502030773777 ], [ 5.785483797285587, 52.270328338200237 ], [ 5.792280033600782, 52.269887275373875 ], [ 5.792400177207017, 52.27015110294235 ], [ 5.792904118897036, 52.270497191468195 ], [ 5.795928156764831, 52.270595872681255 ], [ 5.795040339367108, 52.269753162707978 ], [ 5.797244486044556, 52.269595780828247 ], [ 5.798685267217381, 52.270014840282357 ], [ 5.80223827962839, 52.270398820325283 ], [ 5.809804377013352, 52.270177035935248 ], [ 5.811646067889827, 52.270375044720971 ], [ 5.814767693843732, 52.270867532202566 ], [ 5.81720693335038, 52.272014107294915 ], [ 5.821424944475853, 52.272570801340457 ], [ 5.829599529605093, 52.271206694211145 ], [ 5.83222751315606, 52.270443828574493 ], [ 5.836010044636806, 52.275251596577689 ], [ 5.839403111313066, 52.274890518920778 ], [ 5.841508142336076, 52.277382323120356 ], [ 5.844583035554762, 52.27707189529059 ], [ 5.842728103509289, 52.274745533761951 ], [ 5.84272709963252, 52.274553185998947 ], [ 5.852265406224736, 52.27354059036584 ], [ 5.851591259883408, 52.271108126347649 ], [ 5.851695032438344, 52.270932482348606 ], [ 5.855266420441773, 52.27074761870773 ], [ 5.858832460502257, 52.270987527784527 ], [ 5.858150032646431, 52.270458785945728 ], [ 5.857876038023998, 52.267505000082068 ], [ 5.858459777841004, 52.26390775611403 ], [ 5.858091918380652, 52.263456570000123 ], [ 5.860545837495884, 52.260294930740095 ], [ 5.860966496309007, 52.259337018252552 ], [ 5.861388534505925, 52.258832531159499 ], [ 5.861437751347021, 52.258328027736368 ], [ 5.862009787048017, 52.257658923935168 ], [ 5.861138504274208, 52.257194954097876 ], [ 5.860492961613492, 52.256012663028791 ], [ 5.862149084096049, 52.254899196460755 ], [ 5.862139576832651, 52.252717733866533 ], [ 5.863569267462977, 52.252490574682433 ], [ 5.866834165828628, 52.252481145109599 ], [ 5.869407026434078, 52.251578017752998 ], [ 5.869880754187809, 52.251309976523977 ], [ 5.870497396903746, 52.250454487891332 ], [ 5.872113424911631, 52.249197607049673 ], [ 5.872378438719143, 52.248687352062426 ], [ 5.874512633159122, 52.248833285178812 ], [ 5.877559129292408, 52.248376600959936 ], [ 5.87971422041282, 52.24849241827809 ], [ 5.885798437447158, 52.247897860023116 ], [ 5.887329636139825, 52.248417383922558 ], [ 5.891102307502321, 52.249260666830402 ], [ 5.891107920488928, 52.24940804504795 ], [ 5.890547696829026, 52.24986314320897 ], [ 5.89442457528838, 52.250525923012169 ], [ 5.894281987503971, 52.252768788810002 ], [ 5.895149519853033, 52.253149015199135 ], [ 5.895773159519289, 52.253822862914681 ], [ 5.895914750796488, 52.254309609889361 ], [ 5.896515720454144, 52.254645292893379 ], [ 5.896926220874125, 52.25530648862523 ], [ 5.90097166122186, 52.255191677292714 ], [ 5.900038999889644, 52.259031376823508 ], [ 5.904948894142445, 52.259912698344614 ], [ 5.905440848143511, 52.258908668803549 ], [ 5.905629242519281, 52.258798654217422 ], [ 5.912267236203335, 52.260067574115311 ], [ 5.913470534839504, 52.261216654326702 ], [ 5.9138693390004, 52.261832918913733 ], [ 5.913732616851242, 52.262403206279153 ], [ 5.913876093503684, 52.262738772633817 ], [ 5.913492400951857, 52.263379487186732 ], [ 5.91322483225734, 52.264341221854579 ], [ 5.916489714651404, 52.263450445244843 ], [ 5.918941678063432, 52.262968481105013 ], [ 5.924230404564804, 52.265796182795917 ], [ 5.925159930368508, 52.265973630244353 ], [ 5.923047497785507, 52.271912830695534 ], [ 5.936215216196929, 52.274318369636916 ], [ 5.957919564504836, 52.272267025234044 ], [ 5.973912753702775, 52.273111735221192 ], [ 5.975560052427488, 52.274718302601705 ], [ 5.976339565060401, 52.274610444159414 ], [ 5.977479014077449, 52.275859560768325 ], [ 5.977775161232315, 52.277109628448486 ], [ 5.981221839169297, 52.280650443580008 ], [ 5.981238632135025, 52.281189060980296 ], [ 5.982235997930918, 52.283732131498653 ], [ 5.983242860991075, 52.283820436270297 ], [ 5.983208521394961, 52.284157772296965 ], [ 5.985406722667171, 52.284506865390711 ], [ 5.985806543156596, 52.285550604197198 ], [ 5.988720533489436, 52.285229995252479 ], [ 5.991329909769603, 52.285437217507237 ], [ 5.992312660367421, 52.284776732734258 ], [ 5.99109768551497, 52.279964629557249 ], [ 5.988940284148108, 52.274000520652379 ], [ 5.989884289805323, 52.273852012042823 ], [ 5.993377470995445, 52.273831519493285 ], [ 6.007004469992329, 52.275940031802428 ], [ 6.007846203816887, 52.275827293762667 ], [ 6.009242147154619, 52.276246611248467 ], [ 6.010969285569621, 52.275986125765293 ], [ 6.014203373899158, 52.276212463249884 ], [ 6.016220642769542, 52.276694482622915 ], [ 6.017256640287792, 52.2766752349388 ], [ 6.019467914587922, 52.276256961787468 ], [ 6.0198721077996, 52.276621121973619 ], [ 6.027998956782976, 52.276483335968763 ], [ 6.028854687030223, 52.276712999374233 ], [ 6.029234416912152, 52.276619617751962 ], [ 6.029417733333015, 52.276398505997527 ], [ 6.030233342551017, 52.276239137157354 ], [ 6.031132688106722, 52.275224832410878 ], [ 6.029864154221232, 52.273187215002267 ], [ 6.029867066353313, 52.272775806186715 ], [ 6.028839687797573, 52.272372436362389 ], [ 6.028453745990907, 52.270922068091018 ], [ 6.030838656284945, 52.270830331065042 ], [ 6.030229762730239, 52.269359905051594 ], [ 6.030326397331667, 52.269121257782672 ], [ 6.034579276953909, 52.268937763156906 ], [ 6.036463918658209, 52.268456310420667 ], [ 6.036091125866926, 52.267967907714791 ] ] ] } }
]
}
