{
"type": "FeatureCollection",
"name": "SWVPO2805",
"crs": { "type": "name", "properties": { "name": "urn:ogc:def:crs:OGC:1.3:CRS84" } },
"features": [
{ "type": "Feature", "properties": { "PO SWV": "PO2805", "strokeColor": "#A9A9A9", "strokeWidth": 2, "fillColor": "#ADD8E6" }, "geometry": { "type": "Polygon", "coordinates": [ [ [ 4.553562043535657, 51.829808458180445 ], [ 4.551532894149284, 51.830783697517937 ], [ 4.548848731194016, 51.831616910884186 ], [ 4.545749345018323, 51.831844937829487 ], [ 4.53995731190836, 51.831564576837522 ], [ 4.537066343820259, 51.83122912317706 ], [ 4.531282782290933, 51.830099539623227 ], [ 4.528381495793099, 51.829803649619798 ], [ 4.525468032310524, 51.829754734310804 ], [ 4.522559487405313, 51.830047972977233 ], [ 4.519639145593381, 51.830626923883351 ], [ 4.50506085592075, 51.83421906899617 ], [ 4.502200072496628, 51.834761946877173 ], [ 4.50065765465687, 51.83145028117751 ], [ 4.498556659144241, 51.831375869539457 ], [ 4.495291971636811, 51.829514826390536 ], [ 4.492034026161452, 51.830149654488416 ], [ 4.482387441192738, 51.830689001032717 ], [ 4.482310451298956, 51.834589168172727 ], [ 4.478986335802248, 51.834115616919 ], [ 4.473198560070919, 51.832712446540853 ], [ 4.467131052782102, 51.831844512800039 ], [ 4.461158060160645, 51.83155484765085 ], [ 4.452964666284775, 51.831764005235826 ], [ 4.449711711104668, 51.832124867937395 ], [ 4.443864620170741, 51.83333455100248 ], [ 4.439989321804213, 51.834448039554957 ], [ 4.432850034178595, 51.836805561676435 ], [ 4.43249713710801, 51.83693429593076 ], [ 4.432526627181969, 51.837135805032361 ], [ 4.431210548968324, 51.837632094619359 ], [ 4.423609112499938, 51.840224714537982 ], [ 4.414184749751611, 51.842888247124804 ], [ 4.409750554422255, 51.843318804793029 ], [ 4.406844840297154, 51.84329985454449 ], [ 4.402450548476794, 51.84306263853297 ], [ 4.392378334036237, 51.842150914051871 ], [ 4.383762406175038, 51.842214747765475 ], [ 4.383666562049418, 51.846494110499883 ], [ 4.383446714722701, 51.846619503569592 ], [ 4.383330496617167, 51.85235132635799 ], [ 4.384284888345147, 51.853021267248067 ], [ 4.385126925935524, 51.85335105575755 ], [ 4.385071155040977, 51.853573579191504 ], [ 4.385262216449436, 51.853757671295611 ], [ 4.385115401982577, 51.855567236414394 ], [ 4.383800113391985, 51.856777096678698 ], [ 4.383605369837375, 51.857752988651534 ], [ 4.38456623884876, 51.861633770579353 ], [ 4.385579784177541, 51.861738010650157 ], [ 4.384989418421085, 51.862734515559993 ], [ 4.386302165561358, 51.866159175800846 ], [ 4.389935601817348, 51.870056362709271 ], [ 4.391542117259359, 51.871091165486447 ], [ 4.393120046457497, 51.8717936270845 ], [ 4.395044740641393, 51.872234427001651 ], [ 4.399227834039531, 51.872099600099112 ], [ 4.401975489653116, 51.872670779916781 ], [ 4.405642902893852, 51.87271645261572 ], [ 4.40583644676845, 51.873088057512142 ], [ 4.406210546423168, 51.873035714480032 ], [ 4.406206321248221, 51.872704956916031 ], [ 4.408335888213423, 51.872511625513972 ], [ 4.409517599790846, 51.872142501556517 ], [ 4.409578516899165, 51.871701630236551 ], [ 4.411156830374929, 51.871744807260157 ], [ 4.411228554729871, 51.871604865555177 ], [ 4.412264725462681, 51.871329288067038 ], [ 4.412562661283311, 51.871596429101338 ], [ 4.412983410821805, 51.871658584256075 ], [ 4.414077602253845, 51.874456803270775 ], [ 4.42319577083404, 51.872792567450119 ], [ 4.423058735860008, 51.87261551963875 ], [ 4.423157810680578, 51.872488964751668 ], [ 4.425611623535929, 51.872028960610137 ], [ 4.426127430001589, 51.87177151002178 ], [ 4.428333633917362, 51.871334409333507 ], [ 4.428878046941149, 51.871052498388892 ], [ 4.430194148586777, 51.870894487396704 ], [ 4.438228218223752, 51.868797815985857 ], [ 4.439725806825192, 51.86848048465842 ], [ 4.440102759053779, 51.868591465278996 ], [ 4.441978894694292, 51.868365420895216 ], [ 4.441787921214858, 51.868005726180805 ], [ 4.444470276498389, 51.867332565797412 ], [ 4.444982070087529, 51.867475739054065 ], [ 4.445961632590802, 51.866346857605969 ], [ 4.446568997511043, 51.865929075463328 ], [ 4.453511195502797, 51.864448508977524 ], [ 4.460166298952937, 51.862673966001068 ], [ 4.464994533913865, 51.861946593079004 ], [ 4.465278031013705, 51.86260700234272 ], [ 4.466820583418537, 51.862442004555007 ], [ 4.467017847853068, 51.862279794772014 ], [ 4.467259938645909, 51.862405967344749 ], [ 4.471219265961844, 51.862278604219952 ], [ 4.474267620819297, 51.862392170824847 ], [ 4.47435074985862, 51.862226254518156 ], [ 4.477294454949946, 51.862445648204918 ], [ 4.478342234768761, 51.86272436001812 ], [ 4.481731189467368, 51.863075951840592 ], [ 4.481776493707383, 51.863265587011348 ], [ 4.481477590265735, 51.863384642656065 ], [ 4.480417591932961, 51.863402317901773 ], [ 4.480254972907436, 51.865181645214101 ], [ 4.481777263066737, 51.865348371820147 ], [ 4.483567402769905, 51.865808422222948 ], [ 4.487196467363242, 51.867073354468381 ], [ 4.48877812733665, 51.8672514422259 ], [ 4.494613365027597, 51.868997458798582 ], [ 4.495032110980133, 51.868870157094292 ], [ 4.496680137041293, 51.868872912426859 ], [ 4.496992677550125, 51.869063741416973 ], [ 4.49912163379659, 51.868887028599211 ], [ 4.499247706353376, 51.869072857660342 ], [ 4.500701174312018, 51.868893267325838 ], [ 4.508963787876288, 51.86891340546638 ], [ 4.509056597325887, 51.869333438520123 ], [ 4.5132685032145, 51.869334352754876 ], [ 4.515051903097246, 51.869243921764372 ], [ 4.515087517885298, 51.868850586763784 ], [ 4.515304529907774, 51.868787500589121 ], [ 4.515452208700123, 51.868384825660208 ], [ 4.515626038894088, 51.868884418329031 ], [ 4.516347425795483, 51.868767984863588 ], [ 4.517242097797895, 51.868947965480558 ], [ 4.522640689091491, 51.868978513357185 ], [ 4.524670357279452, 51.869263043228372 ], [ 4.526026316966254, 51.869627818651139 ], [ 4.528183602091438, 51.869042988126289 ], [ 4.532152426098738, 51.868740825990308 ], [ 4.536452868566516, 51.869610618271018 ], [ 4.538734108299029, 51.86983224773995 ], [ 4.53878527944247, 51.869962946464462 ], [ 4.537957854225705, 51.871434800134587 ], [ 4.539313266695353, 51.869950093476746 ], [ 4.539680830122871, 51.869984585957162 ], [ 4.542617071291708, 51.870706324691668 ], [ 4.543778075419167, 51.871481409683426 ], [ 4.544314179152013, 51.8722024968475 ], [ 4.544971654394088, 51.872216452434628 ], [ 4.548150334970269, 51.873723142924973 ], [ 4.549413413056235, 51.873931924992362 ], [ 4.549414185209964, 51.874152707501437 ], [ 4.550379209271758, 51.874457239385947 ], [ 4.551956908942649, 51.874597774864014 ], [ 4.554835896266813, 51.875435985484984 ], [ 4.556612514289762, 51.876132337614962 ], [ 4.557884765427251, 51.876827215322258 ], [ 4.561482674833119, 51.878105168563813 ], [ 4.564849009192981, 51.878228226029442 ], [ 4.567435905154545, 51.878108501541725 ], [ 4.567863315932426, 51.877929470019943 ], [ 4.569183101154963, 51.878077153131116 ], [ 4.569237716010486, 51.878220545650187 ], [ 4.569047237216518, 51.878360968933073 ], [ 4.570508782686574, 51.883544947940941 ], [ 4.570788453643667, 51.883569551730787 ], [ 4.571019442356176, 51.884024516842778 ], [ 4.571331056857354, 51.885039768268726 ], [ 4.571071223401452, 51.885188434177877 ], [ 4.571783290053888, 51.886733187726712 ], [ 4.572198651017889, 51.888260314304496 ], [ 4.574446070073039, 51.894353410516914 ], [ 4.575480133659508, 51.897972360256077 ], [ 4.575739894902011, 51.898063446686507 ], [ 4.576182776773404, 51.899232189954098 ], [ 4.576007212709694, 51.901247683776994 ], [ 4.576403926947453, 51.902916809049785 ], [ 4.580201292238424, 51.90212460198908 ], [ 4.582977797893341, 51.90112219048806 ], [ 4.584579082994183, 51.9001706547159 ], [ 4.590743142718472, 51.895764416308644 ], [ 4.593593635134129, 51.894504745336675 ], [ 4.595850267456158, 51.893846699762001 ], [ 4.604311193975958, 51.891979351307235 ], [ 4.61944179476305, 51.889435831976392 ], [ 4.619169665398964, 51.88838117125843 ], [ 4.621253868978513, 51.886690455686661 ], [ 4.623621010552855, 51.884390735519297 ], [ 4.62762835291507, 51.878614762871329 ], [ 4.630990187003222, 51.874246998877503 ], [ 4.633913473585491, 51.870524769475431 ], [ 4.635177753952467, 51.869642703796643 ], [ 4.635320892037109, 51.8691911729426 ], [ 4.634351217617704, 51.868957940636335 ], [ 4.633976981676748, 51.869120584019576 ], [ 4.633934132184891, 51.869454331947338 ], [ 4.633642517829739, 51.869432420565921 ], [ 4.633236303069657, 51.868419343179156 ], [ 4.632874089258483, 51.868038984119586 ], [ 4.632937465222416, 51.867878051551713 ], [ 4.630807363103738, 51.865303874898856 ], [ 4.630870194204431, 51.86515424444719 ], [ 4.631290222811422, 51.865180585613786 ], [ 4.630832860178713, 51.864305959571176 ], [ 4.633752011893088, 51.863442024167931 ], [ 4.635839222769107, 51.862045359925645 ], [ 4.638850975790782, 51.860597578890328 ], [ 4.640129072099641, 51.858911423812678 ], [ 4.640332168506364, 51.857940861808366 ], [ 4.641161453918654, 51.857656900289314 ], [ 4.640455487106359, 51.857317699097912 ], [ 4.640569122326985, 51.856257682453645 ], [ 4.642610061024493, 51.856254332823433 ], [ 4.644648449291974, 51.856486274376522 ], [ 4.64549490159305, 51.856032032119536 ], [ 4.645453927482031, 51.855767729641421 ], [ 4.643973633772145, 51.854717318923051 ], [ 4.64161942729531, 51.853625326632269 ], [ 4.638814467827197, 51.851190075998204 ], [ 4.636524419731086, 51.849767789225361 ], [ 4.635442986902174, 51.850199224762065 ], [ 4.633502122904204, 51.850359973152472 ], [ 4.63350861871315, 51.850522256339275 ], [ 4.633138499719145, 51.850646927064332 ], [ 4.631942778347653, 51.851642257146636 ], [ 4.629977368572511, 51.853874056733645 ], [ 4.629158501133767, 51.854342908714365 ], [ 4.627315342989273, 51.854752863926777 ], [ 4.625961583024962, 51.85459936993044 ], [ 4.623384815024334, 51.853823375613928 ], [ 4.62139686987498, 51.852440913906442 ], [ 4.618689336955215, 51.851335083129705 ], [ 4.61248515741472, 51.850686273275826 ], [ 4.610199511574797, 51.849930077755175 ], [ 4.608248931176878, 51.849505941688868 ], [ 4.608080493429426, 51.849063392408915 ], [ 4.606580184122594, 51.848491315064784 ], [ 4.604850063591602, 51.848479443046394 ], [ 4.603503093876792, 51.845973872634637 ], [ 4.60010171422081, 51.838846877646432 ], [ 4.595145548611424, 51.840274578856842 ], [ 4.58528180853839, 51.842642197706049 ], [ 4.57102777109129, 51.847211954942011 ], [ 4.569147387283829, 51.844960071475079 ], [ 4.56612926735378, 51.842549773109042 ], [ 4.564051584849631, 51.841165075436983 ], [ 4.560806943481571, 51.839497150506439 ], [ 4.559940567914649, 51.838859763511671 ], [ 4.559338146525771, 51.838171255248298 ], [ 4.558920694249782, 51.837226213147375 ], [ 4.558544937182188, 51.836877392116989 ], [ 4.558942153140313, 51.836580285760597 ], [ 4.558510816355214, 51.835601765943068 ], [ 4.556602250362661, 51.83321137196932 ], [ 4.553535007863219, 51.829964503880369 ], [ 4.553562043535657, 51.829808458180445 ] ] ] } }
]
}
