{
"type": "FeatureCollection",
"name": "SWVPO2605",
"crs": { "type": "name", "properties": { "name": "urn:ogc:def:crs:OGC:1.3:CRS84" } },
"features": [
{ "type": "Feature", "properties": { "PO SWV": "PO2605", "strokeColor": "#A9A9A9", "strokeWidth": 2, "fillColor": "#ADD8E6" }, "geometry": { "type": "Polygon", "coordinates": [ [ [ 4.835232218982963, 51.986306179779078 ], [ 4.83802364570716, 51.987076091826133 ], [ 4.84085347744336, 51.988148644935727 ], [ 4.851651178957621, 51.991493602220196 ], [ 4.853228728202282, 51.991821763908085 ], [ 4.878275232222403, 52.000850483209945 ], [ 4.882148725652947, 52.001907188973021 ], [ 4.887967039170261, 52.003916177215515 ], [ 4.888516366975562, 52.003932703671168 ], [ 4.892185936016166, 52.005118574718033 ], [ 4.908822526481243, 52.010923771533356 ], [ 4.91023092967623, 52.011201979360756 ], [ 4.91390071010461, 52.011176806023208 ], [ 4.916873226133675, 52.010243201108636 ], [ 4.91986129450485, 52.010088594804877 ], [ 4.92893169323564, 52.011892372500718 ], [ 4.936680712524635, 52.013683616530308 ], [ 4.953380630999425, 52.017145222235797 ], [ 4.952271645461186, 52.018206170932686 ], [ 4.947413153537685, 52.024501201039271 ], [ 4.953657434377528, 52.029326148099187 ], [ 4.958094630167591, 52.03216170973932 ], [ 4.961875534681804, 52.034359106838174 ], [ 4.967043081498551, 52.03661602972214 ], [ 4.970741796668174, 52.03770963115938 ], [ 4.978806311667023, 52.038162640986506 ], [ 4.978333777626702, 52.039812237700566 ], [ 4.983219609039833, 52.04033311151418 ], [ 4.99002725354211, 52.052254940006073 ], [ 4.990963570464168, 52.052973715250083 ], [ 4.993571020344086, 52.05261703978595 ], [ 4.996312046612451, 52.052880943868253 ], [ 5.0002373999921, 52.053813909702811 ], [ 5.001886249624966, 52.054450100967394 ], [ 5.003804852112187, 52.055460160755068 ], [ 5.004930646621075, 52.055658560024973 ], [ 5.006192894090149, 52.055511354593328 ], [ 5.010250368136643, 52.053859712643543 ], [ 5.015037250301678, 52.059374624431939 ], [ 5.016289711610623, 52.06068043347657 ], [ 5.017060422687201, 52.061241871239723 ], [ 5.017561412024797, 52.060992674075074 ], [ 5.02166807150048, 52.055897226506261 ], [ 5.022979111760579, 52.055716840551192 ], [ 5.025790924339162, 52.055950375995131 ], [ 5.026521510645258, 52.055807349084972 ], [ 5.027185256552547, 52.055471037838721 ], [ 5.027078590009881, 52.054706459870864 ], [ 5.028163943060575, 52.054139489565848 ], [ 5.028301983754986, 52.053818008270007 ], [ 5.028459873913295, 52.052498292562035 ], [ 5.027772748908883, 52.051699861435154 ], [ 5.028522141935983, 52.050693976036968 ], [ 5.0331861782757, 52.047606693294114 ], [ 5.035519297866307, 52.045860713152507 ], [ 5.036955299681654, 52.045189051977005 ], [ 5.038130544034333, 52.044229844068944 ], [ 5.039561718850464, 52.042873931635533 ], [ 5.043949518131512, 52.036619820757309 ], [ 5.04568362156032, 52.034811991140259 ], [ 5.049964520956332, 52.030951623744585 ], [ 5.051520055045417, 52.030172999747954 ], [ 5.051984213426945, 52.030987784867762 ], [ 5.055381141350141, 52.029829221463537 ], [ 5.055040774889963, 52.028923047072695 ], [ 5.061030741533212, 52.026398590677267 ], [ 5.061986667064293, 52.026817312303336 ], [ 5.062997851014421, 52.026954472319815 ], [ 5.063038079714334, 52.027845843581808 ], [ 5.06242513237264, 52.028552307786391 ], [ 5.06242228458625, 52.029018942337046 ], [ 5.06311399104225, 52.029820940186447 ], [ 5.063470343483734, 52.038077106992382 ], [ 5.063475953118513, 52.040551090065527 ], [ 5.063245462323524, 52.040984073660447 ], [ 5.063519219974753, 52.041395246272998 ], [ 5.063627136388081, 52.043159032453033 ], [ 5.063465729107921, 52.043268923271384 ], [ 5.063783507169875, 52.044486395750077 ], [ 5.064084521360336, 52.051763556294929 ], [ 5.064635136774253, 52.053896285517411 ], [ 5.065240564379169, 52.055479796404434 ], [ 5.066029587414612, 52.05536878651673 ], [ 5.06657451447207, 52.056767200808416 ], [ 5.067047807075207, 52.057325141939558 ], [ 5.067843198952097, 52.05921647328551 ], [ 5.068203369180966, 52.059231469645546 ], [ 5.0689636861835, 52.060789085630951 ], [ 5.069573102653075, 52.061488817033471 ], [ 5.070660494279538, 52.062008602902665 ], [ 5.072603738008504, 52.062277583525592 ], [ 5.074777030651809, 52.062354853475448 ], [ 5.077625572855114, 52.062136142381036 ], [ 5.081592604964722, 52.061337548254699 ], [ 5.085473445376285, 52.06129363326869 ], [ 5.085613917761656, 52.061028889915875 ], [ 5.086056935973598, 52.061213660479879 ], [ 5.090002058883519, 52.060827551743962 ], [ 5.091055404614892, 52.060402689753396 ], [ 5.092518178533687, 52.05929560208785 ], [ 5.094133901524173, 52.058854345387971 ], [ 5.095232186414028, 52.058843626924869 ], [ 5.097386616942314, 52.059574369870745 ], [ 5.102167092857286, 52.054322090506233 ], [ 5.103320669954743, 52.052696058575648 ], [ 5.103842790530362, 52.050950779914523 ], [ 5.104114881164986, 52.050778202801268 ], [ 5.104456927414335, 52.050049897859388 ], [ 5.106202005168003, 52.050355427515449 ], [ 5.107290959546643, 52.050138338787569 ], [ 5.108324275237924, 52.052046589284842 ], [ 5.109128197644687, 52.054494906759807 ], [ 5.109267941537722, 52.055468333726701 ], [ 5.110293028350195, 52.057450668769718 ], [ 5.111243009728983, 52.058421860239825 ], [ 5.113301902747964, 52.057981417773874 ], [ 5.113320521167276, 52.057768341162614 ], [ 5.114313362963043, 52.057520838839302 ], [ 5.114629571065231, 52.057521227006504 ], [ 5.114598665801013, 52.057671002781149 ], [ 5.114944392408135, 52.057903955541981 ], [ 5.115269401335221, 52.057896129594681 ], [ 5.11652118149428, 52.057616265977863 ], [ 5.1172299622263, 52.057254460955029 ], [ 5.117863232750786, 52.057149743074611 ], [ 5.118031064218251, 52.057275482425133 ], [ 5.119600775243116, 52.056936606983321 ], [ 5.120243805037384, 52.058095177972781 ], [ 5.120991848277626, 52.058095166610599 ], [ 5.12127360119349, 52.058591594028414 ], [ 5.121773304265639, 52.058527302972649 ], [ 5.122918599602036, 52.057848207388538 ], [ 5.122890876681388, 52.057611874642532 ], [ 5.124757498828737, 52.056691827534522 ], [ 5.128551757658424, 52.055735625108234 ], [ 5.130403013750751, 52.055496669559375 ], [ 5.130335164633085, 52.055042759717274 ], [ 5.131825707999077, 52.054842942644676 ], [ 5.13188100030621, 52.054501456615448 ], [ 5.137881705024752, 52.053704523343889 ], [ 5.138383280873216, 52.054381960088449 ], [ 5.141074471957316, 52.055213029865506 ], [ 5.144352567739809, 52.055563943134779 ], [ 5.144357028892058, 52.054456105717215 ], [ 5.144515305014257, 52.054157029838883 ], [ 5.144215782605061, 52.052753055391904 ], [ 5.145190897470203, 52.052630209100379 ], [ 5.146405034075346, 52.052874775404483 ], [ 5.149891452016609, 52.055675800562334 ], [ 5.151030705699744, 52.056241179330414 ], [ 5.153129923974616, 52.056880144920115 ], [ 5.154831702958671, 52.054657378880364 ], [ 5.15540753837992, 52.053520606505487 ], [ 5.156558283417465, 52.051836278413305 ], [ 5.156969720911039, 52.051589996700748 ], [ 5.157006685598708, 52.051180430005296 ], [ 5.160826526831165, 52.04557049307919 ], [ 5.163895213118256, 52.040546780681325 ], [ 5.16671798679014, 52.040963489167346 ], [ 5.166937103852187, 52.041315794450327 ], [ 5.168424573248477, 52.041548510093818 ], [ 5.167864299129892, 52.042797842995959 ], [ 5.167936510717132, 52.042932766741089 ], [ 5.170107108215048, 52.042024012731588 ], [ 5.171712021006867, 52.04291122345758 ], [ 5.169230231732291, 52.044921295460632 ], [ 5.169255032565193, 52.045116366951724 ], [ 5.171112040983807, 52.044953614065086 ], [ 5.172793453382704, 52.043625996301728 ], [ 5.172801877065038, 52.043464734234931 ], [ 5.172473667954626, 52.043245835498652 ], [ 5.17248728792985, 52.043239119697901 ], [ 5.174106326688326, 52.043898465584334 ], [ 5.173948591230475, 52.044269498178259 ], [ 5.174036878194098, 52.044406361452964 ], [ 5.176007931475373, 52.044428421971098 ], [ 5.176475701323801, 52.045756146223113 ], [ 5.177215334932426, 52.045767768253313 ], [ 5.177220725927184, 52.045372603085376 ], [ 5.177858705295408, 52.045378425699695 ], [ 5.177943257149434, 52.04576102450141 ], [ 5.178748346013126, 52.045786320162364 ], [ 5.178828322612656, 52.046183973737989 ], [ 5.179218624684809, 52.046368453440266 ], [ 5.18741289021887, 52.044256358401213 ], [ 5.187381389208404, 52.044011728468462 ], [ 5.189493630051794, 52.043416437215548 ], [ 5.191594875116435, 52.043128241112299 ], [ 5.191603023207701, 52.042316911150479 ], [ 5.191373335479998, 52.041536653060042 ], [ 5.189594287449443, 52.039550109805248 ], [ 5.189083667461435, 52.0383833292981 ], [ 5.189199037340962, 52.037776456404792 ], [ 5.189619630267246, 52.037050941978869 ], [ 5.190833635392075, 52.035807141481769 ], [ 5.192495884077469, 52.034529948979205 ], [ 5.194339211740218, 52.035888484384927 ], [ 5.195478822064774, 52.03651554175579 ], [ 5.199514075849856, 52.033793810907341 ], [ 5.20098400226466, 52.031754739527102 ], [ 5.200994516754271, 52.031468138170304 ], [ 5.199454523333928, 52.02714870952039 ], [ 5.199202728418764, 52.025228570642753 ], [ 5.199808335336056, 52.023668064108634 ], [ 5.20033039793525, 52.022914909180727 ], [ 5.20143158067586, 52.022077932129442 ], [ 5.202488638889633, 52.020900364545284 ], [ 5.203620097853445, 52.020112784965221 ], [ 5.202162306002096, 52.017547993678001 ], [ 5.20489313157581, 52.017042764285414 ], [ 5.207366770531743, 52.016899531608182 ], [ 5.210903451117568, 52.01629834011456 ], [ 5.216893622690839, 52.015704196973019 ], [ 5.21939268591859, 52.015313620524317 ], [ 5.221275383481946, 52.014541085805192 ], [ 5.224071964677838, 52.013796939497148 ], [ 5.22891088314293, 52.011067335016442 ], [ 5.229458837252355, 52.011279379566346 ], [ 5.231612714073842, 52.009613371180272 ], [ 5.234873202058138, 52.005637190183428 ], [ 5.237566112204894, 52.003717829413354 ], [ 5.240420929885394, 52.001381561419635 ], [ 5.240504680997023, 52.001084518978146 ], [ 5.24277124813633, 51.999357424434322 ], [ 5.243288805135036, 51.998811850683801 ], [ 5.242939622218103, 51.998654337891089 ], [ 5.244087911533315, 51.998422656140477 ], [ 5.243608849335974, 51.997533482089857 ], [ 5.245686024606751, 51.996344093710299 ], [ 5.245558986193229, 51.99603616426203 ], [ 5.248858122645955, 51.995068987017 ], [ 5.250375044277793, 51.995056166231947 ], [ 5.256275940179722, 51.993795000509621 ], [ 5.256079025341667, 51.993461239482549 ], [ 5.253460527179028, 51.992285965334695 ], [ 5.25394581072969, 51.990719633987908 ], [ 5.254237141717299, 51.986147404201226 ], [ 5.271546559075395, 51.981136301262147 ], [ 5.267918504451112, 51.978162036966616 ], [ 5.266621562159213, 51.976133818118761 ], [ 5.266103511396063, 51.975724166641925 ], [ 5.264810172739188, 51.975224928027302 ], [ 5.264790413244431, 51.975082109329485 ], [ 5.264106720787831, 51.974695210004498 ], [ 5.256283027145555, 51.970842109374836 ], [ 5.253149851380715, 51.972692586156093 ], [ 5.247521646986047, 51.976820767592343 ], [ 5.245227269782133, 51.977904956516426 ], [ 5.242646556825034, 51.978576242296967 ], [ 5.239779256168589, 51.978839554190301 ], [ 5.236882099867536, 51.978658478394955 ], [ 5.234236041497475, 51.977969040819353 ], [ 5.230907258645625, 51.97626574427904 ], [ 5.229179903277038, 51.974835772758205 ], [ 5.227272893915889, 51.972544518725179 ], [ 5.22444754784183, 51.968217874821249 ], [ 5.221576612648111, 51.96521296613318 ], [ 5.219798413901962, 51.963791049237578 ], [ 5.216640657743891, 51.961917076160674 ], [ 5.214274433117349, 51.960855064012286 ], [ 5.211667129975243, 51.960048077949402 ], [ 5.208894848266667, 51.959524933101797 ], [ 5.205991964699989, 51.959332532480005 ], [ 5.203071900094973, 51.959463101997983 ], [ 5.198827327497625, 51.960099431211724 ], [ 5.195574759744954, 51.960846711730397 ], [ 5.192169596213364, 51.961885789670674 ], [ 5.189109554728284, 51.963064116741229 ], [ 5.18025257161896, 51.967327607237479 ], [ 5.169739726963717, 51.955409572031485 ], [ 5.163505833600673, 51.946793854167481 ], [ 5.162597322290496, 51.946069856134592 ], [ 5.154799601082008, 51.937933581550475 ], [ 5.15450484604358, 51.938265245234781 ], [ 5.152789954294826, 51.938845622047808 ], [ 5.149847924315715, 51.940609314930875 ], [ 5.148655485264064, 51.941493644129629 ], [ 5.150371756874216, 51.941754650644867 ], [ 5.150429131453257, 51.941995605323918 ], [ 5.149320525418042, 51.942001772925884 ], [ 5.149172924129388, 51.942154800443561 ], [ 5.148364812888805, 51.942150744819784 ], [ 5.147739965628284, 51.942380749527821 ], [ 5.14628668837778, 51.943591252918857 ], [ 5.142393990792239, 51.945174030149317 ], [ 5.141297359177751, 51.945779552789901 ], [ 5.141337029430611, 51.946134107983085 ], [ 5.138504182892101, 51.947261245161037 ], [ 5.132148461236756, 51.951180023866343 ], [ 5.130029550986742, 51.952330639119687 ], [ 5.130585268986469, 51.952919095310698 ], [ 5.130500503858329, 51.953145194067972 ], [ 5.126232864079411, 51.954739639716244 ], [ 5.122270869723978, 51.957279770913004 ], [ 5.12137903465012, 51.956391306044175 ], [ 5.113040764178444, 51.959304981216803 ], [ 5.105622713003568, 51.951597516552667 ], [ 5.101416203801262, 51.946241190032147 ], [ 5.08764090929679, 51.950400409329951 ], [ 5.075139488136526, 51.952378595762767 ], [ 5.054969467991586, 51.954838367253792 ], [ 5.058003862615803, 51.959161205145037 ], [ 5.057731355939024, 51.959370224184781 ], [ 5.058425848720159, 51.960371306233107 ], [ 5.05936365805559, 51.961151640590131 ], [ 5.064742352373563, 51.964592874749847 ], [ 5.054602843886395, 51.976470355160458 ], [ 5.052318323186785, 51.975780598117524 ], [ 5.052085603166759, 51.975940615040138 ], [ 5.04886738360258, 51.974178875013898 ], [ 5.047550734409236, 51.975482550603623 ], [ 5.047955433588479, 51.976191339263458 ], [ 5.047831818695708, 51.976650451249604 ], [ 5.046772125989624, 51.97672194165262 ], [ 5.045114417290316, 51.977417499170713 ], [ 5.043021740159713, 51.977761203174957 ], [ 5.042878823908405, 51.9776844368266 ], [ 5.042736569121288, 51.977088894853978 ], [ 5.040380097036103, 51.977541153018322 ], [ 5.039890844587219, 51.97679833912607 ], [ 5.038743101134178, 51.974186534914402 ], [ 5.037701940127971, 51.972786286117234 ], [ 5.036070363477561, 51.971411178684249 ], [ 5.034013299549262, 51.970261805466123 ], [ 5.032049485237184, 51.969658544513379 ], [ 5.029665032408379, 51.969303164632137 ], [ 5.024799553804981, 51.969410582672161 ], [ 5.022400796780758, 51.969823802420279 ], [ 5.017806689867077, 51.971459211181845 ], [ 5.01615007617267, 51.972228705198994 ], [ 5.012797291098762, 51.974275893638257 ], [ 5.014115900910088, 51.975348617550182 ], [ 5.014153690974588, 51.975534861935976 ], [ 5.010959678208122, 51.977884330442656 ], [ 5.009407169408691, 51.9786474684336 ], [ 5.008429171283185, 51.980545509179969 ], [ 5.007259718105642, 51.980701728672713 ], [ 5.006445010396723, 51.981174203940732 ], [ 5.001514724126897, 51.981680579326358 ], [ 4.999712701604483, 51.981441533299567 ], [ 4.997794703629292, 51.980853265138151 ], [ 4.995197161193683, 51.978477902362144 ], [ 4.994141030731495, 51.978044200596244 ], [ 4.991037060217385, 51.977205739405775 ], [ 4.988658723959408, 51.977391397345073 ], [ 4.986858744788734, 51.976843361370079 ], [ 4.98507584757859, 51.976932096451385 ], [ 4.984725018732696, 51.976825177735378 ], [ 4.984413775037488, 51.976518175099606 ], [ 4.984088580360369, 51.975786392621799 ], [ 4.984311803036537, 51.97433949139262 ], [ 4.981740993049299, 51.971941686990675 ], [ 4.983750438594313, 51.970580708338467 ], [ 4.978868278909999, 51.966076252706188 ], [ 4.976665159546853, 51.967035704735963 ], [ 4.975673871580231, 51.965961547156482 ], [ 4.972294374235346, 51.963860248286274 ], [ 4.971349273224592, 51.96352859997068 ], [ 4.970006270750379, 51.963369746336589 ], [ 4.96717365732548, 51.963735821122164 ], [ 4.962468464623305, 51.963863928365797 ], [ 4.957500982422973, 51.964299531551021 ], [ 4.954587474403656, 51.964948264795829 ], [ 4.952500001273311, 51.965112291275986 ], [ 4.950112549208371, 51.965903655082187 ], [ 4.948202260257457, 51.965896834609516 ], [ 4.946286414991887, 51.966159300069023 ], [ 4.945089541094307, 51.966834752481383 ], [ 4.943880522701788, 51.967176656549171 ], [ 4.940722808733067, 51.967258915361029 ], [ 4.939008762850285, 51.967059692870485 ], [ 4.938086288251728, 51.966650884268859 ], [ 4.936670437212053, 51.965444579315133 ], [ 4.934738807825089, 51.964761429886771 ], [ 4.932213449394832, 51.962953597808536 ], [ 4.931822350520983, 51.962534037355638 ], [ 4.930611508625422, 51.960041069998169 ], [ 4.930186256166452, 51.958412665783577 ], [ 4.928911431393017, 51.95695746101817 ], [ 4.927338392573738, 51.954564573468666 ], [ 4.924402747499342, 51.953681145190295 ], [ 4.922591382931232, 51.95156352293526 ], [ 4.92059158143153, 51.950225997533742 ], [ 4.919590155423387, 51.94846962271842 ], [ 4.918508618529993, 51.947672119460833 ], [ 4.916356006825321, 51.94670292282828 ], [ 4.909989591278381, 51.94548716136304 ], [ 4.907525830905737, 51.944836400213404 ], [ 4.902733873726634, 51.944240031779813 ], [ 4.896427944545484, 51.943040763869831 ], [ 4.894018715703454, 51.94283603880011 ], [ 4.891201388969896, 51.942026827329343 ], [ 4.885327428169902, 51.940863374282522 ], [ 4.883142078115545, 51.941471623219464 ], [ 4.881962700013946, 51.941283766137509 ], [ 4.876973325298935, 51.941023068837275 ], [ 4.871306716259955, 51.95469800934427 ], [ 4.870492480473215, 51.955079460434746 ], [ 4.865749074802797, 51.960507839637252 ], [ 4.864153233831027, 51.963969010912983 ], [ 4.862569331961692, 51.965465985047871 ], [ 4.861792717424821, 51.966387197586918 ], [ 4.86087853627083, 51.96785282829687 ], [ 4.859525243030914, 51.96876382132649 ], [ 4.857876250306727, 51.969092088928029 ], [ 4.847598434603323, 51.975226066745677 ], [ 4.84720378335529, 51.975345280063493 ], [ 4.845679147039167, 51.975095909065494 ], [ 4.834249364119354, 51.985587836879489 ], [ 4.83519609700993, 51.985903423484096 ], [ 4.835317236530397, 51.986131966018981 ], [ 4.835232218982963, 51.986306179779078 ] ] ] } }
]
}
