{
"type": "FeatureCollection",
"name": "SWVPO2703",
"crs": { "type": "name", "properties": { "name": "urn:ogc:def:crs:OGC:1.3:CRS84" } },
"features": [
{ "type": "Feature", "properties": { "PO SWV": "PO2703", "strokeColor": "#A9A9A9", "strokeWidth": 2, "fillColor": "#ADD8E6" }, "geometry": { "type": "Polygon", "coordinates": [ [ [ 4.62686890528995, 52.665410283256819 ], [ 4.627674336787634, 52.667073655341099 ], [ 4.627827883614905, 52.66831068028808 ], [ 4.628520032418981, 52.66954206790308 ], [ 4.628654785898425, 52.670820200786551 ], [ 4.629125722317322, 52.672750976216236 ], [ 4.629979374916092, 52.674644728400892 ], [ 4.630246174376782, 52.676118930524524 ], [ 4.631610912884743, 52.679687557548817 ], [ 4.631860687275085, 52.680738570352624 ], [ 4.632500561778185, 52.681329314138367 ], [ 4.632470173319554, 52.682437449434204 ], [ 4.632783917908426, 52.683675894312941 ], [ 4.633143735732663, 52.686548811746846 ], [ 4.632992723805025, 52.686961271018639 ], [ 4.633018503102811, 52.687964951263652 ], [ 4.633426876349121, 52.690509273829704 ], [ 4.633852979727526, 52.691220722329845 ], [ 4.633764567718919, 52.691590810595081 ], [ 4.634533097041236, 52.695551077216606 ], [ 4.634476910604317, 52.696781053077132 ], [ 4.63510781834709, 52.698347592889093 ], [ 4.635943998850719, 52.702653254860643 ], [ 4.636532399051533, 52.703913984975173 ], [ 4.637498741978692, 52.707610476916756 ], [ 4.637543040150971, 52.709459981017375 ], [ 4.637386305328201, 52.710147594578594 ], [ 4.637496099668535, 52.711165461539395 ], [ 4.637067989869156, 52.71270860381312 ], [ 4.636822458558791, 52.711809437066172 ], [ 4.636769355115124, 52.710361729086408 ], [ 4.637148206409848, 52.709109572007073 ], [ 4.636746936714423, 52.707950532766318 ], [ 4.636633035337349, 52.705708859249995 ], [ 4.636186307698273, 52.705153344809155 ], [ 4.635525281494646, 52.70516213693746 ], [ 4.635371913613339, 52.705703583032509 ], [ 4.63575634849106, 52.706405074219518 ], [ 4.63576244163392, 52.70784778149104 ], [ 4.636103342668488, 52.709190135942507 ], [ 4.636287796037917, 52.711909222696001 ], [ 4.636545313718944, 52.713177869021045 ], [ 4.636523010709108, 52.713797948674873 ], [ 4.636176811397983, 52.714609907653532 ], [ 4.63640547787115, 52.714981437907944 ], [ 4.636093788147244, 52.715770128632521 ], [ 4.636148535826521, 52.717147439501211 ], [ 4.635903962683674, 52.718341236681816 ], [ 4.635993324099491, 52.719300546961975 ], [ 4.636315952182066, 52.719812613718361 ], [ 4.63751089504024, 52.720191996700201 ], [ 4.638220051056035, 52.719996993776178 ], [ 4.638253146800566, 52.719113507609912 ], [ 4.639342236320939, 52.719004300155362 ], [ 4.639279032671932, 52.721006834088264 ], [ 4.638210422371657, 52.721125575458792 ], [ 4.638236586544418, 52.720651245909082 ], [ 4.638047190220687, 52.720442536482686 ], [ 4.636980097110175, 52.720387988673494 ], [ 4.636095856014527, 52.720102231029983 ], [ 4.635610833954112, 52.720253508212807 ], [ 4.635552771592139, 52.720857825769968 ], [ 4.635898189723892, 52.72224416313135 ], [ 4.635925195960755, 52.723828513286911 ], [ 4.635696744063186, 52.725121522955263 ], [ 4.635812940073201, 52.726973233483015 ], [ 4.636764225862962, 52.72949275320034 ], [ 4.637116654751231, 52.73279032938985 ], [ 4.637887659267153, 52.734400811092208 ], [ 4.639582995169048, 52.740639456122977 ], [ 4.639971361865894, 52.741290426999939 ], [ 4.640573509545982, 52.743508196422873 ], [ 4.640965373768779, 52.74396756385633 ], [ 4.641557850585894, 52.746543838943481 ], [ 4.641939563419157, 52.747103228110149 ], [ 4.642286909338801, 52.74830530489433 ], [ 4.642700693532058, 52.750530273080599 ], [ 4.645574671951555, 52.756759753569533 ], [ 4.651093138255558, 52.755931628286348 ], [ 4.656352364480773, 52.751782971330329 ], [ 4.656492603789008, 52.751506641016569 ], [ 4.656237605794972, 52.750863123019762 ], [ 4.656432330248989, 52.750634444403524 ], [ 4.659031520602453, 52.74970033067374 ], [ 4.659134488143353, 52.749536660318206 ], [ 4.659035672252728, 52.74815567089798 ], [ 4.659256450109551, 52.747385404115391 ], [ 4.660481301985121, 52.746803051664614 ], [ 4.66298224981158, 52.746741010104117 ], [ 4.666087572635395, 52.744469364170996 ], [ 4.669686562957456, 52.741457016939485 ], [ 4.67139411801889, 52.740635008053985 ], [ 4.678851825218999, 52.739312085989496 ], [ 4.679624484926668, 52.73826847044954 ], [ 4.680691198470684, 52.737990703752082 ], [ 4.681100883876241, 52.737735625479772 ], [ 4.682791539505964, 52.735316017483655 ], [ 4.68357866636612, 52.733623581732111 ], [ 4.686905234468912, 52.732745634513897 ], [ 4.689853689619988, 52.7330869357748 ], [ 4.692707695088426, 52.731084527297654 ], [ 4.700165805657362, 52.724265729854999 ], [ 4.702504290450849, 52.721635862655233 ], [ 4.707056559535658, 52.718773685653943 ], [ 4.70949490367474, 52.71556468064319 ], [ 4.710552429966779, 52.714584079271184 ], [ 4.710204510585698, 52.714272915693869 ], [ 4.713085407834272, 52.711456829243645 ], [ 4.713489030218875, 52.71042826449834 ], [ 4.713526607992118, 52.708911593425412 ], [ 4.714422704140291, 52.708666938932339 ], [ 4.714864234321164, 52.70787338909242 ], [ 4.715354674003184, 52.707984465516333 ], [ 4.71630316859752, 52.707674626562451 ], [ 4.716992848599189, 52.705104466148377 ], [ 4.719105687406315, 52.699579695106934 ], [ 4.719720877270102, 52.698281193902403 ], [ 4.720295106541568, 52.697527435096994 ], [ 4.721753850833401, 52.696355433668835 ], [ 4.726470615720076, 52.693153725117824 ], [ 4.726531160223755, 52.692777793215143 ], [ 4.72755704243637, 52.692083600559926 ], [ 4.728775086325032, 52.691465256374293 ], [ 4.72922114902185, 52.691665945275354 ], [ 4.730333462222761, 52.690880178054222 ], [ 4.733987396922489, 52.692559126428911 ], [ 4.738921699394469, 52.693724857032564 ], [ 4.739348372168642, 52.693885325641745 ], [ 4.739269585503116, 52.694128972952527 ], [ 4.739543544729504, 52.69428430630618 ], [ 4.752876509771462, 52.697411509720972 ], [ 4.757245521986826, 52.69786969502244 ], [ 4.76653218602149, 52.698205188648132 ], [ 4.768481118015305, 52.698519778119895 ], [ 4.769034321130211, 52.69803208618746 ], [ 4.769463717529865, 52.698052495801498 ], [ 4.772246513188085, 52.698557216562996 ], [ 4.770681900444732, 52.704845931693534 ], [ 4.770553923443062, 52.706593985360065 ], [ 4.770851851440842, 52.70860017712333 ], [ 4.772763389540258, 52.715707229359886 ], [ 4.773327900119676, 52.717111587545979 ], [ 4.773522681784804, 52.718454507636174 ], [ 4.77425975986809, 52.721146519659122 ], [ 4.775867911471254, 52.724875538038233 ], [ 4.777949109506684, 52.728282530673354 ], [ 4.779297608193492, 52.731296853182513 ], [ 4.781223825543601, 52.730185466064569 ], [ 4.785092086119986, 52.728938030478396 ], [ 4.786646355715132, 52.728005266982102 ], [ 4.786565690117839, 52.72771261695366 ], [ 4.786805521782308, 52.726355131194452 ], [ 4.786094619599127, 52.724560725570093 ], [ 4.785899112472022, 52.722968327751936 ], [ 4.785512879437889, 52.722477807172261 ], [ 4.786623455018241, 52.721115699748225 ], [ 4.788078427586683, 52.721156743911756 ], [ 4.789139280857872, 52.720951866245393 ], [ 4.790454354968686, 52.721221957335672 ], [ 4.789689320394042, 52.722555526341594 ], [ 4.79248471993814, 52.723214435263174 ], [ 4.794101705961117, 52.720803272594438 ], [ 4.79543236848921, 52.720544479392743 ], [ 4.797661092025517, 52.720928552328552 ], [ 4.797442333250529, 52.72027536770937 ], [ 4.797444120441382, 52.719915301795965 ], [ 4.7976101634523, 52.719709244070629 ], [ 4.79960828313475, 52.718256673715459 ], [ 4.800959614298336, 52.71686763085156 ], [ 4.802167177642546, 52.715979698387564 ], [ 4.803214761950557, 52.715519309555077 ], [ 4.804634109577022, 52.715739919146877 ], [ 4.805097243582104, 52.715018871779968 ], [ 4.804091877484756, 52.714720903183007 ], [ 4.805025312285697, 52.714312563707928 ], [ 4.809162943407876, 52.715221404857687 ], [ 4.811017342937393, 52.715280870397471 ], [ 4.81349659812048, 52.715045082350464 ], [ 4.816953323201079, 52.715436055341783 ], [ 4.824002745141337, 52.716628520031023 ], [ 4.826769521649614, 52.717750945763164 ], [ 4.828856678776816, 52.718195418379075 ], [ 4.841174384007918, 52.719404902026433 ], [ 4.841485648220091, 52.718936551385674 ], [ 4.842390597048447, 52.718607824104836 ], [ 4.842641628385623, 52.718348435351814 ], [ 4.843581441468614, 52.718206678317081 ], [ 4.843749207248164, 52.719752036796471 ], [ 4.847591190998961, 52.720344954519568 ], [ 4.848258282755705, 52.721870642168199 ], [ 4.848172666555029, 52.722921931698266 ], [ 4.848308886307527, 52.723438695824733 ], [ 4.849140736719794, 52.724847402393735 ], [ 4.850259663769251, 52.725427863566651 ], [ 4.850786343571145, 52.72549778957309 ], [ 4.851384076063292, 52.725890130700733 ], [ 4.851537074633207, 52.726235764265098 ], [ 4.85460059117561, 52.724397643587139 ], [ 4.855143340186785, 52.72390856351182 ], [ 4.855571756880519, 52.723183883579622 ], [ 4.855754815027707, 52.723172716183058 ], [ 4.855895553294887, 52.722919635928044 ], [ 4.856461092530392, 52.722859849330185 ], [ 4.856726849828779, 52.722367000419403 ], [ 4.858573744062106, 52.722807342712137 ], [ 4.861255498901943, 52.720816024989098 ], [ 4.871238339301064, 52.716731054727802 ], [ 4.871156829743917, 52.716459040919432 ], [ 4.873331818436523, 52.715306016936651 ], [ 4.876346599611691, 52.712657695104063 ], [ 4.877378018125008, 52.712053896290158 ], [ 4.884678964550963, 52.70991345189622 ], [ 4.887848338441621, 52.709261875283417 ], [ 4.894891040324364, 52.707462879922495 ], [ 4.897469372497534, 52.706548380872718 ], [ 4.899206294290916, 52.706478041768008 ], [ 4.899708310003144, 52.701392644534351 ], [ 4.899983547831767, 52.699946469842196 ], [ 4.899926047197779, 52.697511412697381 ], [ 4.89567902440348, 52.696135463031609 ], [ 4.891470924655533, 52.695089754188878 ], [ 4.890386392649229, 52.694071937157332 ], [ 4.8887489845476, 52.690366291641283 ], [ 4.882126506308985, 52.687942520562906 ], [ 4.879660736816151, 52.687898223894024 ], [ 4.877741481640935, 52.687174732608504 ], [ 4.876330319558059, 52.686233391521796 ], [ 4.876186354344871, 52.685583664986275 ], [ 4.876669160778917, 52.684972726436882 ], [ 4.879238502933997, 52.680344634031158 ], [ 4.879463163611223, 52.680299340544352 ], [ 4.879487439604167, 52.680043271820637 ], [ 4.877493644076762, 52.678548956991754 ], [ 4.875770952050298, 52.6776528326141 ], [ 4.874581558024485, 52.676356860095737 ], [ 4.873808675315671, 52.674258787549746 ], [ 4.873515465564569, 52.672656563952899 ], [ 4.87209837305646, 52.669696684210216 ], [ 4.869832716529447, 52.665921022625568 ], [ 4.868404494892285, 52.664313661813942 ], [ 4.868168076177055, 52.663825414052745 ], [ 4.867933167101921, 52.663819637390695 ], [ 4.866599097334217, 52.660455789500553 ], [ 4.862981288900536, 52.656402890234688 ], [ 4.862944165485823, 52.656172613331016 ], [ 4.863168903499324, 52.656060647622617 ], [ 4.862801728079045, 52.653024079780984 ], [ 4.864361186415504, 52.650448291277662 ], [ 4.865143892985694, 52.649509634624508 ], [ 4.867826035496889, 52.64752624891954 ], [ 4.870281993465624, 52.646231922339183 ], [ 4.875474220880673, 52.642391420166092 ], [ 4.87658457043736, 52.641019086775827 ], [ 4.877352528422001, 52.639603103402081 ], [ 4.876545035530437, 52.635950277086245 ], [ 4.876322219650488, 52.63550924467178 ], [ 4.875930895773356, 52.635539419645589 ], [ 4.87508194239948, 52.634788910577171 ], [ 4.873421931510244, 52.634653950658567 ], [ 4.873614774910517, 52.634164043541254 ], [ 4.875440609215344, 52.633977107241286 ], [ 4.875602714974018, 52.634203995075652 ], [ 4.880612370081019, 52.633810403950854 ], [ 4.882445654563344, 52.633114693963385 ], [ 4.885073212087585, 52.631161517848881 ], [ 4.885563080094426, 52.629610830063058 ], [ 4.887926868825479, 52.627711009458309 ], [ 4.889304513476167, 52.625759300143571 ], [ 4.889514037209042, 52.624039985142446 ], [ 4.889439263928676, 52.6236189355457 ], [ 4.889166194658003, 52.623297278065074 ], [ 4.887343310778348, 52.622546457926127 ], [ 4.886888054359964, 52.61967735758293 ], [ 4.886085365367399, 52.618082951817101 ], [ 4.884137481152225, 52.613237794089201 ], [ 4.891774125104401, 52.613141834163471 ], [ 4.896937503621076, 52.613451899498358 ], [ 4.902658191402212, 52.612969212762167 ], [ 4.903621098113575, 52.612667233847297 ], [ 4.90688070040612, 52.612453201845341 ], [ 4.908150815227156, 52.612521631087489 ], [ 4.91108794224393, 52.612049911880753 ], [ 4.914884755784739, 52.611891561541341 ], [ 4.916406514320346, 52.611635365410685 ], [ 4.920963218584752, 52.611739406572049 ], [ 4.922442606779408, 52.611570002919464 ], [ 4.923304189593059, 52.611324025109766 ], [ 4.924777971610474, 52.610422642108162 ], [ 4.925865900193239, 52.609541732355027 ], [ 4.92630265352604, 52.608926590044987 ], [ 4.927011614985749, 52.60675480765299 ], [ 4.926295173302869, 52.607296344644595 ], [ 4.925368876617261, 52.60761195677874 ], [ 4.921643949940713, 52.608380378808128 ], [ 4.918094927632138, 52.608726050729935 ], [ 4.915347480008554, 52.608738001943195 ], [ 4.912745573126151, 52.607627920407936 ], [ 4.910165439282503, 52.606229777614089 ], [ 4.907530963177846, 52.605689501584664 ], [ 4.907491287491461, 52.605467946479969 ], [ 4.904660786107675, 52.604184087465534 ], [ 4.901116558063003, 52.60278911784166 ], [ 4.898502693431441, 52.601298995025253 ], [ 4.896623869265552, 52.599655824806327 ], [ 4.896364547143106, 52.599713603985066 ], [ 4.895170212770629, 52.598829009237413 ], [ 4.893681627424643, 52.598154854435485 ], [ 4.893317394686902, 52.597722647249562 ], [ 4.893839763340315, 52.597524547574046 ], [ 4.89376358914637, 52.597429074050979 ], [ 4.893164650122768, 52.597131281560458 ], [ 4.892163250306002, 52.595904256860734 ], [ 4.889864434956944, 52.593862747484465 ], [ 4.888032734755419, 52.59061554769999 ], [ 4.886850070440534, 52.58663211388415 ], [ 4.885113072382736, 52.584442495261762 ], [ 4.882867142130634, 52.583291786856364 ], [ 4.881055287817928, 52.581796961135488 ], [ 4.880150975604319, 52.580384942147418 ], [ 4.876353363231257, 52.577748185079749 ], [ 4.874619588125533, 52.5770213597241 ], [ 4.872270781200859, 52.577008144147769 ], [ 4.868900730511027, 52.575959227931371 ], [ 4.865723031016282, 52.573644847920676 ], [ 4.864262327912159, 52.571400652949265 ], [ 4.863144505913965, 52.568348426011646 ], [ 4.862897136488275, 52.568317653693015 ], [ 4.862843379161027, 52.565077123955454 ], [ 4.862116557157859, 52.563536668637056 ], [ 4.861369719846195, 52.562468147002754 ], [ 4.860165403144804, 52.561385921625678 ], [ 4.858650203446378, 52.559604617739957 ], [ 4.85407431277737, 52.557075619842095 ], [ 4.851759506049, 52.554904227376149 ], [ 4.848298307334614, 52.550204802057998 ], [ 4.844095659075679, 52.547018333587694 ], [ 4.842399044163961, 52.543785904536293 ], [ 4.842112365505781, 52.543505023926443 ], [ 4.835867884172303, 52.541045854082554 ], [ 4.833890938395724, 52.539086139711088 ], [ 4.831473374489286, 52.539967548660712 ], [ 4.828069002952548, 52.541761358068719 ], [ 4.824423890060192, 52.542781858022899 ], [ 4.820947075809269, 52.538358963543494 ], [ 4.818955892624753, 52.538795804879896 ], [ 4.816896941216686, 52.535676024733313 ], [ 4.81696913448835, 52.535551096564141 ], [ 4.824205976187044, 52.533788279625831 ], [ 4.821129443859473, 52.5317254484914 ], [ 4.81948909781979, 52.531191660158441 ], [ 4.813649105536285, 52.530857649661549 ], [ 4.811590991035454, 52.530283909143826 ], [ 4.804887683025086, 52.525529281106749 ], [ 4.803599847423021, 52.525112656006812 ], [ 4.79924265444844, 52.524683049112532 ], [ 4.797837311606966, 52.524255061686567 ], [ 4.793766517686758, 52.520804417672615 ], [ 4.792389280203276, 52.519811751664953 ], [ 4.791773958003801, 52.519578504452824 ], [ 4.78837640787744, 52.519264446520133 ], [ 4.785088926996912, 52.519512254461759 ], [ 4.78500207077255, 52.519654576273126 ], [ 4.784888132318144, 52.519525240031712 ], [ 4.78254785706334, 52.519676554243958 ], [ 4.779009806392661, 52.529267422930985 ], [ 4.778238910258971, 52.530905424414705 ], [ 4.77789432707746, 52.532010016512636 ], [ 4.777832289727956, 52.533630363785136 ], [ 4.777985558879124, 52.544084255648457 ], [ 4.778139473342691, 52.544112814388633 ], [ 4.77825654212739, 52.544415666402784 ], [ 4.78095379221203, 52.555817565415353 ], [ 4.781668174324642, 52.556988687587598 ], [ 4.781987948979737, 52.556960323456721 ], [ 4.782390229539125, 52.557671345988965 ], [ 4.778782266817263, 52.558466817609066 ], [ 4.773703812055651, 52.560121721962076 ], [ 4.753771280873684, 52.56303793714747 ], [ 4.751788947956186, 52.563743830231182 ], [ 4.747015657211852, 52.566448614666221 ], [ 4.746357261792063, 52.567019634227698 ], [ 4.746052509861144, 52.567091559543776 ], [ 4.745757583380989, 52.567553114831711 ], [ 4.745715051770707, 52.567974587078204 ], [ 4.745946305773747, 52.568119644187156 ], [ 4.746240787097367, 52.569077941316571 ], [ 4.747159010394472, 52.570208163335465 ], [ 4.747133861780985, 52.570364954667262 ], [ 4.748666763251, 52.572071142598013 ], [ 4.749411886029047, 52.573415722852573 ], [ 4.749835257765146, 52.575931422995488 ], [ 4.750600209318383, 52.577872554189547 ], [ 4.751840991283202, 52.581942733427184 ], [ 4.756980436052515, 52.59136925908976 ], [ 4.756843310089081, 52.591502560721885 ], [ 4.756220213174988, 52.591007007846464 ], [ 4.756550619262706, 52.591636941928307 ], [ 4.755009796392777, 52.591858012391491 ], [ 4.754964023377127, 52.592290940576703 ], [ 4.752370034221148, 52.592663581332566 ], [ 4.750908434561904, 52.589233706470203 ], [ 4.744563822953205, 52.590340069007659 ], [ 4.742907321360724, 52.585774600261104 ], [ 4.741353628200597, 52.583373796300286 ], [ 4.741883442553482, 52.58313518299245 ], [ 4.741200501626976, 52.582534195487852 ], [ 4.740902513280222, 52.581923292327573 ], [ 4.740351777178123, 52.581375736017641 ], [ 4.740272583236424, 52.580814626993096 ], [ 4.74053997043657, 52.580212375212682 ], [ 4.740056487294503, 52.579525115666755 ], [ 4.739905260648207, 52.5790281094609 ], [ 4.728636996901169, 52.579620892317301 ], [ 4.727092896130515, 52.579838515666012 ], [ 4.72651896092998, 52.579651325369241 ], [ 4.725628345615556, 52.578928030744642 ], [ 4.72494231407009, 52.578844922532724 ], [ 4.724874467659325, 52.579102491790408 ], [ 4.725063268736921, 52.579307017407714 ], [ 4.724966484789173, 52.579452260536257 ], [ 4.72315725722537, 52.579932886680915 ], [ 4.720383373563027, 52.580174705859228 ], [ 4.718608610776621, 52.580152135791344 ], [ 4.71915318147132, 52.581899614994846 ], [ 4.718495810132481, 52.581763513680862 ], [ 4.715781330691753, 52.582213205843445 ], [ 4.71548052070071, 52.58239362744505 ], [ 4.712888939577648, 52.58274607451056 ], [ 4.710448387445206, 52.58257908230577 ], [ 4.710169915256697, 52.580687044522641 ], [ 4.70993446073697, 52.580613960619246 ], [ 4.708018422516891, 52.580322071925167 ], [ 4.707374644101172, 52.580430727775706 ], [ 4.707160160521193, 52.580286129168393 ], [ 4.703870345920345, 52.580434694136379 ], [ 4.703904500673205, 52.580997182566861 ], [ 4.703146818143871, 52.581047295797134 ], [ 4.703453241078591, 52.581514636686705 ], [ 4.703385659942894, 52.58164766518756 ], [ 4.698447276832463, 52.581952064042149 ], [ 4.698889593953059, 52.583020620806884 ], [ 4.698792383411801, 52.583150009090367 ], [ 4.698205518621613, 52.582327733190546 ], [ 4.696554171051627, 52.579078721349475 ], [ 4.694584769039727, 52.579143950994869 ], [ 4.691233761358169, 52.57965305531431 ], [ 4.691330440951429, 52.580145434694707 ], [ 4.685494209860632, 52.581046296831715 ], [ 4.686162791165743, 52.582117138529043 ], [ 4.686287692064311, 52.58306938988455 ], [ 4.68009767701865, 52.584425335100505 ], [ 4.679918717526434, 52.584331940561768 ], [ 4.679771141051297, 52.583852074936239 ], [ 4.677749900602506, 52.584306863892564 ], [ 4.678068678933565, 52.585208861230747 ], [ 4.677682593996249, 52.585662355463306 ], [ 4.673326684590321, 52.587140083489004 ], [ 4.671701299612745, 52.587391763103042 ], [ 4.670859881931161, 52.588354739346435 ], [ 4.670720199879283, 52.588711641800934 ], [ 4.671931481654863, 52.589271224583229 ], [ 4.674088313315515, 52.589866095985023 ], [ 4.673816638775575, 52.590460902585825 ], [ 4.67257482694315, 52.591003887898061 ], [ 4.667636087961905, 52.589554327226622 ], [ 4.667479188492106, 52.589412665677933 ], [ 4.667620661430862, 52.589176797381285 ], [ 4.663284617630189, 52.587617045899435 ], [ 4.663276933186969, 52.587431996657727 ], [ 4.659870350042094, 52.586255740732284 ], [ 4.65961576209027, 52.586468360652688 ], [ 4.657277178794306, 52.585774216159926 ], [ 4.655386833174722, 52.585625902320977 ], [ 4.655129451340084, 52.584384764582651 ], [ 4.655177857022142, 52.583012597933148 ], [ 4.654915809322843, 52.582946241000343 ], [ 4.654907477724051, 52.58278990468385 ], [ 4.654144331859179, 52.582800377144309 ], [ 4.649291250880781, 52.581801677581701 ], [ 4.647200537987436, 52.57917222795313 ], [ 4.643693047953133, 52.578588363389997 ], [ 4.642245957560062, 52.576858766581132 ], [ 4.639711412697117, 52.576434925556683 ], [ 4.638981232938892, 52.578119440090944 ], [ 4.637422568521804, 52.578251448838706 ], [ 4.637166134390327, 52.578775588428755 ], [ 4.636570885783334, 52.579189755756758 ], [ 4.609865153925078, 52.573744871725424 ], [ 4.610884918315593, 52.576788479735704 ], [ 4.611111050721039, 52.578669849788604 ], [ 4.611599681958612, 52.580217203038735 ], [ 4.611893756341221, 52.582042832723729 ], [ 4.612072349234863, 52.584720189026172 ], [ 4.612687774185165, 52.58633729160821 ], [ 4.61335847334053, 52.589568457276734 ], [ 4.613848894548485, 52.591018549482037 ], [ 4.61406903701352, 52.592454587083033 ], [ 4.615180911613058, 52.596239277647229 ], [ 4.615453491149025, 52.598796165859952 ], [ 4.615442515354217, 52.600850980145538 ], [ 4.615978080805108, 52.60228619572738 ], [ 4.616193103852747, 52.60522388706358 ], [ 4.61708310689753, 52.607655626372249 ], [ 4.616785156709, 52.609124244166644 ], [ 4.617300598555503, 52.610600868203974 ], [ 4.617739212219259, 52.613045393656265 ], [ 4.618292260810605, 52.614790369042566 ], [ 4.618464614607491, 52.6203830130152 ], [ 4.618923313040849, 52.621673814400914 ], [ 4.619863403387178, 52.626305155911787 ], [ 4.620325861288675, 52.627337933693227 ], [ 4.620690940224732, 52.628870014338837 ], [ 4.621344106077691, 52.630011262967614 ], [ 4.621691470654442, 52.630976908539388 ], [ 4.622149556795677, 52.63581693943479 ], [ 4.622749442140521, 52.637103047048804 ], [ 4.622927323482298, 52.638251230243853 ], [ 4.623385941288364, 52.639097161077494 ], [ 4.624225731184295, 52.641649950473187 ], [ 4.624079010416399, 52.643277622083495 ], [ 4.624675659269208, 52.646162314673667 ], [ 4.624875994883179, 52.647991177107421 ], [ 4.624768219592258, 52.649503694599964 ], [ 4.625117577812228, 52.655107892464748 ], [ 4.625648109747104, 52.656928249884892 ], [ 4.625753881034495, 52.659289765039098 ], [ 4.626225100865336, 52.661580750350112 ], [ 4.626740771038045, 52.663200200771549 ], [ 4.626639049960459, 52.664442380301203 ], [ 4.62686890528995, 52.665410283256819 ] ], [ [ 4.639347360818058, 52.718714842020496 ], [ 4.638267066186759, 52.718816729257043 ], [ 4.638667779162677, 52.71716542409429 ], [ 4.639097392335977, 52.7171458577237 ], [ 4.639378510554441, 52.717379752003595 ], [ 4.639347360818058, 52.718714842020496 ] ], [ [ 4.638232507670852, 52.721401609764257 ], [ 4.639303364440734, 52.721299031968108 ], [ 4.639624997538718, 52.723021883569096 ], [ 4.639462864939058, 52.723253920738856 ], [ 4.638472187964677, 52.723414472965999 ], [ 4.638486434158553, 52.722510015821946 ], [ 4.638302532349337, 52.722224807226105 ], [ 4.638232507670852, 52.721401609764257 ] ], [ [ 4.638512264821942, 52.723643273092968 ], [ 4.63860080086089, 52.723691083274566 ], [ 4.639000114190546, 52.723640193621293 ], [ 4.638726479775269, 52.723794953286841 ], [ 4.638512264821942, 52.723643273092968 ] ] ] } }
]
}
