{
"type": "FeatureCollection",
"name": "SWVPO3102",
"crs": { "type": "name", "properties": { "name": "urn:ogc:def:crs:OGC:1.3:CRS84" } },
"features": [
{ "type": "Feature", "properties": { "PO SWV": "PO3102", "strokeColor": "#A9A9A9", "strokeWidth": 2, "fillColor": "#ADD8E6" }, "geometry": { "type": "Polygon", "coordinates": [ [ [ 5.877840977120566, 51.316676132601735 ], [ 5.88402621090507, 51.315653254618525 ], [ 5.910442766405941, 51.307877524309049 ], [ 5.907417473973486, 51.313201786827491 ], [ 5.907458696170766, 51.313397088859766 ], [ 5.923563075210525, 51.308918676825165 ], [ 5.928341540605574, 51.310865504734046 ], [ 5.93567393898163, 51.308836752245028 ], [ 5.935727223357055, 51.30867971327369 ], [ 5.933772643162198, 51.306111213355621 ], [ 5.954739093112608, 51.300374496666969 ], [ 5.978832042938261, 51.290010644975652 ], [ 6.008294108571769, 51.277634709853729 ], [ 6.009274517461832, 51.275597575373297 ], [ 6.009292918843537, 51.275072688764531 ], [ 6.009674627017003, 51.2740295019996 ], [ 6.010964713552416, 51.272017902251953 ], [ 6.011097654231023, 51.271309796706539 ], [ 6.010626985763283, 51.269576449038084 ], [ 6.010414025100719, 51.267496536817113 ], [ 6.009723537816916, 51.266314994704352 ], [ 6.009698261350345, 51.265708729454452 ], [ 6.008491072332483, 51.265107228879202 ], [ 6.00742483739683, 51.2642885808431 ], [ 6.006429090254004, 51.263135834473346 ], [ 6.005734037335339, 51.262009524236696 ], [ 6.005464790965316, 51.261188801800159 ], [ 6.005385581425462, 51.260256961043773 ], [ 6.005794567420867, 51.258969685992334 ], [ 6.006609412984679, 51.258086197553673 ], [ 6.007879318372019, 51.257339255832541 ], [ 6.012796515264042, 51.256047582963284 ], [ 6.014835029540311, 51.255161459164725 ], [ 6.016161043788031, 51.254038343211278 ], [ 6.016814853190003, 51.25282260617702 ], [ 6.016754874542317, 51.251801239134942 ], [ 6.01618853960633, 51.250975003032316 ], [ 6.016693647458453, 51.250869251656049 ], [ 6.016729116314123, 51.250704243356616 ], [ 6.017149125783079, 51.250746808990456 ], [ 6.017871105200702, 51.250518720284163 ], [ 6.01990677400734, 51.250692554969973 ], [ 6.020429199073572, 51.250389093779141 ], [ 6.02050651893026, 51.250147160309226 ], [ 6.020276237380568, 51.249903092561212 ], [ 6.019732364261897, 51.24980665146564 ], [ 6.021006545835003, 51.249567424831753 ], [ 6.021159120039416, 51.249250881581531 ], [ 6.022099686007615, 51.249296082137 ], [ 6.022240623106846, 51.248891193654266 ], [ 6.022823911662263, 51.248793196118832 ], [ 6.022901670703843, 51.248455243603132 ], [ 6.023448363596621, 51.248477980987822 ], [ 6.02347615337842, 51.248178143487138 ], [ 6.024193033095126, 51.248366796813507 ], [ 6.024535390496947, 51.247978169670489 ], [ 6.0250959751416, 51.247917907276339 ], [ 6.025142131704336, 51.247763187701736 ], [ 6.024961227755352, 51.247640081282796 ], [ 6.025714368411769, 51.247361598107716 ], [ 6.026210426659755, 51.247349011637645 ], [ 6.026265884950536, 51.247112358840575 ], [ 6.026109453337979, 51.246887367792738 ], [ 6.026525581901671, 51.246688495050719 ], [ 6.026203252118814, 51.246492740272345 ], [ 6.026622008464749, 51.24633107936112 ], [ 6.026431502671445, 51.24598594445547 ], [ 6.026660279638749, 51.245836706928252 ], [ 6.027132424194552, 51.245997661690595 ], [ 6.027423109116771, 51.245903674950995 ], [ 6.027501347988745, 51.245654593328005 ], [ 6.027834604054808, 51.245647295305453 ], [ 6.029969687664413, 51.246427974755413 ], [ 6.032515225824075, 51.247090147293086 ], [ 6.036710130478094, 51.246728088265044 ], [ 6.038370796067237, 51.246206559805664 ], [ 6.04292828524944, 51.247099355404004 ], [ 6.046838662848473, 51.250086738063416 ], [ 6.050743982526009, 51.25235147745402 ], [ 6.051977826663535, 51.25184275882868 ], [ 6.052989427078624, 51.250417048782253 ], [ 6.054426118453829, 51.252026821828203 ], [ 6.062818415131434, 51.246498775990659 ], [ 6.072718754151034, 51.242643544585761 ], [ 6.083629239857365, 51.227173554278835 ], [ 6.086124088500997, 51.222682521844767 ], [ 6.083592648543279, 51.221942209572703 ], [ 6.080955631161239, 51.222347092281588 ], [ 6.07326648818665, 51.222336315818673 ], [ 6.070726839760117, 51.221989094115841 ], [ 6.068091620644235, 51.220494878819522 ], [ 6.068562363028904, 51.213439397839032 ], [ 6.069593834897445, 51.213225588049191 ], [ 6.073240299660118, 51.182839826922226 ], [ 6.078593147309728, 51.177254263239824 ], [ 6.082248333811772, 51.171726872664607 ], [ 6.087848629973783, 51.171021663383883 ], [ 6.088068756376713, 51.170841501870946 ], [ 6.088781613170636, 51.170804459123644 ], [ 6.089258162519603, 51.171074236906549 ], [ 6.089405471949759, 51.170958739290114 ], [ 6.089266101112976, 51.170631542596169 ], [ 6.089679154871869, 51.17065032663001 ], [ 6.089885835326317, 51.170484867531187 ], [ 6.090477779567101, 51.170681040763156 ], [ 6.090766906579874, 51.170574179499546 ], [ 6.090686879097753, 51.170799537663868 ], [ 6.090797510315528, 51.170900489247622 ], [ 6.091441758124, 51.170869373554268 ], [ 6.091617161440808, 51.170621829490379 ], [ 6.09214325457569, 51.17081896042076 ], [ 6.092387820532103, 51.170730839404953 ], [ 6.092425585038341, 51.170495995947903 ], [ 6.092574018194938, 51.170705425253395 ], [ 6.092950256614391, 51.170796802956581 ], [ 6.093803064794186, 51.170514487087708 ], [ 6.09410417241366, 51.170858346155079 ], [ 6.094617996761093, 51.170781192790791 ], [ 6.095186346464837, 51.17118894440366 ], [ 6.095901135167185, 51.17125305833536 ], [ 6.096553722846394, 51.171014259602359 ], [ 6.096628461202934, 51.170759921877135 ], [ 6.097179519601471, 51.170908313167715 ], [ 6.097322481985056, 51.170680110487929 ], [ 6.097869442014201, 51.170630958484558 ], [ 6.098432442561871, 51.170278745227719 ], [ 6.100008946272172, 51.169977114196335 ], [ 6.100556757833523, 51.170193407920955 ], [ 6.100370594217139, 51.170706191252386 ], [ 6.10052255846978, 51.170969089521222 ], [ 6.100967517011557, 51.171008781681294 ], [ 6.101377139897714, 51.171470017569028 ], [ 6.102037813548905, 51.171739991922436 ], [ 6.103450741869314, 51.171886919501738 ], [ 6.10419134886312, 51.172131623407267 ], [ 6.104800247306811, 51.172023498418419 ], [ 6.105714618259744, 51.172295465779904 ], [ 6.106003269661682, 51.172224872360637 ], [ 6.106790163755869, 51.17259729575094 ], [ 6.107364051238523, 51.172628346743274 ], [ 6.107356374712857, 51.172846658223996 ], [ 6.107763285272661, 51.173005672594442 ], [ 6.107909812505802, 51.173255621485154 ], [ 6.1088225974677, 51.173232114001493 ], [ 6.109397427109751, 51.173586084858677 ], [ 6.110000677465427, 51.173440122659542 ], [ 6.110319648983, 51.173738306157013 ], [ 6.110877541995808, 51.173804660116481 ], [ 6.11102921626342, 51.173888264399665 ], [ 6.111104379161441, 51.174310151586823 ], [ 6.111473539529872, 51.174454691617164 ], [ 6.111342460478759, 51.174603683016244 ], [ 6.111425056644083, 51.174747777885862 ], [ 6.11245221083247, 51.174868648745182 ], [ 6.112883738617121, 51.175349367589597 ], [ 6.113383146849517, 51.175521338189085 ], [ 6.114527918514611, 51.176484468996648 ], [ 6.11548657575185, 51.177955150764419 ], [ 6.117283793779735, 51.178870215445308 ], [ 6.117315550256026, 51.179183342058842 ], [ 6.118114060056444, 51.179394423117962 ], [ 6.12236809741293, 51.181395411289962 ], [ 6.127486446261046, 51.182788412630323 ], [ 6.129588650264361, 51.183833442393869 ], [ 6.135545205503105, 51.18551222639887 ], [ 6.140357949643987, 51.187079001373746 ], [ 6.14987227944921, 51.189907499798402 ], [ 6.161058834881953, 51.192964720093386 ], [ 6.165180515754385, 51.194513609595184 ], [ 6.180770246428258, 51.186447296045209 ], [ 6.180812343886501, 51.186311175348798 ], [ 6.139105401116536, 51.173328964000632 ], [ 6.175458586740016, 51.158556981273321 ], [ 6.175510917448426, 51.158418634588962 ], [ 6.173744997306189, 51.157169755900988 ], [ 6.170154606317983, 51.155145298167312 ], [ 6.167313021031434, 51.154150120721795 ], [ 6.164494989661221, 51.152796444229885 ], [ 6.162963859677106, 51.15258597506898 ], [ 6.163555991811351, 51.148755044403444 ], [ 6.163365179898839, 51.148600842704177 ], [ 6.161375106866294, 51.148984805406975 ], [ 6.160775658457611, 51.149309217049442 ], [ 6.160691590628664, 51.149173923282198 ], [ 6.160109529445836, 51.149152585087222 ], [ 6.159709972467261, 51.148943078217243 ], [ 6.158966573972199, 51.149013938435267 ], [ 6.158833144134322, 51.148756906463774 ], [ 6.158110221197892, 51.148942965386524 ], [ 6.15718731283451, 51.14844327884137 ], [ 6.15701276954141, 51.148615500703677 ], [ 6.156620200277821, 51.148500419245373 ], [ 6.156336545187423, 51.148232379373802 ], [ 6.156097534624553, 51.148251765465474 ], [ 6.15602964898531, 51.148419295791982 ], [ 6.154835044062311, 51.147805439117406 ], [ 6.154574058818437, 51.148062591167452 ], [ 6.154129047784876, 51.147932313524151 ], [ 6.15410060157473, 51.148146555578428 ], [ 6.153354879114755, 51.148022478963007 ], [ 6.15322156702687, 51.148215870785172 ], [ 6.152746759282276, 51.148020830643134 ], [ 6.15269136725185, 51.147861107606928 ], [ 6.152317128535152, 51.147823679044372 ], [ 6.150964857616992, 51.148034022259623 ], [ 6.150532486111441, 51.148208260809071 ], [ 6.15052265875243, 51.14839623519979 ], [ 6.149953495211463, 51.148146934165965 ], [ 6.148935813463545, 51.148595468696854 ], [ 6.148650413244066, 51.148263545669259 ], [ 6.14835293978982, 51.148493372954761 ], [ 6.147882855196843, 51.14834802550196 ], [ 6.147668557125188, 51.148504568787935 ], [ 6.147516650218945, 51.148318358759759 ], [ 6.146397126536462, 51.148185011040198 ], [ 6.145886166347926, 51.147622840274899 ], [ 6.14552772626676, 51.147713631898853 ], [ 6.145408910030496, 51.147374661020699 ], [ 6.144804324712344, 51.146933641540365 ], [ 6.144597047742377, 51.147047803080213 ], [ 6.143707998535124, 51.146855349700935 ], [ 6.143410762351542, 51.14693453854381 ], [ 6.141820599239058, 51.146392977103211 ], [ 6.14065291265218, 51.146360206543569 ], [ 6.139562689230746, 51.146066601749624 ], [ 6.139130395380331, 51.146233071861936 ], [ 6.13879638305862, 51.146122759221797 ], [ 6.138162790032605, 51.14620840027515 ], [ 6.136547671999852, 51.145444059033977 ], [ 6.136243111240013, 51.145407318594359 ], [ 6.136133344844461, 51.145616911893065 ], [ 6.135988143155594, 51.145426351495416 ], [ 6.135060169263184, 51.145342697995915 ], [ 6.134602680984366, 51.144999851036857 ], [ 6.134397680357766, 51.145216640061889 ], [ 6.13397347189616, 51.145256159919576 ], [ 6.13372893533712, 51.144963542231096 ], [ 6.132842460280167, 51.145182221117665 ], [ 6.132470960719362, 51.144897533356577 ], [ 6.131763737270529, 51.145152206549177 ], [ 6.131332261182866, 51.144930616121975 ], [ 6.130676626971199, 51.145132709911628 ], [ 6.1301111570379, 51.144935955788718 ], [ 6.130149678468717, 51.144738884057354 ], [ 6.129993460604442, 51.144644031518538 ], [ 6.129451094896424, 51.144896719889218 ], [ 6.128981437933168, 51.14473606497085 ], [ 6.128284637866871, 51.144822769360985 ], [ 6.128039117024905, 51.144682542221545 ], [ 6.127473697285694, 51.144970837298551 ], [ 6.126896191678514, 51.144598547650801 ], [ 6.126435874407357, 51.144706891738998 ], [ 6.126336104608328, 51.144911055371843 ], [ 6.126010650301523, 51.144999755001116 ], [ 6.12617121994649, 51.144774582093994 ], [ 6.1260668333162, 51.144600425787182 ], [ 6.125709826866433, 51.14457031177929 ], [ 6.125502990276009, 51.144290639877084 ], [ 6.124397038784696, 51.144273057561996 ], [ 6.124308689414511, 51.143725638890537 ], [ 6.123984375836407, 51.143496022333984 ], [ 6.123654124733148, 51.143488210408115 ], [ 6.123462458816348, 51.143718432772872 ], [ 6.123424612778047, 51.143238142306387 ], [ 6.122737634464645, 51.143149010455296 ], [ 6.122127719197287, 51.142539896187692 ], [ 6.121517386534241, 51.142536166297468 ], [ 6.121421056955021, 51.142218872417253 ], [ 6.12107164267202, 51.142191289140783 ], [ 6.121619212848337, 51.141196033247169 ], [ 6.12135747934544, 51.140844393730397 ], [ 6.120598832050494, 51.140540951628068 ], [ 6.11984164967748, 51.140476651535444 ], [ 6.118374537635311, 51.139826866333699 ], [ 6.117878447316474, 51.140093013229418 ], [ 6.117651687098088, 51.139969850179071 ], [ 6.117443575379826, 51.139545244669513 ], [ 6.116812014819956, 51.139522241344174 ], [ 6.116683837174442, 51.139213276312681 ], [ 6.11641471117246, 51.139058262564546 ], [ 6.116006619255161, 51.139171676715002 ], [ 6.114982700386196, 51.138852487053676 ], [ 6.113874126003707, 51.138915986381569 ], [ 6.113364042151525, 51.13847184688526 ], [ 6.112019651763658, 51.138383545786247 ], [ 6.109708687929683, 51.13757142569397 ], [ 6.107663750564984, 51.137342303440889 ], [ 6.107385268401321, 51.137432761977607 ], [ 6.107199764719065, 51.137309141077814 ], [ 6.106196933952918, 51.137370860300216 ], [ 6.106103314749497, 51.137193607418602 ], [ 6.105820250352076, 51.137287960381848 ], [ 6.105446738917473, 51.136897072572047 ], [ 6.104881462719356, 51.136942303064536 ], [ 6.104139942193348, 51.136748127524577 ], [ 6.103849843606473, 51.136359860805236 ], [ 6.103575003176084, 51.136259383286372 ], [ 6.103208605237003, 51.136253778310575 ], [ 6.10323915708557, 51.136500486986925 ], [ 6.102297841211889, 51.136320220567129 ], [ 6.102101641619416, 51.136647165019667 ], [ 6.101865952482632, 51.136408496597547 ], [ 6.100807368416976, 51.136168828222473 ], [ 6.100473871074814, 51.136323440851633 ], [ 6.100454709981632, 51.136040432334823 ], [ 6.099920856221328, 51.136004487218798 ], [ 6.099924350226424, 51.135634120995775 ], [ 6.09956870579994, 51.135711624805971 ], [ 6.099228720357784, 51.135427369711884 ], [ 6.096324638858705, 51.134661326319765 ], [ 6.092657821330095, 51.13465791265974 ], [ 6.092004790953502, 51.134938094234457 ], [ 6.091787675185765, 51.134766384118976 ], [ 6.091157878129388, 51.132962181014825 ], [ 6.090254765869508, 51.132066076411775 ], [ 6.089906945610172, 51.131191637957215 ], [ 6.089404175237496, 51.130825778348608 ], [ 6.089264116873141, 51.130096925640778 ], [ 6.088608291413145, 51.129696817411151 ], [ 6.087254186883977, 51.129238929678678 ], [ 6.087541553809045, 51.129031846805482 ], [ 6.088457862134145, 51.128910134201675 ], [ 6.088764634418508, 51.128727118249081 ], [ 6.088968619033582, 51.128261998705497 ], [ 6.08884820775879, 51.12783251811851 ], [ 6.088453273381874, 51.127535510251434 ], [ 6.087757922979932, 51.127352347944878 ], [ 6.086550284908951, 51.127437197342338 ], [ 6.084672787967455, 51.126075576209978 ], [ 6.086501925506664, 51.125738466541243 ], [ 6.087047461001371, 51.124511686764386 ], [ 6.083482510936172, 51.123793952194625 ], [ 6.083134326287079, 51.123977528905719 ], [ 6.082484636671139, 51.124904028057678 ], [ 6.08093789298192, 51.125839519710155 ], [ 6.080096551004263, 51.124442699467316 ], [ 6.080504064523614, 51.123378011622059 ], [ 6.080481423803377, 51.122502971248551 ], [ 6.080630903090806, 51.122081678702301 ], [ 6.075752297769672, 51.120851569505568 ], [ 6.075695821621875, 51.120702700435736 ], [ 6.076319408151554, 51.119578334636948 ], [ 6.075928589135103, 51.11910275734899 ], [ 6.073533605697441, 51.118735055822945 ], [ 6.073038808880166, 51.118482497672026 ], [ 6.072958655778645, 51.118218488258279 ], [ 6.071877862756404, 51.118121141044561 ], [ 6.071357419145474, 51.117851600015172 ], [ 6.070654153225403, 51.118055364225825 ], [ 6.067306621801221, 51.117935632008709 ], [ 6.062433101891572, 51.116758147709433 ], [ 6.060346779621955, 51.115840707248211 ], [ 6.057865312471592, 51.113747360288492 ], [ 6.055378853367594, 51.1107553602682 ], [ 6.056442046730782, 51.110338601777862 ], [ 6.056895477563991, 51.109472265675613 ], [ 6.052653857243702, 51.106203855240295 ], [ 6.044454356818835, 51.101034995961143 ], [ 6.04339072321299, 51.101212603409081 ], [ 6.042020335818473, 51.100814887702583 ], [ 6.039323849319851, 51.098297087258075 ], [ 6.038306490747536, 51.097468515227455 ], [ 6.036741919713184, 51.096507566846874 ], [ 6.035102932457427, 51.095798944319576 ], [ 6.029929885861364, 51.094537960757314 ], [ 6.025928252683411, 51.094141304863527 ], [ 6.025049501883662, 51.093868840631629 ], [ 6.023959866269059, 51.093280396115254 ], [ 6.022498922282821, 51.093158603821138 ], [ 6.020685900814155, 51.092738838487037 ], [ 6.01759733549927, 51.094443679711851 ], [ 6.015776657083724, 51.092280008286011 ], [ 6.014739778436333, 51.091832760247883 ], [ 6.014130327110012, 51.09136958879553 ], [ 6.012683135820909, 51.090852401070798 ], [ 6.010902562098062, 51.091088511675196 ], [ 6.009577206116447, 51.090756126346136 ], [ 6.008376368890313, 51.089530356672491 ], [ 6.00387400067082, 51.086704883044831 ], [ 5.997840808688875, 51.084156791718875 ], [ 5.994771263628992, 51.081982894367812 ], [ 5.992269476390763, 51.079788012776056 ], [ 5.988510486528616, 51.074532995453531 ], [ 5.985001791039124, 51.073487906543022 ], [ 5.982327097027933, 51.073033170559704 ], [ 5.981784303954818, 51.073078090192006 ], [ 5.981450828671421, 51.072968937820576 ], [ 5.980981160755304, 51.072449608643083 ], [ 5.980357178240547, 51.07223836651476 ], [ 5.98026792444477, 51.07183958258193 ], [ 5.979775418780287, 51.071309018028749 ], [ 5.981803040934457, 51.069410008089235 ], [ 5.978768903674357, 51.067648089743116 ], [ 5.978842159878409, 51.066867559773215 ], [ 5.978546710955705, 51.066370693550638 ], [ 5.976597060247861, 51.064661467486026 ], [ 5.975998365958309, 51.064460641413767 ], [ 5.974845860423946, 51.063080589944008 ], [ 5.973204561494227, 51.062812537519335 ], [ 5.971933018894314, 51.061791993113822 ], [ 5.971019963141759, 51.061544652622437 ], [ 5.970082910087026, 51.060658090873758 ], [ 5.970673922689693, 51.060302567579924 ], [ 5.970877814060035, 51.059753038826159 ], [ 5.970987749911612, 51.059225007317707 ], [ 5.970874276474604, 51.057984981690183 ], [ 5.970195462860411, 51.05684069830626 ], [ 5.968298463709591, 51.055573401106855 ], [ 5.970183754338698, 51.054682910548173 ], [ 5.970410389656075, 51.054198834171459 ], [ 5.970320246349639, 51.053819497365858 ], [ 5.969909365943191, 51.053394517439386 ], [ 5.969470961764517, 51.05222694341694 ], [ 5.968325987444455, 51.051034993315305 ], [ 5.968581113454178, 51.049842580190052 ], [ 5.969396105066446, 51.049160645425971 ], [ 5.968543519916878, 51.047942884490354 ], [ 5.969288935757741, 51.046731211534556 ], [ 5.96859701485492, 51.046191305837972 ], [ 5.96832852159437, 51.04624682288501 ], [ 5.968110773673565, 51.045850101079594 ], [ 5.96792144132514, 51.044704454287718 ], [ 5.966947400669478, 51.044048904552703 ], [ 5.965813448060509, 51.043958420640273 ], [ 5.96498430752083, 51.04348674630824 ], [ 5.964482048346954, 51.043696380653429 ], [ 5.963878725862799, 51.043590611827987 ], [ 5.962705797518852, 51.042766773224798 ], [ 5.962531094690577, 51.0423738048205 ], [ 5.961726985659826, 51.041879603525857 ], [ 5.960507530738213, 51.041905643859948 ], [ 5.957959230959355, 51.040926640639952 ], [ 5.958326347242895, 51.040003318339949 ], [ 5.959567041691311, 51.038231438010015 ], [ 5.959047282705865, 51.037213420794991 ], [ 5.958205173652955, 51.036078045066041 ], [ 5.957814261381562, 51.034632810256063 ], [ 5.956358553785207, 51.034966157459053 ], [ 5.956211018158094, 51.034821571650092 ], [ 5.955660433039432, 51.034940779809958 ], [ 5.954990648241457, 51.035827028192358 ], [ 5.953978641126159, 51.036430980668321 ], [ 5.949802886886367, 51.036866731571756 ], [ 5.946444177259371, 51.036521815307886 ], [ 5.946394921116405, 51.036905088845138 ], [ 5.943182655014211, 51.036494988216162 ], [ 5.943049187779476, 51.036007507697938 ], [ 5.941602875833653, 51.035511679669284 ], [ 5.940755309374787, 51.035533389470366 ], [ 5.938073700281998, 51.035034190097377 ], [ 5.937808154959354, 51.036257334624985 ], [ 5.936288977015341, 51.038235336065405 ], [ 5.934528836686412, 51.04116586069923 ], [ 5.931441105683434, 51.044029179779656 ], [ 5.926234633391291, 51.04817359556931 ], [ 5.91960528826554, 51.062397745608031 ], [ 5.91866149121032, 51.063876864564634 ], [ 5.913214309688569, 51.066766413438891 ], [ 5.905695370751214, 51.061759685955444 ], [ 5.896432095527664, 51.057060029197181 ], [ 5.892364500756564, 51.053162259258293 ], [ 5.892034367162363, 51.053033791964651 ], [ 5.887204484776079, 51.05207934969831 ], [ 5.882874522282663, 51.051888139930092 ], [ 5.882049187936089, 51.051980913465449 ], [ 5.875190745209149, 51.051372626648181 ], [ 5.868690486053052, 51.051585563580147 ], [ 5.866899839331039, 51.051479858953662 ], [ 5.866989247764323, 51.051168742004506 ], [ 5.86642945981384, 51.051026563050684 ], [ 5.867184355252961, 51.046700929915197 ], [ 5.8673649214476, 51.046340668701966 ], [ 5.872238183303711, 51.041739999654055 ], [ 5.874672937046345, 51.039214153450708 ], [ 5.877467973740052, 51.03820235625922 ], [ 5.87811758676523, 51.037628171921803 ], [ 5.878226878734683, 51.03708918186927 ], [ 5.877007024864826, 51.031610979619018 ], [ 5.876998640052143, 51.031587548247508 ], [ 5.876969095594418, 51.031529155127842 ], [ 5.87696580615994, 51.031523170261366 ], [ 5.87696559881951, 51.031522821769151 ], [ 5.876867869265323, 51.031673230057244 ], [ 5.871834921812043, 51.030707211165712 ], [ 5.866978903726522, 51.032705607214233 ], [ 5.866356287596826, 51.032182454289021 ], [ 5.86460685241266, 51.032987040608035 ], [ 5.861418781192731, 51.032329649244303 ], [ 5.861597052165354, 51.031757410227179 ], [ 5.861488655779386, 51.03147838099504 ], [ 5.862225975417627, 51.029084138693818 ], [ 5.862218163516137, 51.028593146860125 ], [ 5.85751410597617, 51.028230999238346 ], [ 5.855567903262444, 51.028407863982331 ], [ 5.853938253266933, 51.028959588745565 ], [ 5.853045897070883, 51.028713105071823 ], [ 5.852458082002529, 51.028847166169179 ], [ 5.852394079601771, 51.028979857863931 ], [ 5.852552803931453, 51.02908730795837 ], [ 5.852430488177506, 51.029217522815181 ], [ 5.85267723211051, 51.029240515919675 ], [ 5.852691705002261, 51.029426726778063 ], [ 5.850427985791019, 51.033925682719662 ], [ 5.850212844935946, 51.033940541089876 ], [ 5.847553463900413, 51.038973325621683 ], [ 5.849743295663255, 51.03939026395571 ], [ 5.850417241968928, 51.038979297337264 ], [ 5.851658195218373, 51.037464123924494 ], [ 5.85284274115006, 51.038121705195358 ], [ 5.851726351602857, 51.040382152236781 ], [ 5.854933697962672, 51.040526233385776 ], [ 5.854711009047934, 51.041223080335264 ], [ 5.855105050146481, 51.041408489108804 ], [ 5.855333431131683, 51.042862269668632 ], [ 5.854896809492996, 51.043653187070184 ], [ 5.854631352972371, 51.044863260433146 ], [ 5.851989718730488, 51.047264111717531 ], [ 5.851664321603794, 51.047236366973401 ], [ 5.851659143594684, 51.047763050911435 ], [ 5.848519592273017, 51.047791729687354 ], [ 5.846168492224443, 51.047243742395153 ], [ 5.846208426085616, 51.046889136828469 ], [ 5.84398817968389, 51.046442089992098 ], [ 5.844149400843015, 51.045916480892089 ], [ 5.843643377186415, 51.045723823294388 ], [ 5.842406573574472, 51.046554105533744 ], [ 5.841282271341961, 51.045846353247768 ], [ 5.839747665925289, 51.046511753545602 ], [ 5.838019062072136, 51.046770519131421 ], [ 5.835066295869058, 51.049125180896397 ], [ 5.829244980172518, 51.048397188686835 ], [ 5.82735029141035, 51.047946033318397 ], [ 5.827544150166287, 51.050147787018226 ], [ 5.82735553452397, 51.053874617688592 ], [ 5.827495897453524, 51.054418320475989 ], [ 5.827181856558502, 51.05523890820276 ], [ 5.826300027204824, 51.05913495756154 ], [ 5.826255970302935, 51.06011917804345 ], [ 5.82653335364703, 51.062346174725398 ], [ 5.825129624533365, 51.064607808810429 ], [ 5.824413387400545, 51.067920690243035 ], [ 5.824551556174391, 51.068147509787799 ], [ 5.826071538767502, 51.068996260755505 ], [ 5.827421466234988, 51.070039612602386 ], [ 5.828673275313477, 51.0693771921568 ], [ 5.830763195556673, 51.070515433312103 ], [ 5.832253107019434, 51.07069060037125 ], [ 5.833258106607533, 51.070634033177583 ], [ 5.833552310313963, 51.07077075758113 ], [ 5.83139733877075, 51.073244869056218 ], [ 5.828052870642068, 51.074180412910216 ], [ 5.826005282073059, 51.075927980564657 ], [ 5.825972505260609, 51.076726689636935 ], [ 5.827002720601145, 51.078906553996795 ], [ 5.826685692451937, 51.078935636339736 ], [ 5.825431544476293, 51.076474825728191 ], [ 5.824680665136385, 51.076806879682849 ], [ 5.824047038848071, 51.075746787047549 ], [ 5.823322835938304, 51.075916564831736 ], [ 5.820498189315477, 51.072689869706508 ], [ 5.819547717337643, 51.072675572662334 ], [ 5.813440388582984, 51.065606401695803 ], [ 5.809298289553332, 51.059259361805637 ], [ 5.808656027056921, 51.05941987951546 ], [ 5.808084577620497, 51.059226616154838 ], [ 5.807846675875429, 51.058569966186838 ], [ 5.807067621146802, 51.057668223545001 ], [ 5.80657264555316, 51.05755387602342 ], [ 5.806190980675257, 51.058186285915816 ], [ 5.80328812308589, 51.057705218875533 ], [ 5.80293343194846, 51.058378213388366 ], [ 5.802996170439768, 51.058643994577601 ], [ 5.801828714958832, 51.059314716424737 ], [ 5.800637405872163, 51.059577732715297 ], [ 5.800552394160324, 51.059412725400371 ], [ 5.799280858390611, 51.060153313718779 ], [ 5.799651108326686, 51.060416503312169 ], [ 5.800793902665658, 51.062151965919128 ], [ 5.801066030462536, 51.063068578554947 ], [ 5.800960985693043, 51.063992005975322 ], [ 5.799707672051896, 51.06660731068667 ], [ 5.798167425048124, 51.068132258880638 ], [ 5.797938965682668, 51.069101016469745 ], [ 5.798023940922766, 51.070088863273277 ], [ 5.797602127770904, 51.070835455178674 ], [ 5.796524435209432, 51.071853608895076 ], [ 5.796813214981632, 51.072793248300023 ], [ 5.797457862466106, 51.073601609928907 ], [ 5.79919209341362, 51.075089694108826 ], [ 5.800463107549395, 51.075771954633261 ], [ 5.802109396118789, 51.076104761211013 ], [ 5.804123756972602, 51.077003866217289 ], [ 5.804783327826148, 51.077965245391518 ], [ 5.804767911229886, 51.079608123158692 ], [ 5.804416516327944, 51.080487586448193 ], [ 5.803310517571344, 51.082143528272638 ], [ 5.801671363893962, 51.083648747931875 ], [ 5.798801891315727, 51.085691439892123 ], [ 5.797061961457495, 51.086107779699475 ], [ 5.795737343486242, 51.087799382149683 ], [ 5.795007063988437, 51.089622567385078 ], [ 5.795350788527495, 51.090761299556043 ], [ 5.795949053996679, 51.091546200264816 ], [ 5.7987075104338, 51.093605006816404 ], [ 5.80002289532011, 51.094295147715577 ], [ 5.802559162068651, 51.095244630532349 ], [ 5.806763844515543, 51.096277060574735 ], [ 5.809747649887059, 51.096410063400832 ], [ 5.812647335603555, 51.096026977336898 ], [ 5.817846696281921, 51.094363253815594 ], [ 5.820321174421676, 51.093439183559497 ], [ 5.821369895717489, 51.09276153242606 ], [ 5.822671275739771, 51.092424532426293 ], [ 5.82413043044953, 51.092449882667495 ], [ 5.825525542582258, 51.092780792219067 ], [ 5.82788436379354, 51.093902701884922 ], [ 5.830934680901838, 51.095799685522522 ], [ 5.832335969122147, 51.097417467892413 ], [ 5.833574902869733, 51.10005114229795 ], [ 5.833725981776317, 51.100976759217936 ], [ 5.833681621119238, 51.102769190846239 ], [ 5.833316784318303, 51.103702457216542 ], [ 5.832711773053604, 51.104533858629736 ], [ 5.830927247932014, 51.105804475752031 ], [ 5.828845901396464, 51.106948153672491 ], [ 5.825068114393395, 51.108101502046971 ], [ 5.82359124068237, 51.108249535307884 ], [ 5.820209483713926, 51.108091409164189 ], [ 5.816265444133895, 51.107443872956878 ], [ 5.814622092924377, 51.107354734054226 ], [ 5.812935262061558, 51.107797300299744 ], [ 5.811874002549205, 51.10825545690998 ], [ 5.810801625346804, 51.108787880640719 ], [ 5.809287038495121, 51.110372074929082 ], [ 5.808267690387376, 51.111161636902047 ], [ 5.807569058961299, 51.113052246328174 ], [ 5.807738659432658, 51.114062033580993 ], [ 5.808409342618782, 51.115850988445281 ], [ 5.809787894003654, 51.118500374895177 ], [ 5.811049463652624, 51.119146095201984 ], [ 5.812682118737778, 51.120523861738583 ], [ 5.814059255140393, 51.120882782914819 ], [ 5.817599292768731, 51.123715477782774 ], [ 5.818144836609097, 51.124634390646975 ], [ 5.820640079838959, 51.126829452352254 ], [ 5.823692969714713, 51.128838526082532 ], [ 5.824853641202835, 51.129434092275531 ], [ 5.828764784925894, 51.130430011762229 ], [ 5.833213423297662, 51.130774089059464 ], [ 5.83896642105528, 51.13077964483503 ], [ 5.840085024815252, 51.130939221223542 ], [ 5.841298131858644, 51.131563796622537 ], [ 5.842260775349809, 51.132282007001997 ], [ 5.842853950662159, 51.132970940790905 ], [ 5.843297291686305, 51.13380339020916 ], [ 5.843889529716892, 51.135523725865994 ], [ 5.843411466450516, 51.137357774554893 ], [ 5.844667293693869, 51.139187309315083 ], [ 5.845075848197111, 51.14009220842081 ], [ 5.845776167134243, 51.140835367269482 ], [ 5.846744518781356, 51.141472097361117 ], [ 5.849098131603315, 51.142470222855515 ], [ 5.851613473490701, 51.143092215239477 ], [ 5.855558843822813, 51.144614762866205 ], [ 5.848804787277948, 51.147553005631686 ], [ 5.847191602124187, 51.148569468116257 ], [ 5.846487647541064, 51.14876460543303 ], [ 5.845956920581055, 51.148628836537526 ], [ 5.843642173996244, 51.149912707372387 ], [ 5.843668071055572, 51.150144369799001 ], [ 5.842808114369166, 51.150389252964963 ], [ 5.840244026541632, 51.152238810091688 ], [ 5.836295391821891, 51.153604174183656 ], [ 5.837177074642221, 51.155767102428754 ], [ 5.83759392384038, 51.155749322861581 ], [ 5.838437895085196, 51.157008624830816 ], [ 5.835788928357709, 51.157512785692674 ], [ 5.835122158876294, 51.158289964251587 ], [ 5.832824483669669, 51.15895500193453 ], [ 5.832590357460825, 51.159692180571064 ], [ 5.832654635463189, 51.160053980476668 ], [ 5.833080523405708, 51.160908466099769 ], [ 5.833421690715028, 51.161101904699251 ], [ 5.83262229764542, 51.162355663413734 ], [ 5.832102686402346, 51.162362383711283 ], [ 5.83187153396833, 51.162739165588405 ], [ 5.831068052008969, 51.163321639983778 ], [ 5.830051906436162, 51.163657304838978 ], [ 5.830071310036107, 51.163933633046547 ], [ 5.829938056422892, 51.164022728370071 ], [ 5.829073868137295, 51.164181688320063 ], [ 5.828561280439599, 51.164019594112823 ], [ 5.8281235717286, 51.164202674906299 ], [ 5.827626514792005, 51.164783127463934 ], [ 5.827761841806154, 51.165064949391628 ], [ 5.827455596647508, 51.165281697928961 ], [ 5.82745108861848, 51.166121377808821 ], [ 5.824315797344654, 51.167739357535183 ], [ 5.823622439100316, 51.167518360347024 ], [ 5.82225895507613, 51.166155812386023 ], [ 5.81872869564091, 51.16418736161787 ], [ 5.81604704713537, 51.163103835014311 ], [ 5.815825057146872, 51.16275475870173 ], [ 5.815793319683246, 51.161543646471991 ], [ 5.81478018486097, 51.160996112343568 ], [ 5.814824475355464, 51.159222700650083 ], [ 5.815144840317135, 51.158895027729677 ], [ 5.815094427846828, 51.158755653455124 ], [ 5.813818937159255, 51.158654017950376 ], [ 5.812715339766251, 51.159192309773751 ], [ 5.811363180869054, 51.160187037242729 ], [ 5.809031885010646, 51.161189899161826 ], [ 5.806278315827183, 51.162719491464834 ], [ 5.805787864945248, 51.162285129300955 ], [ 5.804956310738722, 51.162748873316943 ], [ 5.803232653377564, 51.161349028628855 ], [ 5.802253653239375, 51.160881791153571 ], [ 5.802561989532249, 51.160326747698164 ], [ 5.80215188860833, 51.160025552625434 ], [ 5.80264573626448, 51.159405434894055 ], [ 5.798818491209526, 51.157574479576155 ], [ 5.798106337011192, 51.157768128261125 ], [ 5.796501680402675, 51.157062123278436 ], [ 5.796020566781704, 51.157149239611591 ], [ 5.79567164003508, 51.157034954851568 ], [ 5.794217718522336, 51.157325374632308 ], [ 5.793767373079236, 51.15709178241918 ], [ 5.793483421369379, 51.15707808384704 ], [ 5.793209964075038, 51.157272161170994 ], [ 5.792324032158701, 51.156949326871612 ], [ 5.792001788476588, 51.157028533630957 ], [ 5.790820847374145, 51.156341968744684 ], [ 5.790551650953405, 51.156003150885084 ], [ 5.789174662970048, 51.155571167321384 ], [ 5.788944790808324, 51.155345229639558 ], [ 5.787523210383577, 51.155102162894536 ], [ 5.78655679556486, 51.1546520087159 ], [ 5.785118949559497, 51.153013743288639 ], [ 5.783902415822572, 51.152780156402983 ], [ 5.783732633794719, 51.152545155742374 ], [ 5.783399172666872, 51.152590247580264 ], [ 5.783167430683005, 51.152349459578808 ], [ 5.781796101691314, 51.15194105748391 ], [ 5.78134361042256, 51.15197258357987 ], [ 5.779392224622433, 51.151547660156943 ], [ 5.778956294468727, 51.151607329679436 ], [ 5.778606483901909, 51.151375466986615 ], [ 5.77760130648404, 51.151214480469889 ], [ 5.776594314850461, 51.154304607740947 ], [ 5.77465987045683, 51.154694047335845 ], [ 5.776994213166673, 51.157373210588773 ], [ 5.776392706284721, 51.157625636156091 ], [ 5.776376672338714, 51.157778563692503 ], [ 5.77743925963202, 51.15851266079499 ], [ 5.779388043256674, 51.159451142265034 ], [ 5.779471298339126, 51.16076141524151 ], [ 5.779308895019745, 51.16321440224808 ], [ 5.778490335497916, 51.163197696522936 ], [ 5.777829845042757, 51.162440908807319 ], [ 5.77682208402853, 51.162830982684916 ], [ 5.775908281172034, 51.162966674600192 ], [ 5.776091565757262, 51.163330629453277 ], [ 5.776671188603725, 51.163303772589103 ], [ 5.776284375066743, 51.165228414929949 ], [ 5.774151968846486, 51.165193595109287 ], [ 5.774557855613039, 51.163958572348427 ], [ 5.774473211360458, 51.163837446641516 ], [ 5.773015213849453, 51.16439680637076 ], [ 5.770133667749501, 51.164140257900527 ], [ 5.769464956979284, 51.169082007065064 ], [ 5.769602142159248, 51.169458201330293 ], [ 5.770417013359975, 51.17011166269593 ], [ 5.771387515329741, 51.170170111001525 ], [ 5.772041313160591, 51.169585197754415 ], [ 5.772573117350236, 51.169601545494551 ], [ 5.772625962085087, 51.169809932595378 ], [ 5.772913710697294, 51.169962936062184 ], [ 5.775723748489192, 51.170644225922004 ], [ 5.777005292952386, 51.170648360366755 ], [ 5.779561331462148, 51.171832839055121 ], [ 5.7793257225629, 51.172069543614327 ], [ 5.773844744455098, 51.172595046331004 ], [ 5.773560035135438, 51.172680850989138 ], [ 5.773253344147951, 51.173115795281113 ], [ 5.772862327290989, 51.173325738340054 ], [ 5.77422444423326, 51.174781826517197 ], [ 5.775310189061862, 51.176529706880814 ], [ 5.775239698458686, 51.17672082079708 ], [ 5.776577452186422, 51.178453838019891 ], [ 5.767129943016784, 51.183593849275411 ], [ 5.763775033362628, 51.183962962514755 ], [ 5.761950705116135, 51.183948551388767 ], [ 5.755936987143245, 51.18436418748572 ], [ 5.755884633518358, 51.184522458166974 ], [ 5.756668125311952, 51.185340026072318 ], [ 5.753103611715392, 51.186006587561572 ], [ 5.753210205209122, 51.186316680644353 ], [ 5.749109108592759, 51.188554000768214 ], [ 5.748959783804852, 51.188474382631426 ], [ 5.745652642623862, 51.189392017883527 ], [ 5.74579991621377, 51.18955051272863 ], [ 5.745798348054572, 51.190472783288357 ], [ 5.746638442524969, 51.190517188627197 ], [ 5.746911181474701, 51.192338101365202 ], [ 5.747468022616238, 51.192412501661074 ], [ 5.746014878228796, 51.193601093941979 ], [ 5.745968377114306, 51.193826357731375 ], [ 5.746415014953209, 51.19403529207495 ], [ 5.752370640385039, 51.200536639873334 ], [ 5.75394423830051, 51.203553341401403 ], [ 5.753048037703712, 51.205139515255077 ], [ 5.7537992070604, 51.205538941571625 ], [ 5.753793330898614, 51.205704991338912 ], [ 5.755951024351103, 51.206797150133653 ], [ 5.755852592000831, 51.206929976873035 ], [ 5.753726768260881, 51.206695268191133 ], [ 5.753346700916604, 51.207562747800701 ], [ 5.753359648173289, 51.208040930197789 ], [ 5.751240169223932, 51.207462696072213 ], [ 5.750214195388278, 51.208041786782779 ], [ 5.749163083882213, 51.208213259116363 ], [ 5.750924081324917, 51.209631459800868 ], [ 5.750973519632812, 51.212120919412946 ], [ 5.75184967631046, 51.213542670488764 ], [ 5.756364975739586, 51.215855916251037 ], [ 5.757182573710982, 51.216092657059548 ], [ 5.761264622244743, 51.216350733068964 ], [ 5.764721473407818, 51.21571443994457 ], [ 5.76881764954266, 51.214726440651795 ], [ 5.772478714821005, 51.214893159693425 ], [ 5.774101913485094, 51.215353280824452 ], [ 5.774521555801538, 51.215682876923353 ], [ 5.774866265122985, 51.216272664408436 ], [ 5.77487221030971, 51.217966730446264 ], [ 5.775644720471778, 51.218771943654176 ], [ 5.77766735056012, 51.219605404149668 ], [ 5.780697857017212, 51.219577103263852 ], [ 5.781665875170252, 51.219935631784772 ], [ 5.782216638761835, 51.220496299203475 ], [ 5.78324062224748, 51.223069808594467 ], [ 5.789828067079924, 51.233840243221849 ], [ 5.789987120189767, 51.23456906082879 ], [ 5.789936789365624, 51.23538548198087 ], [ 5.792753778669818, 51.235396917281214 ], [ 5.796436102643897, 51.235179117454223 ], [ 5.796460043880336, 51.235721648420871 ], [ 5.795224337782763, 51.237140034281531 ], [ 5.796089904983893, 51.237582218202938 ], [ 5.797853728196277, 51.23727036221436 ], [ 5.80298521638123, 51.237773401722606 ], [ 5.803537049960741, 51.237926384433358 ], [ 5.808352387719824, 51.240366056924167 ], [ 5.81094573956843, 51.240597771536834 ], [ 5.812136568762748, 51.240943802902329 ], [ 5.814734836556328, 51.241108971786062 ], [ 5.817483303358081, 51.241868374930071 ], [ 5.822701764947526, 51.241416807329557 ], [ 5.825099265181525, 51.241444526313138 ], [ 5.828770753174166, 51.240891074814343 ], [ 5.834908065254078, 51.24114450095999 ], [ 5.835825313883455, 51.241416954459979 ], [ 5.837841984574615, 51.242926040009245 ], [ 5.839264373618057, 51.244427346061109 ], [ 5.839747188904138, 51.244649843331253 ], [ 5.842354255148392, 51.244589983951585 ], [ 5.845780819671028, 51.245465067408546 ], [ 5.849297722083555, 51.245297036802825 ], [ 5.850051369653435, 51.245064273589399 ], [ 5.852011773740254, 51.243383120248069 ], [ 5.853427584506059, 51.244362440970043 ], [ 5.853456736041765, 51.244763249555255 ], [ 5.855010247958347, 51.247866540999617 ], [ 5.854729745657461, 51.248842275544995 ], [ 5.855467423824116, 51.248984843165829 ], [ 5.855806078767248, 51.249969233619609 ], [ 5.855821745270836, 51.250724211790569 ], [ 5.855196415014352, 51.252267080616676 ], [ 5.85507589847688, 51.253713082499914 ], [ 5.854158036172329, 51.254404791137588 ], [ 5.849883616677406, 51.256717208503872 ], [ 5.849273055333218, 51.256695315174056 ], [ 5.846913000037219, 51.255638095424544 ], [ 5.845339799512882, 51.257611823881014 ], [ 5.845045665860445, 51.258415030343762 ], [ 5.842431072721999, 51.262490715555636 ], [ 5.833969385918791, 51.274877092667992 ], [ 5.839490213523157, 51.277650985061641 ], [ 5.838027570799531, 51.279684428764348 ], [ 5.840659087690021, 51.282354121941218 ], [ 5.841405367480714, 51.282438452383467 ], [ 5.850739935898784, 51.291487829454361 ], [ 5.855392192278781, 51.300482441933084 ], [ 5.85548933073388, 51.300759344302612 ], [ 5.855273141097713, 51.300855897913571 ], [ 5.855769691945251, 51.301748546659745 ], [ 5.856141288815797, 51.301877899662749 ], [ 5.860796025636665, 51.310723380090373 ], [ 5.877855398636338, 51.316482962727704 ], [ 5.877840977120566, 51.316676132601735 ] ], [ [ 6.125854110371651, 51.145014813684298 ], [ 6.125827859827743, 51.14499309474764 ], [ 6.125930047282849, 51.145004220881702 ], [ 6.125854110371651, 51.145014813684298 ] ], [ [ 6.092212615743033, 51.170528985248289 ], [ 6.092213724481205, 51.170518776794701 ], [ 6.092243856830428, 51.170510093542127 ], [ 6.092212615743033, 51.170528985248289 ] ], [ [ 6.15548828469854, 51.14831596142065 ], [ 6.15540461804159, 51.14834558487896 ], [ 6.155371698818072, 51.148301258081162 ], [ 6.155495903668592, 51.148304320905204 ], [ 6.15548828469854, 51.14831596142065 ] ], [ [ 6.124646945554163, 51.144485964500454 ], [ 6.124635225981898, 51.144591826954148 ], [ 6.124481627397464, 51.144584740877164 ], [ 6.124572360529656, 51.144567080540348 ], [ 6.124646945554163, 51.144485964500454 ] ], [ [ 6.124370747094601, 51.144596270367906 ], [ 6.124366391329883, 51.144591392563967 ], [ 6.124389840573315, 51.144590039020528 ], [ 6.124370747094601, 51.144596270367906 ] ] ] } }
]
}
