{
"type": "FeatureCollection",
"name": "SWVPO2707",
"crs": { "type": "name", "properties": { "name": "urn:ogc:def:crs:OGC:1.3:CRS84" } },
"features": [
{ "type": "Feature", "properties": { "PO SWV": "PO2707", "strokeColor": "#A9A9A9", "strokeWidth": 2, "fillColor": "#ADD8E6" }, "geometry": { "type": "MultiPolygon", "coordinates": [ [ [ [ 4.7325415099651, 52.411793001113892 ], [ 4.738403822290239, 52.428757727645383 ], [ 4.73837671683884, 52.429278438095238 ], [ 4.739211378467035, 52.431163776718336 ], [ 4.767115601604597, 52.427577795629389 ], [ 4.767550574696422, 52.428597295453152 ], [ 4.845299265664481, 52.418567380741955 ], [ 4.856046534497503, 52.416768833782257 ], [ 4.859416392440727, 52.41985504726464 ], [ 4.859767777390416, 52.42052937772322 ], [ 4.85963773111371, 52.421229025430669 ], [ 4.857813968447717, 52.42369162049927 ], [ 4.857711542612264, 52.424186059789164 ], [ 4.857859771581333, 52.424764958712103 ], [ 4.858321031590362, 52.425327988569634 ], [ 4.862380591293431, 52.428844338104753 ], [ 4.862638241571025, 52.429332936895882 ], [ 4.862608668407209, 52.430013901121228 ], [ 4.864992989296806, 52.430647085778901 ], [ 4.866695405987973, 52.430771575890866 ], [ 4.868769827571583, 52.430412670786495 ], [ 4.869701584681808, 52.429862966675643 ], [ 4.870747692215795, 52.430494382895766 ], [ 4.871297326388738, 52.43021570729276 ], [ 4.87288960442342, 52.428875152017397 ], [ 4.872889419817755, 52.428691436253231 ], [ 4.872399677001704, 52.428430807385546 ], [ 4.873455829683246, 52.427642838056023 ], [ 4.873662495217991, 52.427515981479239 ], [ 4.874248436557074, 52.427577188671442 ], [ 4.876394512396747, 52.426176013946439 ], [ 4.876595817357374, 52.426308938633788 ], [ 4.877973588898492, 52.425766077326706 ], [ 4.878968825268069, 52.425594576149663 ], [ 4.880063273104308, 52.425630656708165 ], [ 4.88147433017304, 52.425902799189245 ], [ 4.881476100841825, 52.426074204150808 ], [ 4.881808593267174, 52.426121886988582 ], [ 4.882460044629578, 52.425994961505367 ], [ 4.883008571256492, 52.425610805032434 ], [ 4.88775058510572, 52.425689901866775 ], [ 4.888447177128898, 52.424959701513245 ], [ 4.889252593971905, 52.425356862918051 ], [ 4.890023249389098, 52.425361869031043 ], [ 4.890041656857824, 52.42571698620381 ], [ 4.892464093571697, 52.425548776540786 ], [ 4.898429027844594, 52.424680867537376 ], [ 4.901915597038329, 52.423718471661637 ], [ 4.908121042427345, 52.421216783996613 ], [ 4.908108590288413, 52.42094435312103 ], [ 4.913943716662603, 52.418621831620946 ], [ 4.914571579996316, 52.418593836237477 ], [ 4.914702395848181, 52.418775093115912 ], [ 4.915714134519363, 52.418660926359713 ], [ 4.920478114272859, 52.416705730732765 ], [ 4.930427969757162, 52.412171317801281 ], [ 4.930747042432255, 52.411721629104854 ], [ 4.935124239181258, 52.412138159301321 ], [ 4.942545597076363, 52.413935783341714 ], [ 4.944019700254288, 52.414429624513851 ], [ 4.94488720798993, 52.415364700474562 ], [ 4.947712642344466, 52.421627313951319 ], [ 4.948499656994085, 52.421531370602281 ], [ 4.949703007636213, 52.422024965573726 ], [ 4.951424690758087, 52.422027290492856 ], [ 4.95153329054563, 52.422632701850233 ], [ 4.951275086746681, 52.423222285934642 ], [ 4.951932818305115, 52.423464941673267 ], [ 4.953273156937061, 52.42192607317093 ], [ 4.9558858575591, 52.422412421050048 ], [ 4.971733337093664, 52.423189954514143 ], [ 4.974207816182362, 52.423721977107249 ], [ 4.975938843174216, 52.424362149541274 ], [ 4.976171646184548, 52.424214363056343 ], [ 4.986312058661262, 52.428543634113026 ], [ 4.989885376905409, 52.425335157584882 ], [ 4.991064762148421, 52.424696970019411 ], [ 4.991154596942243, 52.425480642069552 ], [ 4.991306221866984, 52.425593665094475 ], [ 5.000200336850352, 52.425597884776955 ], [ 5.018206356558844, 52.419165450346568 ], [ 5.020262318170817, 52.419985068751643 ], [ 5.021085606108804, 52.421140372773685 ], [ 5.021599057898657, 52.421321348142598 ], [ 5.023582236723561, 52.420363486863451 ], [ 5.02694609070248, 52.420068076589978 ], [ 5.028405588914108, 52.419503998344211 ], [ 5.029062696142858, 52.418914324386805 ], [ 5.030040886808433, 52.417230623088443 ], [ 5.030160556290704, 52.415776827756453 ], [ 5.032457133584231, 52.416372431127236 ], [ 5.033416358084207, 52.416772038091622 ], [ 5.033984951405819, 52.417238714507945 ], [ 5.034341056944938, 52.417891162747452 ], [ 5.035011952410006, 52.418296673361333 ], [ 5.035471621547246, 52.418373951345217 ], [ 5.036894284572509, 52.41818675690066 ], [ 5.039407661731309, 52.417480575909501 ], [ 5.04261577533529, 52.41708143227504 ], [ 5.049186940145391, 52.415230478395976 ], [ 5.052503732200053, 52.415639412961511 ], [ 5.057745370692163, 52.416637151439602 ], [ 5.062550720859458, 52.416273464929148 ], [ 5.063644936395762, 52.416524866064485 ], [ 5.065407744089569, 52.417339332479017 ], [ 5.06831414613116, 52.416644340918047 ], [ 5.068530192199228, 52.415638398054298 ], [ 5.068390255785022, 52.415154938374442 ], [ 5.067952594150284, 52.414590231801782 ], [ 5.067581661977452, 52.413485668894893 ], [ 5.067280241489065, 52.413322677916305 ], [ 5.062496167692305, 52.414128958217276 ], [ 5.057631954416667, 52.414716390569403 ], [ 5.055480574414814, 52.414278575040029 ], [ 5.052249632396513, 52.413088917204632 ], [ 5.051181344371129, 52.412438635016599 ], [ 5.046304181441703, 52.406646449535323 ], [ 5.042802555499449, 52.405926560077233 ], [ 5.041254843603998, 52.405175139152874 ], [ 5.038404557233362, 52.404777528000089 ], [ 5.036160397258891, 52.403210038722271 ], [ 5.034014576037923, 52.402459017748278 ], [ 5.0327288175792, 52.401111238509955 ], [ 5.031582166796714, 52.40083687746904 ], [ 5.029631928708622, 52.398817317752851 ], [ 5.029151261369284, 52.397965328734763 ], [ 5.028547199885038, 52.396395414965617 ], [ 5.028624939252131, 52.395730749544441 ], [ 5.027987659055906, 52.395170449899425 ], [ 5.027503041057241, 52.393516836629324 ], [ 5.026686143321485, 52.392627861807235 ], [ 5.026376536958306, 52.39133866652567 ], [ 5.025432102766296, 52.389459952220136 ], [ 5.025300997269504, 52.388097500863502 ], [ 5.023362098992014, 52.387450844511939 ], [ 5.021653003546055, 52.387295483273164 ], [ 5.019301293636392, 52.386595887399821 ], [ 5.0189690343886, 52.386382440026395 ], [ 5.018115653547199, 52.384907439228698 ], [ 5.01717340228543, 52.384281301023073 ], [ 5.016156832449481, 52.384141170554045 ], [ 5.014136546182155, 52.38446313950891 ], [ 5.013017464847102, 52.384147800991109 ], [ 5.013240051188374, 52.38394946914601 ], [ 5.013120530425073, 52.383390970083084 ], [ 5.011853013602681, 52.383308435946056 ], [ 5.010951467723377, 52.383029887546641 ], [ 5.011286317737805, 52.382247547598993 ], [ 5.012751674189812, 52.38245471081396 ], [ 5.013035209621094, 52.382345910002677 ], [ 5.013647302898024, 52.381844282842778 ], [ 5.013508870761482, 52.381327811425621 ], [ 5.013881399674943, 52.380838378033097 ], [ 5.013662329745252, 52.37871092139558 ], [ 5.013334539497358, 52.378326200440327 ], [ 5.012869498220343, 52.378094186636893 ], [ 5.012503110408326, 52.377532842255853 ], [ 5.013066506363515, 52.377257107604336 ], [ 5.01312925789319, 52.3769791707252 ], [ 5.012478275059403, 52.376445956813548 ], [ 5.012316962539081, 52.376042407263121 ], [ 5.011785289812843, 52.375752839189445 ], [ 5.012195757920981, 52.374910532935978 ], [ 5.011854582075482, 52.374629519058544 ], [ 5.012043314476622, 52.374426120731179 ], [ 5.011701994376634, 52.374044770630306 ], [ 5.012927563076133, 52.373293050035691 ], [ 5.012844537202592, 52.373092143216375 ], [ 5.011900971411582, 52.373607292554858 ], [ 5.009572174858315, 52.372828832442366 ], [ 5.009198865023967, 52.372876702617489 ], [ 5.008343317173805, 52.372465217247715 ], [ 5.007712024993871, 52.372616223034548 ], [ 5.006503214321727, 52.373445282534121 ], [ 5.001723509481092, 52.374824742125973 ], [ 5.001245185904592, 52.375172858968767 ], [ 5.000727501953661, 52.37703245092785 ], [ 4.999830848909216, 52.378165381952272 ], [ 4.998592836678464, 52.378681798333453 ], [ 4.998153641832719, 52.378566084414786 ], [ 4.997759448150045, 52.378226671692296 ], [ 4.995968355583814, 52.378051922507801 ], [ 4.994715641338414, 52.377611613560987 ], [ 4.993924254146174, 52.377780314685005 ], [ 4.993568269811567, 52.378107839656465 ], [ 4.993651362127006, 52.378318226974486 ], [ 4.994275440846494, 52.378601233677784 ], [ 4.996534159626067, 52.379229958718483 ], [ 4.994480185722774, 52.378669714372769 ], [ 4.992786189905651, 52.378174763908021 ], [ 4.991459036662254, 52.37772152475727 ], [ 4.991803450019271, 52.377494494256567 ], [ 4.991791928539994, 52.377103573638557 ], [ 4.989734506830228, 52.377498757100398 ], [ 4.989393422180549, 52.377432595056909 ], [ 4.987909722127858, 52.376740043811814 ], [ 4.987497274078442, 52.376262917638414 ], [ 4.984587976757895, 52.37467972966212 ], [ 4.983792207234055, 52.373936036283993 ], [ 4.982360988145907, 52.373798995921533 ], [ 4.981670120744866, 52.373361751382539 ], [ 4.981055487478508, 52.373673972819269 ], [ 4.980248557487266, 52.373566624859968 ], [ 4.980045965592423, 52.373647785341994 ], [ 4.978433376201177, 52.37569151993204 ], [ 4.974143055471585, 52.379197014648831 ], [ 4.974476377063104, 52.374421554983975 ], [ 4.974141233251999, 52.372013472486906 ], [ 4.975008271807469, 52.371487925319357 ], [ 4.978001223345491, 52.369988732768519 ], [ 4.980134808010833, 52.369122943737558 ], [ 4.98236682776437, 52.368371179522477 ], [ 4.985771107348047, 52.367499041255101 ], [ 4.99072582638472, 52.366745539807937 ], [ 4.994079937301254, 52.366540836199782 ], [ 4.997254048436364, 52.366568981354618 ], [ 4.99742541101921, 52.366427300497058 ], [ 4.997294726923923, 52.366258433407623 ], [ 4.994045961693756, 52.366223934863953 ], [ 4.98933662897419, 52.366608819452537 ], [ 4.983647513867155, 52.367694850233597 ], [ 4.979660527553534, 52.368956874013655 ], [ 4.97863829681157, 52.368617727830866 ], [ 4.973992943681676, 52.368571866616428 ], [ 4.973671114454822, 52.368452353404095 ], [ 4.973395838007054, 52.367968571043718 ], [ 4.973379014813153, 52.367614902088029 ], [ 4.975891482740841, 52.366154039508473 ], [ 4.976084934077332, 52.365646871796692 ], [ 4.97774403778341, 52.364763906117112 ], [ 4.978628252700581, 52.364635986998024 ], [ 4.980917189374727, 52.363405687523766 ], [ 4.983445593530719, 52.364452180194171 ], [ 4.983479802991747, 52.364820191656591 ], [ 4.983895678356132, 52.364848191195264 ], [ 4.983983523761723, 52.364672844494557 ], [ 4.984449222628172, 52.364863877728183 ], [ 4.9841275814791, 52.365242865840209 ], [ 4.984683272022705, 52.36577257113187 ], [ 4.989750104651129, 52.364261934287946 ], [ 4.990822851285244, 52.363859834794283 ], [ 4.990864847358024, 52.363723830845736 ], [ 4.990633506882957, 52.363551071722661 ], [ 4.990244437429194, 52.363679311218888 ], [ 4.989258435041796, 52.362980721049574 ], [ 4.989496038542644, 52.362700127764157 ], [ 4.986672802371115, 52.360720648282779 ], [ 4.985812085338875, 52.361120907408747 ], [ 4.985571896256394, 52.360937533772329 ], [ 4.986348529375961, 52.36052153189403 ], [ 4.986296596711809, 52.360264264952512 ], [ 4.986949658249509, 52.359916694797718 ], [ 4.987391975118043, 52.36006520579523 ], [ 4.987705392457913, 52.359897518623896 ], [ 4.992108265918879, 52.361753188490269 ], [ 4.996575838585239, 52.359780420339632 ], [ 5.00572866638205, 52.354912203220223 ], [ 5.006166422387746, 52.355152837069404 ], [ 5.006676838815049, 52.354863927284789 ], [ 5.006425958085033, 52.354568148340881 ], [ 5.007890597850494, 52.353768850897062 ], [ 5.009267043409254, 52.353322804986071 ], [ 5.011060333151793, 52.353773051850233 ], [ 5.015953317526681, 52.355411951098503 ], [ 5.020267870125851, 52.356486901307477 ], [ 5.020454703827091, 52.356400880767197 ], [ 5.02132518853855, 52.354823899105575 ], [ 5.021446041464674, 52.35430188735814 ], [ 5.021322011076378, 52.354023137261478 ], [ 5.018115181062073, 52.353765692339593 ], [ 5.01744286202488, 52.35394697220184 ], [ 5.016981852688367, 52.353890124621735 ], [ 5.016514836051538, 52.353564651225334 ], [ 5.019027698629766, 52.350929956569708 ], [ 5.019263684972169, 52.350411394437877 ], [ 5.018814149083642, 52.349868245476152 ], [ 5.015237933922714, 52.348702326568322 ], [ 5.01561289464647, 52.347965870121385 ], [ 5.015352932446913, 52.347719840662194 ], [ 5.016755366202395, 52.34604408882408 ], [ 5.019027828959788, 52.34797558406261 ], [ 5.023878023753791, 52.34814201771465 ], [ 5.027006641066411, 52.348885677850028 ], [ 5.027566231089396, 52.348763248082555 ], [ 5.028789164092635, 52.347795126608311 ], [ 5.030922849231791, 52.346553484104831 ], [ 5.035327359910945, 52.345512539827169 ], [ 5.03502081522489, 52.344595112691181 ], [ 5.035131160829418, 52.344168323507198 ], [ 5.034197612035263, 52.340604700720505 ], [ 5.028037018771382, 52.338904476371738 ], [ 5.028103721965467, 52.338513037747227 ], [ 5.026258970154872, 52.337987192313719 ], [ 5.025576098623078, 52.337584258946251 ], [ 5.026292246587832, 52.337605570450251 ], [ 5.027401691354395, 52.337931954046404 ], [ 5.027564802357189, 52.337833346162292 ], [ 5.023617708361766, 52.336602887583382 ], [ 5.018413427188559, 52.33416153201604 ], [ 5.01605829593113, 52.332720159991851 ], [ 5.01517614716778, 52.332691305189812 ], [ 5.0143048092198, 52.331455937963362 ], [ 5.012714497077244, 52.330268273707979 ], [ 5.012929869824029, 52.329833319954588 ], [ 5.012674544245127, 52.329506962354721 ], [ 5.009431112500074, 52.327842023829547 ], [ 5.011025986565955, 52.3271718151803 ], [ 5.011725758190123, 52.327058084713627 ], [ 5.014732859025647, 52.327231250122033 ], [ 5.015533349000977, 52.325494474206806 ], [ 5.018326196895952, 52.324311192945245 ], [ 5.018384689635822, 52.32337746679525 ], [ 5.017833673913468, 52.323205181215755 ], [ 5.017954500278855, 52.321971111064101 ], [ 5.021455165814183, 52.302358309801811 ], [ 5.017823269298016, 52.302563746964431 ], [ 5.016660985329609, 52.302783844629374 ], [ 5.014323142550147, 52.303556918228701 ], [ 5.012566853621101, 52.303467727558491 ], [ 5.011660447608138, 52.303244059305413 ], [ 5.009976239082514, 52.302012843717385 ], [ 5.00794754536116, 52.30143740745887 ], [ 5.007619546854137, 52.300801701176923 ], [ 5.005315498355607, 52.298306641419288 ], [ 5.00390037799545, 52.29840362168391 ], [ 5.003333356610073, 52.297375147788941 ], [ 5.003309289917572, 52.296008163434685 ], [ 5.001951321285972, 52.295796614388202 ], [ 5.001873579236769, 52.292739013125122 ], [ 4.998875232437618, 52.290160055693953 ], [ 4.998610438554462, 52.29013370401178 ], [ 4.998523847675998, 52.289768962984823 ], [ 4.997521021187076, 52.289029385525055 ], [ 4.9904495590238, 52.289503718409691 ], [ 4.983550512964401, 52.290262274142307 ], [ 4.982938845393059, 52.28955522538034 ], [ 4.975187923624382, 52.286250490193382 ], [ 4.969800293317127, 52.283042518674435 ], [ 4.969466206564039, 52.281741449170639 ], [ 4.968829960031274, 52.280661893467716 ], [ 4.96772233916348, 52.279494575616454 ], [ 4.966462297273614, 52.279989108862956 ], [ 4.96623197530435, 52.280308351110897 ], [ 4.966156919490731, 52.28084884367609 ], [ 4.965710809284763, 52.280463205912611 ], [ 4.965239010001556, 52.280331610344014 ], [ 4.962403353212454, 52.280163142745856 ], [ 4.962165610700646, 52.27998936939828 ], [ 4.961421360519366, 52.278472854176663 ], [ 4.961058074186796, 52.2780743005898 ], [ 4.958652468843032, 52.278243639674379 ], [ 4.957141387742271, 52.278571016836885 ], [ 4.955261482274079, 52.278207127188956 ], [ 4.955324421244271, 52.278359322320647 ], [ 4.953931474055616, 52.280112144366647 ], [ 4.952534671886771, 52.280093321723008 ], [ 4.950890813497036, 52.282644965826336 ], [ 4.950913947773516, 52.283171212554635 ], [ 4.94867140280961, 52.285841132652479 ], [ 4.948088244328934, 52.286093738349756 ], [ 4.948367877416033, 52.286634827242828 ], [ 4.94655177574031, 52.288553650125358 ], [ 4.938795833329653, 52.297611188005632 ], [ 4.938489150750935, 52.297591119077019 ], [ 4.937295359183996, 52.29898109004079 ], [ 4.937465108770978, 52.299127823917381 ], [ 4.937217273396817, 52.299535668034977 ], [ 4.935012157190292, 52.302033737441093 ], [ 4.933293376707833, 52.303618748944864 ], [ 4.932787974104968, 52.304337052357475 ], [ 4.930564580766903, 52.306232428508203 ], [ 4.928440688736705, 52.308686187825082 ], [ 4.929973273969034, 52.30932125837893 ], [ 4.930021224057129, 52.309506850086308 ], [ 4.932156996139074, 52.310468694867645 ], [ 4.934028684888185, 52.311609400653374 ], [ 4.936156122824611, 52.312390469192266 ], [ 4.936303563561167, 52.312658999777732 ], [ 4.935623487945723, 52.31340297339672 ], [ 4.93759091486222, 52.314096390007691 ], [ 4.937610365103598, 52.314289084539105 ], [ 4.937934550226825, 52.314247381459076 ], [ 4.939062721981198, 52.31461749267217 ], [ 4.938989053312807, 52.315799888558388 ], [ 4.938519935256886, 52.316403835242689 ], [ 4.938286185640858, 52.31647021554766 ], [ 4.939889643037252, 52.317039050552054 ], [ 4.940406576243445, 52.318180028544838 ], [ 4.940986030714753, 52.317868386111179 ], [ 4.941215220068906, 52.317551927010562 ], [ 4.941594536875765, 52.317646421867067 ], [ 4.941932562236412, 52.317343338704973 ], [ 4.942663121309598, 52.317591035909864 ], [ 4.941715887625413, 52.318588433047935 ], [ 4.941190293785736, 52.318443418995479 ], [ 4.940400518194394, 52.319368539692121 ], [ 4.940715291475845, 52.319482011286894 ], [ 4.940734715214693, 52.319624435410809 ], [ 4.937760780396226, 52.322704540202977 ], [ 4.939093546290467, 52.324095084036372 ], [ 4.939062832923107, 52.324253397047158 ], [ 4.941168444842536, 52.325217492139622 ], [ 4.945563808884841, 52.326738915482366 ], [ 4.94512732939315, 52.327339636969214 ], [ 4.94474545861014, 52.327245479607939 ], [ 4.942873451962478, 52.329287086186419 ], [ 4.948526690026779, 52.331229119476589 ], [ 4.948423275702975, 52.331531609001885 ], [ 4.9494646377683, 52.331882804231057 ], [ 4.949455477551769, 52.332199110965341 ], [ 4.948465432027287, 52.333198303107764 ], [ 4.946880535773587, 52.334229827129839 ], [ 4.948358760072916, 52.335214312533154 ], [ 4.949302245128832, 52.336218262519814 ], [ 4.949473999031054, 52.336616839290429 ], [ 4.950266761105407, 52.337291292301799 ], [ 4.950712458188395, 52.337945616570074 ], [ 4.950374768831903, 52.33872359288435 ], [ 4.943664197456771, 52.336794771978468 ], [ 4.94281186448777, 52.336649955561356 ], [ 4.942219699335507, 52.336958604417539 ], [ 4.941612455603888, 52.336948446623971 ], [ 4.941118731870837, 52.336622467719245 ], [ 4.941619668500413, 52.336376412509637 ], [ 4.941607366745314, 52.335638211880422 ], [ 4.939508666141468, 52.335691157316198 ], [ 4.936539707426825, 52.334707030194153 ], [ 4.935642743164613, 52.335612128352459 ], [ 4.933856552232527, 52.335573540809214 ], [ 4.928316287553426, 52.336685030599789 ], [ 4.927234986737937, 52.336325761516946 ], [ 4.926696467247318, 52.33603240638665 ], [ 4.926765508642736, 52.335821335762844 ], [ 4.92575843013691, 52.335473314183375 ], [ 4.924429590177287, 52.335509577042821 ], [ 4.923304658389346, 52.336879446224543 ], [ 4.922877479499594, 52.336845833132045 ], [ 4.922831716407106, 52.336710007126236 ], [ 4.923342966733327, 52.335889146328071 ], [ 4.923388504257201, 52.335254244344277 ], [ 4.92282132936622, 52.334136519881554 ], [ 4.922818030003125, 52.333695139806004 ], [ 4.922361672068913, 52.333280373088712 ], [ 4.922381568186768, 52.333128502452432 ], [ 4.916874727736754, 52.331460471607677 ], [ 4.912902273842896, 52.330605973593542 ], [ 4.912865633707533, 52.33028914424542 ], [ 4.912611107257373, 52.330179393163135 ], [ 4.912714806614696, 52.329510488251955 ], [ 4.911441676110978, 52.32926558160824 ], [ 4.911877556600526, 52.328872949156668 ], [ 4.912861079709244, 52.326437016855074 ], [ 4.913518234812491, 52.326151611824976 ], [ 4.913766478188178, 52.324633428233675 ], [ 4.911264668547241, 52.324259515410738 ], [ 4.910267601685988, 52.32364089503038 ], [ 4.910268773238517, 52.323490684142122 ], [ 4.911233488135069, 52.322870164901062 ], [ 4.910633983758107, 52.321888543953882 ], [ 4.914114529370154, 52.320368457593972 ], [ 4.912331684739304, 52.318348504192386 ], [ 4.90922145208688, 52.318354225671634 ], [ 4.909116278007789, 52.318901234241288 ], [ 4.907878575714947, 52.319597334507705 ], [ 4.904736711851958, 52.32048811921954 ], [ 4.902559864249519, 52.321420497806294 ], [ 4.901606339057985, 52.321628072723186 ], [ 4.898295886501624, 52.321743016039527 ], [ 4.89718273754372, 52.321990725574459 ], [ 4.896300525811794, 52.322519463911149 ], [ 4.858583430613498, 52.321852304543185 ], [ 4.85748381072526, 52.321750082523337 ], [ 4.857374502591509, 52.321524561129586 ], [ 4.856849492867756, 52.321515024103022 ], [ 4.856582319300628, 52.321757302485942 ], [ 4.856588887044712, 52.322584496251196 ], [ 4.856450566109715, 52.322666223359029 ], [ 4.856614447742168, 52.329123815624428 ], [ 4.856268734103456, 52.330336366531675 ], [ 4.855926406718709, 52.330417796140424 ], [ 4.848000280277264, 52.330669700299019 ], [ 4.847539250148787, 52.330144267114612 ], [ 4.845249209666987, 52.329784895691219 ], [ 4.843941623361867, 52.330316596404465 ], [ 4.840497281106665, 52.329687007190131 ], [ 4.839427710449034, 52.32923299529849 ], [ 4.839529534827674, 52.327652677136719 ], [ 4.839309420230432, 52.327449958401751 ], [ 4.82516664872385, 52.325830718258416 ], [ 4.820078517291916, 52.325857876561599 ], [ 4.820055858857687, 52.325592906655672 ], [ 4.820378414434725, 52.325103807352264 ], [ 4.821460668887502, 52.324464587979726 ], [ 4.819744106556367, 52.324259663967048 ], [ 4.819369382774522, 52.325073409302433 ], [ 4.819380813198635, 52.325643702122704 ], [ 4.818477365345025, 52.325657683436283 ], [ 4.817184432587454, 52.327003342614567 ], [ 4.816779384537768, 52.32688142370219 ], [ 4.814359835590315, 52.328127636465915 ], [ 4.814468606539321, 52.328405301693422 ], [ 4.810118384574115, 52.33020924516812 ], [ 4.809833835096334, 52.330016354026959 ], [ 4.797536376329705, 52.335155270417992 ], [ 4.792246509182476, 52.340269754331736 ], [ 4.790959740392129, 52.341395613612868 ], [ 4.790319212458494, 52.341753994066941 ], [ 4.779360179658379, 52.346241185499302 ], [ 4.779441785274551, 52.346509964092 ], [ 4.77177817265116, 52.349650939303999 ], [ 4.771467417428024, 52.349756382434528 ], [ 4.77122870719247, 52.349550641666148 ], [ 4.768771351349296, 52.350519996897994 ], [ 4.768858785480114, 52.350799798602182 ], [ 4.764555619771903, 52.352490531343506 ], [ 4.764271622020479, 52.352288068160476 ], [ 4.756859666378888, 52.355220648851258 ], [ 4.755294743149087, 52.35621264743569 ], [ 4.754739369675554, 52.356953660848006 ], [ 4.754530577278279, 52.357842862294703 ], [ 4.754580123421569, 52.358289024069684 ], [ 4.754626016235177, 52.358458008800817 ], [ 4.755039307866543, 52.358494274689448 ], [ 4.758674624985244, 52.371590887563045 ], [ 4.758689161454002, 52.37227791782005 ], [ 4.758266642341477, 52.372337837228592 ], [ 4.758127602940024, 52.373794851753544 ], [ 4.757324114406744, 52.37595627638602 ], [ 4.757665587981701, 52.376133125880635 ], [ 4.75660516889059, 52.37770494883577 ], [ 4.756805067119271, 52.377788795610165 ], [ 4.756754134118566, 52.377950600083892 ], [ 4.757213043332659, 52.37807053595408 ], [ 4.759023060996596, 52.379379153595032 ], [ 4.758979301866503, 52.3809567101667 ], [ 4.759383439247618, 52.381102634079127 ], [ 4.758959026408467, 52.381450065199019 ], [ 4.758843434631528, 52.384411963588505 ], [ 4.758222376833602, 52.387808807092256 ], [ 4.753997115988936, 52.388569096881454 ], [ 4.754054952728429, 52.388863615498906 ], [ 4.753904003847424, 52.38904194588509 ], [ 4.754041913851, 52.389472709116724 ], [ 4.754659141989324, 52.389468499967421 ], [ 4.755312783287027, 52.391334576770213 ], [ 4.753453411164403, 52.39159719078571 ], [ 4.752521457751639, 52.391981345893555 ], [ 4.753063601211585, 52.392573714103179 ], [ 4.753290147064166, 52.392550084069093 ], [ 4.754825436733202, 52.393319672325489 ], [ 4.755995968538134, 52.393590087574104 ], [ 4.757906848577384, 52.393610913732509 ], [ 4.757760055636109, 52.396558158203014 ], [ 4.757423289259278, 52.396796111396469 ], [ 4.755922323261798, 52.397107198962615 ], [ 4.72870842281375, 52.400625039676733 ], [ 4.7325415099651, 52.411793001113892 ] ], [ [ 5.027196571828227, 52.338683346705501 ], [ 5.027160961789723, 52.338673298749804 ], [ 5.02743895528112, 52.33874712098855 ], [ 5.027196571828227, 52.338683346705501 ] ], [ [ 5.026154630331404, 52.338406385836556 ], [ 5.02605911394742, 52.338386850480724 ], [ 5.026040314768201, 52.3383757018795 ], [ 5.02617786117219, 52.338412229068297 ], [ 5.026154630331404, 52.338406385836556 ] ], [ [ 4.997937621821436, 52.379588050164564 ], [ 4.998162325229653, 52.379494656390108 ], [ 4.998344833389699, 52.379546160410143 ], [ 4.998301553349752, 52.37966319518825 ], [ 4.997937621821436, 52.379588050164564 ] ], [ [ 5.034853849907606, 52.344691586840959 ], [ 5.035003030836698, 52.345409983878071 ], [ 5.031709325326148, 52.346127573468934 ], [ 5.034152007337461, 52.344884521698312 ], [ 5.034853849907606, 52.344691586840959 ] ], [ [ 5.034001285451716, 52.344745962274196 ], [ 5.03370281923555, 52.344798014246052 ], [ 5.033404444224167, 52.344554030097889 ], [ 5.032834519139454, 52.344426214239014 ], [ 5.032062083802286, 52.344531406720328 ], [ 5.031710064501961, 52.344426132965516 ], [ 5.031272663449178, 52.343634496575106 ], [ 5.031561989981469, 52.343372841987104 ], [ 5.033215674250239, 52.343878872320175 ], [ 5.033279440548851, 52.344339848420866 ], [ 5.034084947479083, 52.344627298463962 ], [ 5.034001285451716, 52.344745962274196 ] ] ], [ [ [ 5.012420211127407, 52.372383931765576 ], [ 5.012905277713508, 52.373070264910595 ], [ 5.013224952274038, 52.37318827972306 ], [ 5.014519515339531, 52.37312704300971 ], [ 5.014799916941246, 52.372731536249702 ], [ 5.01458815125527, 52.371918618664097 ], [ 5.013990558461855, 52.371533896220143 ], [ 5.013143422188631, 52.371596023662697 ], [ 5.012420211127407, 52.372383931765576 ] ] ] ] } }
]
}
