{
"type": "FeatureCollection",
"name": "SWVVO2001",
"crs": { "type": "name", "properties": { "name": "urn:ogc:def:crs:OGC:1.3:CRS84" } },
"features": [
{ "type": "Feature", "properties": { "VO SWV": "VO2001", "strokeColor": "#A9A9A9", "strokeWidth": 2, "fillColor": "#ADD8E6" }, "geometry": { "type": "Polygon", "coordinates": [ [ [ 6.463332445568702, 53.20039347278901 ], [ 6.464199027954616, 53.200605317643785 ], [ 6.463931634866883, 53.200817202652601 ], [ 6.464047918119318, 53.200865623014337 ], [ 6.464058447502683, 53.20090993157195 ], [ 6.463551168524186, 53.202283960989675 ], [ 6.463493731032091, 53.202405047759662 ], [ 6.464243228039483, 53.202871994741699 ], [ 6.464539205230156, 53.203029429408026 ], [ 6.465894437034763, 53.203963252657722 ], [ 6.466169028500622, 53.204128224789962 ], [ 6.466252464555579, 53.204163732948075 ], [ 6.466899291700503, 53.204302784822012 ], [ 6.466811578183963, 53.204570197325125 ], [ 6.466890235551555, 53.204695302807984 ], [ 6.466909321689827, 53.205126428265402 ], [ 6.467057368086352, 53.205522537181395 ], [ 6.467076942335884, 53.205626346259564 ], [ 6.467003516698916, 53.206170481628597 ], [ 6.466974017074085, 53.206201672071757 ], [ 6.466841096160335, 53.206270841500121 ], [ 6.466474200437712, 53.206423619861631 ], [ 6.466249313371883, 53.206547549038554 ], [ 6.465940531195282, 53.206681284632737 ], [ 6.465205371331924, 53.207122474870964 ], [ 6.464746938384565, 53.207378636012528 ], [ 6.464551197622675, 53.207611741410766 ], [ 6.464473619375482, 53.207614320484936 ], [ 6.464581706912112, 53.207638225170882 ], [ 6.464584070405737, 53.207699406369805 ], [ 6.464680681342078, 53.207699852827282 ], [ 6.464694093732447, 53.207961636257316 ], [ 6.464911196580344, 53.208551712537776 ], [ 6.465289416036335, 53.209430895200043 ], [ 6.466944178636645, 53.213545842150168 ], [ 6.467229240779386, 53.214036964350782 ], [ 6.467303103978818, 53.214373902363967 ], [ 6.467350889671043, 53.214507740305123 ], [ 6.468441629929767, 53.21740837461067 ], [ 6.468546586680366, 53.217634512399442 ], [ 6.468787245503687, 53.218037743549452 ], [ 6.469257512876727, 53.219237060401589 ], [ 6.469956223848317, 53.220924196096021 ], [ 6.472311466684153, 53.226914988550412 ], [ 6.473446468291135, 53.229669543068646 ], [ 6.47361868969565, 53.22997557601051 ], [ 6.474005317969667, 53.230387929180196 ], [ 6.474352518266367, 53.230827453647876 ], [ 6.474189544618705, 53.230909910791276 ], [ 6.474065481552079, 53.230994614707605 ], [ 6.473919118675519, 53.231106856714995 ], [ 6.473875733882829, 53.231157698774375 ], [ 6.473812519309143, 53.231261714230143 ], [ 6.473784505769976, 53.231360165318343 ], [ 6.473785680162052, 53.231520916869087 ], [ 6.473804355941299, 53.231622112600817 ], [ 6.473929245445096, 53.231824644393406 ], [ 6.474413570497945, 53.232291228094788 ], [ 6.474641601791051, 53.232563083156371 ], [ 6.474979921873433, 53.233071178095813 ], [ 6.475151152662876, 53.233383625057186 ], [ 6.475923592162826, 53.23502351333989 ], [ 6.476495156937319, 53.236153790139113 ], [ 6.477527611646819, 53.238321631844492 ], [ 6.478023006904251, 53.239439480578163 ], [ 6.478130162849293, 53.239735050828024 ], [ 6.478367841943159, 53.240750825815667 ], [ 6.478459910964166, 53.241007124921609 ], [ 6.478585645228491, 53.241219071479215 ], [ 6.479034833367675, 53.24183216547187 ], [ 6.47924674058553, 53.242210693512668 ], [ 6.47967054149892, 53.243239381245118 ], [ 6.480102604469703, 53.24413739053967 ], [ 6.480194960892961, 53.244360555699849 ], [ 6.480399689237443, 53.244983015105376 ], [ 6.480021351321679, 53.245024342662944 ], [ 6.480053517541456, 53.245162690391076 ], [ 6.480076141718719, 53.245467470912409 ], [ 6.480095848929511, 53.245564375629705 ], [ 6.480474768026592, 53.245507375236883 ], [ 6.480537128709121, 53.246131028852282 ], [ 6.48052411638262, 53.246276426071589 ], [ 6.480447595089761, 53.246557618529231 ], [ 6.480426516718936, 53.247067877691315 ], [ 6.480431287901726, 53.247329662276584 ], [ 6.480728219936475, 53.248934609908133 ], [ 6.480920743486959, 53.250185286869815 ], [ 6.488601658675198, 53.249016352605544 ], [ 6.488321074920513, 53.248759359821506 ], [ 6.488259574551965, 53.248675198279535 ], [ 6.488225299960822, 53.24859575547152 ], [ 6.488261080929262, 53.248350501069083 ], [ 6.488366599188909, 53.248005126826513 ], [ 6.488725392557851, 53.247231686730927 ], [ 6.490427496206775, 53.24732092078284 ], [ 6.49038959826432, 53.247022983228 ], [ 6.490425588337363, 53.246980362579905 ], [ 6.492435754916841, 53.246674689480301 ], [ 6.492310214864347, 53.246421206698969 ], [ 6.49238641574206, 53.246360096995694 ], [ 6.491986984996672, 53.245555102321703 ], [ 6.49358998027882, 53.245864028286363 ], [ 6.493682441073604, 53.245868556782618 ], [ 6.49396914711052, 53.245862616283233 ], [ 6.494181654504267, 53.245823247401361 ], [ 6.494404076377481, 53.245728203315579 ], [ 6.49467637086602, 53.245561873035335 ], [ 6.495986900063375, 53.245611367078325 ], [ 6.495846670437909, 53.245823046756819 ], [ 6.497040161302595, 53.246766486096512 ], [ 6.498028811761448, 53.24750882671276 ], [ 6.498060173798073, 53.247576850069663 ], [ 6.499236330322598, 53.248383265562879 ], [ 6.502151380789669, 53.247706332849972 ], [ 6.50263624727359, 53.247501221109609 ], [ 6.50385056634811, 53.248285442773316 ], [ 6.504490215155824, 53.248661887337363 ], [ 6.504938691041826, 53.248906001368695 ], [ 6.50464995037953, 53.249087228692943 ], [ 6.504886888776635, 53.249273504812237 ], [ 6.506187263696726, 53.250563693817909 ], [ 6.508140661273852, 53.251865932871375 ], [ 6.509111008904606, 53.252418004238422 ], [ 6.509005703256279, 53.253074421871958 ], [ 6.509558444811692, 53.252778091929606 ], [ 6.510448590756138, 53.253373581931228 ], [ 6.511441308254515, 53.254113400303481 ], [ 6.510639707602794, 53.254584764664422 ], [ 6.509186376148912, 53.255376812783332 ], [ 6.508866471373413, 53.255581804903073 ], [ 6.508749738088802, 53.255674387418544 ], [ 6.508570975632864, 53.255855392581452 ], [ 6.508381166095567, 53.256092262298516 ], [ 6.508253760581021, 53.256555575658787 ], [ 6.508240359214191, 53.25757405053448 ], [ 6.510825382093927, 53.256787903020161 ], [ 6.512224250708056, 53.257231803675609 ], [ 6.512803154065, 53.257344191931161 ], [ 6.513370419190172, 53.25742973550296 ], [ 6.513383212729686, 53.257409670399475 ], [ 6.514399899901032, 53.257589298986588 ], [ 6.514663643264622, 53.257638407837007 ], [ 6.514632410285927, 53.257676694340212 ], [ 6.518919912728132, 53.258488508963701 ], [ 6.519054325791967, 53.25848922696445 ], [ 6.519087619557638, 53.258478756168692 ], [ 6.519138761661985, 53.258430018608991 ], [ 6.519168399125, 53.258183337696998 ], [ 6.51920302297522, 53.258101007022724 ], [ 6.519274746533983, 53.258046017845253 ], [ 6.519403876304499, 53.258006616129897 ], [ 6.519774358192363, 53.25797453605341 ], [ 6.520300801233911, 53.257984485480819 ], [ 6.520511616403149, 53.257967220372215 ], [ 6.521131457187973, 53.257869167424467 ], [ 6.521814609678546, 53.257725222730855 ], [ 6.52203031657544, 53.257710786909129 ], [ 6.522346295384001, 53.257722715532537 ], [ 6.522477706196439, 53.257707184987524 ], [ 6.523658280411428, 53.256903709104392 ], [ 6.524173023787458, 53.256525819702901 ], [ 6.524291025283717, 53.256420147154039 ], [ 6.524838287094584, 53.256723926798941 ], [ 6.525403384689198, 53.25711403908393 ], [ 6.525484211171073, 53.257204280692505 ], [ 6.525612980434992, 53.25751237517543 ], [ 6.525851939889924, 53.257895433127324 ], [ 6.525889146083157, 53.257999308343202 ], [ 6.526013951896278, 53.257958117239191 ], [ 6.526262323093766, 53.258124848732628 ], [ 6.526432501600635, 53.258214703420371 ], [ 6.526594052633682, 53.258265782574803 ], [ 6.526931023354341, 53.258317473457019 ], [ 6.527209514264928, 53.258319406116236 ], [ 6.528543009009633, 53.258215239230438 ], [ 6.528832430354752, 53.258264002147186 ], [ 6.52928273481692, 53.258421366251888 ], [ 6.529343195735816, 53.258371320637835 ], [ 6.529490230265792, 53.258291093954121 ], [ 6.529683438932811, 53.25824077189155 ], [ 6.529928178027194, 53.258224791451553 ], [ 6.530308196991574, 53.258238036089345 ], [ 6.530227777505988, 53.258432598846071 ], [ 6.53021162920504, 53.258490323071179 ], [ 6.530222426463906, 53.258515996654701 ], [ 6.531410023160906, 53.259041507956219 ], [ 6.531785470782223, 53.258703827858113 ], [ 6.533374761494836, 53.259315640594153 ], [ 6.534267038678861, 53.259641203475198 ], [ 6.534253234652637, 53.259839025783691 ], [ 6.534225886016801, 53.259977497575846 ], [ 6.534231521224489, 53.260022635671469 ], [ 6.534266288832254, 53.260060422450096 ], [ 6.535850662879478, 53.260186674462467 ], [ 6.535841261133922, 53.259952934738664 ], [ 6.536582582833558, 53.260026665611669 ], [ 6.539115458940138, 53.260336981732948 ], [ 6.538430282927632, 53.262202173626299 ], [ 6.538200817631704, 53.262772271287169 ], [ 6.538035163153523, 53.263128146429466 ], [ 6.537551132179362, 53.264060205655653 ], [ 6.537957920336362, 53.264083112123906 ], [ 6.538275796223049, 53.264048863199335 ], [ 6.540678582953824, 53.263616229715062 ], [ 6.540972158341944, 53.263597629226616 ], [ 6.542499451521417, 53.263822095937961 ], [ 6.545720762087397, 53.26423385954174 ], [ 6.546290557606748, 53.264328943310424 ], [ 6.546318962113077, 53.264270209491571 ], [ 6.546566090528308, 53.264278536591355 ], [ 6.546892900446527, 53.264337073395012 ], [ 6.546878869632261, 53.264374569831887 ], [ 6.54697236567893, 53.264389509032469 ], [ 6.548699329334655, 53.264618928364605 ], [ 6.548815192647637, 53.264647758974654 ], [ 6.548937782340827, 53.264734210835265 ], [ 6.548988922025208, 53.264751395512128 ], [ 6.549570557544179, 53.264795494934759 ], [ 6.550017420209404, 53.264853137760056 ], [ 6.550138111204706, 53.264885724247151 ], [ 6.55026314809633, 53.264946898175971 ], [ 6.55032989492774, 53.264904889489038 ], [ 6.549976314749061, 53.264707538026379 ], [ 6.549944646746851, 53.26466773906067 ], [ 6.549601139290441, 53.264462656510908 ], [ 6.549552622788373, 53.264408642222634 ], [ 6.549856220087914, 53.264200649214999 ], [ 6.550138951874736, 53.263952529538919 ], [ 6.550316018429633, 53.263741960346344 ], [ 6.550602925351894, 53.263759320735133 ], [ 6.550881589018308, 53.263724085307203 ], [ 6.551042623286319, 53.263685917269378 ], [ 6.551424101668093, 53.263547069656063 ], [ 6.551654015573392, 53.26343683498645 ], [ 6.551750140820321, 53.2633685844581 ], [ 6.551811185175985, 53.263283910584889 ], [ 6.551864249790858, 53.263155064907977 ], [ 6.551883793104932, 53.263013372346975 ], [ 6.551860208347617, 53.262949444254524 ], [ 6.551594276425337, 53.262593214146477 ], [ 6.551388231563736, 53.262375165904459 ], [ 6.55212377040003, 53.262218127037876 ], [ 6.552396973644719, 53.262178632058891 ], [ 6.553944046561622, 53.262125992934578 ], [ 6.553978056126279, 53.262190189579016 ], [ 6.554758777327816, 53.262225122864962 ], [ 6.558133939357757, 53.262442667956513 ], [ 6.558186974211988, 53.262937463230678 ], [ 6.55821708932554, 53.262984103251661 ], [ 6.558268958685949, 53.262998304595847 ], [ 6.559770605716061, 53.263198939286056 ], [ 6.561035101301101, 53.263268089488463 ], [ 6.562846335613759, 53.263397197149772 ], [ 6.564294055772048, 53.263464439126118 ], [ 6.566599024707082, 53.263607220529721 ], [ 6.567033455193065, 53.262118784668637 ], [ 6.571566561047755, 53.262172693125386 ], [ 6.57297985007254, 53.262175007735983 ], [ 6.57301677137867, 53.262162648581921 ], [ 6.573033792744234, 53.262127564872507 ], [ 6.573145424752115, 53.261500621759751 ], [ 6.573217823920083, 53.261502076591341 ], [ 6.573215677522989, 53.261599114023696 ], [ 6.578079263029433, 53.261637147448745 ], [ 6.578086627869345, 53.261734268686993 ], [ 6.580824747876624, 53.261760448307832 ], [ 6.580464391743679, 53.261265736818032 ], [ 6.584426723281632, 53.261109345541222 ], [ 6.584600379360012, 53.261073782488225 ], [ 6.584680434251738, 53.261036023748559 ], [ 6.584736699447109, 53.260984674442369 ], [ 6.584806089704458, 53.260973981210554 ], [ 6.587771798093599, 53.260949676416757 ], [ 6.587674009837752, 53.260588548350718 ], [ 6.587535832046314, 53.259961766468479 ], [ 6.586989388497623, 53.25728994116519 ], [ 6.586791983872152, 53.256411749688169 ], [ 6.586508738117852, 53.25573312480487 ], [ 6.586515405633844, 53.25569363258019 ], [ 6.586646510606328, 53.255662324625391 ], [ 6.586756561748914, 53.255660688582815 ], [ 6.586851888286143, 53.255691127137112 ], [ 6.586957419947014, 53.255772080696431 ], [ 6.587261466831789, 53.255670246830924 ], [ 6.58759047488005, 53.255634249618737 ], [ 6.599048390435955, 53.254511420068077 ], [ 6.604411287962997, 53.254013280954062 ], [ 6.604895391219667, 53.253957384771191 ], [ 6.605420695396314, 53.253819984226929 ], [ 6.605972357324314, 53.253760791137672 ], [ 6.606351265709578, 53.253740850562352 ], [ 6.606399473799474, 53.253693403205467 ], [ 6.606513569737093, 53.253106611844323 ], [ 6.606510360587014, 53.252909176802639 ], [ 6.606470286262433, 53.252612127158798 ], [ 6.606412651602908, 53.252519645225455 ], [ 6.60632550253567, 53.252453586127466 ], [ 6.606283968770041, 53.252062907373904 ], [ 6.606307928098735, 53.251848478725982 ], [ 6.606376394708652, 53.25149780859546 ], [ 6.606407798023493, 53.251416571385668 ], [ 6.610414425227982, 53.251405238401468 ], [ 6.616619095413384, 53.2514214439624 ], [ 6.616882420242942, 53.251395987095385 ], [ 6.617061491313129, 53.251396989744698 ], [ 6.618345800226907, 53.251485929408226 ], [ 6.619297593956669, 53.249447977041577 ], [ 6.624008616692096, 53.250022937913023 ], [ 6.624849604672677, 53.250105124020159 ], [ 6.628845083089021, 53.25055393031122 ], [ 6.634926572636281, 53.251266158240725 ], [ 6.635304484937466, 53.251357424433294 ], [ 6.635422433141121, 53.251344220432067 ], [ 6.635517064348489, 53.251291312308432 ], [ 6.635566352672375, 53.25123641363593 ], [ 6.636020286251893, 53.251396294202273 ], [ 6.636047678343606, 53.251460945031113 ], [ 6.6358956397738, 53.252428272475349 ], [ 6.635837151030524, 53.253126815366947 ], [ 6.635678137252238, 53.254094162084193 ], [ 6.635583916669928, 53.254173391423237 ], [ 6.635373973783227, 53.255206409151612 ], [ 6.635256670582743, 53.255487941961711 ], [ 6.635047045560918, 53.255894942061438 ], [ 6.634762132946141, 53.256600425759942 ], [ 6.634749323309214, 53.25662187631147 ], [ 6.634647935755828, 53.256656090383579 ], [ 6.634576153757403, 53.256766589687473 ], [ 6.634085282969756, 53.257991747928742 ], [ 6.633451888138572, 53.259760304447838 ], [ 6.632665704325734, 53.260584153669356 ], [ 6.632282175380786, 53.260961261024342 ], [ 6.632087735519458, 53.26120962416222 ], [ 6.631320386020274, 53.261835623642291 ], [ 6.628957726555978, 53.263695575864126 ], [ 6.628207488586908, 53.264324349917899 ], [ 6.628037717301113, 53.264499283611158 ], [ 6.627607358934114, 53.265104473390494 ], [ 6.627552516206989, 53.265160776599117 ], [ 6.626456357316269, 53.265836730828255 ], [ 6.626270331721856, 53.265943951559656 ], [ 6.626022538918662, 53.266045692881015 ], [ 6.625907922774327, 53.266111541929838 ], [ 6.625857986335891, 53.266158354412212 ], [ 6.625847965243564, 53.266197136244976 ], [ 6.625899098661077, 53.266275741433176 ], [ 6.626099157803027, 53.266489065420146 ], [ 6.626716138524936, 53.267401337052824 ], [ 6.627025851844529, 53.267825241272128 ], [ 6.629550622957991, 53.271611384975216 ], [ 6.6304030770357, 53.272822233431583 ], [ 6.630041780180479, 53.272754082386953 ], [ 6.630134378932948, 53.272932970328526 ], [ 6.630296914471179, 53.273139453622797 ], [ 6.630324942399003, 53.273238814856427 ], [ 6.630338514354325, 53.273422302879432 ], [ 6.630762973322024, 53.273695605618236 ], [ 6.631270340166456, 53.274063531612988 ], [ 6.631629557640855, 53.274582200922922 ], [ 6.631932938618768, 53.274864658827298 ], [ 6.632431112102995, 53.275393526221791 ], [ 6.632802545443691, 53.275868661146163 ], [ 6.633946333627767, 53.277543830477434 ], [ 6.635496985961822, 53.27990110285608 ], [ 6.636786905335905, 53.281797667639658 ], [ 6.638162136153469, 53.283870956130912 ], [ 6.641804302118295, 53.289209209049467 ], [ 6.645447239199468, 53.294500991978559 ], [ 6.645993814005521, 53.295358451597927 ], [ 6.646574775748982, 53.296226065040287 ], [ 6.647161434861626, 53.297200329146726 ], [ 6.647540038675722, 53.297894808139617 ], [ 6.647669688292418, 53.298208249646542 ], [ 6.647825875896194, 53.298705174242002 ], [ 6.647863349207095, 53.298726910992023 ], [ 6.648051808507064, 53.298722194575262 ], [ 6.648097369870726, 53.298756318242546 ], [ 6.64838466693148, 53.299260939500869 ], [ 6.649916030313375, 53.301752036820609 ], [ 6.650557188793226, 53.301677992184729 ], [ 6.650612077954927, 53.301685866887247 ], [ 6.650643030844045, 53.301717523048161 ], [ 6.651775792018081, 53.303547789151587 ], [ 6.65196754563029, 53.303924981048702 ], [ 6.652135765827242, 53.304431514765923 ], [ 6.652336566787919, 53.305299058300143 ], [ 6.652623295615968, 53.30601653620824 ], [ 6.652655302917026, 53.306136461823833 ], [ 6.654055226492906, 53.308191959294206 ], [ 6.654055060303174, 53.308212194236361 ], [ 6.654022842750178, 53.308229895504788 ], [ 6.653661194912142, 53.308320186069373 ], [ 6.653685218854005, 53.308361600430075 ], [ 6.653911114346337, 53.308407629107869 ], [ 6.65403496699808, 53.308604717339868 ], [ 6.654063147885869, 53.308600299092824 ], [ 6.654085680600162, 53.30863143071393 ], [ 6.654468675951229, 53.308506115547857 ], [ 6.655073258923585, 53.308346322366539 ], [ 6.655766259015689, 53.308117440478831 ], [ 6.65593679037149, 53.308329827203238 ], [ 6.656752941601216, 53.308063039410207 ], [ 6.656649878397195, 53.307931622763263 ], [ 6.65698639081138, 53.307776002940564 ], [ 6.657143865381344, 53.307719698473498 ], [ 6.660218858466213, 53.30682207522085 ], [ 6.660766020341856, 53.306692768945226 ], [ 6.664294409057069, 53.306155970019731 ], [ 6.664960600032657, 53.306026437422965 ], [ 6.665723335689927, 53.305905709106931 ], [ 6.666953929868964, 53.305665621792741 ], [ 6.667562274203142, 53.305490094963815 ], [ 6.668482646856658, 53.30530028622232 ], [ 6.66892019985287, 53.305230112998075 ], [ 6.669689928615832, 53.305200602786343 ], [ 6.670586360976082, 53.305119200495724 ], [ 6.670880826168076, 53.305127911666851 ], [ 6.671206870753522, 53.305107086806842 ], [ 6.671448971763267, 53.30505517487881 ], [ 6.671709986043872, 53.305028792560272 ], [ 6.672519425248308, 53.304897670380356 ], [ 6.672918572032877, 53.304862444409764 ], [ 6.673245486566507, 53.30481354222767 ], [ 6.674922810821784, 53.304324903118896 ], [ 6.676206976572055, 53.304036868371149 ], [ 6.676826495248252, 53.303870269112174 ], [ 6.678442962755728, 53.303258666665215 ], [ 6.679976245683307, 53.302751588181344 ], [ 6.680579547373683, 53.302486698979095 ], [ 6.681705403290819, 53.301896633716673 ], [ 6.683981690818096, 53.300499429482073 ], [ 6.685683728335786, 53.299394855495493 ], [ 6.6866388989179, 53.298840918097973 ], [ 6.686639667756036, 53.298794918736554 ], [ 6.686710218322347, 53.298657313777994 ], [ 6.686870597735703, 53.298518493524334 ], [ 6.687009560995497, 53.298450329647295 ], [ 6.68797993759318, 53.29817314030381 ], [ 6.688391546793866, 53.298017118010712 ], [ 6.688822142484169, 53.297834472977101 ], [ 6.689591580410792, 53.297449427975366 ], [ 6.696295169251442, 53.301740328175782 ], [ 6.696426134894069, 53.301693530046478 ], [ 6.70534701021256, 53.307422084382537 ], [ 6.705537476773352, 53.307348589533987 ], [ 6.706050985080499, 53.307091663507094 ], [ 6.706227228614929, 53.30702081769401 ], [ 6.706440614547141, 53.30699264852263 ], [ 6.706565316837696, 53.307003246375494 ], [ 6.706639496994723, 53.307037948170439 ], [ 6.706841618402396, 53.307210921847535 ], [ 6.707136735136251, 53.30756671391449 ], [ 6.708004210984331, 53.308770947881456 ], [ 6.708715735254402, 53.309713946399398 ], [ 6.708945384701694, 53.309876064369497 ], [ 6.70917692784047, 53.309951474359451 ], [ 6.709366513370385, 53.309974904607891 ], [ 6.709629399555662, 53.309959514116599 ], [ 6.710430206542911, 53.309774279136185 ], [ 6.712314334254999, 53.309387629218357 ], [ 6.712770572349738, 53.309235579928874 ], [ 6.713845005260772, 53.30869061101091 ], [ 6.714020797214718, 53.308618509931037 ], [ 6.71696764800059, 53.308043128967363 ], [ 6.719361958563796, 53.307422150104081 ], [ 6.720023412585164, 53.307213899835041 ], [ 6.720604859668459, 53.306986211491115 ], [ 6.721124770601312, 53.306719774967725 ], [ 6.721580602821999, 53.306431883453193 ], [ 6.721712131205834, 53.306376083907033 ], [ 6.721777526662065, 53.306317119341351 ], [ 6.721945506026383, 53.306219626316185 ], [ 6.72250597159892, 53.30597309523467 ], [ 6.722922351446807, 53.305845926110663 ], [ 6.723618844027082, 53.305710267937926 ], [ 6.72426616552002, 53.305482833359548 ], [ 6.724350948351502, 53.305538931071112 ], [ 6.725266934225703, 53.305220290685696 ], [ 6.726352336286108, 53.304939328657319 ], [ 6.726495362020529, 53.304889855609218 ], [ 6.727103071661603, 53.304986312892694 ], [ 6.727779350147113, 53.305011208058929 ], [ 6.728019989915769, 53.305000800253993 ], [ 6.728721786456506, 53.305158585102859 ], [ 6.729280985985889, 53.305246495833373 ], [ 6.729396030206877, 53.305292334696361 ], [ 6.729447774957007, 53.305348910482891 ], [ 6.729462336918766, 53.3054303628941 ], [ 6.729425060304938, 53.305687953736438 ], [ 6.72942297565122, 53.305943650546176 ], [ 6.729488130994048, 53.306229628989854 ], [ 6.729555731248215, 53.306415359277715 ], [ 6.729692320900134, 53.306633574321005 ], [ 6.730241857527332, 53.307192895766271 ], [ 6.730399218443695, 53.307375344850854 ], [ 6.730525225524309, 53.307557444197798 ], [ 6.730565969990812, 53.30767105308238 ], [ 6.730589062039004, 53.307833671899445 ], [ 6.730564719603364, 53.307977736810727 ], [ 6.730509112675652, 53.308076946051592 ], [ 6.73036023155609, 53.308202767062504 ], [ 6.730406210260347, 53.308262453446204 ], [ 6.730747416160848, 53.308447687081014 ], [ 6.730952689831672, 53.308529427870589 ], [ 6.731097321637738, 53.308558182774 ], [ 6.731265953969523, 53.308563307994007 ], [ 6.731708381296394, 53.30851648928995 ], [ 6.73190265343579, 53.30853666828952 ], [ 6.732038860179718, 53.308593946064228 ], [ 6.732141999074783, 53.308695289108812 ], [ 6.732347523930367, 53.309111009104889 ], [ 6.73235898157337, 53.309222118481927 ], [ 6.732326618873211, 53.309301209980745 ], [ 6.732153019906262, 53.309516842643838 ], [ 6.732013338695417, 53.309838739018637 ], [ 6.732080475176089, 53.310158587570527 ], [ 6.732201586575958, 53.310471364139666 ], [ 6.732577650277548, 53.311088205099502 ], [ 6.732655813422195, 53.311184626802927 ], [ 6.732900785469814, 53.311408789225773 ], [ 6.733644753789947, 53.3117948578737 ], [ 6.734075417402824, 53.311962585019558 ], [ 6.734235324753756, 53.312013723734744 ], [ 6.734579789405036, 53.312080755746649 ], [ 6.734961431314816, 53.312072975498545 ], [ 6.735453839782066, 53.312027100319213 ], [ 6.736041281568334, 53.311897063799286 ], [ 6.736135292784708, 53.311898086877932 ], [ 6.736235322875615, 53.311936232031641 ], [ 6.736519304000483, 53.312156485687161 ], [ 6.736714656045089, 53.312279850353434 ], [ 6.737676633010401, 53.312833958830097 ], [ 6.737842280961666, 53.312963727698452 ], [ 6.738892713015151, 53.312539234464055 ], [ 6.739334800580041, 53.312426433068232 ], [ 6.74022177583549, 53.312255232695492 ], [ 6.740482838720453, 53.31217421162777 ], [ 6.740827952542082, 53.31204056426639 ], [ 6.741295239603772, 53.311788080428812 ], [ 6.741823657906922, 53.311460847705249 ], [ 6.742449125075774, 53.311121330887488 ], [ 6.742681056610205, 53.311020011449017 ], [ 6.742886807305604, 53.311334652781468 ], [ 6.743169539287004, 53.311297037808117 ], [ 6.743414076587144, 53.311215565062568 ], [ 6.743610841190154, 53.311114161432634 ], [ 6.743677546718985, 53.311099430881683 ], [ 6.744025078971732, 53.31140317622382 ], [ 6.744208966248934, 53.311696280198596 ], [ 6.744221773637891, 53.311730840907728 ], [ 6.744205701787453, 53.311772850790497 ], [ 6.744045176576718, 53.311859146800565 ], [ 6.744123574503553, 53.311932936903332 ], [ 6.747050430673011, 53.311490334740817 ], [ 6.747331362403704, 53.311919678454586 ], [ 6.74794833810538, 53.311781044817685 ], [ 6.747614040125145, 53.311200751854571 ], [ 6.748550535501905, 53.310973203894491 ], [ 6.748884187167932, 53.310869516428021 ], [ 6.749100864731914, 53.310770568010142 ], [ 6.749287590371421, 53.310626806048241 ], [ 6.749407706217633, 53.3104765103026 ], [ 6.749500078602493, 53.310307083693807 ], [ 6.749660645169127, 53.309884110584441 ], [ 6.749591628167016, 53.309840192184204 ], [ 6.749603192534755, 53.309804777350813 ], [ 6.746764946935087, 53.308514355020868 ], [ 6.746466372757062, 53.30853709470103 ], [ 6.74479279804485, 53.307753920699888 ], [ 6.744930305263273, 53.307090613093621 ], [ 6.744927789510007, 53.307024832068237 ], [ 6.744910993994732, 53.307018692263135 ], [ 6.745432812187201, 53.306196408027226 ], [ 6.746071979501505, 53.305244674311965 ], [ 6.748048263561851, 53.302968923611886 ], [ 6.753081045365711, 53.298847410080242 ], [ 6.755538594983419, 53.299633728502123 ], [ 6.758413062991552, 53.297440692087058 ], [ 6.75936885185091, 53.296753210192861 ], [ 6.759819756212901, 53.296391035717477 ], [ 6.759804414548, 53.296366201412233 ], [ 6.759467852350893, 53.296176052474145 ], [ 6.760683731897113, 53.295236387037313 ], [ 6.761648652688767, 53.295807368443974 ], [ 6.762619654845151, 53.296446047105015 ], [ 6.764620575671244, 53.298134356565981 ], [ 6.769487274053153, 53.294004011313703 ], [ 6.772365181227594, 53.291811484875062 ], [ 6.770662377969146, 53.291018462029761 ], [ 6.769795113109308, 53.290680027944909 ], [ 6.772309459538305, 53.287792644026538 ], [ 6.769137432785318, 53.286625009870491 ], [ 6.769803468320921, 53.285652271250655 ], [ 6.770716041411784, 53.284996081838017 ], [ 6.770953725511768, 53.284790521823041 ], [ 6.771339927025208, 53.284385529604066 ], [ 6.771380306858021, 53.284271018598261 ], [ 6.772006616840364, 53.283666027891549 ], [ 6.772526790142201, 53.283086596455483 ], [ 6.75716673954761, 53.277565524223114 ], [ 6.756999462766843, 53.277477598587211 ], [ 6.757024791777202, 53.277450652669444 ], [ 6.756952622032987, 53.277424719294686 ], [ 6.756837149621796, 53.277541809336256 ], [ 6.756762101128342, 53.277543254453263 ], [ 6.749522521970447, 53.274937908653804 ], [ 6.743166654424277, 53.272682231785822 ], [ 6.734882926771758, 53.270181305873585 ], [ 6.734530971737572, 53.270112079002608 ], [ 6.734345368818087, 53.270017248547305 ], [ 6.734144429187474, 53.269940855898916 ], [ 6.733443194118523, 53.269737542292354 ], [ 6.732921935745165, 53.269609533908827 ], [ 6.732580591715627, 53.269484842571927 ], [ 6.732705156571391, 53.269353555191088 ], [ 6.731727889417405, 53.268997504335694 ], [ 6.729750004951863, 53.2681895108487 ], [ 6.716326358930823, 53.262611308393332 ], [ 6.715497765376492, 53.262292663877659 ], [ 6.714246230987537, 53.261833304398777 ], [ 6.701518958569301, 53.257294588843429 ], [ 6.685556370304707, 53.251567724023602 ], [ 6.668284194490241, 53.245398503461722 ], [ 6.667007345381084, 53.244904076990025 ], [ 6.666507422422487, 53.244698281868573 ], [ 6.66484921717885, 53.243947700968306 ], [ 6.654735858683281, 53.239290977790155 ], [ 6.650273328872102, 53.237259164979001 ], [ 6.649099288164781, 53.236770390920498 ], [ 6.647726695618459, 53.236278491373504 ], [ 6.645985824536354, 53.235719948413241 ], [ 6.643581826726355, 53.23504466570207 ], [ 6.643768104601865, 53.230793030267378 ], [ 6.643723030034565, 53.230751504691902 ], [ 6.64331321317738, 53.230513261703372 ], [ 6.642135196968814, 53.229750926923572 ], [ 6.641504783137701, 53.229290206228704 ], [ 6.641020653911552, 53.22918421434693 ], [ 6.641019227580741, 53.229118847630318 ], [ 6.640971387872657, 53.2289770295694 ], [ 6.640711751322998, 53.228850690666135 ], [ 6.641980886847882, 53.227954682483272 ], [ 6.642349619897689, 53.227678281731308 ], [ 6.643287492096331, 53.226949896537498 ], [ 6.643502456318554, 53.226730702239294 ], [ 6.643640630811154, 53.226517980908703 ], [ 6.643996260496809, 53.225817774355107 ], [ 6.644464149934977, 53.224981153839018 ], [ 6.644759948571125, 53.224349990026106 ], [ 6.645872470000204, 53.222403687359915 ], [ 6.646135665102468, 53.221908733093272 ], [ 6.646492182588251, 53.221147485532377 ], [ 6.64672664202986, 53.220696044101203 ], [ 6.647133176171273, 53.22003320287628 ], [ 6.648385503749618, 53.217805935366229 ], [ 6.648535754472815, 53.217567190221367 ], [ 6.648785505539576, 53.217262056977056 ], [ 6.64969475136324, 53.216455192548466 ], [ 6.652989000112354, 53.213595561815467 ], [ 6.653355194085506, 53.213247030078612 ], [ 6.654121078364577, 53.212671028666172 ], [ 6.654554515218078, 53.212306485963062 ], [ 6.654654569804021, 53.212244436180022 ], [ 6.654902535674243, 53.212001606084264 ], [ 6.655127672702459, 53.211734453917146 ], [ 6.655729240383655, 53.211165577934018 ], [ 6.6558427252816, 53.211110443709096 ], [ 6.656011572206773, 53.210944995647772 ], [ 6.65627332831769, 53.210728226125049 ], [ 6.656493592618448, 53.210606533347125 ], [ 6.65693525614785, 53.210210949173444 ], [ 6.657048093051372, 53.210128423210435 ], [ 6.657193234496482, 53.20995535176867 ], [ 6.657255129007145, 53.209919809273671 ], [ 6.657615334764203, 53.209614928796263 ], [ 6.658275612988518, 53.208958777429984 ], [ 6.658950027099709, 53.208396082880412 ], [ 6.65946254820415, 53.207887966237585 ], [ 6.659658840255339, 53.207719115167585 ], [ 6.659922948176806, 53.207523376665684 ], [ 6.660213177858486, 53.207223698027711 ], [ 6.660335289681496, 53.207141751292085 ], [ 6.660430299492273, 53.207195475390634 ], [ 6.660721982367277, 53.20699722416137 ], [ 6.660860465057451, 53.2068700170881 ], [ 6.660978993216714, 53.20679829933627 ], [ 6.661105193403005, 53.206692818971128 ], [ 6.661312613015013, 53.206497375853651 ], [ 6.661629391531792, 53.206103748313033 ], [ 6.662043990994627, 53.205533417139016 ], [ 6.662416336374075, 53.205133325829493 ], [ 6.662888555747664, 53.204755300244713 ], [ 6.663326960304776, 53.204430424574099 ], [ 6.663714947372133, 53.204178099188759 ], [ 6.664280072480531, 53.203733143136745 ], [ 6.664873035817702, 53.203316854404605 ], [ 6.665006478215004, 53.203256786863498 ], [ 6.665076545903545, 53.203166661219477 ], [ 6.665763297441553, 53.202654275295309 ], [ 6.6658817807804, 53.202610246976853 ], [ 6.666379680342923, 53.202289503277569 ], [ 6.66687269400582, 53.202020342575743 ], [ 6.661276700327627, 53.199405987342573 ], [ 6.661103323340618, 53.199426774131382 ], [ 6.659534809991422, 53.19865855600667 ], [ 6.659347572627598, 53.19854126086782 ], [ 6.658299608950632, 53.198045920741379 ], [ 6.658192298249323, 53.19797633164395 ], [ 6.65760363432898, 53.197720063397661 ], [ 6.657525858763359, 53.197670227653987 ], [ 6.65738490550955, 53.197617925222403 ], [ 6.656263182497729, 53.197084844682273 ], [ 6.656498199791502, 53.196927472561129 ], [ 6.654793340728151, 53.196114911354378 ], [ 6.654844798187543, 53.196072259051348 ], [ 6.651706541662584, 53.194626854904342 ], [ 6.652041480848613, 53.194381120723598 ], [ 6.652090549722559, 53.194277754924499 ], [ 6.651723534820299, 53.194124845019964 ], [ 6.650179204348214, 53.193410407274435 ], [ 6.650102907442574, 53.193428998256806 ], [ 6.649981783805442, 53.193212553122642 ], [ 6.649979113028189, 53.193176985161486 ], [ 6.64978682105512, 53.193158177603635 ], [ 6.649114178435858, 53.193027985166388 ], [ 6.646513743635784, 53.192474867055573 ], [ 6.643067602098865, 53.191684613684238 ], [ 6.642990407835891, 53.191695087844337 ], [ 6.642786592698862, 53.191764132339202 ], [ 6.642688705422685, 53.191816413324908 ], [ 6.642611003197736, 53.1918821223096 ], [ 6.642432165138392, 53.191808821925683 ], [ 6.63981495915212, 53.190297655291758 ], [ 6.643189503941631, 53.189082601814867 ], [ 6.645045417940087, 53.188530232291676 ], [ 6.646821282547399, 53.187937352074201 ], [ 6.644888965920954, 53.187406019358789 ], [ 6.644604957025391, 53.187384432219417 ], [ 6.644304402696694, 53.187459917589685 ], [ 6.640398067544509, 53.186275849931775 ], [ 6.639471316172562, 53.185980441108335 ], [ 6.640766868010419, 53.185722680934752 ], [ 6.641705551384258, 53.185480819579077 ], [ 6.645219536135081, 53.184433428369601 ], [ 6.645186756677214, 53.184406311834039 ], [ 6.647362016189583, 53.183749258448771 ], [ 6.647619615083466, 53.183911701690839 ], [ 6.656880846252671, 53.181149211314185 ], [ 6.657635749548135, 53.180353324210834 ], [ 6.657622043040081, 53.180349885992861 ], [ 6.65796741873591, 53.180003627715159 ], [ 6.658215698171012, 53.179718162901459 ], [ 6.65842787134123, 53.179404248623513 ], [ 6.658771573715623, 53.178755860605037 ], [ 6.659176708909736, 53.178091664478316 ], [ 6.659354560155134, 53.177855026276809 ], [ 6.659505280274964, 53.177701143799275 ], [ 6.660024350368902, 53.176986937468072 ], [ 6.660264879445281, 53.176622447841211 ], [ 6.660386009321548, 53.176365684459618 ], [ 6.660478735824843, 53.17608070981067 ], [ 6.660640862503826, 53.175329355402866 ], [ 6.661335365015969, 53.172714961766317 ], [ 6.661618711465945, 53.172171884018063 ], [ 6.661812272074008, 53.171890121682402 ], [ 6.662034365553967, 53.171606289974633 ], [ 6.662331112020213, 53.171296219478769 ], [ 6.662725670535281, 53.17098839601811 ], [ 6.663798661786323, 53.170305775061991 ], [ 6.664371636537079, 53.169903906553998 ], [ 6.664654300135515, 53.169744024859774 ], [ 6.66500457661675, 53.169600293929726 ], [ 6.665244617883992, 53.169526951346413 ], [ 6.665792961729531, 53.169423409926068 ], [ 6.666219892396156, 53.169378954847005 ], [ 6.667906548612995, 53.169293286253541 ], [ 6.668660887727046, 53.16922215747163 ], [ 6.668881286389341, 53.169183606363923 ], [ 6.669332734624108, 53.169046249662721 ], [ 6.669590152471909, 53.168939310802955 ], [ 6.669749622452072, 53.168853088359079 ], [ 6.669908514722246, 53.168741208652179 ], [ 6.670084306088139, 53.168598423091971 ], [ 6.671016257785325, 53.167624218500059 ], [ 6.671365875070228, 53.167312823958817 ], [ 6.671933779508025, 53.166902034089617 ], [ 6.6723483014771, 53.166667623931517 ], [ 6.67265009676167, 53.166531672942483 ], [ 6.673169008162589, 53.166333038488524 ], [ 6.673670640809044, 53.16617298655089 ], [ 6.674701338747452, 53.16594381904023 ], [ 6.675697050476721, 53.16566449183604 ], [ 6.676686656537752, 53.165359995891116 ], [ 6.67732579956711, 53.165136402742235 ], [ 6.67766717894746, 53.16499364646333 ], [ 6.678059323465708, 53.164797437486101 ], [ 6.678330333488459, 53.164637475120664 ], [ 6.678561792988031, 53.164458528433862 ], [ 6.679659927083837, 53.163371263192836 ], [ 6.67982141718455, 53.163042760888658 ], [ 6.679870613521, 53.162904759200615 ], [ 6.679902255147018, 53.162867765918456 ], [ 6.679835913723593, 53.16261195083279 ], [ 6.679982559497362, 53.162258013902047 ], [ 6.680473441446784, 53.161954139167491 ], [ 6.682622245037776, 53.160936555433025 ], [ 6.683501423612858, 53.16047429942941 ], [ 6.68449123359718, 53.159637041597563 ], [ 6.685133404050267, 53.158586396276043 ], [ 6.685294457606455, 53.158062068614321 ], [ 6.68544801899217, 53.157791402183094 ], [ 6.685722667050779, 53.157455785086611 ], [ 6.68641639019499, 53.15676664314681 ], [ 6.687276059680479, 53.156063942251293 ], [ 6.68826242034102, 53.155155927209698 ], [ 6.688714263868423, 53.154611101331845 ], [ 6.688983452561136, 53.154184457325421 ], [ 6.689223197081881, 53.153584461587656 ], [ 6.689543280005628, 53.152885354650373 ], [ 6.689649293524206, 53.15252127450011 ], [ 6.689734081202253, 53.152302381656362 ], [ 6.690103344173654, 53.151580794004047 ], [ 6.690194557426206, 53.151378692250368 ], [ 6.690269582064776, 53.151155027652564 ], [ 6.690285619344014, 53.151080591325105 ], [ 6.690251082254204, 53.150440915835652 ], [ 6.690215549638892, 53.150393214349961 ], [ 6.689917949632864, 53.150215116819744 ], [ 6.68963180074678, 53.150085031837222 ], [ 6.689367407572601, 53.149929044202857 ], [ 6.687675530419339, 53.149339264823979 ], [ 6.686986572133831, 53.148965406949671 ], [ 6.686632181820804, 53.148671389878217 ], [ 6.68639665877099, 53.14840522910896 ], [ 6.686278156862667, 53.148141565578179 ], [ 6.686274707569339, 53.147847591537193 ], [ 6.686435730841949, 53.147471713440666 ], [ 6.686494362097297, 53.14719419313203 ], [ 6.687087845514927, 53.146458470163054 ], [ 6.68716807930164, 53.146384053161768 ], [ 6.687483659072648, 53.146169088884093 ], [ 6.687821159674625, 53.145835939149499 ], [ 6.688763819629912, 53.145037965394003 ], [ 6.689052743753014, 53.144664448464681 ], [ 6.689572270760244, 53.143306159299989 ], [ 6.69179742480119, 53.133703505798408 ], [ 6.693046584852863, 53.128555962192017 ], [ 6.695366926895518, 53.121176016883851 ], [ 6.693469790484907, 53.12087688015496 ], [ 6.687226217424815, 53.119649529592913 ], [ 6.685461923207988, 53.119317931848641 ], [ 6.681209803258383, 53.118471055379651 ], [ 6.678542863678703, 53.118073541034626 ], [ 6.675402863256598, 53.117650247275037 ], [ 6.674926990895066, 53.117524732122462 ], [ 6.674725003299912, 53.117437565089595 ], [ 6.674280283215921, 53.117207568731999 ], [ 6.674169012600312, 53.117197687350675 ], [ 6.673605136481158, 53.117005832548351 ], [ 6.673458118062527, 53.117129111556103 ], [ 6.670604333705065, 53.116516708043214 ], [ 6.670889881849574, 53.11624383122232 ], [ 6.667724471184025, 53.115515658923279 ], [ 6.667736303441098, 53.115436986729698 ], [ 6.665152882262335, 53.114880253090014 ], [ 6.665288706792723, 53.114635679345405 ], [ 6.661459052843405, 53.11371848204999 ], [ 6.651909373392767, 53.111159548020339 ], [ 6.647878566201404, 53.109971247915816 ], [ 6.641905632481087, 53.108184312317469 ], [ 6.6413360346881, 53.108017997998914 ], [ 6.64132610729608, 53.108026545795951 ], [ 6.640682665983092, 53.107819511172579 ], [ 6.63869957473662, 53.107264084888889 ], [ 6.63836367683483, 53.107163232006343 ], [ 6.638063566440301, 53.107051350250977 ], [ 6.637988761192894, 53.107052373270029 ], [ 6.637729187821555, 53.107161108521332 ], [ 6.637670962687559, 53.107159937273863 ], [ 6.63751124502077, 53.107067079544251 ], [ 6.637442213517341, 53.106979910337166 ], [ 6.637426837412363, 53.106886424982306 ], [ 6.637326429804995, 53.106832278845559 ], [ 6.636515905734922, 53.106607876855819 ], [ 6.636365169141896, 53.106541976458772 ], [ 6.635864836171006, 53.106426287805874 ], [ 6.635272922100453, 53.106231569239384 ], [ 6.635068052218588, 53.10619873041302 ], [ 6.634831636021024, 53.106202127584808 ], [ 6.634924106294965, 53.106503243430012 ], [ 6.635027434054595, 53.106658620791158 ], [ 6.635118609468266, 53.106695181552602 ], [ 6.635241855245297, 53.106645042844178 ], [ 6.635441330480282, 53.106630151881312 ], [ 6.635679117597586, 53.106677816103769 ], [ 6.63574167713898, 53.106713757499612 ], [ 6.635848465111639, 53.1068345231973 ], [ 6.635977244450534, 53.107033952165764 ], [ 6.635994230386367, 53.107161316714965 ], [ 6.635986623648383, 53.107209161400696 ], [ 6.635786073613961, 53.107445500584184 ], [ 6.635644953630199, 53.10770995604517 ], [ 6.63562944391865, 53.107808024405152 ], [ 6.635670955161568, 53.107848055520961 ], [ 6.635969071984268, 53.107995793729827 ], [ 6.636248062775737, 53.10806400157508 ], [ 6.63677735135016, 53.108155846686074 ], [ 6.637052113768675, 53.108257477242518 ], [ 6.637086383781985, 53.108301030135415 ], [ 6.637111421954578, 53.108421101847306 ], [ 6.637119851686638, 53.108575190292157 ], [ 6.636856075140404, 53.109550500531718 ], [ 6.636843565606923, 53.109966872672189 ], [ 6.636884232212879, 53.110152185741846 ], [ 6.63685577449202, 53.110264808228308 ], [ 6.636736532193197, 53.110396239415181 ], [ 6.636379249973455, 53.110611971038878 ], [ 6.635526626302962, 53.111008777853201 ], [ 6.635278796793499, 53.111147061667893 ], [ 6.635148704183417, 53.111275498937786 ], [ 6.635110770230781, 53.111460956605839 ], [ 6.635117416163529, 53.111551427962539 ], [ 6.635145360478434, 53.111633185478475 ], [ 6.635187028009931, 53.111694400463172 ], [ 6.635248556519444, 53.11176030489225 ], [ 6.635498836628916, 53.111955020491926 ], [ 6.635663270682123, 53.112180221914301 ], [ 6.635788793064575, 53.112586749907074 ], [ 6.635821573885313, 53.112610528519532 ], [ 6.635890652237179, 53.112623095792372 ], [ 6.636226113560817, 53.112619878408609 ], [ 6.636392547483371, 53.112647925343659 ], [ 6.636451495085816, 53.112667989063134 ], [ 6.636567919135699, 53.112755191264434 ], [ 6.636608053776058, 53.112799383889808 ], [ 6.636597192805693, 53.112842897387736 ], [ 6.63625285679115, 53.113166108393955 ], [ 6.636125170999174, 53.113263326152641 ], [ 6.635968427499702, 53.113351472637653 ], [ 6.634954096736037, 53.113550025742072 ], [ 6.634429943574387, 53.113718286941804 ], [ 6.634171748549548, 53.11382625706208 ], [ 6.634068720261603, 53.11388704017287 ], [ 6.634000377878746, 53.11396414085776 ], [ 6.633862131579254, 53.11420307602998 ], [ 6.633813221618716, 53.114257370847511 ], [ 6.63363619478395, 53.114347501647856 ], [ 6.633527726681494, 53.114381378731039 ], [ 6.632694258317683, 53.114439349600723 ], [ 6.631332410154152, 53.11443229644307 ], [ 6.631109736406502, 53.114455490801916 ], [ 6.630673492350244, 53.114544463226068 ], [ 6.629830327920469, 53.114683334911099 ], [ 6.629602453786116, 53.11476793790635 ], [ 6.629545513396777, 53.114844221379158 ], [ 6.629410892003288, 53.11514683112626 ], [ 6.629309691719981, 53.115254631846696 ], [ 6.629097125251436, 53.115416790464145 ], [ 6.628907705737045, 53.11545851277689 ], [ 6.628342701646862, 53.115525491368814 ], [ 6.628179695889774, 53.115576411578516 ], [ 6.628055937988096, 53.11564703453994 ], [ 6.628018631310641, 53.115715191076511 ], [ 6.628037446849727, 53.115837541520733 ], [ 6.62833221193351, 53.116179132614278 ], [ 6.628397031483225, 53.116339190841785 ], [ 6.628411810084245, 53.116424382545915 ], [ 6.628402035316856, 53.116526455211755 ], [ 6.628380637891294, 53.116569685924972 ], [ 6.628283761477233, 53.116621012864542 ], [ 6.627955003283977, 53.116672183005996 ], [ 6.627749551732773, 53.116753122668172 ], [ 6.6276608365373, 53.116827639600324 ], [ 6.627611253762131, 53.116900994080865 ], [ 6.627609718634409, 53.116969003411604 ], [ 6.627646146099091, 53.11705558505178 ], [ 6.627717080180202, 53.117108841079443 ], [ 6.628156890441095, 53.117252307594029 ], [ 6.628880500103119, 53.117624908071207 ], [ 6.629048555233128, 53.117750116730349 ], [ 6.62916821346104, 53.117868242610498 ], [ 6.629497996698354, 53.118388280521849 ], [ 6.629562255470288, 53.118478254119246 ], [ 6.629627271857211, 53.118536075896202 ], [ 6.629806242419293, 53.118626508443562 ], [ 6.630486675305503, 53.118875664467176 ], [ 6.630677614582015, 53.118974824463841 ], [ 6.630842007384918, 53.119104397873713 ], [ 6.630856396427762, 53.119161764078839 ], [ 6.630830595409555, 53.1192111277362 ], [ 6.630790314455813, 53.119260809841023 ], [ 6.630575653780508, 53.119385313389017 ], [ 6.629827330247283, 53.119643230320357 ], [ 6.629572011325837, 53.119771523965063 ], [ 6.629388389471353, 53.119838175238506 ], [ 6.629315234899625, 53.119820474851949 ], [ 6.62925243912954, 53.119780822493517 ], [ 6.629212318264197, 53.119742649812771 ], [ 6.629103054449673, 53.119568141895542 ], [ 6.628982962123236, 53.119464798848156 ], [ 6.628875598274893, 53.119422565416876 ], [ 6.628813196691527, 53.11942097865915 ], [ 6.628648449119336, 53.119493052797715 ], [ 6.628545234084421, 53.119593487669761 ], [ 6.628373424533499, 53.119834270571346 ], [ 6.628117652823555, 53.120501797859674 ], [ 6.62805992571665, 53.120612723237166 ], [ 6.627512910177535, 53.121095315196094 ], [ 6.62744729394131, 53.121181569278598 ], [ 6.627483540805814, 53.121298748792164 ], [ 6.627965159513173, 53.121779595017692 ], [ 6.627943634552239, 53.121943241808701 ], [ 6.627818894063842, 53.122339665830872 ], [ 6.627720139830727, 53.12258288625145 ], [ 6.627642069007617, 53.122710589398068 ], [ 6.627503560717419, 53.122802179706206 ], [ 6.627307077084716, 53.122838491506037 ], [ 6.627005683266868, 53.122964718003765 ], [ 6.626453131039379, 53.12327036046225 ], [ 6.626400075352633, 53.123356319776114 ], [ 6.626354829737515, 53.123472322114097 ], [ 6.626223572695753, 53.123635917286371 ], [ 6.62604587346437, 53.12374883427016 ], [ 6.625175505647213, 53.123919737589276 ], [ 6.62500033875844, 53.123992099390193 ], [ 6.62459313466116, 53.12440372443465 ], [ 6.624250439091137, 53.124641926218906 ], [ 6.624000685770304, 53.124786209818105 ], [ 6.623739082630358, 53.124908718507896 ], [ 6.623093500504959, 53.125164308821844 ], [ 6.622834201650817, 53.125372995897486 ], [ 6.622378083403706, 53.125823497971837 ], [ 6.621903666850054, 53.126194814740742 ], [ 6.621763334809342, 53.126350712079052 ], [ 6.621684720158079, 53.126608595248889 ], [ 6.621649621986051, 53.127102220244822 ], [ 6.621530159291495, 53.127335312438014 ], [ 6.62134028221389, 53.127541311480186 ], [ 6.621288200094178, 53.127638903635336 ], [ 6.621274864655886, 53.127847001731048 ], [ 6.621346745771451, 53.128181924164672 ], [ 6.621320269595934, 53.128309032372563 ], [ 6.621275080110085, 53.128408806385515 ], [ 6.62117533973905, 53.128493487440991 ], [ 6.620997897707563, 53.1285955356758 ], [ 6.619948349697107, 53.129142667693941 ], [ 6.619350708232827, 53.129516213229955 ], [ 6.619153986618789, 53.129669105755418 ], [ 6.619070690196524, 53.129755723422853 ], [ 6.618754749790015, 53.130180740760792 ], [ 6.618639804946485, 53.130379664100914 ], [ 6.618594671239674, 53.130484660506227 ], [ 6.618579069629789, 53.130718364568693 ], [ 6.618743231280922, 53.131064228631544 ], [ 6.619048267869391, 53.131469352331322 ], [ 6.619052997917709, 53.131510558575599 ], [ 6.619019486452509, 53.131552520753146 ], [ 6.618900680360676, 53.131626778873546 ], [ 6.618661083693296, 53.131729923362869 ], [ 6.618391775320483, 53.13188520437339 ], [ 6.618310709415534, 53.131914613594731 ], [ 6.617918160390605, 53.131927984818667 ], [ 6.617550470396913, 53.131983068443127 ], [ 6.617151193745843, 53.132115055110511 ], [ 6.617081067467451, 53.132163033414216 ], [ 6.616969810992037, 53.132299939243111 ], [ 6.616957276994803, 53.132362165498414 ], [ 6.617027570238131, 53.132559039134179 ], [ 6.616942036464492, 53.132713619130108 ], [ 6.616864267117649, 53.132810713294553 ], [ 6.616810685762796, 53.132846324283832 ], [ 6.616698173709248, 53.132916756785988 ], [ 6.61653081139666, 53.132981643531224 ], [ 6.616428342246237, 53.132991349817381 ], [ 6.615165101740443, 53.132801018751209 ], [ 6.614513956168064, 53.132594905299221 ], [ 6.614119411252112, 53.132527501631628 ], [ 6.613945828223439, 53.132539607386619 ], [ 6.613814376973496, 53.132586842730049 ], [ 6.613641276039472, 53.132694289010459 ], [ 6.613565615938805, 53.132797402705044 ], [ 6.613530302390534, 53.132866054944323 ], [ 6.613523909392828, 53.132921567172893 ], [ 6.613573109049257, 53.133086803527966 ], [ 6.613689690775056, 53.133758556182819 ], [ 6.613747140444556, 53.133971133081978 ], [ 6.61381658521428, 53.134128819071741 ], [ 6.613993689522996, 53.134265624305961 ], [ 6.614170308948941, 53.134368071651849 ], [ 6.614206884560088, 53.134420289213196 ], [ 6.614151103133042, 53.134580458904239 ], [ 6.614139001682519, 53.134670994083201 ], [ 6.614399908361131, 53.135557302752602 ], [ 6.610780577502882, 53.137905718706506 ], [ 6.61068492406268, 53.137940273468132 ], [ 6.610623617000429, 53.137943716915757 ], [ 6.61051685343686, 53.137932657954778 ], [ 6.610355842423488, 53.137886798332964 ], [ 6.610268941701341, 53.137882280041595 ], [ 6.6102162545423, 53.137897313397374 ], [ 6.610150777441493, 53.137962256701982 ], [ 6.610016750285213, 53.137997187510031 ], [ 6.607447934447443, 53.139245941156929 ], [ 6.606811229125177, 53.139248646269763 ], [ 6.606554097050852, 53.139294044768384 ], [ 6.606521046424251, 53.139313842526896 ], [ 6.60386834548162, 53.141508137586271 ], [ 6.603457896863542, 53.141825631246739 ], [ 6.601685236277281, 53.143283470144993 ], [ 6.600313403076847, 53.144421766651369 ], [ 6.600068292838554, 53.144665288145809 ], [ 6.599984734616981, 53.144723382991003 ], [ 6.597299492593338, 53.14401430696244 ], [ 6.596379740330849, 53.144109388930495 ], [ 6.595978244711036, 53.144272256541029 ], [ 6.595892023920932, 53.144335225725435 ], [ 6.595867186265159, 53.144391109093213 ], [ 6.59587412623043, 53.144561161158023 ], [ 6.595931927567062, 53.144839516197315 ], [ 6.596119026837273, 53.145191013868271 ], [ 6.596118734641618, 53.145247470892123 ], [ 6.596045807740071, 53.145341908554656 ], [ 6.595961140227843, 53.145406433445118 ], [ 6.595884723481553, 53.145443092845213 ], [ 6.595681545629174, 53.145480336807616 ], [ 6.595588098197413, 53.145487656698236 ], [ 6.594269531682514, 53.145317961573532 ], [ 6.593527174874881, 53.145237597547371 ], [ 6.593395889184764, 53.145237663177681 ], [ 6.592977648486412, 53.145167248921808 ], [ 6.592134531239907, 53.145068295482766 ], [ 6.590542816499998, 53.144946879900935 ], [ 6.590359429239808, 53.144947448826876 ], [ 6.589458854263736, 53.145020830989317 ], [ 6.58926972023092, 53.145073031058935 ], [ 6.588503936509526, 53.145209492747036 ], [ 6.588185454229652, 53.145322844764245 ], [ 6.587964216659802, 53.145436088867484 ], [ 6.587819220690046, 53.145610894160001 ], [ 6.587749344515677, 53.145767906119211 ], [ 6.587843299404988, 53.146005408955041 ], [ 6.587862875110002, 53.146110862973792 ], [ 6.587820859594261, 53.146691007034718 ], [ 6.587897873500952, 53.146852423432577 ], [ 6.587906046859914, 53.146927900165466 ], [ 6.587776469113334, 53.147291936860526 ], [ 6.58778313891466, 53.147484695753867 ], [ 6.58774329215232, 53.147802739539095 ], [ 6.587595635684534, 53.148030436163857 ], [ 6.587577660202738, 53.148232687446985 ], [ 6.587510315900149, 53.148444722452822 ], [ 6.587374556831315, 53.148702542051218 ], [ 6.587274111784162, 53.149176063254458 ], [ 6.587236561557861, 53.14928285741204 ], [ 6.586901254791577, 53.149712782116062 ], [ 6.586756837822314, 53.149945339637355 ], [ 6.586209194428056, 53.150675103778376 ], [ 6.586186232618317, 53.150781635228554 ], [ 6.586161075627129, 53.151137214607886 ], [ 6.586101059697459, 53.15119648352659 ], [ 6.586072336433744, 53.151256333193793 ], [ 6.585989718943976, 53.151523906413459 ], [ 6.585679612340791, 53.151969080816755 ], [ 6.585789003380504, 53.152028875665238 ], [ 6.5857527210666, 53.152076969948617 ], [ 6.586014701794039, 53.152191214580846 ], [ 6.584756255135331, 53.153522048524891 ], [ 6.584532939839316, 53.153442662451376 ], [ 6.584521344384652, 53.153509369379826 ], [ 6.584539337633658, 53.153705131621685 ], [ 6.584488804352168, 53.154155263164945 ], [ 6.584514382011338, 53.154226001202218 ], [ 6.585026071230621, 53.154504914676487 ], [ 6.586160363555833, 53.15537857812744 ], [ 6.586641490332011, 53.155690912445934 ], [ 6.587124023575893, 53.156069174245566 ], [ 6.587089327880298, 53.156225958576428 ], [ 6.58701493898345, 53.156382882246348 ], [ 6.58690744611047, 53.156488159130973 ], [ 6.586476224853841, 53.156659926312749 ], [ 6.585936148714924, 53.156778942708705 ], [ 6.585563301816856, 53.156962504062967 ], [ 6.584818056846043, 53.157637337561802 ], [ 6.584724591464478, 53.157671370898271 ], [ 6.58455209118075, 53.157696759064933 ], [ 6.583923718323187, 53.157755110974712 ], [ 6.583720116944817, 53.157795000106574 ], [ 6.583572487114126, 53.157867488941804 ], [ 6.583527101444052, 53.157934179284723 ], [ 6.583474636501842, 53.15808708378912 ], [ 6.583448237326985, 53.158271932216643 ], [ 6.583447909684079, 53.158830444886028 ], [ 6.583333598486523, 53.159252778249609 ], [ 6.58325182501306, 53.159486528159299 ], [ 6.583145681166585, 53.159634270647182 ], [ 6.58298482288382, 53.15979677611282 ], [ 6.58204130254278, 53.160705481345929 ], [ 6.581911640002036, 53.160858222672843 ], [ 6.581797144165441, 53.161046476590478 ], [ 6.581697846538606, 53.161252537264581 ], [ 6.581680236184437, 53.161375765540782 ], [ 6.581704198788486, 53.161482808092288 ], [ 6.581781334739416, 53.161614585932 ], [ 6.581955545484451, 53.161840011777898 ], [ 6.582016226404356, 53.161949660664284 ], [ 6.582019904592514, 53.16208565668942 ], [ 6.581932841970525, 53.162158915298974 ], [ 6.581766272423072, 53.162211059267953 ], [ 6.581093030747879, 53.162167286418885 ], [ 6.580731221198725, 53.162203868521054 ], [ 6.580735196959772, 53.162310077696127 ], [ 6.580788701645125, 53.162464284304342 ], [ 6.581344358635734, 53.162924122088427 ], [ 6.581416513684903, 53.163394322594833 ], [ 6.581432404278948, 53.163454385578426 ], [ 6.581486000921283, 53.163497551180669 ], [ 6.581513693420328, 53.163584357510437 ], [ 6.581383831747426, 53.163579509624277 ], [ 6.581302243670592, 53.163558692969069 ], [ 6.580499704622352, 53.163250767877287 ], [ 6.579995906187555, 53.163112696321861 ], [ 6.57939657282421, 53.162855436352956 ], [ 6.578910971521411, 53.162745941591197 ], [ 6.578321401568934, 53.162516338016779 ], [ 6.577719308453735, 53.162331125898632 ], [ 6.57728469782626, 53.162220969959094 ], [ 6.576413700821252, 53.16184740813506 ], [ 6.576120083170699, 53.161736217859549 ], [ 6.575855463793114, 53.161686929575573 ], [ 6.575507138624072, 53.161586237188153 ], [ 6.574633981164381, 53.161270414508216 ], [ 6.574310477318942, 53.161188931696934 ], [ 6.57213931776885, 53.160464158345718 ], [ 6.571567661734266, 53.160287682168565 ], [ 6.570993717629987, 53.160083506980847 ], [ 6.563687462324275, 53.157638376823741 ], [ 6.563596093953935, 53.157800593661769 ], [ 6.563423027004704, 53.158238147199839 ], [ 6.563158142875886, 53.158723735743877 ], [ 6.563069932751194, 53.159175466511655 ], [ 6.563017158824625, 53.159548025904733 ], [ 6.562896086680608, 53.159948042601542 ], [ 6.562856569200574, 53.160209798367944 ], [ 6.562743731024029, 53.160511505212078 ], [ 6.562641676482218, 53.160698863401201 ], [ 6.561815330733301, 53.162762966898399 ], [ 6.561623597097097, 53.163140221931798 ], [ 6.561458371505957, 53.163631697466961 ], [ 6.56113149914818, 53.164399057257057 ], [ 6.560945176468901, 53.164982884394135 ], [ 6.560676838797571, 53.165931662220494 ], [ 6.560418813090332, 53.166503315765077 ], [ 6.559979291098425, 53.16768048922205 ], [ 6.55984474346623, 53.167986898050621 ], [ 6.559825946235899, 53.168156502105809 ], [ 6.559674743069114, 53.168560299836912 ], [ 6.559496726718987, 53.169105864283623 ], [ 6.559205422511948, 53.169475585676238 ], [ 6.559077917428015, 53.169604345197477 ], [ 6.558904279997684, 53.169741999612768 ], [ 6.558592595360709, 53.170095610817199 ], [ 6.558532889097963, 53.17020937431036 ], [ 6.558454547879232, 53.170314362059848 ], [ 6.558180780638873, 53.170597099759128 ], [ 6.558002839958122, 53.170847422820387 ], [ 6.557740238919648, 53.1711028931431 ], [ 6.55764415017503, 53.171236953478576 ], [ 6.557345898789228, 53.171541640162786 ], [ 6.557044316274606, 53.171883505016304 ], [ 6.5567438946687, 53.172147412411476 ], [ 6.556486965634079, 53.172460708862204 ], [ 6.556360719841919, 53.172525509857991 ], [ 6.556310703049054, 53.172578202167657 ], [ 6.556259059345013, 53.172650506594991 ], [ 6.556196657829095, 53.172788231157874 ], [ 6.556009299477776, 53.172986466894898 ], [ 6.555920738427937, 53.173125704176428 ], [ 6.555828121949249, 53.173217542182364 ], [ 6.555717040351173, 53.173289564058834 ], [ 6.55525458631837, 53.17383782501161 ], [ 6.555178226707867, 53.17395263504465 ], [ 6.555121700479389, 53.174127090749082 ], [ 6.555072262989338, 53.174212658518357 ], [ 6.55490466867118, 53.174347007870317 ], [ 6.554832444075935, 53.174428889587496 ], [ 6.55479128054381, 53.174565356669795 ], [ 6.554748104129867, 53.174630803695507 ], [ 6.554583670880209, 53.174726557481378 ], [ 6.554246296080882, 53.17508039482135 ], [ 6.554141424164547, 53.175287054501041 ], [ 6.553559943422422, 53.175136238535835 ], [ 6.548188710822192, 53.181097176663215 ], [ 6.547847790875466, 53.180956053024055 ], [ 6.547865044191432, 53.180938048498874 ], [ 6.545448846958786, 53.179951019152981 ], [ 6.545442718626791, 53.17997137020933 ], [ 6.545011409918887, 53.179784335615224 ], [ 6.543649148700174, 53.179106829579013 ], [ 6.543126844525633, 53.178809065877779 ], [ 6.542708866321924, 53.178672356524054 ], [ 6.542464428672034, 53.178679042450035 ], [ 6.541743919084478, 53.17861030782425 ], [ 6.541250488943513, 53.179507450658583 ], [ 6.541132829550301, 53.179677292323639 ], [ 6.540926666857231, 53.179914175476711 ], [ 6.540594912736319, 53.180204013757169 ], [ 6.540430033266865, 53.180371385508124 ], [ 6.53987921097568, 53.181000892751563 ], [ 6.539656133338762, 53.181221592774136 ], [ 6.538544335732337, 53.181982028532225 ], [ 6.537881140760524, 53.182397864754741 ], [ 6.537500716830558, 53.182595523982897 ], [ 6.537314554396903, 53.182670787091645 ], [ 6.536297608613614, 53.182993266834252 ], [ 6.535534145239507, 53.183295129287252 ], [ 6.534853640677521, 53.18365014398519 ], [ 6.53461589290029, 53.183789929524899 ], [ 6.534348912977244, 53.184011011420232 ], [ 6.534281875090801, 53.184085119072215 ], [ 6.534052181618279, 53.18443796488932 ], [ 6.533793025613678, 53.185013696560489 ], [ 6.533043863473458, 53.186956940901439 ], [ 6.531978113830021, 53.189277732168954 ], [ 6.530695365176173, 53.192164932864301 ], [ 6.530260066754539, 53.193174523713701 ], [ 6.530263068810809, 53.193461361112448 ], [ 6.529902421985589, 53.194182829098473 ], [ 6.529492739835777, 53.195186179802313 ], [ 6.530488156731521, 53.195559613831271 ], [ 6.528643342840008, 53.195767256687169 ], [ 6.527306824903493, 53.195962529348918 ], [ 6.526994936567742, 53.195806263645309 ], [ 6.526931422476419, 53.195808479617398 ], [ 6.526918565110321, 53.195826848508823 ], [ 6.52692588258965, 53.195855837576268 ], [ 6.526860688597091, 53.195920526045988 ], [ 6.524105359699345, 53.196386349272345 ], [ 6.520071973784162, 53.197138392462428 ], [ 6.515771336477996, 53.198135886952905 ], [ 6.515759969007049, 53.19814273983765 ], [ 6.51580013720469, 53.198203480860023 ], [ 6.515709514648531, 53.198250871667092 ], [ 6.515697690426157, 53.198279468929982 ], [ 6.515711694334382, 53.198305248275304 ], [ 6.515400166449794, 53.198072961049796 ], [ 6.514982037233979, 53.197833056426262 ], [ 6.515036482020522, 53.197774021879937 ], [ 6.514835991701863, 53.197672439973196 ], [ 6.514864169868996, 53.197649733698732 ], [ 6.513385989164244, 53.196937019166818 ], [ 6.513288373247154, 53.197016564265354 ], [ 6.51327748248239, 53.197134056532121 ], [ 6.513251877859273, 53.19719540769735 ], [ 6.513140531499436, 53.197286509664764 ], [ 6.512970101987334, 53.197334581542776 ], [ 6.512762225445645, 53.197323690430693 ], [ 6.509960868746123, 53.198680386483986 ], [ 6.50987430618739, 53.198751954516901 ], [ 6.509819363601291, 53.198834050765242 ], [ 6.509814921865366, 53.199009675394649 ], [ 6.509387653976947, 53.199047478478178 ], [ 6.508825981696554, 53.199195595503653 ], [ 6.508669027747788, 53.1992728045959 ], [ 6.5078760565955, 53.199758201097403 ], [ 6.507610086640269, 53.199901369760546 ], [ 6.507343080011632, 53.200018367620871 ], [ 6.507146244579803, 53.200080172826539 ], [ 6.50685920163362, 53.200144036686652 ], [ 6.506711330595359, 53.20014067232291 ], [ 6.506075552945555, 53.200029768615948 ], [ 6.500190897243711, 53.198899709454288 ], [ 6.4994633191636, 53.198784036227984 ], [ 6.497937193071843, 53.198480912300944 ], [ 6.49661857608103, 53.198161815104982 ], [ 6.496472436886502, 53.198140522421888 ], [ 6.496121121700789, 53.1981235714332 ], [ 6.495117875631925, 53.19821106592957 ], [ 6.494476706044045, 53.198195305063884 ], [ 6.494227144334162, 53.19821754929184 ], [ 6.493852056942808, 53.19833551888177 ], [ 6.493504913907542, 53.198497015383609 ], [ 6.493243250824789, 53.198667335989299 ], [ 6.493164137514454, 53.198778330071583 ], [ 6.492956634684745, 53.199259687253438 ], [ 6.492842410107169, 53.199647300787746 ], [ 6.492739136558826, 53.200105795278077 ], [ 6.49270896524682, 53.200334250187396 ], [ 6.492695202882075, 53.200576852169348 ], [ 6.49272562709758, 53.200736342843086 ], [ 6.492786158009984, 53.200896879661208 ], [ 6.492876970951357, 53.200992341184772 ], [ 6.492592654805621, 53.201385830853347 ], [ 6.491671442522765, 53.201185033920915 ], [ 6.48981348034586, 53.202138730608439 ], [ 6.489480242515529, 53.202342399995018 ], [ 6.489387208322141, 53.202433239294272 ], [ 6.489242356518589, 53.202537967718413 ], [ 6.489135871598432, 53.202651275202768 ], [ 6.488924150139785, 53.203131497366627 ], [ 6.485998517891274, 53.20332110822747 ], [ 6.485853011003257, 53.203361082383282 ], [ 6.485757650709731, 53.203442651325702 ], [ 6.485710085652874, 53.203561615132564 ], [ 6.485715912406248, 53.203821263104842 ], [ 6.484559653148794, 53.203828794649915 ], [ 6.483566413260436, 53.203791417015907 ], [ 6.482414652939466, 53.203688262714174 ], [ 6.481791889409708, 53.20359821479726 ], [ 6.481275687195497, 53.203507374032242 ], [ 6.480978236874542, 53.20343300830487 ], [ 6.479406179825699, 53.20315567691987 ], [ 6.472234312192816, 53.201695358777926 ], [ 6.471470253574983, 53.201550692959934 ], [ 6.465660119929681, 53.200542182083566 ], [ 6.464800782566541, 53.200366933088723 ], [ 6.463461423026293, 53.200058233115996 ], [ 6.463332445568702, 53.20039347278901 ] ] ] } }
]
}
