{
"type": "FeatureCollection",
"name": "SWVVO2708",
"crs": { "type": "name", "properties": { "name": "urn:ogc:def:crs:OGC:1.3:CRS84" } },
"features": [
{ "type": "Feature", "properties": { "VO SWV": "VO2708", "strokeColor": "#A9A9A9", "strokeWidth": 2, "fillColor": "#ADD8E6" }, "geometry": { "type": "MultiPolygon", "coordinates": [ [ [ [ 4.728758936961952, 52.400711370858197 ], [ 4.728834391046104, 52.40089160013968 ], [ 4.730064928215925, 52.40448283416228 ], [ 4.730148076471981, 52.404646493640946 ], [ 4.730932963736907, 52.406911241085808 ], [ 4.731047421659728, 52.407298696773822 ], [ 4.73249605252574, 52.411525489045772 ], [ 4.732518874075383, 52.411583707491374 ], [ 4.732565468000566, 52.411594170431954 ], [ 4.732591817596401, 52.411629903811011 ], [ 4.733776368650792, 52.415073644514628 ], [ 4.734739364102153, 52.417776746253018 ], [ 4.735090179224176, 52.418829330706231 ], [ 4.735120447637833, 52.418999359182415 ], [ 4.738112646269921, 52.427805685706581 ], [ 4.738295096006372, 52.428122342323583 ], [ 4.738546546672992, 52.428890706094037 ], [ 4.73854549991986, 52.428934139790883 ], [ 4.738485876333038, 52.428992823668047 ], [ 4.738554631155298, 52.429189078473243 ], [ 4.738469795224626, 52.4292418662261 ], [ 4.738567059282084, 52.429223529754857 ], [ 4.739208096603558, 52.431063829352816 ], [ 4.750221327540155, 52.429618710839158 ], [ 4.76718282745385, 52.427468245388823 ], [ 4.767537905565239, 52.428498101230986 ], [ 4.772459484459634, 52.427868230137307 ], [ 4.783441774506962, 52.426418302625031 ], [ 4.806667328539744, 52.4234488955816 ], [ 4.823589863312495, 52.421255026303641 ], [ 4.824307548343466, 52.421163249248586 ], [ 4.826606641367903, 52.42092099393269 ], [ 4.828585360278614, 52.420680590090406 ], [ 4.831708515570365, 52.420206280475881 ], [ 4.833816506793181, 52.419911202230963 ], [ 4.845285191883043, 52.418468376051692 ], [ 4.848025367716569, 52.418072952733951 ], [ 4.849594690256365, 52.417798295440704 ], [ 4.85077550319897, 52.41757675352639 ], [ 4.851448419827537, 52.417433654769596 ], [ 4.856077731392684, 52.41666223548436 ], [ 4.859488017477458, 52.419785253055686 ], [ 4.859631007817232, 52.419955557541009 ], [ 4.859751575851643, 52.420175942983519 ], [ 4.859857331552154, 52.420472255294754 ], [ 4.859885491090822, 52.420701370850793 ], [ 4.859854189993436, 52.420990407131619 ], [ 4.859806750297627, 52.421127498494911 ], [ 4.859723968103942, 52.421279761775196 ], [ 4.858201230308335, 52.423278911509158 ], [ 4.858032117090509, 52.423514156538346 ], [ 4.85790661305043, 52.423729263267042 ], [ 4.85784629538722, 52.423897856489575 ], [ 4.857811363733048, 52.424180081107032 ], [ 4.857855644134587, 52.424456417020309 ], [ 4.857947588381925, 52.424717123474515 ], [ 4.858110678624243, 52.424977615090725 ], [ 4.858388171536961, 52.425253879004821 ], [ 4.860884692743106, 52.427431342596172 ], [ 4.8624537618266, 52.428775991667223 ], [ 4.862619899555595, 52.429016209663565 ], [ 4.862706335549872, 52.429197574944894 ], [ 4.86273666203653, 52.429314099683118 ], [ 4.86274437818433, 52.42944142999508 ], [ 4.862702091119356, 52.429599284194786 ], [ 4.862804635061236, 52.429623090018652 ], [ 4.86267745503516, 52.429941314960438 ], [ 4.864186483826844, 52.430264051627738 ], [ 4.864206452414129, 52.430374579694444 ], [ 4.865013728812857, 52.430549260051187 ], [ 4.865257078782878, 52.430543360061151 ], [ 4.865572217415778, 52.430618116290589 ], [ 4.865970454820489, 52.430678661653161 ], [ 4.866183928804837, 52.430656657666503 ], [ 4.866690939796253, 52.430671675674112 ], [ 4.867928417911105, 52.430523616229024 ], [ 4.868743223115678, 52.430316273972231 ], [ 4.868962001927338, 52.43023516236412 ], [ 4.869697411247508, 52.429746256293228 ], [ 4.869828218209868, 52.429825105113828 ], [ 4.869933487183178, 52.429968055414051 ], [ 4.870158653294046, 52.430046123181775 ], [ 4.870547024571708, 52.43033179901898 ], [ 4.87062296602493, 52.43036768121484 ], [ 4.870740968945843, 52.430394607821185 ], [ 4.870957543552795, 52.430187870744589 ], [ 4.871233171240669, 52.4301389992902 ], [ 4.872817464101854, 52.428805899382063 ], [ 4.872831985308948, 52.428779359780194 ], [ 4.872809797345423, 52.428756153038385 ], [ 4.87228854424944, 52.428485895564698 ], [ 4.872246981177174, 52.428456011442179 ], [ 4.872247080442519, 52.428436050729708 ], [ 4.872642575870977, 52.428097146580043 ], [ 4.873401398562097, 52.427558942110402 ], [ 4.873640384291861, 52.427412437760559 ], [ 4.874211724448116, 52.427484169960124 ], [ 4.875994070823507, 52.426304357461973 ], [ 4.876393320893277, 52.426059591685714 ], [ 4.876554066691287, 52.426157353695693 ], [ 4.876570996569593, 52.42621206635927 ], [ 4.876816561911987, 52.42607272150935 ], [ 4.877366410547396, 52.425836389557979 ], [ 4.877601329303877, 52.425758416628128 ], [ 4.877951095343978, 52.42566863130866 ], [ 4.878254034320704, 52.425604291343852 ], [ 4.878960791236275, 52.42549485501619 ], [ 4.879649679671519, 52.425503544972749 ], [ 4.880072167073411, 52.425531044404941 ], [ 4.880621322055918, 52.425603904408881 ], [ 4.881000070598899, 52.425679885450187 ], [ 4.881498119950993, 52.42580561269218 ], [ 4.881698496704165, 52.425825782350962 ], [ 4.881688400609164, 52.425874947275112 ], [ 4.881594960021892, 52.425924015823938 ], [ 4.881531143817157, 52.425990713886485 ], [ 4.881807952597406, 52.426021889040548 ], [ 4.882211688029049, 52.425965532967801 ], [ 4.88245564492452, 52.425887858821675 ], [ 4.882719924212431, 52.425729784864174 ], [ 4.882977261548822, 52.42550863134452 ], [ 4.88414144257766, 52.425578149874546 ], [ 4.885289478673752, 52.425612263300764 ], [ 4.885906188966685, 52.425611529670093 ], [ 4.886871296657046, 52.42556407388382 ], [ 4.887574283272762, 52.425569474988407 ], [ 4.887568395821957, 52.425577349968201 ], [ 4.887747762623309, 52.425589939347283 ], [ 4.887686905710477, 52.425584433607398 ], [ 4.888115321931425, 52.425176375308737 ], [ 4.88841585613916, 52.424845916625216 ], [ 4.888772756784959, 52.424957096665203 ], [ 4.888803750224895, 52.424982078202298 ], [ 4.888871494569921, 52.425116468988655 ], [ 4.889279833599733, 52.425260643137904 ], [ 4.889391411409481, 52.425270620804731 ], [ 4.89010591105697, 52.425259958713347 ], [ 4.890134588835002, 52.425441695766658 ], [ 4.890125142196644, 52.425459104819588 ], [ 4.890045925298179, 52.425493247353543 ], [ 4.890056422069242, 52.425618080922256 ], [ 4.891352111962519, 52.425538688629416 ], [ 4.892100683259292, 52.425467538310699 ], [ 4.892458048457469, 52.425448959424145 ], [ 4.894390494957551, 52.425236075947737 ], [ 4.895898512671438, 52.425033784368907 ], [ 4.896233012650456, 52.424968986345192 ], [ 4.896860169698528, 52.424879927293723 ], [ 4.898344954771053, 52.424576396525467 ], [ 4.898405782862544, 52.42458360480915 ], [ 4.898383569259113, 52.424520610779261 ], [ 4.898738687764348, 52.424461532317068 ], [ 4.898741041116423, 52.424489758799481 ], [ 4.899610020441238, 52.424295881109593 ], [ 4.900521843707859, 52.424041727797928 ], [ 4.901885791107688, 52.423623016926122 ], [ 4.902944532541301, 52.423260765154076 ], [ 4.904127096288033, 52.422802392414859 ], [ 4.905670178070007, 52.422142706856562 ], [ 4.906325448328919, 52.421810610917213 ], [ 4.907531040262676, 52.421247270756929 ], [ 4.908082394777311, 52.421124552652373 ], [ 4.907963227398268, 52.420873466389139 ], [ 4.908676809356265, 52.420715043798992 ], [ 4.909609513205379, 52.420271397237741 ], [ 4.910957453780465, 52.419679571014989 ], [ 4.912863108045836, 52.418931174166339 ], [ 4.91386841186675, 52.418556043911096 ], [ 4.913863855401453, 52.4185272416046 ], [ 4.913970079747727, 52.418519730367009 ], [ 4.914045225562974, 52.41849546688524 ], [ 4.914587854170103, 52.418490114706685 ], [ 4.914646419487903, 52.418501129687812 ], [ 4.914703429478241, 52.41867509679934 ], [ 4.915497238260342, 52.4186001423775 ], [ 4.915690275360764, 52.418563814356375 ], [ 4.918196024187252, 52.417494545402505 ], [ 4.919668238070407, 52.416843777903978 ], [ 4.919880449890135, 52.416774975393388 ], [ 4.920265097262035, 52.416614018678487 ], [ 4.920441287331954, 52.416612757618651 ], [ 4.920515586987215, 52.416565622668152 ], [ 4.920547913029565, 52.416517237142266 ], [ 4.920680144948451, 52.416497834817058 ], [ 4.920798285981364, 52.416387767625466 ], [ 4.920890913555232, 52.416327299244401 ], [ 4.921451836829817, 52.416094333725006 ], [ 4.92205528702688, 52.415807588153868 ], [ 4.923456698299772, 52.415243510499707 ], [ 4.925077127899652, 52.414469603185047 ], [ 4.925180374300523, 52.414402978241419 ], [ 4.925470909542082, 52.414267689249236 ], [ 4.925539701135177, 52.414212129116017 ], [ 4.925775651553288, 52.414123995597407 ], [ 4.926875116256046, 52.413617482171773 ], [ 4.927305918663207, 52.413437919451063 ], [ 4.927599612753496, 52.413291123151197 ], [ 4.928381905614416, 52.412964532037059 ], [ 4.928914848457651, 52.412699349876178 ], [ 4.929396720990668, 52.412482488626324 ], [ 4.929862526589372, 52.412296956056998 ], [ 4.930257009525437, 52.412117266942708 ], [ 4.930384395731999, 52.41208130909974 ], [ 4.930406252405435, 52.411942647317275 ], [ 4.930716183843774, 52.411607723747196 ], [ 4.931120263783217, 52.41169267306028 ], [ 4.933406738497508, 52.411866382731127 ], [ 4.934516434548903, 52.411962280729384 ], [ 4.935142324988956, 52.41203977816366 ], [ 4.936099372681732, 52.412263670651221 ], [ 4.939489692836252, 52.413183291126764 ], [ 4.942569662770975, 52.413838686390164 ], [ 4.943570112573492, 52.414148829730124 ], [ 4.944068943307649, 52.414342457243471 ], [ 4.944436401310089, 52.414632430766986 ], [ 4.944554993429031, 52.414750034816372 ], [ 4.944779911296695, 52.415018230605497 ], [ 4.944974531018543, 52.41531553032182 ], [ 4.945097700211438, 52.41557225805839 ], [ 4.945568230452227, 52.416788431804292 ], [ 4.945703571361585, 52.417091786980016 ], [ 4.947216363305848, 52.420373568469898 ], [ 4.94745785602206, 52.420933855841682 ], [ 4.947698137445384, 52.421433769084452 ], [ 4.947788574671442, 52.421562240808193 ], [ 4.948525420906745, 52.421424880633893 ], [ 4.948636174845484, 52.421499817690375 ], [ 4.949709503951065, 52.421925175644546 ], [ 4.949771125719411, 52.421899441326751 ], [ 4.949807964799085, 52.421860600501041 ], [ 4.951481547331682, 52.421929831219593 ], [ 4.951516386775689, 52.421946676838587 ], [ 4.951640627302924, 52.422422297239621 ], [ 4.951643135541367, 52.422534409088001 ], [ 4.951632178533224, 52.422649012240733 ], [ 4.951588810742222, 52.422825060112558 ], [ 4.951496216724668, 52.423007114304767 ], [ 4.951518763356244, 52.423016667132693 ], [ 4.951368195755133, 52.423185801123005 ], [ 4.951962873315177, 52.423369565067254 ], [ 4.952799729698885, 52.422385178674311 ], [ 4.953177650260372, 52.421892923173154 ], [ 4.953189914065155, 52.42185661625205 ], [ 4.9531789737626, 52.421796172182425 ], [ 4.954244759102119, 52.42208856459613 ], [ 4.955140860359331, 52.422229575712798 ], [ 4.955896703141705, 52.42231301092022 ], [ 4.95590704042039, 52.422249213972734 ], [ 4.956899394608199, 52.422357390888322 ], [ 4.97021931406935, 52.422959063857569 ], [ 4.970970125714637, 52.42300359821558 ], [ 4.971748055021076, 52.423091041662531 ], [ 4.972495645004719, 52.423215124944242 ], [ 4.973138252562107, 52.423341609847789 ], [ 4.974234968107102, 52.423625732998275 ], [ 4.975378201222588, 52.424014492739531 ], [ 4.975959195340847, 52.4242642410927 ], [ 4.976238778592608, 52.424026242376364 ], [ 4.97628231398568, 52.424047509925842 ], [ 4.976218160256177, 52.42412086029335 ], [ 4.976281896474692, 52.424159264908532 ], [ 4.98631396145042, 52.428443650940643 ], [ 4.986905253341163, 52.427903078137568 ], [ 4.989208325374434, 52.425877754168127 ], [ 4.98953912309678, 52.42551721861399 ], [ 4.989824163010335, 52.425256037121052 ], [ 4.990130376902468, 52.425042074856961 ], [ 4.990384937226827, 52.424898294753341 ], [ 4.991122587187339, 52.424567566067914 ], [ 4.991146933205322, 52.424574945959705 ], [ 4.991156782259223, 52.424612314922157 ], [ 4.991250581684151, 52.425452577327327 ], [ 4.991263398355666, 52.425480269029599 ], [ 4.991291077171665, 52.42549158417944 ], [ 4.992426946725367, 52.425504076751487 ], [ 4.993460381812795, 52.42549522149293 ], [ 4.995490535761688, 52.425519060103809 ], [ 4.996789116298012, 52.425489173711561 ], [ 4.997127667177908, 52.425511712561978 ], [ 5.000187802820634, 52.42549867339455 ], [ 5.000245307034525, 52.425479984499113 ], [ 5.000292750400143, 52.425406752331213 ], [ 5.0007167292923, 52.425293414260572 ], [ 5.001182126156207, 52.425130374294113 ], [ 5.004343503143264, 52.423978631273876 ], [ 5.005970633203161, 52.423405020310049 ], [ 5.006265806179954, 52.423285966287452 ], [ 5.008357665553321, 52.422558497974052 ], [ 5.009548947611671, 52.422135662126976 ], [ 5.010204079232102, 52.421885347397541 ], [ 5.01063125029751, 52.421746675467169 ], [ 5.013680617413643, 52.420656380215327 ], [ 5.013994562265221, 52.420521579975926 ], [ 5.014779081020897, 52.420245586445731 ], [ 5.015226057219448, 52.420108554384946 ], [ 5.018204872850851, 52.419059640784894 ], [ 5.018413982080881, 52.419128851998607 ], [ 5.018512749423262, 52.419124377093731 ], [ 5.018616414818606, 52.419207110839601 ], [ 5.019312272707299, 52.419510567033463 ], [ 5.019925526043066, 52.419765574800536 ], [ 5.020185920047695, 52.419842370323536 ], [ 5.020313995494489, 52.4198985541071 ], [ 5.020392172100248, 52.419959573474067 ], [ 5.020470126815909, 52.420058650904522 ], [ 5.021154754065704, 52.421068131171737 ], [ 5.021407097126741, 52.421171633927884 ], [ 5.021610884983931, 52.421222048829136 ], [ 5.02193318659035, 52.421063899986351 ], [ 5.022373251109889, 52.420767306070424 ], [ 5.023203216391289, 52.420365821710405 ], [ 5.023558990946278, 52.420266152150369 ], [ 5.024287776937495, 52.420121092414981 ], [ 5.024941382418726, 52.420082790614373 ], [ 5.025622860131965, 52.420152264235817 ], [ 5.026500536889059, 52.42006422326466 ], [ 5.026916381810427, 52.419972591605905 ], [ 5.0272603205674, 52.41986549748642 ], [ 5.028357306766976, 52.419416424563131 ], [ 5.028692854291726, 52.419177293036441 ], [ 5.028979537850979, 52.418858784313016 ], [ 5.029510448152414, 52.418063240363324 ], [ 5.029727775202296, 52.417706851138284 ], [ 5.029944647747378, 52.417203456119218 ], [ 5.030050129075099, 52.416829315905375 ], [ 5.030083778425559, 52.41660939467301 ], [ 5.030108563608999, 52.416205734883448 ], [ 5.030045816069661, 52.415643838931523 ], [ 5.032489003514518, 52.416277388158775 ], [ 5.03346836528728, 52.416685378585221 ], [ 5.034063807001166, 52.417174091479801 ], [ 5.034404830800292, 52.417814135903761 ], [ 5.03476852482244, 52.418059824569532 ], [ 5.035047213932025, 52.418203094767591 ], [ 5.035238108917729, 52.418250995372674 ], [ 5.035470198657498, 52.418273961464799 ], [ 5.035868735591215, 52.418268173092471 ], [ 5.036308694171597, 52.418204050040742 ], [ 5.036874292508302, 52.418088775688908 ], [ 5.039389194527236, 52.417381958534335 ], [ 5.040108868058109, 52.41730728912168 ], [ 5.040188506133801, 52.417363282350955 ], [ 5.040339525891157, 52.417283353328273 ], [ 5.040710904589518, 52.417244812015795 ], [ 5.04259011087919, 52.416984781684612 ], [ 5.043995824825437, 52.416611049919361 ], [ 5.049177135036439, 52.415129290159008 ], [ 5.050925614309318, 52.415278926691009 ], [ 5.055088683644016, 52.415972785206229 ], [ 5.057756544080176, 52.416537776442325 ], [ 5.062089333141317, 52.416183925540217 ], [ 5.0625563642206, 52.4161733230913 ], [ 5.063187856043261, 52.416258297790428 ], [ 5.063682552419793, 52.41643208955098 ], [ 5.064826547984117, 52.416946672621734 ], [ 5.065412546153839, 52.417239446429662 ], [ 5.067934636945231, 52.416570965612678 ], [ 5.068263522825849, 52.416558099376168 ], [ 5.068281828376976, 52.416350422974546 ], [ 5.068425565040992, 52.415763914381266 ], [ 5.06843025496674, 52.415634734223275 ], [ 5.068412710281516, 52.415452510297534 ], [ 5.06836459940839, 52.415323202032894 ], [ 5.068211967056225, 52.415055318303928 ], [ 5.068050948017373, 52.414889892376586 ], [ 5.067864211486826, 52.414637943722816 ], [ 5.067778941077128, 52.414437091969795 ], [ 5.067495097708199, 52.413535737368115 ], [ 5.067269664335552, 52.413422118255504 ], [ 5.067156509736799, 52.413419509058109 ], [ 5.066089970999426, 52.413598823249579 ], [ 5.0643870042987, 52.413912485380308 ], [ 5.062510522436127, 52.414227942193435 ], [ 5.060906594153372, 52.41440343877121 ], [ 5.059285097679112, 52.414652668504445 ], [ 5.058060428231968, 52.414787651064977 ], [ 5.057634034637339, 52.414816445853148 ], [ 5.057004679522124, 52.414770879343813 ], [ 5.056590417136562, 52.414698228796212 ], [ 5.055452044334926, 52.414374447585089 ], [ 5.055121010286157, 52.414267419241114 ], [ 5.052210489489804, 52.413180980311132 ], [ 5.05183544318026, 52.413009017522853 ], [ 5.05148901424492, 52.412816192107854 ], [ 5.051301701758602, 52.412686526401899 ], [ 5.051109162381899, 52.41250807157148 ], [ 5.048945258139756, 52.410028237723452 ], [ 5.048330317824943, 52.409345041967782 ], [ 5.048268366606363, 52.409240178988583 ], [ 5.048100233382574, 52.40885777708516 ], [ 5.047856609674838, 52.408651280506966 ], [ 5.047697793403429, 52.408539197542581 ], [ 5.04759037672847, 52.408420304208875 ], [ 5.046351045886287, 52.406806894011623 ], [ 5.046254655282893, 52.406733323931547 ], [ 5.046180847784917, 52.406691281316505 ], [ 5.045434706245864, 52.406577494410129 ], [ 5.044358847900214, 52.406340670575418 ], [ 5.043647776325848, 52.406115353277727 ], [ 5.042912729825294, 52.40605042884696 ], [ 5.042770399008417, 52.40602211897297 ], [ 5.041961390915483, 52.405554059443695 ], [ 5.041734146094722, 52.405445261854695 ], [ 5.041233702184203, 52.405272878811751 ], [ 5.040971860911911, 52.405216314948618 ], [ 5.039083018153888, 52.405034612822753 ], [ 5.038883629346955, 52.405006114257851 ], [ 5.038371526906735, 52.404872036687308 ], [ 5.038223694939475, 52.404812287197323 ], [ 5.038008069220226, 52.404686099030783 ], [ 5.037742025641347, 52.404437658881307 ], [ 5.037367779587626, 52.404171426226824 ], [ 5.036818200875561, 52.403726800691409 ], [ 5.036628230718678, 52.403595409753905 ], [ 5.036111735304093, 52.403297400122995 ], [ 5.035628792949201, 52.403076184999442 ], [ 5.035088541309817, 52.402900186766537 ], [ 5.034309129894297, 52.402678084227766 ], [ 5.034047555898155, 52.402590109273198 ], [ 5.03396235103337, 52.402544479724213 ], [ 5.033865961687901, 52.402477894755435 ], [ 5.033651642501324, 52.402184269057287 ], [ 5.033238148909808, 52.401837648332979 ], [ 5.033102570467105, 52.401683781556734 ], [ 5.032936444084307, 52.401426933185896 ], [ 5.032857376883852, 52.401336027976491 ], [ 5.032681687396337, 52.401199437471064 ], [ 5.032533729646999, 52.401160611293477 ], [ 5.032026766205582, 52.401096298115952 ], [ 5.031782074585364, 52.401036247390877 ], [ 5.031526423803627, 52.400920334621937 ], [ 5.031390492904994, 52.400811765781199 ], [ 5.031199568297215, 52.400448475750046 ], [ 5.030610624294289, 52.399947871803157 ], [ 5.029555904732759, 52.39888247734855 ], [ 5.029426128781514, 52.398714627603773 ], [ 5.029061275635929, 52.398008976035655 ], [ 5.028764458254112, 52.397347051763902 ], [ 5.028447102522985, 52.396409503871247 ], [ 5.028460616378543, 52.396147877091572 ], [ 5.0285589417865, 52.395970286416762 ], [ 5.028576530064282, 52.395911013850906 ], [ 5.028532089314437, 52.395767882949173 ], [ 5.028464177788189, 52.395701356327251 ], [ 5.028016539738579, 52.395372142328753 ], [ 5.027903672601418, 52.395225267106447 ], [ 5.027701888750955, 52.394802625914664 ], [ 5.027646331641376, 52.394619261233608 ], [ 5.027508140232541, 52.394088646615771 ], [ 5.027475514084643, 52.393893253847388 ], [ 5.027471125418058, 52.393729220404147 ], [ 5.027415460004606, 52.393565104314042 ], [ 5.027181583980069, 52.393234752650208 ], [ 5.02704040254067, 52.393070385197205 ], [ 5.026666706663018, 52.392765806514959 ], [ 5.02659332736045, 52.392671363000879 ], [ 5.02653313223769, 52.392357210351655 ], [ 5.026371614365277, 52.391892763858628 ], [ 5.026289355584298, 52.391493104912421 ], [ 5.026284586580319, 52.391377977327117 ], [ 5.025957817414849, 52.390906055788548 ], [ 5.025873654377945, 52.390741860459549 ], [ 5.025750710228627, 52.390441510286777 ], [ 5.025623498213402, 52.389961482969021 ], [ 5.025584399976677, 52.389863685874985 ], [ 5.025336629470619, 52.389496635004612 ], [ 5.025305557566773, 52.389105844570707 ], [ 5.025177644977205, 52.388718247072504 ], [ 5.025195846175693, 52.388582260796596 ], [ 5.025271627336015, 52.388374929031961 ], [ 5.025278264750747, 52.388259841829957 ], [ 5.025239064498987, 52.388176015517068 ], [ 5.025119923083912, 52.388102372088319 ], [ 5.0247678717099, 52.387940843550702 ], [ 5.024215869681272, 52.387837999519476 ], [ 5.02353033088239, 52.387652469036318 ], [ 5.023339031530616, 52.387548147608967 ], [ 5.022789314623854, 52.387423568502918 ], [ 5.022491394021077, 52.387373498620292 ], [ 5.022198704349816, 52.387379618026131 ], [ 5.021894328863712, 52.387424311062119 ], [ 5.021634506152364, 52.387393993719577 ], [ 5.020656206470861, 52.387146803129035 ], [ 5.019979991330022, 52.386956801096808 ], [ 5.01926220192378, 52.386688026271294 ], [ 5.01901992923885, 52.386560341294931 ], [ 5.018937455693981, 52.386502562013689 ], [ 5.018888128720732, 52.386441407613582 ], [ 5.01870946305917, 52.386148103805034 ], [ 5.018446173282832, 52.385549772108845 ], [ 5.018358967762219, 52.385392073807196 ], [ 5.018151253575789, 52.385095219393449 ], [ 5.018041638409851, 52.384974683258591 ], [ 5.017892149777759, 52.384823549225665 ], [ 5.017644873743156, 52.384629815394952 ], [ 5.017344916598934, 52.384456261146411 ], [ 5.017136756808746, 52.384374347570095 ], [ 5.016932575314075, 52.384317852536519 ], [ 5.016581928829842, 52.384254124853598 ], [ 5.016163036921882, 52.384240977892397 ], [ 5.01590287195338, 52.384265542387396 ], [ 5.014488835890229, 52.384530243684452 ], [ 5.014199648971585, 52.384572527443829 ], [ 5.014117177828553, 52.384561433538757 ], [ 5.012865473027845, 52.384206933057278 ], [ 5.012737368260021, 52.38415067221375 ], [ 5.012621911096772, 52.384058890596869 ], [ 5.008931962423639, 52.382852162729279 ], [ 5.008696985196909, 52.382787042136528 ], [ 5.008534704813162, 52.382765887068992 ], [ 5.008457027442933, 52.382729091895982 ], [ 5.008614973912444, 52.382704247358433 ], [ 5.008921717762096, 52.382750551179903 ], [ 5.009098289381039, 52.382801902497036 ], [ 5.012712387304669, 52.384001637368542 ], [ 5.012847616643036, 52.38403423604607 ], [ 5.013007872827585, 52.3840482853156 ], [ 5.013060575821804, 52.384033198740354 ], [ 5.013135820762202, 52.383962358603831 ], [ 5.013133823928662, 52.383542576149303 ], [ 5.013081794486111, 52.383483164256262 ], [ 5.012957581511405, 52.383457386850857 ], [ 5.012418590948577, 52.383423526254397 ], [ 5.012062318588121, 52.383363146099768 ], [ 5.012012543160409, 52.383362988820359 ], [ 5.0119401113577, 52.383406782915976 ], [ 5.011829640343998, 52.383406403502931 ], [ 5.011533191872788, 52.383309016216138 ], [ 5.011289912164782, 52.383294671796342 ], [ 5.011119306822394, 52.383197675011324 ], [ 5.010923595789938, 52.383132757954037 ], [ 5.010868594570334, 52.383093638106232 ], [ 5.010852210081442, 52.383061180199462 ], [ 5.010848122913141, 52.382893712380699 ], [ 5.01091518801048, 52.382645272236509 ], [ 5.011030629202324, 52.382410254819568 ], [ 5.011205682283904, 52.382170435059777 ], [ 5.011321808918306, 52.382140412144395 ], [ 5.011460196197876, 52.382140852081626 ], [ 5.011755189728486, 52.382243343206035 ], [ 5.012042305289482, 52.382301794835072 ], [ 5.01217915931566, 52.382302226939821 ], [ 5.012367637076292, 52.38224530250141 ], [ 5.012458801201516, 52.382252333704997 ], [ 5.012756732995621, 52.382354838849928 ], [ 5.012834156438526, 52.382351693068578 ], [ 5.012973139552545, 52.382267504153788 ], [ 5.013278297491155, 52.382034056120553 ], [ 5.013303801665805, 52.381991374102974 ], [ 5.013292932524947, 52.381955423327618 ], [ 5.013229109918697, 52.381900497262826 ], [ 5.013028948603806, 52.381793889512771 ], [ 5.013010779268898, 52.381758578734406 ], [ 5.0134001260306, 52.381839440481585 ], [ 5.013498090924736, 52.381834151849993 ], [ 5.013562034079503, 52.38179203853737 ], [ 5.013570608695526, 52.381759901263237 ], [ 5.013551804445251, 52.381698800675615 ], [ 5.013560669266302, 52.381627844463921 ], [ 5.013549946871358, 52.381587186702717 ], [ 5.013484738965598, 52.38144817809669 ], [ 5.013387612626524, 52.381329447101862 ], [ 5.013667521943941, 52.38092576824463 ], [ 5.013774554409367, 52.380861756368205 ], [ 5.013783156843686, 52.380819712232672 ], [ 5.013784498618869, 52.380665435869055 ], [ 5.013750532383969, 52.380430116790379 ], [ 5.013747877461028, 52.380254006392825 ], [ 5.013687695886305, 52.380182807435311 ], [ 5.013677128892722, 52.380116669866545 ], [ 5.013677785809892, 52.380038863283083 ], [ 5.013712173731137, 52.379896723861762 ], [ 5.013729436923141, 52.379653037053558 ], [ 5.013626272823764, 52.379266926083609 ], [ 5.01364081878312, 52.379177134134849 ], [ 5.013608237923017, 52.379104205032817 ], [ 5.013600545006768, 52.379036728653638 ], [ 5.013631208221497, 52.379004450684711 ], [ 5.013628623630533, 52.378982444604603 ], [ 5.013520448576112, 52.378875573564024 ], [ 5.013509529566207, 52.378844867624252 ], [ 5.013510080353072, 52.378824471290187 ], [ 5.013570772348453, 52.378794371519163 ], [ 5.013568414399966, 52.378745274972246 ], [ 5.013238506565108, 52.378378777132497 ], [ 5.012990579393118, 52.378247513717945 ], [ 5.012797646274987, 52.378167289593968 ], [ 5.012737707665165, 52.378063895316764 ], [ 5.012671825939271, 52.377841950960317 ], [ 5.012633644786423, 52.377780916698036 ], [ 5.012425068149658, 52.37759745531077 ], [ 5.012392518281018, 52.377526414147752 ], [ 5.01240391531844, 52.377483977431403 ], [ 5.012445778748457, 52.377448483019002 ], [ 5.012575891139747, 52.377404964566558 ], [ 5.012674213866181, 52.377398471866982 ], [ 5.012790771808579, 52.37734805196591 ], [ 5.013064482228041, 52.37712427727152 ], [ 5.013038704196575, 52.377021600245719 ], [ 5.012940390442809, 52.376930305144292 ], [ 5.012804773487863, 52.376745659711894 ], [ 5.01267262596262, 52.376617099594441 ], [ 5.012562694719073, 52.376556140534696 ], [ 5.012442394823211, 52.3765429575136 ], [ 5.012403781641986, 52.376515734144682 ], [ 5.012354872456338, 52.376412331545311 ], [ 5.012316284689263, 52.376232802744006 ], [ 5.012250896334274, 52.376117475612581 ], [ 5.012185050321233, 52.376059720121646 ], [ 5.012050152656869, 52.375986505665267 ], [ 5.011875160949819, 52.375919950885162 ], [ 5.011739770304285, 52.375899090849316 ], [ 5.01170171130329, 52.375839952929425 ], [ 5.01168569666866, 52.375765315940896 ], [ 5.011683449058912, 52.375705974734593 ], [ 5.011707037308857, 52.375615464341656 ], [ 5.012091270717052, 52.374956683078977 ], [ 5.012096074524931, 52.374918501099494 ], [ 5.012082891525816, 52.374893893861994 ], [ 5.011669621247142, 52.374630007085713 ], [ 5.011724888974578, 52.374567012527336 ], [ 5.01192606913483, 52.374487836409038 ], [ 5.011946468630679, 52.374451043259121 ], [ 5.011857011040999, 52.374253440335835 ], [ 5.011761482620666, 52.374180074267947 ], [ 5.01155046305645, 52.374078072529542 ], [ 5.011516111285092, 52.374043679762828 ], [ 5.012859939347042, 52.373219379773914 ], [ 5.012808482581024, 52.373185418811858 ], [ 5.01195460264128, 52.373709931731597 ], [ 5.011886178395805, 52.373706217675448 ], [ 5.011739358963955, 52.373664529588844 ], [ 5.011569103756654, 52.373549823275859 ], [ 5.011508282826403, 52.373529077090346 ], [ 5.011072403667141, 52.37345486560762 ], [ 5.010931363633174, 52.373398039384355 ], [ 5.010568452387511, 52.373314583340772 ], [ 5.010534911737643, 52.373282611748529 ], [ 5.010339522049651, 52.373200733844172 ], [ 5.010321765206038, 52.37318085961752 ], [ 5.009937240709631, 52.373108496804157 ], [ 5.009830784420259, 52.37302954886227 ], [ 5.009745519577099, 52.372993734668306 ], [ 5.009629595261186, 52.372980276726786 ], [ 5.009547329075982, 52.372925696720067 ], [ 5.009440417177916, 52.372919757498451 ], [ 5.009195064467739, 52.372980651234123 ], [ 5.008860125571225, 52.372850504806493 ], [ 5.008510404909218, 52.372584137974535 ], [ 5.008359454371247, 52.372563906618183 ], [ 5.007910279721227, 52.372652313891983 ], [ 5.007754533636862, 52.372706739847402 ], [ 5.006624788289327, 52.373499391768739 ], [ 5.006538107763202, 52.373539302474725 ], [ 5.003077164527543, 52.37452138829439 ], [ 5.001759552295334, 52.374918021597281 ], [ 5.001696904122356, 52.374947832739529 ], [ 5.00133372406077, 52.375219366086156 ], [ 5.001306528423631, 52.375271099524291 ], [ 5.001247124076548, 52.375442763163079 ], [ 5.000814049401037, 52.377084688644722 ], [ 5.000584810021397, 52.377309705459105 ], [ 4.999904230892586, 52.378234456993177 ], [ 4.99975949338948, 52.378332006770208 ], [ 4.998731138615282, 52.378717576201254 ], [ 4.998620533907562, 52.3787811862437 ], [ 4.99852903441174, 52.378783229573969 ], [ 4.998325681343755, 52.378746445673968 ], [ 4.998185215120441, 52.37867716454992 ], [ 4.998114835961516, 52.378659413610855 ], [ 4.998073459199533, 52.378634548409721 ], [ 4.997959795982782, 52.378480848833476 ], [ 4.997870060963472, 52.378398200697056 ], [ 4.997736173118539, 52.378323925350479 ], [ 4.997652764889318, 52.378316549490677 ], [ 4.997541188602358, 52.378354477176593 ], [ 4.997494808457307, 52.378352940640411 ], [ 4.997236950631148, 52.378264077160033 ], [ 4.997042486344197, 52.378222259776535 ], [ 4.996847796899541, 52.378208849218865 ], [ 4.996495038311103, 52.378231808878141 ], [ 4.996239484996463, 52.378158573791069 ], [ 4.995956482113248, 52.378151935470868 ], [ 4.995811051410554, 52.378100415729428 ], [ 4.995681918167367, 52.378003407806318 ], [ 4.995097916364261, 52.377831139243384 ], [ 4.994965725070843, 52.377817867265058 ], [ 4.994815783938684, 52.377737921959714 ], [ 4.994701247064574, 52.377710572165157 ], [ 4.994652516091519, 52.3777118286622 ], [ 4.994542988278827, 52.377759727550583 ], [ 4.994441161418074, 52.377745198656619 ], [ 4.994271765540223, 52.377761664155436 ], [ 4.993962333736828, 52.377872780598786 ], [ 4.993846875271898, 52.377944811271881 ], [ 4.993661908703971, 52.378142939519286 ], [ 4.993654733835812, 52.37816991116896 ], [ 4.993705193220025, 52.378233949648354 ], [ 4.99415132733218, 52.378395848390745 ], [ 4.994309166851186, 52.37850708665971 ], [ 4.994380886591125, 52.378532887514083 ], [ 4.996938482065144, 52.379236954661359 ], [ 4.997896441305891, 52.379484280358611 ], [ 4.997996142133245, 52.379486034874567 ], [ 4.998035701336216, 52.379470555827766 ], [ 4.998129580891347, 52.379381555067582 ], [ 4.998484841911814, 52.379481883836057 ], [ 4.998402877604741, 52.379657670077961 ], [ 4.998378864732511, 52.379756738230249 ], [ 4.998225690152713, 52.37977070286221 ], [ 4.995740435494245, 52.379127955769377 ], [ 4.993787933037108, 52.378574935498193 ], [ 4.992182743510289, 52.378095449997325 ], [ 4.991281012991265, 52.37776275764012 ], [ 4.991422964600231, 52.37761512920224 ], [ 4.991247765243114, 52.377539862623848 ], [ 4.991307991131297, 52.377486725392991 ], [ 4.991447960385196, 52.377540630723971 ], [ 4.991538677168588, 52.377555864002311 ], [ 4.991714194138117, 52.377449374112928 ], [ 4.991767010342619, 52.37720042077742 ], [ 4.991313875447219, 52.377222302227572 ], [ 4.990811635461132, 52.37737251264906 ], [ 4.990748736302092, 52.377425994794201 ], [ 4.990711631684227, 52.377401998494904 ], [ 4.99061184908825, 52.377425640620594 ], [ 4.990567985650514, 52.377385905930261 ], [ 4.989740559403064, 52.377598896056355 ], [ 4.989490353427795, 52.377568265286385 ], [ 4.989354870202854, 52.377525271109292 ], [ 4.988593715174613, 52.377142789875343 ], [ 4.987858435538874, 52.376826677546099 ], [ 4.987790442922346, 52.37675535802255 ], [ 4.987610583907453, 52.376486323424324 ], [ 4.987448085921915, 52.37634998385338 ], [ 4.986506172700674, 52.375814930883273 ], [ 4.985317188779858, 52.375081561157543 ], [ 4.984779807760289, 52.37489973403035 ], [ 4.98453159284377, 52.37476253379829 ], [ 4.984133751013538, 52.374434018254853 ], [ 4.984031968242635, 52.374326995134098 ], [ 4.983869147097124, 52.37411106698481 ], [ 4.983762994132314, 52.374031674118633 ], [ 4.983345438412625, 52.373923939520452 ], [ 4.983064917122107, 52.373895670036518 ], [ 4.982695065750887, 52.373878043673038 ], [ 4.982347723521554, 52.373900541191567 ], [ 4.982004128174464, 52.373770200542083 ], [ 4.981957069579041, 52.373736145761562 ], [ 4.981801354198832, 52.373507404047508 ], [ 4.981771810149532, 52.373486722834585 ], [ 4.981657308591664, 52.373460927232607 ], [ 4.981598501075838, 52.373473395741179 ], [ 4.981459892401053, 52.373544712318207 ], [ 4.981306927927629, 52.373668812688372 ], [ 4.981168359936012, 52.373744315795733 ], [ 4.981071317780403, 52.373773637035363 ], [ 4.980988410097821, 52.373775455646474 ], [ 4.980509804178768, 52.373678783722134 ], [ 4.980264916518745, 52.373665277698215 ], [ 4.980181994933877, 52.373681881553878 ], [ 4.98011958568079, 52.373715463413902 ], [ 4.979858713602338, 52.374102991831002 ], [ 4.979281504111146, 52.374875423103155 ], [ 4.97869598910563, 52.375568878977056 ], [ 4.978500675261291, 52.375765580570821 ], [ 4.978256990926613, 52.375958715930345 ], [ 4.977456376419928, 52.376514854243766 ], [ 4.976980123755989, 52.376883841025318 ], [ 4.976797189987143, 52.377035568406626 ], [ 4.976056185668258, 52.377731192446703 ], [ 4.975420017228405, 52.378284568431766 ], [ 4.974549209314555, 52.379010466676625 ], [ 4.973967696387245, 52.379440743694801 ], [ 4.974106563131257, 52.378937599771184 ], [ 4.974142962250759, 52.378156340415714 ], [ 4.974111567560685, 52.378069018105663 ], [ 4.974097844319247, 52.378067722385438 ], [ 4.974197919273418, 52.377467232008662 ], [ 4.974319222920776, 52.376490491021876 ], [ 4.974376378720711, 52.374422157588072 ], [ 4.974320183628453, 52.373759117385433 ], [ 4.97412926388072, 52.372490796991407 ], [ 4.974024666019411, 52.37196261171664 ], [ 4.974541520660435, 52.371687782787077 ], [ 4.974534666599107, 52.371650141403641 ], [ 4.974672490372839, 52.371559443461031 ], [ 4.97594423663589, 52.370878052415094 ], [ 4.976950362558732, 52.3703664830864 ], [ 4.977960125186766, 52.369897561447438 ], [ 4.978997281901933, 52.369443568845504 ], [ 4.980100577645864, 52.369028979409002 ], [ 4.981203836023113, 52.368639937105272 ], [ 4.982338622880866, 52.368275211603319 ], [ 4.983492696134697, 52.367954258108114 ], [ 4.985750271672996, 52.367401208497732 ], [ 4.986965596759794, 52.367166265688454 ], [ 4.988374616738239, 52.366936614605642 ], [ 4.989551547232743, 52.366771014551503 ], [ 4.991825908031131, 52.36654646884039 ], [ 4.992988095167263, 52.366478681555805 ], [ 4.99475241802174, 52.366431033693715 ], [ 4.996625772413588, 52.366444774341169 ], [ 4.997246498114587, 52.366469265474294 ], [ 4.99732546317288, 52.366422652140216 ], [ 4.997325787061668, 52.366392805195211 ], [ 4.997288232568703, 52.366358222450415 ], [ 4.996425589187662, 52.366325764066154 ], [ 4.994634729249981, 52.366313059766028 ], [ 4.993465920896274, 52.366347645867215 ], [ 4.991761442953718, 52.366456530355457 ], [ 4.990594634079939, 52.366561925622619 ], [ 4.989350980355527, 52.366707784675619 ], [ 4.987865667208922, 52.366926642911913 ], [ 4.986927633260897, 52.367085496677205 ], [ 4.985704998567505, 52.367320404472018 ], [ 4.983670759700226, 52.367792110923887 ], [ 4.982154859783924, 52.368216659104007 ], [ 4.979676284585142, 52.369057627442004 ], [ 4.979574510121812, 52.369038500995671 ], [ 4.979187152872454, 52.368847184126345 ], [ 4.978998162609868, 52.368784724555468 ], [ 4.978626810105855, 52.368717068057066 ], [ 4.9739740542834, 52.368671669502739 ], [ 4.973660205355615, 52.368571913155463 ], [ 4.973593497634731, 52.368518148042234 ], [ 4.973303613667785, 52.368008663640175 ], [ 4.973251539157642, 52.367848654650551 ], [ 4.973287603747074, 52.36756167254137 ], [ 4.973402512614555, 52.367463354895982 ], [ 4.973813431717933, 52.367211703759075 ], [ 4.974978128474009, 52.366596312547742 ], [ 4.97582893094025, 52.366076016693356 ], [ 4.975859185407828, 52.366003634582476 ], [ 4.975757493990058, 52.365876282781095 ], [ 4.976024542759492, 52.36572791843404 ], [ 4.975907550714585, 52.365627991956998 ], [ 4.977751679126614, 52.364646563335747 ], [ 4.977879661991325, 52.364738632721682 ], [ 4.978152284355265, 52.364593521277264 ], [ 4.978276225335477, 52.364660006635717 ], [ 4.978580611383807, 52.364548064838161 ], [ 4.980911637519262, 52.363295279645151 ], [ 4.983646072399092, 52.364426343521799 ], [ 4.983638272056704, 52.364476830190632 ], [ 4.983571938944124, 52.36447195140677 ], [ 4.9835396172084, 52.364485930303523 ], [ 4.983555563878459, 52.364504294896513 ], [ 4.983633566804187, 52.364508396251601 ], [ 4.983602556393306, 52.364701075116947 ], [ 4.983544394094303, 52.364700161550878 ], [ 4.983509976064445, 52.36471750935317 ], [ 4.983519006133715, 52.364728195044165 ], [ 4.983707429168344, 52.364741032069681 ], [ 4.983771817694488, 52.364309637390953 ], [ 4.983887703256343, 52.364357935661594 ], [ 4.983824900245115, 52.364748739262076 ], [ 4.983869555554247, 52.364751662162625 ], [ 4.983905684347273, 52.364532878494273 ], [ 4.984738646757979, 52.364874533285708 ], [ 4.984604223634351, 52.364996499158501 ], [ 4.98449340561548, 52.364953552692803 ], [ 4.984224425175815, 52.365217934051074 ], [ 4.984691517794056, 52.365672910542997 ], [ 4.986746724551398, 52.365114088255019 ], [ 4.988146006120078, 52.364699066403396 ], [ 4.989714437696766, 52.364168505364113 ], [ 4.990776646387397, 52.363771139491611 ], [ 4.990624828315457, 52.363650695629062 ], [ 4.990228678848439, 52.363790680216283 ], [ 4.989072410024946, 52.362971476986864 ], [ 4.989426955775703, 52.362772431420701 ], [ 4.986625403982386, 52.360808702980073 ], [ 4.985802195260066, 52.361238825798083 ], [ 4.985388583920284, 52.360922351154315 ], [ 4.986291683986622, 52.360439258680941 ], [ 4.986311155326351, 52.360398494247285 ], [ 4.986301468245799, 52.360375746662271 ], [ 4.986060052741855, 52.360277004518032 ], [ 4.986944208552133, 52.359806313830028 ], [ 4.987391466430689, 52.359965205729061 ], [ 4.987698592133103, 52.359785897633309 ], [ 4.992077718829107, 52.361657968322845 ], [ 4.995621899484061, 52.360108123539682 ], [ 4.996531011788816, 52.359691030381086 ], [ 5.004480193303125, 52.355451019194426 ], [ 5.004704650181296, 52.355387790279472 ], [ 5.00474500973564, 52.355317644587963 ], [ 5.005735735642201, 52.354795711119166 ], [ 5.006119991591147, 52.355064269673491 ], [ 5.006466402887323, 52.354882551945664 ], [ 5.005940181841003, 52.354507558779311 ], [ 5.006008064348839, 52.354471812370242 ], [ 5.006534816567161, 52.354846658108556 ], [ 5.006587496329367, 52.35481900215354 ], [ 5.006244662052167, 52.354553212640759 ], [ 5.007850266180149, 52.353676942433914 ], [ 5.009008192483565, 52.353280787546467 ], [ 5.009143517848252, 52.353247609946699 ], [ 5.009261582529342, 52.353221637343523 ], [ 5.009742786983693, 52.353273730115241 ], [ 5.009841144074358, 52.353324839255549 ], [ 5.00983871528101, 52.353313109665834 ], [ 5.009856611336132, 52.353309837414798 ], [ 5.010604029016911, 52.35354692020627 ], [ 5.011092985388858, 52.353678390635238 ], [ 5.011413966992844, 52.353809385168979 ], [ 5.011990401291763, 52.353981488874503 ], [ 5.012107034111666, 52.354044591666373 ], [ 5.012661619312771, 52.354216652532457 ], [ 5.01310641973935, 52.354383800354626 ], [ 5.01445607709522, 52.354777758568282 ], [ 5.014967022013467, 52.354963192180108 ], [ 5.015171152041231, 52.355062434670735 ], [ 5.015981075230154, 52.355315880759512 ], [ 5.016296122672504, 52.355371751720632 ], [ 5.020090106508876, 52.356386953118964 ], [ 5.020232856841163, 52.356393229605494 ], [ 5.020233593903167, 52.356381592898536 ], [ 5.020371941349324, 52.356344749961622 ], [ 5.020396467748711, 52.356215576291326 ], [ 5.020516121094345, 52.355901220828081 ], [ 5.021016847524312, 52.355243703152659 ], [ 5.021104772357007, 52.354977218722404 ], [ 5.021234962587769, 52.354780776345699 ], [ 5.021346057010655, 52.354300056244576 ], [ 5.021254015227433, 52.354216676106873 ], [ 5.021261959796172, 52.354103100742925 ], [ 5.020687787263659, 52.354019010869152 ], [ 5.020590995511975, 52.3540396806386 ], [ 5.020257809435182, 52.354035554915846 ], [ 5.019066890731437, 52.35390833779315 ], [ 5.018480028429599, 52.353906509741734 ], [ 5.018178393627047, 52.353924419868392 ], [ 5.018115609319249, 52.353865692696374 ], [ 5.017794132340732, 52.353995471613224 ], [ 5.017444037087312, 52.354047874513412 ], [ 5.016949435571373, 52.353986839756473 ], [ 5.01653411546242, 52.353747840897398 ], [ 5.016418724963479, 52.35360465122529 ], [ 5.016400955842, 52.35344390674922 ], [ 5.016713711132916, 52.353159794299394 ], [ 5.018956099905598, 52.350860142932476 ], [ 5.019163712882731, 52.350408970755026 ], [ 5.018779095254303, 52.349961901443486 ], [ 5.018294757250871, 52.349829591581205 ], [ 5.015758612681595, 52.348953707947217 ], [ 5.015180350461255, 52.348795872482057 ], [ 5.015134485174065, 52.348727445847103 ], [ 5.015147737168508, 52.348613048098102 ], [ 5.015236746395716, 52.348368013493491 ], [ 5.015429740110316, 52.348067265903957 ], [ 5.015491404092788, 52.348005438858628 ], [ 5.015513583268916, 52.347954144344648 ], [ 5.015473902708957, 52.347870325361946 ], [ 5.015421405307228, 52.347834009732246 ], [ 5.015337652572754, 52.347818525801053 ], [ 5.015129509328059, 52.34783101165651 ], [ 5.016743240708691, 52.34590292922227 ], [ 5.017918596422185, 52.346897301834701 ], [ 5.017990282565016, 52.34702164637887 ], [ 5.01806689458081, 52.347103342763951 ], [ 5.018707128141225, 52.347651886352715 ], [ 5.018747009962328, 52.347701354079888 ], [ 5.01883304558007, 52.347769822353605 ], [ 5.019051728516508, 52.347878481993803 ], [ 5.019221451137437, 52.347918786456106 ], [ 5.019351860598687, 52.347930155840572 ], [ 5.02239638933945, 52.347979356885446 ], [ 5.023890750443704, 52.348042710481025 ], [ 5.024269446964555, 52.348098006238459 ], [ 5.025257807579676, 52.348297480464957 ], [ 5.025766016805171, 52.348417325513829 ], [ 5.026291287393828, 52.34858260325332 ], [ 5.026675127401638, 52.348721978854499 ], [ 5.026860359209382, 52.3487722975688 ], [ 5.02699957704357, 52.348785927658881 ], [ 5.027371114602793, 52.348732269450345 ], [ 5.027511084284561, 52.348679828477145 ], [ 5.027719028678621, 52.348537282579017 ], [ 5.028247489870558, 52.348128018005021 ], [ 5.028404432273143, 52.347970666577581 ], [ 5.02873329426563, 52.347712036674281 ], [ 5.029777489658179, 52.347076000690528 ], [ 5.030896035285492, 52.346454114594259 ], [ 5.031068951002105, 52.346450271096728 ], [ 5.035228723408086, 52.345529004265153 ], [ 5.035051584672549, 52.34469221749633 ], [ 5.034953121996026, 52.344703643418796 ], [ 5.035121017049033, 52.345486608592772 ], [ 5.031112595186567, 52.346359927241217 ], [ 5.031093383286375, 52.346352583822494 ], [ 5.031722068098467, 52.34600696388781 ], [ 5.032862775406759, 52.345412033616554 ], [ 5.03405492698827, 52.344908030444451 ], [ 5.033913617352605, 52.344813279264208 ], [ 5.033690330869219, 52.344913127698632 ], [ 5.033602078272302, 52.344890856219379 ], [ 5.033467826200622, 52.344923628434913 ], [ 5.033426288328116, 52.344907886505212 ], [ 5.033410155164846, 52.3448621720839 ], [ 5.033426863947427, 52.344831754488148 ], [ 5.03348989185175, 52.344816300859257 ], [ 5.033602623087495, 52.344821734046171 ], [ 5.033582192570728, 52.344762809934252 ], [ 5.033361651315357, 52.344644412216844 ], [ 5.033057006705075, 52.344564122187244 ], [ 5.032819133056353, 52.344525035066496 ], [ 5.032536230896564, 52.344523873576314 ], [ 5.032208476961593, 52.344615333090566 ], [ 5.032056392723216, 52.344632686425534 ], [ 5.031849907053798, 52.34458516478994 ], [ 5.031647571060192, 52.344509507831255 ], [ 5.031484583773972, 52.344290901730396 ], [ 5.031440116160605, 52.344093599742564 ], [ 5.031334695015921, 52.343870488432657 ], [ 5.031216892731035, 52.343750411228733 ], [ 5.031160640536483, 52.343631450210275 ], [ 5.031200807048439, 52.343559009751282 ], [ 5.031325506481198, 52.343471265167267 ], [ 5.03139201051623, 52.343401390086633 ], [ 5.031450550402183, 52.343300564253148 ], [ 5.031519671219274, 52.343272714379907 ], [ 5.031680194625544, 52.343296669205131 ], [ 5.03175277396818, 52.343317998910059 ], [ 5.032229541657003, 52.343550664382498 ], [ 5.032617264464105, 52.343659306264406 ], [ 5.033109761126418, 52.343735016976318 ], [ 5.033276322291136, 52.343794329555131 ], [ 5.033350935029621, 52.343889461969944 ], [ 5.033336430294907, 52.344137547226005 ], [ 5.033356370256121, 52.344275953548099 ], [ 5.033443350064976, 52.344357979434399 ], [ 5.033609981088743, 52.344419899031656 ], [ 5.03433132008796, 52.344578105485276 ], [ 5.034384729429919, 52.344604738390899 ], [ 5.034115170248427, 52.344723192127532 ], [ 5.0341520132954, 52.344775313373816 ], [ 5.03425370139366, 52.344819930303316 ], [ 5.034547982088999, 52.344718464151313 ], [ 5.034778832854109, 52.344613462497655 ], [ 5.034942881641028, 52.344530091229792 ], [ 5.035009651776736, 52.344473425034863 ], [ 5.035040951694914, 52.344424800906232 ], [ 5.035059502289042, 52.344316532991975 ], [ 5.035033877824078, 52.344191496316277 ], [ 5.034376503960594, 52.341826072297401 ], [ 5.034088046390614, 52.340864074196247 ], [ 5.034088424491062, 52.340820623570409 ], [ 5.034137433072973, 52.340761184551994 ], [ 5.034155488833051, 52.340712541294323 ], [ 5.034142416510805, 52.340688088098261 ], [ 5.034089634503483, 52.340655451100268 ], [ 5.033798492544935, 52.34058689263852 ], [ 5.028815341119716, 52.33921265018995 ], [ 5.02668464319484, 52.338642814237268 ], [ 5.026022591229347, 52.338481448327641 ], [ 5.025886181955252, 52.338400101172297 ], [ 5.025996958323542, 52.338260798306486 ], [ 5.028046740034935, 52.33880502776433 ], [ 5.02805548457433, 52.338600635706044 ], [ 5.026221469821571, 52.338080608301524 ], [ 5.02541797561224, 52.33760572470603 ], [ 5.025500368781757, 52.33748527297633 ], [ 5.026095151527053, 52.337477371883892 ], [ 5.026236346955349, 52.33752079679472 ], [ 5.026292963678617, 52.337496335368009 ], [ 5.026372680602147, 52.337511211389774 ], [ 5.026373249900424, 52.337546997915403 ], [ 5.027416600581728, 52.337833070466473 ], [ 5.027460687746924, 52.337772602382572 ], [ 5.027541033397198, 52.337736210970164 ], [ 5.02365895657243, 52.336511788818768 ], [ 5.022563665998349, 52.33598189459493 ], [ 5.02193804897049, 52.335703301256871 ], [ 5.021119133120496, 52.335262557040458 ], [ 5.020589557086133, 52.335027932515857 ], [ 5.019514283851024, 52.334517907015375 ], [ 5.01846260522157, 52.334074452164685 ], [ 5.017480990379246, 52.333503504307181 ], [ 5.016123787581283, 52.332643206563461 ], [ 5.016097387074342, 52.33261783084906 ], [ 5.016270193460608, 52.332404236530188 ], [ 5.01630978316186, 52.332375118853037 ], [ 5.018301537385219, 52.332340794333867 ], [ 5.019178498946498, 52.332300728445666 ], [ 5.020136714416336, 52.332214424322309 ], [ 5.021349100781692, 52.332022984347084 ], [ 5.021790017235273, 52.331929266093148 ], [ 5.022162481889458, 52.33196358215222 ], [ 5.024778530453079, 52.332116223086572 ], [ 5.024797905791673, 52.331434358285904 ], [ 5.024814654284041, 52.33139769837787 ], [ 5.024857642385641, 52.33138461537736 ], [ 5.025559170633278, 52.331319503158745 ], [ 5.025997824451794, 52.331304716414898 ], [ 5.027050190976331, 52.33132786799181 ], [ 5.028183834530797, 52.331312397313326 ], [ 5.029969396006582, 52.331136775728275 ], [ 5.030532876252521, 52.33106482729255 ], [ 5.030591122296505, 52.33107534543214 ], [ 5.030700722456841, 52.331148726606685 ], [ 5.030775802379862, 52.331151106492825 ], [ 5.031408251187074, 52.331047844987928 ], [ 5.031814145734216, 52.33095916009065 ], [ 5.03287144179115, 52.330796285707876 ], [ 5.036506321429113, 52.330188319744153 ], [ 5.038885347193846, 52.32975588773315 ], [ 5.041940005050861, 52.329159554355932 ], [ 5.046090642949658, 52.328259084087307 ], [ 5.046180222877897, 52.328264352965043 ], [ 5.04640904530299, 52.328373797996299 ], [ 5.046566184705754, 52.328371241492874 ], [ 5.046840764492893, 52.32851171106271 ], [ 5.048054789653027, 52.328235157720563 ], [ 5.050573908722796, 52.327621741622217 ], [ 5.050614627756077, 52.327625931052943 ], [ 5.050638425430981, 52.327652330455479 ], [ 5.050877739870676, 52.328122329834322 ], [ 5.052907411331081, 52.327428427259953 ], [ 5.053357736934148, 52.327262528702782 ], [ 5.053885504788417, 52.327031783527119 ], [ 5.054979334924898, 52.326701463328376 ], [ 5.054612947529509, 52.326376740939473 ], [ 5.056228525371775, 52.325928701687772 ], [ 5.05536361224156, 52.325586379008371 ], [ 5.055571467468701, 52.325532529991747 ], [ 5.055645745547852, 52.325420681826621 ], [ 5.055686441670048, 52.325410579245016 ], [ 5.055810844812591, 52.325441592782568 ], [ 5.057203583105666, 52.325101917617893 ], [ 5.057949345058249, 52.324896361064653 ], [ 5.058870398009453, 52.324598623197417 ], [ 5.059014163739459, 52.324512475081427 ], [ 5.059513452255847, 52.324315045414359 ], [ 5.060123569747294, 52.324043300718891 ], [ 5.061513564733263, 52.323674717671338 ], [ 5.061210829188663, 52.322360238045952 ], [ 5.061403465236573, 52.322327814984106 ], [ 5.061338846048745, 52.322133684269218 ], [ 5.061247099468694, 52.321960700971417 ], [ 5.061096809823762, 52.321759121462883 ], [ 5.060919868077429, 52.321599428839981 ], [ 5.060651390484943, 52.321418562472395 ], [ 5.060143557387488, 52.321195764311405 ], [ 5.059289385008875, 52.320910593856787 ], [ 5.058282433213885, 52.320599551382969 ], [ 5.058035378474467, 52.320512827103755 ], [ 5.05775359576498, 52.320380639324519 ], [ 5.057206220220766, 52.320059402238776 ], [ 5.054684234734763, 52.318422427692319 ], [ 5.054790643327116, 52.31834181493943 ], [ 5.055713764842128, 52.317355731223039 ], [ 5.055793550956284, 52.316387878706017 ], [ 5.056554424735454, 52.316423001555115 ], [ 5.057484124424146, 52.316739720087931 ], [ 5.057534764580276, 52.316704056516599 ], [ 5.05775179516066, 52.316384433855497 ], [ 5.057984722222419, 52.316247980199876 ], [ 5.058591572711757, 52.316378112814796 ], [ 5.059206852876897, 52.316616794157063 ], [ 5.05959113788876, 52.316751110382931 ], [ 5.059820528073699, 52.316811856091149 ], [ 5.060215281439128, 52.316886026282432 ], [ 5.060688558460187, 52.316937014776848 ], [ 5.060839136788857, 52.316975931394524 ], [ 5.061038672835201, 52.317054547850461 ], [ 5.061368216581505, 52.317246659814245 ], [ 5.061499624423889, 52.31730465375297 ], [ 5.062305802871372, 52.317543696616745 ], [ 5.06248225115886, 52.317611811049915 ], [ 5.06268673547281, 52.317733882294576 ], [ 5.063076596499631, 52.318067056063761 ], [ 5.063298184269495, 52.318210552185988 ], [ 5.063856728449577, 52.318467115478498 ], [ 5.065259184508241, 52.319181386115382 ], [ 5.065720812775102, 52.320481665506257 ], [ 5.065528699905088, 52.320980929631659 ], [ 5.065281929792482, 52.321444164178665 ], [ 5.065167777178305, 52.321574122195742 ], [ 5.064686906326779, 52.322005933442441 ], [ 5.065024793749606, 52.322149612544507 ], [ 5.065238955199199, 52.322209823064817 ], [ 5.065527711140858, 52.322240051398602 ], [ 5.065823649056842, 52.322239506836532 ], [ 5.066109819652306, 52.322210256873959 ], [ 5.068781958970423, 52.321721313777218 ], [ 5.068971659017938, 52.32162513948375 ], [ 5.069040827637001, 52.321541307310731 ], [ 5.06908291733611, 52.321533476383202 ], [ 5.069235231723136, 52.321581919578968 ], [ 5.06935642682974, 52.321700335217045 ], [ 5.069508428754626, 52.321793356888435 ], [ 5.070375924349863, 52.321401711067203 ], [ 5.070818915774423, 52.32113830905169 ], [ 5.072010108490927, 52.320377358868434 ], [ 5.072758770437821, 52.319935088748224 ], [ 5.07286177081484, 52.319900688711023 ], [ 5.073110874096331, 52.320179747370027 ], [ 5.073888250417546, 52.319794890333412 ], [ 5.075393749947643, 52.319145208760794 ], [ 5.07751440958354, 52.318177130985518 ], [ 5.079216467875582, 52.317777750203675 ], [ 5.080969002366681, 52.317402417478263 ], [ 5.082963865614978, 52.317023392861969 ], [ 5.083008870828349, 52.317022307454955 ], [ 5.083061781428117, 52.317045031321683 ], [ 5.083140689127627, 52.317188472990424 ], [ 5.083214138272781, 52.317267268028651 ], [ 5.084907975856503, 52.316733979268086 ], [ 5.084942263163371, 52.316695053059888 ], [ 5.084930443081997, 52.316656715375174 ], [ 5.084759713851909, 52.316525699513342 ], [ 5.084840805299912, 52.316442489792905 ], [ 5.084807478294215, 52.316328515652799 ], [ 5.086639646398126, 52.315928908719151 ], [ 5.086751515341673, 52.315886766002507 ], [ 5.086749434331951, 52.31580519496076 ], [ 5.08734377886498, 52.315690014224927 ], [ 5.088861384786759, 52.315339865962699 ], [ 5.090531087684234, 52.314989709205967 ], [ 5.091653171244054, 52.314643941840302 ], [ 5.092614373987259, 52.314216898466931 ], [ 5.092639571366598, 52.314238841531974 ], [ 5.092732993393486, 52.314198852256837 ], [ 5.092807632875779, 52.314265253147454 ], [ 5.09307665621807, 52.314150287289408 ], [ 5.092793977287039, 52.313927535072075 ], [ 5.092644449085498, 52.313773135282212 ], [ 5.092107923433755, 52.31302282251945 ], [ 5.093916729331815, 52.312604311095662 ], [ 5.094618636218708, 52.312426358486675 ], [ 5.096350759484988, 52.31191084333846 ], [ 5.097666762852088, 52.31153830693026 ], [ 5.097868376109843, 52.311450802043311 ], [ 5.09818267714977, 52.311374635162259 ], [ 5.098742236548216, 52.31115469482188 ], [ 5.098849280172041, 52.311130511292376 ], [ 5.100281307976338, 52.31046304236154 ], [ 5.100442314786059, 52.310503992093452 ], [ 5.100533037300398, 52.310458455959967 ], [ 5.100554102693653, 52.310436918877713 ], [ 5.10056691569884, 52.310296401317338 ], [ 5.100350339522969, 52.310266954277672 ], [ 5.100109323377364, 52.310125981080901 ], [ 5.099797415726616, 52.310033820715127 ], [ 5.099723468120219, 52.309711899036046 ], [ 5.099593543632801, 52.309527860356738 ], [ 5.099502492238811, 52.309422516334912 ], [ 5.098981495387942, 52.309010635612978 ], [ 5.098706222591365, 52.308769892829183 ], [ 5.098237168179914, 52.308454499211564 ], [ 5.097365712946243, 52.307913087713771 ], [ 5.096922162896347, 52.307670427424604 ], [ 5.09681618302445, 52.307595848405555 ], [ 5.096535603939749, 52.307313612706487 ], [ 5.096482199270388, 52.307291674850788 ], [ 5.096257242249854, 52.306863439067556 ], [ 5.096219452131709, 52.306554234406839 ], [ 5.096182323935542, 52.306430966173103 ], [ 5.096159959394395, 52.306178999378623 ], [ 5.096082415654704, 52.305801942983244 ], [ 5.096082784552039, 52.305725148527067 ], [ 5.096040641224359, 52.305612932810639 ], [ 5.095900485060001, 52.304834656847163 ], [ 5.095893724342187, 52.304611069284526 ], [ 5.095847097680022, 52.304273519132089 ], [ 5.095819947382705, 52.304186518858366 ], [ 5.095771094801036, 52.303762184625256 ], [ 5.0958170352748, 52.303735420281953 ], [ 5.095827031864405, 52.303713371376084 ], [ 5.095812673093588, 52.303578212967054 ], [ 5.096053849636097, 52.302888801442059 ], [ 5.096249350732383, 52.302159216877413 ], [ 5.096318926187711, 52.301987704909678 ], [ 5.096340598569059, 52.301828005963259 ], [ 5.096387769377959, 52.301665092778777 ], [ 5.09658856436488, 52.301103827536323 ], [ 5.096643468286866, 52.300866494146518 ], [ 5.096772550030382, 52.30045701360585 ], [ 5.096841830328308, 52.300390420488341 ], [ 5.097186937186993, 52.29995276936291 ], [ 5.097358109006934, 52.299816580131569 ], [ 5.097807188067585, 52.299383617775597 ], [ 5.098943534202559, 52.298696633012526 ], [ 5.099967517240569, 52.29836252446443 ], [ 5.099998784317402, 52.298321319663231 ], [ 5.100248794402222, 52.29823190243259 ], [ 5.100879907345031, 52.298041792411119 ], [ 5.101481077541161, 52.297881010812006 ], [ 5.101971671056384, 52.297804205852799 ], [ 5.103192314828791, 52.298088368259343 ], [ 5.105255856139135, 52.298424515429581 ], [ 5.106038915970642, 52.29832389102102 ], [ 5.106100610283587, 52.298342171704064 ], [ 5.106266315344926, 52.29833605927481 ], [ 5.106495862100001, 52.298265241331187 ], [ 5.106819899536962, 52.298125581551822 ], [ 5.107048706992251, 52.297999329448658 ], [ 5.107248414458542, 52.297862460273308 ], [ 5.107413842227244, 52.297697833235773 ], [ 5.107674359969914, 52.297291610625443 ], [ 5.107693332377858, 52.297225808763336 ], [ 5.107689825879085, 52.297107318012223 ], [ 5.107665409262881, 52.296983694226554 ], [ 5.107564152798989, 52.296677263590311 ], [ 5.107417523393821, 52.29632543303741 ], [ 5.107376829747352, 52.29629059056559 ], [ 5.107319692402723, 52.296280275386771 ], [ 5.107209591352348, 52.296001258666642 ], [ 5.106416944532029, 52.29515787443804 ], [ 5.106450700901795, 52.295131968376019 ], [ 5.106448837471834, 52.295090459616411 ], [ 5.106065059836157, 52.294668490788148 ], [ 5.104658111875787, 52.294585667943288 ], [ 5.103217710457129, 52.294524454476999 ], [ 5.102918738551575, 52.294467726120054 ], [ 5.102255481235042, 52.294137011887045 ], [ 5.100606126664241, 52.29339686513508 ], [ 5.09935582607306, 52.292804335931763 ], [ 5.099481714376426, 52.292712114802278 ], [ 5.099201140653385, 52.292543037292226 ], [ 5.098738737628712, 52.292190700572405 ], [ 5.098591804410766, 52.291920465261605 ], [ 5.098473524165284, 52.291636064506257 ], [ 5.098433410306306, 52.291407878542202 ], [ 5.098457685944679, 52.291134560380385 ], [ 5.098566184060599, 52.290826433051613 ], [ 5.098644834290724, 52.290670458830775 ], [ 5.098714592076759, 52.290574241392981 ], [ 5.098841375879801, 52.290627245855681 ], [ 5.099693408999963, 52.289997323784725 ], [ 5.100242149603676, 52.289391046956872 ], [ 5.100576040635449, 52.289052953785649 ], [ 5.101252670779937, 52.288542595474652 ], [ 5.101467159627584, 52.288334936502849 ], [ 5.101581407750236, 52.288190013943243 ], [ 5.101762179317713, 52.288083381398991 ], [ 5.101648656118008, 52.288033668060137 ], [ 5.102054073170472, 52.287658355347091 ], [ 5.103337111168466, 52.286556409254949 ], [ 5.104376961750552, 52.285788244003463 ], [ 5.104681638924787, 52.285583650452409 ], [ 5.10470015826796, 52.285561189084461 ], [ 5.104645041717206, 52.285515221425577 ], [ 5.104639509415287, 52.285092769433973 ], [ 5.104672563353497, 52.284954534320022 ], [ 5.104837869466207, 52.284671509538398 ], [ 5.104834953432507, 52.28454407803811 ], [ 5.104797700200303, 52.284398347133973 ], [ 5.104805633102537, 52.284319412741375 ], [ 5.104786655307121, 52.284225615474078 ], [ 5.104754423314553, 52.284165555425773 ], [ 5.104693750071484, 52.284103668667782 ], [ 5.10431745978407, 52.283870805528061 ], [ 5.104263759935712, 52.283810090186222 ], [ 5.104256723499943, 52.283739228285121 ], [ 5.104306888492039, 52.283324389353773 ], [ 5.104297996670432, 52.283255191642077 ], [ 5.104224606006007, 52.283151038327063 ], [ 5.103857148466304, 52.282909847188023 ], [ 5.103487414282563, 52.282728915111271 ], [ 5.103229519515557, 52.282547709609631 ], [ 5.102816298749004, 52.282383497144096 ], [ 5.102761783791828, 52.282323881868997 ], [ 5.102796403523584, 52.282123819615414 ], [ 5.102777312758129, 52.282094103902509 ], [ 5.102673908483772, 52.282078311523712 ], [ 5.102567526137503, 52.28203637289009 ], [ 5.102014172205597, 52.28165452047034 ], [ 5.102082566921921, 52.2815805061364 ], [ 5.102157043841883, 52.281425759904188 ], [ 5.102182961022439, 52.281226732977039 ], [ 5.10217467349534, 52.280672475354386 ], [ 5.1020658056125, 52.279890838884846 ], [ 5.098895407008226, 52.280264626615008 ], [ 5.089382421126348, 52.281454377088181 ], [ 5.087803802080111, 52.281656604083203 ], [ 5.087704237949749, 52.281684760241554 ], [ 5.084615483578424, 52.279407493890417 ], [ 5.077081975853671, 52.27797661392588 ], [ 5.064876038862658, 52.278265339829638 ], [ 5.064686973637553, 52.27824017869969 ], [ 5.064359020839857, 52.278356422061272 ], [ 5.063985339034569, 52.278463629051622 ], [ 5.0638557615068, 52.27852368891979 ], [ 5.063812151451847, 52.278559451441836 ], [ 5.063606263445504, 52.27852762382058 ], [ 5.063702213500065, 52.278769723969148 ], [ 5.06380363403049, 52.278884830542566 ], [ 5.064376229592332, 52.279367825010077 ], [ 5.064713755728718, 52.279627434277295 ], [ 5.065009257349807, 52.279829913486225 ], [ 5.064938369045031, 52.279873210436463 ], [ 5.063885587157913, 52.279975661531005 ], [ 5.063985002482717, 52.280261356750763 ], [ 5.0644124254312, 52.280737600093481 ], [ 5.064827234099345, 52.280599759535882 ], [ 5.065194020260996, 52.280538135543821 ], [ 5.065611518138883, 52.280506358981874 ], [ 5.065769144130974, 52.280518981476234 ], [ 5.065901081879134, 52.280550039391422 ], [ 5.065859997721387, 52.281113289873055 ], [ 5.065879586293561, 52.281270176926519 ], [ 5.065688974583798, 52.281245284007973 ], [ 5.065491358371242, 52.281271560630323 ], [ 5.065658149525513, 52.282692198425046 ], [ 5.065471435759758, 52.285197687682071 ], [ 5.065342800167504, 52.28519194245964 ], [ 5.064791874939655, 52.285080546918465 ], [ 5.064194507342213, 52.286292547792236 ], [ 5.063283564875172, 52.28719472162522 ], [ 5.061388744883367, 52.288274848313826 ], [ 5.06009218907389, 52.288990436766802 ], [ 5.059540334766448, 52.289320058940248 ], [ 5.059406759998397, 52.289296484222398 ], [ 5.057727736906393, 52.288650755160006 ], [ 5.057339057160728, 52.288478484363992 ], [ 5.056398333406496, 52.288143159166125 ], [ 5.05543187477549, 52.287763985990779 ], [ 5.054834249608407, 52.287549266094864 ], [ 5.05344146594476, 52.286850452266805 ], [ 5.052769144767484, 52.286485256987575 ], [ 5.051975986877833, 52.287056565987562 ], [ 5.051578773377026, 52.287317825445122 ], [ 5.051298912254729, 52.28739649903315 ], [ 5.050850562878793, 52.287699424895564 ], [ 5.050668820127793, 52.287787140977613 ], [ 5.050404293213402, 52.287871759268654 ], [ 5.050352958896286, 52.28781165532267 ], [ 5.050381875291197, 52.287798434948101 ], [ 5.049417947403645, 52.286942411740533 ], [ 5.048195576759378, 52.285696148548773 ], [ 5.048057837846577, 52.285639683554358 ], [ 5.04748421455155, 52.285019677056361 ], [ 5.04706745240904, 52.284737588216764 ], [ 5.04634901962866, 52.284365737263165 ], [ 5.045181773413289, 52.283702713157879 ], [ 5.044453849049598, 52.283325261578604 ], [ 5.043957414597344, 52.283034748038808 ], [ 5.043397287552311, 52.282746013590419 ], [ 5.042778657636392, 52.282488141455197 ], [ 5.041624985504528, 52.283369348692702 ], [ 5.040794001887801, 52.283880741512633 ], [ 5.040742249759765, 52.283875025948653 ], [ 5.040465266843701, 52.283716702175745 ], [ 5.040149228756834, 52.283575761809416 ], [ 5.039580650429677, 52.283290573258093 ], [ 5.039499719752472, 52.283253373486851 ], [ 5.039429249309297, 52.283243514467998 ], [ 5.038418143873635, 52.283767870129687 ], [ 5.036707111927393, 52.284746909902353 ], [ 5.035148868676604, 52.285526563372393 ], [ 5.034269436522765, 52.285938454805361 ], [ 5.033420668811055, 52.286314362629255 ], [ 5.033345145214175, 52.286251385130456 ], [ 5.033212457801883, 52.286258105390282 ], [ 5.032745700275142, 52.286652772749953 ], [ 5.031858846028272, 52.287354642083173 ], [ 5.030528446220276, 52.288486778568689 ], [ 5.029521878320921, 52.287347525319056 ], [ 5.027818781816413, 52.285487455471134 ], [ 5.027062566097346, 52.284599036960422 ], [ 5.02650829169171, 52.283977922456614 ], [ 5.025244563446443, 52.282371987671908 ], [ 5.024554464494571, 52.281523405857314 ], [ 5.024381632505717, 52.281357448968649 ], [ 5.02368457418445, 52.281711744298903 ], [ 5.023416533219891, 52.281875816405474 ], [ 5.023213430468008, 52.281912508789155 ], [ 5.0230714887557, 52.281980044970489 ], [ 5.022881796276406, 52.282096911804295 ], [ 5.022786131364277, 52.282199841040267 ], [ 5.021867210084735, 52.282653270467122 ], [ 5.021926165719822, 52.28493187896774 ], [ 5.021862873987724, 52.289425555296482 ], [ 5.021663314135084, 52.301221379451412 ], [ 5.021621447969352, 52.301854945009964 ], [ 5.021543231504591, 52.302456267990017 ], [ 5.019409562146813, 52.302501546189617 ], [ 5.018653737783612, 52.302560787416255 ], [ 5.017840047077317, 52.302662329448545 ], [ 5.017129533478426, 52.30278436450498 ], [ 5.01668530010172, 52.302880843559485 ], [ 5.016704855434273, 52.302919966778092 ], [ 5.016096825008204, 52.303081195961475 ], [ 5.015235351261128, 52.303361533176584 ], [ 5.014730615583616, 52.30354802836704 ], [ 5.014265201204282, 52.303676835190515 ], [ 5.014228492348962, 52.303589724544061 ], [ 5.013215263854349, 52.303618439112391 ], [ 5.012554648720609, 52.303566989926864 ], [ 5.012173838878756, 52.303499246878921 ], [ 5.011769294590275, 52.303392828983689 ], [ 5.011424326457991, 52.303245774524989 ], [ 5.011050775556279, 52.303029491338954 ], [ 5.010903694742942, 52.302913498821482 ], [ 5.010665001176761, 52.302663788774566 ], [ 5.010397778566795, 52.302423371115367 ], [ 5.010122015979567, 52.302209735740234 ], [ 5.009915097023624, 52.302094332830343 ], [ 5.009428971483201, 52.301885202702785 ], [ 5.008960722007725, 52.301726336149919 ], [ 5.008529619315329, 52.301633160505503 ], [ 5.007952072978125, 52.301548580035856 ], [ 5.00789166284339, 52.301522083482396 ], [ 5.007805352095231, 52.30144256836865 ], [ 5.007752378451964, 52.301365681118767 ], [ 5.00763006268623, 52.301010706821579 ], [ 5.007544266577644, 52.300867525795958 ], [ 5.007360322182482, 52.300657257509648 ], [ 5.007055638014039, 52.300376133568477 ], [ 5.005264794301314, 52.298392835269667 ], [ 5.003834512841035, 52.298509025070814 ], [ 5.003677185602366, 52.298164368888436 ], [ 5.003233032045804, 52.297388736542885 ], [ 5.003227868937575, 52.296749059541192 ], [ 5.003250879449106, 52.296297679273231 ], [ 5.003246889764288, 52.296131535139949 ], [ 5.00322685789142, 52.296064775816575 ], [ 5.003109052951247, 52.296019442756055 ], [ 5.00281629924612, 52.296045597288938 ], [ 5.002594531200117, 52.2960441900102 ], [ 5.002383315703102, 52.296020989748939 ], [ 5.002097754407956, 52.295931258318404 ], [ 5.001851294651642, 52.295878242586248 ], [ 5.001815075889171, 52.293409606847511 ], [ 5.001796827043623, 52.293175527273512 ], [ 5.001800974762054, 52.293055238095313 ], [ 5.001833045539638, 52.292922493184896 ], [ 5.001820871762474, 52.292842183182415 ], [ 5.001789358327683, 52.292792928234448 ], [ 5.001373020668995, 52.29248286387746 ], [ 5.00133248763531, 52.292407595824677 ], [ 5.00124956825385, 52.292329444230951 ], [ 5.000816373742548, 52.291956972552732 ], [ 5.000673682955579, 52.291852733813599 ], [ 5.000539198892962, 52.29172238242213 ], [ 4.999236190791007, 52.290615389132149 ], [ 4.99881393988839, 52.290239071126216 ], [ 4.998764712750741, 52.290218319378958 ], [ 4.998550385773187, 52.290233951430693 ], [ 4.998517334825371, 52.290179101069619 ], [ 4.998452112134824, 52.289838635661219 ], [ 4.99832652173822, 52.289832997445586 ], [ 4.998297532155598, 52.289815138086084 ], [ 4.997475366837319, 52.289118357216317 ], [ 4.99553409352482, 52.289222580970581 ], [ 4.995018594139691, 52.289231245598984 ], [ 4.99411716041257, 52.289287714873318 ], [ 4.991185097817477, 52.289551638235721 ], [ 4.99045939568791, 52.289603233434121 ], [ 4.987569836661498, 52.289896418967999 ], [ 4.985112458220721, 52.290170522760093 ], [ 4.983506043759481, 52.290368036170342 ], [ 4.982979396077799, 52.289789015747338 ], [ 4.982916920391065, 52.289666901709317 ], [ 4.982889254592695, 52.28964206396784 ], [ 4.98166449054657, 52.289147906543846 ], [ 4.981342268946849, 52.288996167131316 ], [ 4.98095743954486, 52.288869526603925 ], [ 4.980112045748013, 52.288509581194141 ], [ 4.979186631997229, 52.288077682918043 ], [ 4.978568553626912, 52.287839190559239 ], [ 4.976390958093355, 52.286862662728069 ], [ 4.976116228853303, 52.286752069943795 ], [ 4.975936719780769, 52.286647376243515 ], [ 4.975147731562497, 52.286342418217949 ], [ 4.974936628919671, 52.286224034289937 ], [ 4.974772679194411, 52.286091999379181 ], [ 4.973712322841744, 52.285444728956186 ], [ 4.973249310195651, 52.285236381789424 ], [ 4.973169756377814, 52.285165925465357 ], [ 4.97310119531302, 52.285044683966774 ], [ 4.973071960071082, 52.285021512807262 ], [ 4.972823205700461, 52.284945046380003 ], [ 4.972611137807838, 52.2848462784427 ], [ 4.971937512408616, 52.284427241175386 ], [ 4.971357870724059, 52.284041336833937 ], [ 4.970265961613328, 52.283428997537868 ], [ 4.969913176431032, 52.283193653369771 ], [ 4.969726309826926, 52.283120824175441 ], [ 4.969378979999515, 52.281956351295776 ], [ 4.9693904062901, 52.281824228609473 ], [ 4.969378106647335, 52.281788762825016 ], [ 4.969238691147194, 52.281621958914549 ], [ 4.969143559020506, 52.281422943810156 ], [ 4.968970120427452, 52.281166324039646 ], [ 4.968814603755987, 52.280972758105229 ], [ 4.968779710543591, 52.280890850660384 ], [ 4.968753104290097, 52.280725871554623 ], [ 4.968702166303791, 52.280683681923641 ], [ 4.968541770887281, 52.280609360688807 ], [ 4.968327447024528, 52.280411912972113 ], [ 4.968207560927794, 52.280270839634966 ], [ 4.968066031980801, 52.280058482229229 ], [ 4.967674336331872, 52.279582302366961 ], [ 4.967575534356717, 52.279561432786892 ], [ 4.967405587162308, 52.279656378634535 ], [ 4.966841632056506, 52.279877653522526 ], [ 4.966645789663975, 52.279979231066264 ], [ 4.966491386746071, 52.2800964366849 ], [ 4.966411135009637, 52.28018387913319 ], [ 4.966326424750445, 52.280341208416196 ], [ 4.966295259335857, 52.280475213002752 ], [ 4.966275982310193, 52.280779122156233 ], [ 4.966252094862987, 52.280886324064646 ], [ 4.966220209525266, 52.280969948819155 ], [ 4.966165722721345, 52.280979836427974 ], [ 4.965980583079364, 52.280837540412456 ], [ 4.965801850347616, 52.280648899565477 ], [ 4.965709283833833, 52.280577713889144 ], [ 4.965513765342948, 52.280493269948956 ], [ 4.965315431907062, 52.280447969800335 ], [ 4.964864714380072, 52.280384169741211 ], [ 4.964158761364451, 52.280407171308575 ], [ 4.963927426391034, 52.280391607266694 ], [ 4.963324389019741, 52.280313225311389 ], [ 4.962548037700642, 52.280285276194739 ], [ 4.962380578361116, 52.280260577603535 ], [ 4.962243944415683, 52.280206514468141 ], [ 4.962175202464666, 52.280164935405949 ], [ 4.962131688723567, 52.280115496424429 ], [ 4.961877646208803, 52.279712292378093 ], [ 4.96163302704741, 52.279184424860908 ], [ 4.96154497865462, 52.278950376134794 ], [ 4.961336276856363, 52.278525397212888 ], [ 4.961253454365021, 52.278393406907952 ], [ 4.961053633906953, 52.278174203235594 ], [ 4.960472047861437, 52.278292507917172 ], [ 4.959968335673751, 52.278346116333346 ], [ 4.959652562759534, 52.278354499487406 ], [ 4.958940894049301, 52.278329041369936 ], [ 4.95866383837495, 52.278342991242269 ], [ 4.958414721386827, 52.27840269329765 ], [ 4.957808731299346, 52.278612277038874 ], [ 4.957488254095819, 52.278652625740442 ], [ 4.957144088071646, 52.278670988050393 ], [ 4.956773248225379, 52.278671001193565 ], [ 4.956563522395004, 52.278641266919884 ], [ 4.955736997035741, 52.278418167164538 ], [ 4.955240525397433, 52.278304904900402 ], [ 4.953874081655276, 52.28003011723856 ], [ 4.952775008827785, 52.279963129292462 ], [ 4.952482170388135, 52.279999008040228 ], [ 4.952143286976848, 52.280424160308804 ], [ 4.952089591477195, 52.28065326492608 ], [ 4.952061726691619, 52.280711066056682 ], [ 4.951201538077823, 52.282040834310266 ], [ 4.95079870197728, 52.282604316273741 ], [ 4.950792138740312, 52.282664004129629 ], [ 4.950857523341329, 52.283047193246539 ], [ 4.950831707109113, 52.283114318618367 ], [ 4.950326006038839, 52.283747965832944 ], [ 4.948599290886743, 52.285771851542563 ], [ 4.948519239721401, 52.285819837716581 ], [ 4.947961584535025, 52.286040101831297 ], [ 4.947968418671696, 52.286094379423645 ], [ 4.948288161701071, 52.286574328171589 ], [ 4.946986981771622, 52.287966154984801 ], [ 4.946406984889104, 52.288562212405623 ], [ 4.946454654374661, 52.288581060065894 ], [ 4.938720578549367, 52.297545330801682 ], [ 4.938495751606375, 52.297475483636525 ], [ 4.938457286404324, 52.297483472656808 ], [ 4.938413823549478, 52.297525338336811 ], [ 4.938118092636321, 52.297908587254433 ], [ 4.937916091566111, 52.298104088941059 ], [ 4.937157998467592, 52.298989736766195 ], [ 4.937149473040646, 52.299018334171897 ], [ 4.937168513545825, 52.299036220222519 ], [ 4.937365321836051, 52.299114846556236 ], [ 4.937079551698835, 52.299446138630621 ], [ 4.937140684637725, 52.299471354974962 ], [ 4.936028921782606, 52.300726121631484 ], [ 4.934868459448458, 52.301942696229005 ], [ 4.934934867036773, 52.301970030256612 ], [ 4.934135816121286, 52.302739865766014 ], [ 4.933684152455013, 52.303103895765126 ], [ 4.933217028132636, 52.303553438391624 ], [ 4.932720856774506, 52.304262922223174 ], [ 4.93248617877219, 52.304474903384275 ], [ 4.931681522214342, 52.305025328664271 ], [ 4.930492350003478, 52.306163159682484 ], [ 4.930256234871369, 52.306429784023209 ], [ 4.929472789873203, 52.307413628289481 ], [ 4.928274048108009, 52.308719872807309 ], [ 4.929655375085068, 52.309310766370473 ], [ 4.929925313089421, 52.309409006638269 ], [ 4.929950137510948, 52.309433737110275 ], [ 4.929844965839997, 52.309526264369644 ], [ 4.929863681472514, 52.309558050457646 ], [ 4.93006486702003, 52.309627926970094 ], [ 4.930519346526626, 52.309823128704203 ], [ 4.932115634770291, 52.310559740145415 ], [ 4.933163118606562, 52.311254001749141 ], [ 4.9339865675618, 52.311700120243231 ], [ 4.934644724630643, 52.311975077682057 ], [ 4.936097106769569, 52.312471686054089 ], [ 4.936029188942174, 52.312552224718736 ], [ 4.936212616131662, 52.312616420108775 ], [ 4.935449245680893, 52.313447816279023 ], [ 4.936920671765482, 52.313963945499758 ], [ 4.937099949099471, 52.314055975385642 ], [ 4.937461754959518, 52.314172856112052 ], [ 4.937547400036801, 52.314187301626426 ], [ 4.937490363502442, 52.314244928389748 ], [ 4.937480825683643, 52.314290525472884 ], [ 4.937511973783247, 52.314345787412876 ], [ 4.937576876127701, 52.31438340653272 ], [ 4.937706943007738, 52.314397063571171 ], [ 4.937861690659402, 52.314340297322033 ], [ 4.937915012412833, 52.314345454264746 ], [ 4.938998599473192, 52.314694227990444 ], [ 4.939005382620561, 52.314725716449018 ], [ 4.938894812992609, 52.314897912578864 ], [ 4.938932275642178, 52.31561817438881 ], [ 4.938896653708149, 52.315761648249499 ], [ 4.938553963316674, 52.316181628689982 ], [ 4.938447285580238, 52.316335118221488 ], [ 4.938234965738813, 52.316383965064212 ], [ 4.938183582371313, 52.316438937002971 ], [ 4.938183315843836, 52.316493148391281 ], [ 4.938230793922392, 52.316570451895018 ], [ 4.939830300898211, 52.31711964863127 ], [ 4.940324110688647, 52.318245237985678 ], [ 4.940331319582718, 52.318302402628767 ], [ 4.940251019463663, 52.318390378659764 ], [ 4.940300559868696, 52.31840038995422 ], [ 4.940345329183845, 52.318383685095931 ], [ 4.940533531385681, 52.318195279272011 ], [ 4.940613164914809, 52.318141734511265 ], [ 4.940841833373948, 52.318068368941468 ], [ 4.941007540201503, 52.317978199471014 ], [ 4.941154757829198, 52.317835370515468 ], [ 4.94127228579169, 52.317635176301707 ], [ 4.941615767040444, 52.317762686170219 ], [ 4.941961178328231, 52.317439463556241 ], [ 4.942582876530357, 52.317651887879329 ], [ 4.941667295266023, 52.318500870692091 ], [ 4.94116144535245, 52.318323859095749 ], [ 4.940230959319291, 52.319415769602713 ], [ 4.940655089935411, 52.319563671123319 ], [ 4.938523500379077, 52.321787908954711 ], [ 4.937636263475833, 52.322688433058822 ], [ 4.937997161859613, 52.32323371538542 ], [ 4.938432345739325, 52.323686262854807 ], [ 4.938684029426389, 52.323906083097256 ], [ 4.939017464846216, 52.324160358268664 ], [ 4.938878487442484, 52.324283218411622 ], [ 4.940548038241966, 52.325061145353608 ], [ 4.941132022912748, 52.325310674705641 ], [ 4.945484558397782, 52.326800911099554 ], [ 4.945076836042985, 52.327253150715855 ], [ 4.944716190679744, 52.327129718309735 ], [ 4.942693556666372, 52.329334264952898 ], [ 4.948492752974762, 52.331323198930903 ], [ 4.948283278668835, 52.33152792833895 ], [ 4.948264323640585, 52.331574604221998 ], [ 4.94858014913969, 52.331691040762614 ], [ 4.949386191650798, 52.331945695370877 ], [ 4.949335071757538, 52.332043791417689 ], [ 4.949390948735831, 52.332104519608734 ], [ 4.949375102074373, 52.332139604207285 ], [ 4.948538854157119, 52.332992717277001 ], [ 4.948435232188471, 52.332958107441677 ], [ 4.948385368244484, 52.332980530185949 ], [ 4.94836966694842, 52.333015010909747 ], [ 4.948430503129297, 52.333068258614333 ], [ 4.948430993315122, 52.333087766879338 ], [ 4.948275185991003, 52.333231684444456 ], [ 4.948190534614302, 52.333286197877449 ], [ 4.948089041626845, 52.333262138530323 ], [ 4.948040806156492, 52.333275981227636 ], [ 4.947608497209496, 52.333616508219158 ], [ 4.947411263666221, 52.333802817406003 ], [ 4.946689920050239, 52.334223037615885 ], [ 4.947962239346524, 52.335070260754698 ], [ 4.947963536427071, 52.335131685008996 ], [ 4.94801871806287, 52.335184156564658 ], [ 4.948291474820405, 52.335288290208013 ], [ 4.948483225410477, 52.335558416647089 ], [ 4.948804255858205, 52.335913943593241 ], [ 4.948958194254334, 52.336059089903308 ], [ 4.949169316674067, 52.336217903678481 ], [ 4.949222335116112, 52.336278382322384 ], [ 4.949317041053428, 52.336413833333395 ], [ 4.94939147770982, 52.336678553198638 ], [ 4.949506711800115, 52.336763308432694 ], [ 4.949563554432403, 52.336836601563121 ], [ 4.949689774651495, 52.336945553895404 ], [ 4.949985505605678, 52.337128337531901 ], [ 4.950082706909264, 52.337266542818085 ], [ 4.950177574120561, 52.337340061113323 ], [ 4.950206719898659, 52.337394368640325 ], [ 4.95022725795231, 52.337529887442116 ], [ 4.950612864328138, 52.33795539138999 ], [ 4.950603069407611, 52.338052882166181 ], [ 4.950483179349618, 52.338289828434256 ], [ 4.950448729757703, 52.338303623407555 ], [ 4.950433372026684, 52.338335931241019 ], [ 4.950452671151304, 52.338351026952601 ], [ 4.9503225183313, 52.338637974070096 ], [ 4.949891479780956, 52.338538270575093 ], [ 4.949579551298287, 52.338438341833985 ], [ 4.949528920200303, 52.33840776486322 ], [ 4.94954829471189, 52.338378644299723 ], [ 4.948643900891093, 52.338131177786657 ], [ 4.948341998218718, 52.338027559238512 ], [ 4.947158335855875, 52.337735329723614 ], [ 4.946766590862228, 52.337658506565397 ], [ 4.945250008362828, 52.337211103600126 ], [ 4.943749991314305, 52.336741088134573 ], [ 4.943798337979054, 52.336712375889554 ], [ 4.943490459843915, 52.336669779661968 ], [ 4.943124610465628, 52.336589859035094 ], [ 4.942793404697678, 52.336546706284572 ], [ 4.942191634581167, 52.336862580894781 ], [ 4.942028842324392, 52.336851058628 ], [ 4.941712481765113, 52.336864896396669 ], [ 4.941639628868945, 52.336852209343064 ], [ 4.941365765842238, 52.336740946392773 ], [ 4.941218762718207, 52.336623143644935 ], [ 4.941520980384305, 52.336534144327899 ], [ 4.941667013757682, 52.336464623661854 ], [ 4.941744015557349, 52.336410114635896 ], [ 4.941720899177584, 52.336406261294975 ], [ 4.941705550546843, 52.33553287498119 ], [ 4.939958171801215, 52.33561669750857 ], [ 4.939527998415334, 52.335593043782367 ], [ 4.93902898894228, 52.335472537643106 ], [ 4.938499647601104, 52.335307487812365 ], [ 4.93832726775809, 52.335289387726611 ], [ 4.93814832868533, 52.335238688218141 ], [ 4.937910857143891, 52.335092503816725 ], [ 4.937704411562817, 52.335003224727807 ], [ 4.936511666881033, 52.334591988962323 ], [ 4.935623484621008, 52.335513931800975 ], [ 4.934220681407251, 52.335496009763318 ], [ 4.934033031494548, 52.335530465159692 ], [ 4.933834419815211, 52.335467434266569 ], [ 4.93369732973681, 52.335592170821556 ], [ 4.928493579045138, 52.336554768206646 ], [ 4.928375747653525, 52.33651454562002 ], [ 4.928310318265607, 52.336585037767065 ], [ 4.927277597910738, 52.336235124221631 ], [ 4.927342413293882, 52.336160650531383 ], [ 4.926771059231171, 52.335964882401839 ], [ 4.926942027585917, 52.335776592189418 ], [ 4.925773372462584, 52.335372739845674 ], [ 4.924944756055938, 52.335382812720162 ], [ 4.924380678430525, 52.335411899649742 ], [ 4.923240384922553, 52.336802720064739 ], [ 4.922922125262692, 52.336755819145367 ], [ 4.923206060506902, 52.336399450292404 ], [ 4.923373723077839, 52.33609320784732 ], [ 4.923438492913808, 52.335918809697432 ], [ 4.923479203991977, 52.335753420628109 ], [ 4.923501312245487, 52.335589853430264 ], [ 4.923499609795143, 52.335334356557233 ], [ 4.923446396745516, 52.335043015782553 ], [ 4.92338853210251, 52.334877285873318 ], [ 4.923266391953089, 52.334638489223501 ], [ 4.923084644284473, 52.334394259500598 ], [ 4.92290610938905, 52.334076963572585 ], [ 4.922878556446503, 52.333896847751745 ], [ 4.922936175029905, 52.33366773979494 ], [ 4.922711275829418, 52.333473625348027 ], [ 4.922743271487389, 52.333423601327098 ], [ 4.9224388958735, 52.333216307596942 ], [ 4.922550479267146, 52.333084192097601 ], [ 4.921674144728895, 52.332761142984701 ], [ 4.920371619918932, 52.332360288223647 ], [ 4.919593692531305, 52.332168103295921 ], [ 4.918043203508366, 52.331702442309251 ], [ 4.917973758848777, 52.331770514095595 ], [ 4.917457043624864, 52.331614428926521 ], [ 4.917498596739334, 52.331541071861281 ], [ 4.916901435890622, 52.331364088087611 ], [ 4.914568741675328, 52.330763224077948 ], [ 4.914174867299453, 52.330677884091116 ], [ 4.913797987618424, 52.330613204393231 ], [ 4.912932600883255, 52.330510482706416 ], [ 4.912975583554148, 52.330234435736713 ], [ 4.912866708829723, 52.330174373466036 ], [ 4.912841633909823, 52.330138173673475 ], [ 4.912709316905127, 52.330158127592362 ], [ 4.912746136451395, 52.329722396570872 ], [ 4.912771708866785, 52.329613325539299 ], [ 4.912831650753049, 52.329496514215933 ], [ 4.912832072353312, 52.329421614383463 ], [ 4.912429741635791, 52.329405159601649 ], [ 4.912049934592202, 52.329363947399528 ], [ 4.911765359382501, 52.329301556016773 ], [ 4.911529391054438, 52.329217529784941 ], [ 4.911558745921026, 52.329185640019951 ], [ 4.911800262513589, 52.329054073178789 ], [ 4.911934565810946, 52.328959416435865 ], [ 4.911965841942757, 52.328920220567056 ], [ 4.912125112123277, 52.328528751434447 ], [ 4.912111736059733, 52.328448100287304 ], [ 4.91215920915637, 52.328444551304322 ], [ 4.91294253580167, 52.326495286469218 ], [ 4.913609369160302, 52.326222109616538 ], [ 4.913881306039534, 52.324551535069524 ], [ 4.912120888742504, 52.324257368177093 ], [ 4.911587804329661, 52.324206692201599 ], [ 4.911288285812017, 52.324162339984845 ], [ 4.911100194562596, 52.324097950165338 ], [ 4.910950058544004, 52.324014331641941 ], [ 4.910335387517532, 52.323567157224957 ], [ 4.910779001957112, 52.323308281814967 ], [ 4.911226045313995, 52.323011165813767 ], [ 4.911350821173079, 52.322899254128579 ], [ 4.9113237262942, 52.32282468225673 ], [ 4.910762451117326, 52.321983731097163 ], [ 4.910730953309894, 52.32191428835457 ], [ 4.912487890662008, 52.321254105425403 ], [ 4.912544889282437, 52.321219623800765 ], [ 4.91253886934869, 52.321175396373974 ], [ 4.912559886040159, 52.321134549508074 ], [ 4.912695441933822, 52.321062148480195 ], [ 4.914281495719396, 52.32040797864515 ], [ 4.913565365084613, 52.319585054149961 ], [ 4.913332502629684, 52.319287650704233 ], [ 4.91237560538737, 52.318248013552456 ], [ 4.910742060014188, 52.318279105515948 ], [ 4.909135283147264, 52.318253198301854 ], [ 4.909050583536378, 52.318825729368257 ], [ 4.907840544676164, 52.319504840613412 ], [ 4.905519443054168, 52.320144248801689 ], [ 4.904703078056817, 52.320393832908053 ], [ 4.904092417883919, 52.320644178368752 ], [ 4.902971668365677, 52.321145266556648 ], [ 4.902532308959398, 52.321324369200077 ], [ 4.902093606331984, 52.32144985813904 ], [ 4.901600781134345, 52.321528227282023 ], [ 4.90092252572314, 52.321565630302317 ], [ 4.899347048589862, 52.321550470676918 ], [ 4.898280560370367, 52.321643980496759 ], [ 4.897146117831332, 52.321896429798834 ], [ 4.896407741055519, 52.322321042467188 ], [ 4.896291375328022, 52.322419849669458 ], [ 4.895130888953854, 52.322406264571903 ], [ 4.894561021866807, 52.32242122211585 ], [ 4.893444740881391, 52.322377454066931 ], [ 4.88235994158918, 52.322167266152547 ], [ 4.858586223879255, 52.321752343562402 ], [ 4.857965040761129, 52.321736274397139 ], [ 4.857810867587669, 52.321669577021957 ], [ 4.857503814228807, 52.321651972219335 ], [ 4.857478658796088, 52.321567078106817 ], [ 4.857467470744464, 52.321426234602946 ], [ 4.856754886831716, 52.321413289924052 ], [ 4.856746901134258, 52.321554487745566 ], [ 4.856566096734298, 52.321562241484315 ], [ 4.856567050645592, 52.321657855677948 ], [ 4.856485075271104, 52.321663953617083 ], [ 4.856490593914415, 52.322565144296554 ], [ 4.85634877340682, 52.322566929463612 ], [ 4.856423868806957, 52.32676499015362 ], [ 4.856533814876625, 52.326769867487066 ], [ 4.856550005642632, 52.328711773190882 ], [ 4.85651468541826, 52.329116924989471 ], [ 4.856489455621836, 52.329272705920765 ], [ 4.856331658254462, 52.329884000784581 ], [ 4.856182225790124, 52.330285916936909 ], [ 4.855942671381897, 52.330255243946951 ], [ 4.855923619781783, 52.330317832273487 ], [ 4.851567886797977, 52.330439625214552 ], [ 4.848006707347548, 52.330569902744898 ], [ 4.847958742535599, 52.330548872034647 ], [ 4.847678553912346, 52.330169992117298 ], [ 4.847637959001918, 52.330075282830073 ], [ 4.847564515713501, 52.330046401419352 ], [ 4.845236655488786, 52.329681588690704 ], [ 4.843960666416792, 52.330218425866931 ], [ 4.840517446260878, 52.329589061446335 ], [ 4.839477007514757, 52.329145901635101 ], [ 4.839621573203372, 52.328105355388104 ], [ 4.839631206890937, 52.327558570984159 ], [ 4.839414303848738, 52.327545393657708 ], [ 4.83940527329263, 52.327359361707991 ], [ 4.833898501168005, 52.326728549354819 ], [ 4.8260609988919, 52.325927942018033 ], [ 4.825178804421729, 52.325731019048227 ], [ 4.823957783145485, 52.325710803841552 ], [ 4.820099623782118, 52.325759855466472 ], [ 4.820167884052503, 52.325585770576986 ], [ 4.820291452424112, 52.325376246271972 ], [ 4.820436798741793, 52.325187561915392 ], [ 4.820587598048454, 52.325051639949017 ], [ 4.820874676179464, 52.324873041556955 ], [ 4.821223441270076, 52.324702233237851 ], [ 4.821412009770271, 52.324592124658274 ], [ 4.821561639001676, 52.324530313421228 ], [ 4.821581908221715, 52.32449308569629 ], [ 4.821513401809629, 52.324346239690364 ], [ 4.821478139665296, 52.32431714975634 ], [ 4.821071251681122, 52.324351664937517 ], [ 4.82083045641915, 52.324346572795278 ], [ 4.820729313210738, 52.324326591628136 ], [ 4.820613112894703, 52.324279868868864 ], [ 4.820442724172459, 52.324157208510933 ], [ 4.819692947418559, 52.324166928010939 ], [ 4.81965814599509, 52.324204800294801 ], [ 4.819551218903425, 52.324464118894355 ], [ 4.819356115266507, 52.324842967841683 ], [ 4.819272174828359, 52.32504967522749 ], [ 4.819247635164603, 52.325324464142014 ], [ 4.819277691882559, 52.325474932768699 ], [ 4.819317086090579, 52.325565526179901 ], [ 4.818425786645131, 52.325557196660391 ], [ 4.818135932209598, 52.325969280163108 ], [ 4.817711267851136, 52.326437956585536 ], [ 4.817128736619538, 52.32692028864578 ], [ 4.817093949962391, 52.326943040400444 ], [ 4.816771710262747, 52.326762498356388 ], [ 4.816403915547532, 52.327012989690715 ], [ 4.815661371145732, 52.327429412755528 ], [ 4.814875739620677, 52.327801754915193 ], [ 4.814175476827191, 52.328096583382148 ], [ 4.81441997897713, 52.328317740603573 ], [ 4.810089637848689, 52.330113407051925 ], [ 4.809854131259989, 52.329899609674555 ], [ 4.802723997107577, 52.332878657064541 ], [ 4.797797734453649, 52.334911448137348 ], [ 4.797485533631771, 52.335069121504027 ], [ 4.797087308159329, 52.335360347947159 ], [ 4.796774231055088, 52.335632671661791 ], [ 4.795504939659038, 52.336877938846051 ], [ 4.792175945101825, 52.34019889734553 ], [ 4.79116085095709, 52.341039410775252 ], [ 4.791004628639242, 52.341224510056115 ], [ 4.790898758010314, 52.341316359910088 ], [ 4.790640853798259, 52.341477850307996 ], [ 4.790273986463344, 52.341664805449426 ], [ 4.789300074532985, 52.342080951617248 ], [ 4.779176404817938, 52.346208001397365 ], [ 4.77940289621614, 52.346417741496552 ], [ 4.775172579757942, 52.348153809561992 ], [ 4.771487203491129, 52.349658007627312 ], [ 4.771251437060414, 52.349434177393604 ], [ 4.768589170711805, 52.350484362673463 ], [ 4.768821082424862, 52.350707085400607 ], [ 4.764528593290377, 52.352394187951937 ], [ 4.764294401775307, 52.352171600409271 ], [ 4.76283736645152, 52.352741904713795 ], [ 4.756785603665183, 52.355143617635314 ], [ 4.756131926777947, 52.355454461487717 ], [ 4.755732767797682, 52.355724124765523 ], [ 4.755473019253192, 52.355927212565831 ], [ 4.755224647827445, 52.35614129201241 ], [ 4.754992597642603, 52.356384543760868 ], [ 4.754828952774639, 52.356591685220316 ], [ 4.754653402419946, 52.356896549561078 ], [ 4.754496859894541, 52.357430891661281 ], [ 4.754431187604541, 52.357831660513845 ], [ 4.754431071896703, 52.358023131283829 ], [ 4.754473605268567, 52.358268060303317 ], [ 4.754552385436201, 52.358566906313634 ], [ 4.754943755218495, 52.358523777041789 ], [ 4.756483540216798, 52.363899232732088 ], [ 4.757983487243626, 52.369239368854082 ], [ 4.758441320554819, 52.37095764042315 ], [ 4.758574687538105, 52.371594424778429 ], [ 4.758594940247404, 52.372243718915769 ], [ 4.758171976586706, 52.372235919188938 ], [ 4.758081307918189, 52.373411750861081 ], [ 4.758030573604746, 52.373770657720222 ], [ 4.757893475917185, 52.374275406874155 ], [ 4.757688226194257, 52.374916778708979 ], [ 4.75749825373352, 52.375379735257134 ], [ 4.757173386226808, 52.376031789792783 ], [ 4.75757062554579, 52.376101381491729 ], [ 4.757530379105586, 52.37618890405426 ], [ 4.756985998502686, 52.37704627781401 ], [ 4.756433874638379, 52.377763540239698 ], [ 4.757256526254982, 52.377978581034604 ], [ 4.759124423279246, 52.379329062879478 ], [ 4.759078010975752, 52.380940684853421 ], [ 4.759202035053074, 52.380863732125349 ], [ 4.759573782278724, 52.381108726114277 ], [ 4.759355430172286, 52.381234680870193 ], [ 4.759057976904669, 52.381464524201121 ], [ 4.758976962422304, 52.383798231827825 ], [ 4.759002586439659, 52.383807533746293 ], [ 4.758990414696611, 52.383875676660068 ], [ 4.758970462844382, 52.383884397661269 ], [ 4.758943421982885, 52.384419749209677 ], [ 4.75851343947823, 52.387193752416671 ], [ 4.758342832642128, 52.387705948139832 ], [ 4.758308228301367, 52.387894841190764 ], [ 4.754058793313355, 52.388647813130476 ], [ 4.754187009496588, 52.388914638942985 ], [ 4.754178201975722, 52.388934755893196 ], [ 4.75402137791203, 52.388974432016632 ], [ 4.75400396677679, 52.389039179311112 ], [ 4.754133378899038, 52.389432281475223 ], [ 4.754654934351066, 52.389368382403646 ], [ 4.754703814364672, 52.389368611265638 ], [ 4.754732518638716, 52.389387815590162 ], [ 4.755396635230003, 52.39126908507324 ], [ 4.755417964998371, 52.391380890323518 ], [ 4.755382345503967, 52.391415738362852 ], [ 4.755311127382222, 52.39143692241209 ], [ 4.753516405982015, 52.391685941547848 ], [ 4.753236441123645, 52.391766159510844 ], [ 4.752818192460848, 52.391914874779133 ], [ 4.752663619384297, 52.391948872427292 ], [ 4.752621235868609, 52.391974663795004 ], [ 4.75282858039377, 52.392222342752575 ], [ 4.753114117836467, 52.392487410937122 ], [ 4.753153313119602, 52.392491514893059 ], [ 4.753278511147766, 52.392449739441751 ], [ 4.753318955523818, 52.392452800103378 ], [ 4.753669802789324, 52.392693910647978 ], [ 4.754299686538229, 52.393015042301222 ], [ 4.754788400067465, 52.393203303098034 ], [ 4.755224598226219, 52.393332254176812 ], [ 4.755643181711018, 52.393432733233681 ], [ 4.756069737055575, 52.393495668728455 ], [ 4.75645240042611, 52.393510228701523 ], [ 4.75800704426524, 52.393511189336671 ], [ 4.758010033671463, 52.394029160830527 ], [ 4.757988001719275, 52.394552563669755 ], [ 4.757894634939925, 52.395717677268038 ], [ 4.7578665791816, 52.396501320609346 ], [ 4.757857511905772, 52.396587436984028 ], [ 4.757818105337536, 52.39666334494143 ], [ 4.75774643484918, 52.39674208828874 ], [ 4.757591629586208, 52.396849387074447 ], [ 4.757447659578931, 52.396893222286735 ], [ 4.757188469989141, 52.396944548982283 ], [ 4.756022181449598, 52.397102560700972 ], [ 4.756052030965814, 52.397192061488418 ], [ 4.728758936961952, 52.400711370858197 ] ] ], [ [ [ 5.012505148338883, 52.372436747208475 ], [ 5.012518673591308, 52.372472695094544 ], [ 5.012940328077038, 52.37278662991762 ], [ 5.012960702678058, 52.372829001061071 ], [ 5.012959669451104, 52.372953565325169 ], [ 5.012976542711283, 52.373000110941007 ], [ 5.013038316918768, 52.373040424584026 ], [ 5.013241431568881, 52.373089646216485 ], [ 5.013410523021768, 52.373073309189358 ], [ 5.013456069424611, 52.373041735008812 ], [ 5.014487443897877, 52.373032323924626 ], [ 5.014563975112427, 52.372956519093158 ], [ 5.014700540744643, 52.372720372041861 ], [ 5.014610181238226, 52.372181447915615 ], [ 5.014504972228522, 52.371974127671919 ], [ 5.014351134150212, 52.371853432342355 ], [ 5.014371970246186, 52.371785707127721 ], [ 5.014327430100096, 52.371751757332646 ], [ 5.01397307443558, 52.371632357065003 ], [ 5.013893149133168, 52.371670108502045 ], [ 5.01323798362971, 52.371659607020845 ], [ 5.013189482591101, 52.371684783905479 ], [ 5.012505148338883, 52.372436747208475 ] ] ] ] } }
]
}
