{
"type": "FeatureCollection",
"name": "SWVVO2201",
"crs": { "type": "name", "properties": { "name": "urn:ogc:def:crs:OGC:1.3:CRS84" } },
"features": [
{ "type": "Feature", "properties": { "VO SWV": "VO2201", "strokeColor": "#A9A9A9", "strokeWidth": 2, "fillColor": "#ADD8E6" }, "geometry": { "type": "MultiPolygon", "coordinates": [ [ [ [ 6.342898196953745, 52.897834770220193 ], [ 6.34393855914756, 52.898259817049691 ], [ 6.344442791842546, 52.898525558705941 ], [ 6.344636189121914, 52.898665522635248 ], [ 6.344710365372708, 52.89873941508656 ], [ 6.344855280687421, 52.89902266582834 ], [ 6.345151328072621, 52.89986841286099 ], [ 6.345179203643506, 52.899901777464017 ], [ 6.34524318755259, 52.899924026494396 ], [ 6.345259488863245, 52.899953072355423 ], [ 6.345394959328907, 52.900556372697004 ], [ 6.345440782391734, 52.900836887526836 ], [ 6.345474015186872, 52.900899168553956 ], [ 6.351889272365501, 52.903190974607838 ], [ 6.351949595302155, 52.903235606564387 ], [ 6.352363648280551, 52.903659923912983 ], [ 6.353012323280671, 52.904531276979093 ], [ 6.352997773209615, 52.904547576379876 ], [ 6.352935470466074, 52.904552619263548 ], [ 6.350725181941813, 52.904512768502101 ], [ 6.350640204966747, 52.904524106705303 ], [ 6.351451101252358, 52.905430290635124 ], [ 6.35156222177093, 52.905615258621545 ], [ 6.351965944613555, 52.90659430513567 ], [ 6.352729219165401, 52.907247394426001 ], [ 6.352952158751767, 52.90741181012622 ], [ 6.352972696465599, 52.907440785745123 ], [ 6.352957255306235, 52.907458997728696 ], [ 6.343556558550789, 52.910624455116462 ], [ 6.39343575617029, 52.932843467463783 ], [ 6.404186601126193, 52.945110502775037 ], [ 6.410454295742206, 52.952197843988657 ], [ 6.410616369529865, 52.952443315353982 ], [ 6.427614077093485, 52.971814681203185 ], [ 6.413279842740407, 52.985522927670267 ], [ 6.450611736440131, 52.9954102390668 ], [ 6.505934974333373, 53.010130061277465 ], [ 6.513035613152944, 53.01055705939487 ], [ 6.511537794736967, 53.013758991730391 ], [ 6.510006727487406, 53.016980445725103 ], [ 6.509841199394972, 53.016909669186553 ], [ 6.50964449214839, 53.016854894983531 ], [ 6.509098833885147, 53.016758905924199 ], [ 6.503974473613991, 53.015986714635396 ], [ 6.503938808261083, 53.016051155647162 ], [ 6.50387304819092, 53.016041581209855 ], [ 6.50241873373265, 53.018616198562242 ], [ 6.500813474172877, 53.021504779166484 ], [ 6.500319875108957, 53.022361508390773 ], [ 6.499270795887893, 53.024325577382591 ], [ 6.497109982136117, 53.028197523712613 ], [ 6.496688567649815, 53.0289426118538 ], [ 6.496323391952371, 53.029532654935416 ], [ 6.495527757847606, 53.030897694982819 ], [ 6.502892928277589, 53.032213135372274 ], [ 6.50085735620388, 53.036547494045472 ], [ 6.500520297853847, 53.037223960302256 ], [ 6.499950963600273, 53.038430294388846 ], [ 6.500877989824563, 53.039813844151126 ], [ 6.505130057814102, 53.046354753459731 ], [ 6.511263061281006, 53.055700856853015 ], [ 6.511725603768284, 53.05635879438276 ], [ 6.511774532533154, 53.05646997824018 ], [ 6.512643781895543, 53.059382163693435 ], [ 6.513527571916613, 53.062163014299202 ], [ 6.51383101073145, 53.063044823699627 ], [ 6.513954222083456, 53.063503848349036 ], [ 6.514105489332905, 53.063932647061833 ], [ 6.514127747749336, 53.06404576680567 ], [ 6.514465278841193, 53.065072839625671 ], [ 6.514366548263142, 53.065451983111934 ], [ 6.514515472915291, 53.06538090650011 ], [ 6.514131670019206, 53.067480678819102 ], [ 6.513356427042046, 53.072280135288231 ], [ 6.512912901314955, 53.072847161178792 ], [ 6.511984371128583, 53.073962951454575 ], [ 6.512241882627124, 53.074174734788414 ], [ 6.512263112085072, 53.074201774145621 ], [ 6.512259646243113, 53.07422499915441 ], [ 6.512007046591546, 53.074341889528192 ], [ 6.511812310948508, 53.074456033642157 ], [ 6.511265468339625, 53.074826795048359 ], [ 6.511174174267016, 53.074936429197898 ], [ 6.510648013855725, 53.075301277721437 ], [ 6.510381847134679, 53.075651766338083 ], [ 6.510402131880681, 53.075680282933988 ], [ 6.510525480747771, 53.075718767899914 ], [ 6.506712528734622, 53.080329136507878 ], [ 6.506153057778805, 53.081041589350548 ], [ 6.503945048667827, 53.083452261396651 ], [ 6.503472247108355, 53.08334601024125 ], [ 6.50263987078289, 53.084620369871082 ], [ 6.502372714176351, 53.084932805297846 ], [ 6.500484073904607, 53.08691764228395 ], [ 6.499403655006763, 53.087967298829156 ], [ 6.491807728395361, 53.095892519933088 ], [ 6.490772971635284, 53.096985275162943 ], [ 6.490441949510976, 53.097365695860553 ], [ 6.490218319747712, 53.097657743152233 ], [ 6.489915986538707, 53.098121660433144 ], [ 6.488515837816913, 53.100474375010904 ], [ 6.487367846390135, 53.102247003989291 ], [ 6.484832729249646, 53.106323597171091 ], [ 6.484777011688792, 53.106460093252451 ], [ 6.484743409253257, 53.106611108717438 ], [ 6.48452934409509, 53.110119109735649 ], [ 6.484458122333544, 53.111120139803809 ], [ 6.484396665084146, 53.111506189154106 ], [ 6.484344850350158, 53.111652633217922 ], [ 6.482925171722505, 53.11491454692181 ], [ 6.481416153584605, 53.118344215288147 ], [ 6.48138243381031, 53.118399460750048 ], [ 6.481348823879462, 53.11841646308438 ], [ 6.481285443770149, 53.118550429980097 ], [ 6.480476791767599, 53.120409491544798 ], [ 6.480299556316172, 53.120786702064244 ], [ 6.498425332443607, 53.123359382632579 ], [ 6.498834830808554, 53.122697895706139 ], [ 6.499363925205714, 53.121931828476278 ], [ 6.499758548391164, 53.121517681686534 ], [ 6.500894022519522, 53.120576990971401 ], [ 6.50508339384329, 53.122388599260098 ], [ 6.505756114539241, 53.121776333335866 ], [ 6.509830796107865, 53.118345597071105 ], [ 6.50996576264671, 53.118423386276596 ], [ 6.509971364245934, 53.118454378401879 ], [ 6.509916963741336, 53.118489787222664 ], [ 6.509793155807572, 53.118525466618401 ], [ 6.509698782184697, 53.118592964879937 ], [ 6.506104844372514, 53.121610946909811 ], [ 6.505191193062908, 53.122435152129505 ], [ 6.512501386145485, 53.125604477295745 ], [ 6.510929976354429, 53.130693053835003 ], [ 6.515078440189588, 53.131184828142409 ], [ 6.515779814969211, 53.130845111884334 ], [ 6.516913081413514, 53.131156680662102 ], [ 6.517157986228737, 53.131240604011175 ], [ 6.517393140089051, 53.13135432725381 ], [ 6.517361712892847, 53.131395334888722 ], [ 6.517508854173476, 53.131418485236416 ], [ 6.522085392339068, 53.131631896952044 ], [ 6.527861959908684, 53.131929043668116 ], [ 6.527835833974312, 53.131860509599832 ], [ 6.52787794334905, 53.131852978086016 ], [ 6.529423467374399, 53.132039011339259 ], [ 6.535390707567251, 53.130539659100322 ], [ 6.538384686592491, 53.130131537331387 ], [ 6.538257042131835, 53.130495692197883 ], [ 6.538217738325286, 53.130749579791996 ], [ 6.538197035405113, 53.131063320980488 ], [ 6.538265863861644, 53.131206864124728 ], [ 6.5383272625247, 53.131397746038395 ], [ 6.53842578352019, 53.1316013094197 ], [ 6.539080977304574, 53.132505841442267 ], [ 6.5394809062122, 53.133028020434374 ], [ 6.539627349465468, 53.133335933504533 ], [ 6.539711309589553, 53.133628215426008 ], [ 6.539724457050304, 53.133815753875339 ], [ 6.539715540603061, 53.133966791562514 ], [ 6.539471114421983, 53.136041388710929 ], [ 6.539475179523667, 53.136314058580545 ], [ 6.539571393813409, 53.136901809639916 ], [ 6.540009758067172, 53.138215455340259 ], [ 6.540058510246052, 53.138398797903541 ], [ 6.540085354998084, 53.138567648126049 ], [ 6.540073947027448, 53.138879225550937 ], [ 6.540037803913966, 53.139033979104418 ], [ 6.539942580720941, 53.139266207103432 ], [ 6.539871656810189, 53.139383125226622 ], [ 6.539518569438574, 53.139797397113746 ], [ 6.539339736070662, 53.139945311175865 ], [ 6.537739913023908, 53.14104632826308 ], [ 6.537508870599251, 53.141229839202445 ], [ 6.537302377126275, 53.141420142476179 ], [ 6.537117951976828, 53.141650756224038 ], [ 6.536923650953385, 53.141954155261473 ], [ 6.536815354097899, 53.142209436273802 ], [ 6.536740001940745, 53.142568738798936 ], [ 6.53672913539637, 53.142742131076375 ], [ 6.536746134789728, 53.142962117451169 ], [ 6.536828508631923, 53.143302100267171 ], [ 6.53695167800265, 53.143597901772047 ], [ 6.537078365272184, 53.143799195191917 ], [ 6.53799962147977, 53.1450505338534 ], [ 6.538222964790776, 53.145264701651591 ], [ 6.53829681513263, 53.145384763467021 ], [ 6.538324412301488, 53.145522621412532 ], [ 6.538279934902618, 53.145717947319149 ], [ 6.538015607673191, 53.146218216877557 ], [ 6.537942701327299, 53.146565742456197 ], [ 6.537837017736942, 53.147230324717924 ], [ 6.53769449533707, 53.147543795767035 ], [ 6.53745847690096, 53.14792653061572 ], [ 6.537305724178249, 53.148233186973982 ], [ 6.53722001020321, 53.148473921194807 ], [ 6.537197587264212, 53.148564900627392 ], [ 6.537168272864958, 53.148940395995169 ], [ 6.537126480859463, 53.149049938407821 ], [ 6.536975469875951, 53.149236555288219 ], [ 6.53681712707473, 53.149362657170641 ], [ 6.536672006642921, 53.149453029443592 ], [ 6.53560274113225, 53.149920455322253 ], [ 6.535378217839534, 53.150077240015307 ], [ 6.535243859612722, 53.150247771609074 ], [ 6.534943578446642, 53.150844586015651 ], [ 6.534826108349266, 53.151003174284888 ], [ 6.534697639007065, 53.151111789157547 ], [ 6.534234292256771, 53.15139186756938 ], [ 6.5341311533585, 53.151473414457755 ], [ 6.534062444267986, 53.151543357890269 ], [ 6.533973378326817, 53.151691821329926 ], [ 6.533924786014844, 53.151841337871915 ], [ 6.533915156057763, 53.151925062403748 ], [ 6.53394219579715, 53.152046639038346 ], [ 6.534015269357042, 53.152212384331023 ], [ 6.534128798540601, 53.152351674051388 ], [ 6.534298421196798, 53.152472199883135 ], [ 6.534692758165671, 53.152660363273732 ], [ 6.534929345455398, 53.152793224767471 ], [ 6.535117992461132, 53.152962707667122 ], [ 6.535339299760985, 53.153554280797593 ], [ 6.535590636774272, 53.154058154550711 ], [ 6.535758992189285, 53.154312854259452 ], [ 6.535840005112719, 53.15440540695905 ], [ 6.536015639119293, 53.154560349349069 ], [ 6.537556436726641, 53.155594180671919 ], [ 6.537674814950761, 53.155734846883568 ], [ 6.537743934577665, 53.155922530414372 ], [ 6.537753628329627, 53.156001552197068 ], [ 6.53774463652496, 53.156119285384975 ], [ 6.537621248665608, 53.156346802131623 ], [ 6.537172388301268, 53.156737691030408 ], [ 6.537065846922597, 53.156919449630742 ], [ 6.537017611401938, 53.157051035360375 ], [ 6.537059765818913, 53.157362184566274 ], [ 6.537131064975021, 53.157543390221264 ], [ 6.537327447199736, 53.157761623053219 ], [ 6.537591683051421, 53.157989340198696 ], [ 6.537654577424597, 53.158067223689862 ], [ 6.537718543306157, 53.158166556303712 ], [ 6.537851495529409, 53.158441701119216 ], [ 6.537615938295123, 53.158543717878906 ], [ 6.537333243058428, 53.158580291627445 ], [ 6.536662309039732, 53.158867595670529 ], [ 6.536201104478092, 53.159039918513145 ], [ 6.535963488105966, 53.159167125762181 ], [ 6.535892957058366, 53.159250333585902 ], [ 6.535875360756843, 53.159297176685449 ], [ 6.535886910061513, 53.159349296024736 ], [ 6.535998288973994, 53.159484472522706 ], [ 6.536013032026719, 53.159529134508759 ], [ 6.535994871748805, 53.159573234927748 ], [ 6.535739309334709, 53.159892707348376 ], [ 6.53567093831897, 53.159939711384133 ], [ 6.535490608808248, 53.160010325591188 ], [ 6.535129595131542, 53.160035175708735 ], [ 6.535028220558661, 53.160061528305484 ], [ 6.534944474261835, 53.160119984716211 ], [ 6.53479951841912, 53.160264883877296 ], [ 6.534434688579831, 53.160572444316919 ], [ 6.534378231320085, 53.160629450417929 ], [ 6.534335769627058, 53.160702314392665 ], [ 6.534158615442838, 53.160869281380293 ], [ 6.53412606752564, 53.160933171774587 ], [ 6.534141358040558, 53.161066159943765 ], [ 6.534203485674523, 53.161208973269758 ], [ 6.534265143356329, 53.16128732812254 ], [ 6.534352976236624, 53.16135798647548 ], [ 6.534491874048904, 53.161417008702344 ], [ 6.53492871914414, 53.161401023966285 ], [ 6.535107725402887, 53.161420975459585 ], [ 6.535176221547887, 53.161457611275104 ], [ 6.535293444396659, 53.16164355801758 ], [ 6.535339083384977, 53.161685474178306 ], [ 6.535567731307456, 53.161753179848688 ], [ 6.535785870990852, 53.161876479034554 ], [ 6.536118567625068, 53.162024573650577 ], [ 6.536224371165019, 53.162142633936071 ], [ 6.536417355141289, 53.162312048823694 ], [ 6.536551061215309, 53.162569215780195 ], [ 6.536557232655791, 53.162665487084453 ], [ 6.536527331458364, 53.162701723099083 ], [ 6.536309522653397, 53.162779820792835 ], [ 6.536216918966086, 53.16284059461546 ], [ 6.53612684500738, 53.162972612287426 ], [ 6.536060258420835, 53.163033292581126 ], [ 6.536018044912434, 53.163214693885678 ], [ 6.536021679049543, 53.163299239681422 ], [ 6.536053788596828, 53.163366537293307 ], [ 6.536168609825285, 53.163484780171999 ], [ 6.536206965985844, 53.163555095669068 ], [ 6.53617111808387, 53.163630020368885 ], [ 6.536122155620062, 53.164024799953218 ], [ 6.536329616981004, 53.164310531847512 ], [ 6.536546995978902, 53.164423924436072 ], [ 6.536643624555154, 53.164438227370482 ], [ 6.536922327340571, 53.164369190184559 ], [ 6.537226343341318, 53.164344218773664 ], [ 6.537357462724385, 53.164363050099141 ], [ 6.537414979121507, 53.164407447375162 ], [ 6.537440987732117, 53.164458406537179 ], [ 6.537436601312593, 53.164838674392307 ], [ 6.537384034859337, 53.164976564504059 ], [ 6.536825810174209, 53.165541657200777 ], [ 6.536546130223789, 53.165665351508501 ], [ 6.536200670076653, 53.165846259095751 ], [ 6.535926769295429, 53.166031009041085 ], [ 6.535752801828575, 53.166209238111868 ], [ 6.535720095118561, 53.166431787029879 ], [ 6.535803826898475, 53.166761859161845 ], [ 6.535815939584069, 53.166984535767448 ], [ 6.535804596517367, 53.167073974225858 ], [ 6.535741623219295, 53.167219825841663 ], [ 6.535730603201785, 53.167441202194162 ], [ 6.535764595061457, 53.167510018489835 ], [ 6.535833016956476, 53.167590213099793 ], [ 6.535986295324532, 53.167711824225172 ], [ 6.536172378720837, 53.167894050215608 ], [ 6.536265307556258, 53.16800250096837 ], [ 6.536292261354832, 53.168053307651356 ], [ 6.536290104388122, 53.168083661733455 ], [ 6.536200557530865, 53.168140038843433 ], [ 6.536090337127143, 53.168164894518235 ], [ 6.535789123324394, 53.16820325403372 ], [ 6.535441088564721, 53.168213103763982 ], [ 6.535291831390027, 53.168243445548541 ], [ 6.534827073975321, 53.168383126349049 ], [ 6.534312345189017, 53.168501807269294 ], [ 6.53402240938284, 53.16861915326389 ], [ 6.533820883638986, 53.168722844342888 ], [ 6.53377069416084, 53.168777751300532 ], [ 6.533634780599215, 53.168967370916334 ], [ 6.533584567985101, 53.169064105979388 ], [ 6.533535837817839, 53.169214106803075 ], [ 6.53358667402466, 53.169387607585854 ], [ 6.533883100964824, 53.169808469412978 ], [ 6.533861335580463, 53.169856762090539 ], [ 6.533805377893902, 53.169907484452821 ], [ 6.533579969138605, 53.170057768055585 ], [ 6.533563866974765, 53.170085591093695 ], [ 6.533570021026324, 53.170170030391695 ], [ 6.533633619521063, 53.170239274911879 ], [ 6.533814445666154, 53.170355493672034 ], [ 6.534689758941729, 53.170702463993528 ], [ 6.535167131026329, 53.170810659899658 ], [ 6.535407540816329, 53.170947701414072 ], [ 6.535429358769357, 53.170985952122706 ], [ 6.53541809308506, 53.171031772234038 ], [ 6.535217118551043, 53.171265836430706 ], [ 6.535197033732695, 53.17132798611469 ], [ 6.535193845096475, 53.171396570189692 ], [ 6.53521223416074, 53.171452153737555 ], [ 6.535370659957506, 53.171610173083543 ], [ 6.535367571838582, 53.171642166657826 ], [ 6.534926417652946, 53.171878976853719 ], [ 6.534866906815981, 53.171889647928808 ], [ 6.534630725024443, 53.171821172343428 ], [ 6.534140382837865, 53.171884477244639 ], [ 6.533972988546887, 53.17194553291062 ], [ 6.533697738567931, 53.172080721685028 ], [ 6.533538322923008, 53.17209449550932 ], [ 6.533439152058199, 53.172075647443741 ], [ 6.533183324321864, 53.171980185169318 ], [ 6.53254308275946, 53.171595978611847 ], [ 6.532297960245323, 53.171517481878823 ], [ 6.532117661322807, 53.171516421131365 ], [ 6.531924198238589, 53.17156976877277 ], [ 6.53167711151044, 53.17173500178626 ], [ 6.53125918618638, 53.172159933244046 ], [ 6.531088988282497, 53.172200123616982 ], [ 6.530724570990239, 53.172244960282057 ], [ 6.530572150559085, 53.172283335114621 ], [ 6.530433954666257, 53.172358048336193 ], [ 6.530388823149811, 53.172405711415905 ], [ 6.528470003692768, 53.17113347111809 ], [ 6.526053853530402, 53.169650679927784 ], [ 6.52515249424176, 53.170448878988097 ], [ 6.525136385509688, 53.170480918458146 ], [ 6.525130401595058, 53.170609739602902 ], [ 6.525094864090287, 53.170782477117605 ], [ 6.525013213061158, 53.170997392237929 ], [ 6.52492673631637, 53.171136880920699 ], [ 6.524687117808976, 53.171424044314129 ], [ 6.52179322619337, 53.175107002745399 ], [ 6.521693170512715, 53.175102979920943 ], [ 6.51901397991719, 53.174395281507529 ], [ 6.518269306944509, 53.174255261128948 ], [ 6.517342227780851, 53.175352012445636 ], [ 6.517154054301987, 53.175614603953228 ], [ 6.516499772726615, 53.176794684433041 ], [ 6.513051879204487, 53.183184271723263 ], [ 6.512810888873044, 53.183589216712299 ], [ 6.51262533039426, 53.183735430140977 ], [ 6.512484803316388, 53.183794085001708 ], [ 6.512337780645823, 53.183819423702943 ], [ 6.512048867467426, 53.183816213703679 ], [ 6.511257731481313, 53.183643952117826 ], [ 6.511189688063229, 53.183658843430344 ], [ 6.511043968156853, 53.183754042294673 ], [ 6.511689497529982, 53.184692538511072 ], [ 6.51277529287894, 53.186122523203849 ], [ 6.512861838253349, 53.187435873926965 ], [ 6.513060785129801, 53.189385749071761 ], [ 6.513465820580882, 53.191725702368267 ], [ 6.513897899863495, 53.193782864903248 ], [ 6.513974972807595, 53.194027709335209 ], [ 6.512009382533895, 53.196217717557396 ], [ 6.512296775857219, 53.196411813080552 ], [ 6.514862784929983, 53.197649069985481 ], [ 6.514834868756559, 53.197671952648165 ], [ 6.515035653610006, 53.197773732871347 ], [ 6.514980968554637, 53.197832640113127 ], [ 6.515400144936106, 53.198072948122949 ], [ 6.51571519481211, 53.198308146791142 ], [ 6.515697812111314, 53.198279460442208 ], [ 6.51570959198457, 53.198250803074707 ], [ 6.515800764193074, 53.198203643005513 ], [ 6.515760457505534, 53.198143433128152 ], [ 6.515771463563124, 53.198135857645489 ], [ 6.520071969246229, 53.197138394379643 ], [ 6.524105353513187, 53.19638635153413 ], [ 6.526860853963927, 53.195920500047514 ], [ 6.526926345558827, 53.195855260197014 ], [ 6.526918567802452, 53.195827056808241 ], [ 6.526931811907526, 53.195808414500974 ], [ 6.52699502751975, 53.195806313526454 ], [ 6.527306615186614, 53.195962565790452 ], [ 6.528643348115824, 53.195767257102517 ], [ 6.530491975089604, 53.1955592736578 ], [ 6.529493150031117, 53.195185192696833 ], [ 6.529902415644099, 53.194182849321486 ], [ 6.530263137691804, 53.193461233246964 ], [ 6.530260152583585, 53.193174327946103 ], [ 6.531978112362012, 53.189277735469155 ], [ 6.533043869387897, 53.186956927866269 ], [ 6.533793030402614, 53.185013685799603 ], [ 6.534052169727557, 53.184437990901181 ], [ 6.53421216431409, 53.184178147351041 ], [ 6.534348935192029, 53.184010992022877 ], [ 6.534615916579599, 53.18378991484024 ], [ 6.534853651202744, 53.183650138562285 ], [ 6.535534131221353, 53.183295136367136 ], [ 6.536297600294318, 53.182993269723788 ], [ 6.537314537077284, 53.182670793955062 ], [ 6.537500697990162, 53.182595532990071 ], [ 6.537881147540706, 53.182397860455914 ], [ 6.538544333300743, 53.181982030162935 ], [ 6.539656144100173, 53.181221584095383 ], [ 6.539879204150263, 53.181000900300191 ], [ 6.540430040653413, 53.180371377937995 ], [ 6.540594926852236, 53.180204001573088 ], [ 6.540926691830016, 53.179914152516098 ], [ 6.541132844593948, 53.179677275037122 ], [ 6.541250478176115, 53.179507468276306 ], [ 6.541744026862304, 53.17861049818643 ], [ 6.542465264796502, 53.178679122215478 ], [ 6.542708813989649, 53.178672359951278 ], [ 6.543126842941132, 53.17880906944626 ], [ 6.543649137220173, 53.179106823841174 ], [ 6.545011401813947, 53.17978433210056 ], [ 6.545443786820372, 53.179971833425469 ], [ 6.545449831979429, 53.179951423818437 ], [ 6.54786364660551, 53.180937474949964 ], [ 6.547846708650221, 53.180955686092162 ], [ 6.548188303721876, 53.181097636618539 ], [ 6.553559606271546, 53.175136618219348 ], [ 6.554141227311686, 53.175287538138342 ], [ 6.554246374900034, 53.175080310057545 ], [ 6.554583603132708, 53.174726620283586 ], [ 6.554748046113999, 53.174630899659945 ], [ 6.554791298183237, 53.174565363789412 ], [ 6.55483247453237, 53.174428859121306 ], [ 6.554904692574862, 53.174346986862162 ], [ 6.555072171897594, 53.174212816137405 ], [ 6.555121679329512, 53.174127145693241 ], [ 6.555178230953756, 53.173952637101216 ], [ 6.555254566873169, 53.173837853353255 ], [ 6.555717013258197, 53.173289606701154 ], [ 6.555828065865738, 53.173217589110749 ], [ 6.555920800013545, 53.173125635818003 ], [ 6.556009301720697, 53.172986468672015 ], [ 6.556196699232223, 53.172788193389451 ], [ 6.556259062446983, 53.172650508382276 ], [ 6.556310727066438, 53.172578176864775 ], [ 6.556360729540657, 53.17252552330703 ], [ 6.55648693352968, 53.172460752321932 ], [ 6.556743896613366, 53.172147414270469 ], [ 6.557044294586007, 53.171883527454838 ], [ 6.557345894218519, 53.171541645211754 ], [ 6.557644152941778, 53.171236955908554 ], [ 6.557740241395677, 53.171102895293586 ], [ 6.558002863663419, 53.170847399079548 ], [ 6.558180803920354, 53.170597075234099 ], [ 6.558454509593703, 53.170314413365055 ], [ 6.558532891080616, 53.170209375559367 ], [ 6.55859266818693, 53.17009553213078 ], [ 6.558904284896983, 53.16974200301626 ], [ 6.559077940988664, 53.169604326519753 ], [ 6.559205409940504, 53.169475600518716 ], [ 6.559496790138204, 53.169105774534927 ], [ 6.559674749928351, 53.168560285701304 ], [ 6.559825972528747, 53.168156424828808 ], [ 6.559844788912091, 53.167986790119379 ], [ 6.559979285700233, 53.167680504488459 ], [ 6.560418808973558, 53.166503326309339 ], [ 6.560676828992002, 53.165931694483348 ], [ 6.560945174989792, 53.164982889552029 ], [ 6.561131507848049, 53.164399036833849 ], [ 6.56145837917242, 53.163631679463236 ], [ 6.561623599281925, 53.16314022286516 ], [ 6.561815330651561, 53.162762967092654 ], [ 6.562641666553839, 53.160698892495418 ], [ 6.5627437330435, 53.160511505264097 ], [ 6.562856596698398, 53.160209724842076 ], [ 6.562896095812617, 53.159948010987314 ], [ 6.563017163040967, 53.159548026855973 ], [ 6.563069932858829, 53.159175475232431 ], [ 6.563158136542362, 53.158723791240796 ], [ 6.563423036668073, 53.158238127845607 ], [ 6.563596081334024, 53.157800623648669 ], [ 6.563687478367801, 53.157638691711803 ], [ 6.570993711020104, 53.160083505299191 ], [ 6.571567650119933, 53.160287679059316 ], [ 6.572139324148471, 53.160464160505015 ], [ 6.574310496516963, 53.161188939245172 ], [ 6.574634004451832, 53.16127042325359 ], [ 6.575507142957759, 53.161586238656085 ], [ 6.575855484099491, 53.161686935155124 ], [ 6.576120115527337, 53.161736230045719 ], [ 6.576413711307973, 53.16184741267525 ], [ 6.577284719774043, 53.162220977951186 ], [ 6.57771931500304, 53.162331127840297 ], [ 6.578321392175694, 53.162516334991338 ], [ 6.578910950804802, 53.162745935872728 ], [ 6.579396569370822, 53.162855435240061 ], [ 6.579995933146962, 53.16311270704869 ], [ 6.580499693818576, 53.163250764346579 ], [ 6.581302239879926, 53.163558693406401 ], [ 6.581383829698234, 53.163579511023677 ], [ 6.58151469870618, 53.163584442925654 ], [ 6.581485965769717, 53.16349739063903 ], [ 6.581432455991809, 53.163454411784024 ], [ 6.581416516637502, 53.163394339423704 ], [ 6.581344430445546, 53.162924136913382 ], [ 6.580788817484409, 53.16246438440097 ], [ 6.580735213941449, 53.162310122440275 ], [ 6.580731318428725, 53.162204410604488 ], [ 6.581092996862175, 53.162167287546524 ], [ 6.581766271416342, 53.162211061969238 ], [ 6.581932839922151, 53.162158916279679 ], [ 6.582020064520814, 53.16208547061926 ], [ 6.582016310685657, 53.161949816695476 ], [ 6.581955545004262, 53.161840008274929 ], [ 6.581781349143474, 53.161614604046839 ], [ 6.581704188140112, 53.161482754840648 ], [ 6.581680250214697, 53.161375763148918 ], [ 6.581697869784807, 53.161252490015464 ], [ 6.581797130590353, 53.161046498586359 ], [ 6.581911609154972, 53.160858271540611 ], [ 6.582041285023548, 53.160705498382164 ], [ 6.582984813381469, 53.15979678421705 ], [ 6.583145682944342, 53.159634272149582 ], [ 6.583251854675058, 53.159486488808341 ], [ 6.583333590746889, 53.159252795874885 ], [ 6.583447913523893, 53.158830443886778 ], [ 6.583448243304701, 53.158271867326931 ], [ 6.583474658017825, 53.158087014796173 ], [ 6.583527086537767, 53.157934221233688 ], [ 6.583572351389066, 53.15786768430155 ], [ 6.583720158194346, 53.157794992599968 ], [ 6.583923694129721, 53.157755113352209 ], [ 6.584552073245589, 53.157696759695114 ], [ 6.584724592417646, 53.157671374667949 ], [ 6.584818140724757, 53.157637307773498 ], [ 6.585563381404086, 53.15696245816109 ], [ 6.585936149855844, 53.156778944574967 ], [ 6.586476193872822, 53.156659935941647 ], [ 6.586907595964433, 53.156488092711641 ], [ 6.587014949506588, 53.156382889942961 ], [ 6.58708932925485, 53.156225958328314 ], [ 6.587124371850257, 53.156069420507507 ], [ 6.586641472793913, 53.155690898698666 ], [ 6.586160345955627, 53.155378563966707 ], [ 6.585026022957009, 53.154504878722825 ], [ 6.584514454923563, 53.154226001257001 ], [ 6.584488823296493, 53.15415512279035 ], [ 6.584539341536684, 53.153705131660956 ], [ 6.584521354850406, 53.153509324026807 ], [ 6.584533773942064, 53.153443004209628 ], [ 6.584755875574511, 53.153522453157201 ], [ 6.586015480743352, 53.152190493948211 ], [ 6.585753708485671, 53.15207738627484 ], [ 6.585789677944645, 53.152029115005547 ], [ 6.585680144690572, 53.151968422973468 ], [ 6.585989764050782, 53.151523826204887 ], [ 6.586072361727198, 53.151256280486443 ], [ 6.586101071323586, 53.151196490088722 ], [ 6.586161112899075, 53.151137288022348 ], [ 6.586186228703603, 53.150781671856421 ], [ 6.58620926026487, 53.150675017192484 ], [ 6.586756850340405, 53.149945319306525 ], [ 6.586901267401752, 53.149712763536186 ], [ 6.587236547583387, 53.149282902370174 ], [ 6.587274112306386, 53.149176062028225 ], [ 6.587374573418217, 53.14870254690149 ], [ 6.587510328400797, 53.14844469409578 ], [ 6.587577685188698, 53.148232608769135 ], [ 6.587595648591284, 53.14803049222693 ], [ 6.587743301013521, 53.147802788970232 ], [ 6.587783139802121, 53.147484695876102 ], [ 6.587776485808944, 53.147291939448877 ], [ 6.587906064718619, 53.146928036762205 ], [ 6.58789791753169, 53.14685250531317 ], [ 6.587820870622254, 53.146690857736182 ], [ 6.587862891858468, 53.14611095169888 ], [ 6.587843303938367, 53.146005407574862 ], [ 6.587749411895573, 53.145767761378949 ], [ 6.587819208568722, 53.14561091291732 ], [ 6.587964109374446, 53.14543620732379 ], [ 6.588185465052521, 53.145322840320169 ], [ 6.588503900244492, 53.145209504086594 ], [ 6.589269741066561, 53.14507302716796 ], [ 6.589458854788335, 53.145020833848967 ], [ 6.590359411613002, 53.144947450129095 ], [ 6.590542818245917, 53.144946879947909 ], [ 6.592134532942769, 53.145068295846578 ], [ 6.59297763718206, 53.145167248440693 ], [ 6.593395887471641, 53.145237665818946 ], [ 6.593527201815633, 53.14523760135225 ], [ 6.594269526674231, 53.145317961031317 ], [ 6.595588173823416, 53.145487667533608 ], [ 6.595681515933693, 53.145480342335254 ], [ 6.595884727329178, 53.145443106502768 ], [ 6.595961209432947, 53.145406400230385 ], [ 6.596045781418004, 53.145341945310307 ], [ 6.596118749952057, 53.145247624426695 ], [ 6.596119101921561, 53.145191148566731 ], [ 6.595931905860777, 53.144839427563582 ], [ 6.59587412495496, 53.144561130193672 ], [ 6.59586719521255, 53.144391250593699 ], [ 6.595892178475088, 53.144335095051041 ], [ 6.595978264552868, 53.144272248334666 ], [ 6.596379862580295, 53.144109366703212 ], [ 6.597299354392265, 53.144014317752955 ], [ 6.59998447514563, 53.144723526140147 ], [ 6.600068294212733, 53.144665289704683 ], [ 6.600313420291502, 53.144421753961822 ], [ 6.60168526173501, 53.143283446278588 ], [ 6.603457890021692, 53.141825636019057 ], [ 6.603868339089683, 53.141508141036894 ], [ 6.606521078528711, 53.139313823250177 ], [ 6.606554238182325, 53.139294015488048 ], [ 6.606811258750537, 53.139248643591152 ], [ 6.607447848066982, 53.139245983071874 ], [ 6.610016730760377, 53.137997197807188 ], [ 6.610150722217821, 53.137962369593097 ], [ 6.610216406106356, 53.137897274150376 ], [ 6.610268988729301, 53.13788228407509 ], [ 6.610355772696202, 53.137886790869167 ], [ 6.61051687673646, 53.137932664649242 ], [ 6.610623646124195, 53.137943719578118 ], [ 6.610684846212746, 53.137940295028223 ], [ 6.610780633525403, 53.137905695422248 ], [ 6.614400441827541, 53.135556958702018 ], [ 6.614139016164899, 53.134671074374111 ], [ 6.614151098344382, 53.134580481228831 ], [ 6.614206940550539, 53.134420431480244 ], [ 6.614170349131661, 53.134368093024236 ], [ 6.613993672874402, 53.134265612271676 ], [ 6.613816626916189, 53.134128856982755 ], [ 6.613747131033795, 53.133971099072284 ], [ 6.613689698261679, 53.133758584694853 ], [ 6.613573102374135, 53.133086769899244 ], [ 6.613523914088103, 53.132921568087355 ], [ 6.613530317187154, 53.132866060329377 ], [ 6.613565588794797, 53.132797456421166 ], [ 6.613641287879497, 53.132694302676406 ], [ 6.613814378791186, 53.132586846491115 ], [ 6.613945729892717, 53.132539643624824 ], [ 6.614119447135083, 53.132527506332174 ], [ 6.614513970523465, 53.132594910324357 ], [ 6.615165072062861, 53.132801014439245 ], [ 6.616428426445016, 53.132991364257116 ], [ 6.616530785634529, 53.132981650640183 ], [ 6.616698240069668, 53.132916726864266 ], [ 6.616810675752535, 53.132846331848874 ], [ 6.616864240491385, 53.132810747924282 ], [ 6.616942045513082, 53.132713607689666 ], [ 6.617027651273993, 53.132559042154568 ], [ 6.61695733542506, 53.132362321866133 ], [ 6.616969804447404, 53.132299993807834 ], [ 6.617081014928101, 53.132163088475764 ], [ 6.617151196281283, 53.132115060829477 ], [ 6.617550500629312, 53.131983064304066 ], [ 6.617918131941896, 53.131927988987599 ], [ 6.618310670959691, 53.131914630255672 ], [ 6.618391777839034, 53.131885210194056 ], [ 6.618661059774554, 53.131729937032482 ], [ 6.618900699006836, 53.131626770559429 ], [ 6.619019532713175, 53.13155249572182 ], [ 6.619053108700566, 53.131510488718526 ], [ 6.619048348141036, 53.131469501619797 ], [ 6.618743233328449, 53.131064227380847 ], [ 6.618579089523947, 53.13071840809382 ], [ 6.618594656376714, 53.130484751864159 ], [ 6.618639817984849, 53.130379641848371 ], [ 6.618754765592977, 53.13018072044428 ], [ 6.619070668884453, 53.129755752172905 ], [ 6.61915398677985, 53.129669107578145 ], [ 6.619350696289989, 53.12951622251245 ], [ 6.619948338319857, 53.129142674526122 ], [ 6.620997887405887, 53.128595541600042 ], [ 6.621175340038143, 53.12849349000588 ], [ 6.621275125094963, 53.128408786116964 ], [ 6.621320258184197, 53.128309066397762 ], [ 6.621346759694511, 53.128181835748705 ], [ 6.621274866990082, 53.127847001420193 ], [ 6.621288201123056, 53.12763890441915 ], [ 6.621340265443733, 53.127541331885396 ], [ 6.621530139539659, 53.127335354800259 ], [ 6.621649671026266, 53.127102130011572 ], [ 6.621684744898961, 53.126608514088666 ], [ 6.621763354698296, 53.126350723319284 ], [ 6.62190362953811, 53.126194856190658 ], [ 6.622378064151157, 53.125823513942407 ], [ 6.622834180797983, 53.125373015341069 ], [ 6.623093465952287, 53.125164340715671 ], [ 6.623739068561854, 53.124908725096113 ], [ 6.62400067616337, 53.124786214835517 ], [ 6.624250452164003, 53.124641918483775 ], [ 6.624593136387178, 53.124403726359269 ], [ 6.625000391962795, 53.123992081852933 ], [ 6.625175568384416, 53.123919723446718 ], [ 6.626045829998128, 53.123748865577653 ], [ 6.626223505033756, 53.123635999768389 ], [ 6.62635486374566, 53.12347228406194 ], [ 6.626400076628319, 53.123356321171734 ], [ 6.626453272403786, 53.123270286782663 ], [ 6.6270057083904, 53.122964707485195 ], [ 6.627307076823721, 53.122838495657604 ], [ 6.627503517183312, 53.122802206754592 ], [ 6.627642135949766, 53.122710529369982 ], [ 6.627720150926825, 53.122582865011147 ], [ 6.627818888375894, 53.122339683495468 ], [ 6.627943639208492, 53.121943224565406 ], [ 6.627965186138795, 53.121779371729367 ], [ 6.627483612764308, 53.121298815068279 ], [ 6.627447309142707, 53.12118162598852 ], [ 6.627512934596395, 53.12109529362575 ], [ 6.628059892962829, 53.120612772925064 ], [ 6.628117646323939, 53.120501815783776 ], [ 6.628373427116355, 53.119834271980594 ], [ 6.628545219585703, 53.119593505817704 ], [ 6.628648452270003, 53.119493057117367 ], [ 6.628813246032501, 53.119420983433912 ], [ 6.628875700354326, 53.119422594609247 ], [ 6.628982861919147, 53.119464755626346 ], [ 6.629103050569764, 53.119568145270598 ], [ 6.629212339182878, 53.119742690357761 ], [ 6.629252492906699, 53.11978087362985 ], [ 6.62931518992377, 53.119820464543551 ], [ 6.629388341848967, 53.119838209443131 ], [ 6.629572038795643, 53.119771512880277 ], [ 6.629827348685436, 53.119643223339615 ], [ 6.630575671836141, 53.119385305731136 ], [ 6.630790427435334, 53.119260737235756 ], [ 6.63083059848081, 53.119211129756302 ], [ 6.630856431989403, 53.11916187509275 ], [ 6.630842042564629, 53.119104438124268 ], [ 6.630677635014222, 53.118974835888132 ], [ 6.630486687468739, 53.11887566936781 ], [ 6.629806231722945, 53.118626504063513 ], [ 6.629627250976986, 53.118536058835481 ], [ 6.629562257216521, 53.118478252654313 ], [ 6.629498009503227, 53.118388298451187 ], [ 6.629168192483644, 53.117868213843749 ], [ 6.629048566190612, 53.117750125671634 ], [ 6.628880477366334, 53.117624892206969 ], [ 6.62815689126325, 53.117252305635802 ], [ 6.627717161655105, 53.117108869704637 ], [ 6.627646097199921, 53.117055515107644 ], [ 6.627609751090604, 53.116969088179587 ], [ 6.627611304933146, 53.116900897287834 ], [ 6.627660822442778, 53.11682765485174 ], [ 6.627749552916869, 53.116753124477164 ], [ 6.627955026842971, 53.116672177550413 ], [ 6.628283729885023, 53.116621025063424 ], [ 6.628380735382382, 53.116569631984454 ], [ 6.628402039084174, 53.116526456117882 ], [ 6.628411813601502, 53.116424382281373 ], [ 6.628397026560223, 53.116339162472094 ], [ 6.628332215054496, 53.116179130783458 ], [ 6.628037421079763, 53.11583744531756 ], [ 6.628018619404759, 53.11571532062451 ], [ 6.62805586715703, 53.115647110580205 ], [ 6.628179679068501, 53.115576418856079 ], [ 6.628342680724189, 53.115525496943555 ], [ 6.62890768515917, 53.11545851626331 ], [ 6.629097090686992, 53.115416816478799 ], [ 6.629309709284649, 53.11525461735895 ], [ 6.629410908549007, 53.115146810793249 ], [ 6.629545517478186, 53.114844223560702 ], [ 6.629602393204116, 53.114768003385755 ], [ 6.629830361709291, 53.114683328821215 ], [ 6.630673496469377, 53.114544462507972 ], [ 6.631109755991577, 53.114455488017967 ], [ 6.631332397299183, 53.114432297586205 ], [ 6.632694243903051, 53.114439350142788 ], [ 6.633527768861792, 53.114381379034725 ], [ 6.633636278841817, 53.114347475383511 ], [ 6.633813190679573, 53.114257410611394 ], [ 6.633862114071861, 53.114203115906342 ], [ 6.634000419806267, 53.113964093556078 ], [ 6.634068762311132, 53.11388701741695 ], [ 6.634171734181082, 53.11382626472065 ], [ 6.634429953086849, 53.113718283755112 ], [ 6.634954067699063, 53.113550034545938 ], [ 6.635968429140172, 53.113351477158268 ], [ 6.636125191120677, 53.113263313645668 ], [ 6.63625288103309, 53.113166089935497 ], [ 6.636597242861645, 53.112842873122716 ], [ 6.636608162672887, 53.112799398909203 ], [ 6.636567944068998, 53.11275521235595 ], [ 6.636451407231238, 53.112667931792743 ], [ 6.636392526003664, 53.112647918044694 ], [ 6.636226087072814, 53.112619875840444 ], [ 6.635890620291871, 53.112623091980652 ], [ 6.635821665947445, 53.11261054953146 ], [ 6.635788960558162, 53.112586866949208 ], [ 6.635663329940365, 53.112180317329674 ], [ 6.635498852907286, 53.111955036740007 ], [ 6.635248580930996, 53.111760325167396 ], [ 6.635187011232087, 53.111694377867302 ], [ 6.635145376425997, 53.11163321688943 ], [ 6.635117424422575, 53.111551452130769 ], [ 6.635110768515372, 53.111460981385392 ], [ 6.635148765534828, 53.111275420206688 ], [ 6.635278799308209, 53.111147065026479 ], [ 6.635526645586825, 53.111008769385116 ], [ 6.636379233371433, 53.110611980847878 ], [ 6.636736609108068, 53.11039618945199 ], [ 6.636855777338873, 53.110264810159613 ], [ 6.63688423533131, 53.110152082502999 ], [ 6.63684357044977, 53.109966872173402 ], [ 6.636856078396312, 53.109550501044829 ], [ 6.637119868086558, 53.1085751197025 ], [ 6.637111419314945, 53.108421076768693 ], [ 6.637086357895171, 53.108300890404827 ], [ 6.637052322489041, 53.108257568120386 ], [ 6.636777317395453, 53.108155835155245 ], [ 6.636248077979562, 53.108064004106176 ], [ 6.635969072912738, 53.107995791082907 ], [ 6.635670888816711, 53.107847991544467 ], [ 6.635629421477645, 53.107807758428471 ], [ 6.635644981413357, 53.107709889468055 ], [ 6.635786076700126, 53.107445502877766 ], [ 6.635986680469854, 53.107209076693046 ], [ 6.635994237204042, 53.107161359213634 ], [ 6.635977294893688, 53.107034031352491 ], [ 6.635848474597316, 53.106834534449682 ], [ 6.635741610964972, 53.106713694106716 ], [ 6.635679119317726, 53.106677812197056 ], [ 6.635441389573173, 53.106630151390739 ], [ 6.635241697680814, 53.106645021926028 ], [ 6.635118656609715, 53.106695154106902 ], [ 6.635027478398732, 53.106658642456139 ], [ 6.634924093644651, 53.106503213171443 ], [ 6.634832642459306, 53.106202232128659 ], [ 6.635068053573704, 53.106198732653475 ], [ 6.635272949184269, 53.106231576543053 ], [ 6.635864816296325, 53.106426281596804 ], [ 6.636365170801064, 53.106541980659124 ], [ 6.636515871962677, 53.106607867214905 ], [ 6.637326412642531, 53.106832273374849 ], [ 6.637426708311621, 53.106886330610699 ], [ 6.637442168908311, 53.106979833878022 ], [ 6.637511313084919, 53.107067143711873 ], [ 6.637670915359232, 53.107159932230353 ], [ 6.637729069710382, 53.107161151164625 ], [ 6.637988647667956, 53.107052409830011 ], [ 6.638063686505766, 53.107051384315781 ], [ 6.638363687492418, 53.10716323573844 ], [ 6.638699588092407, 53.107264088898901 ], [ 6.640682672238221, 53.107819513041875 ], [ 6.641326657096402, 53.108026734464147 ], [ 6.641336561450671, 53.108018151354379 ], [ 6.64190563397433, 53.108184312301908 ], [ 6.647878566201516, 53.109971247915844 ], [ 6.651909367767599, 53.111159546515275 ], [ 6.661459058793451, 53.113718483630905 ], [ 6.665287690325116, 53.1146354785675 ], [ 6.665151653299016, 53.114879992373261 ], [ 6.667735397807213, 53.115436791816443 ], [ 6.667723582103116, 53.115515454521507 ], [ 6.670888570662304, 53.116243700946463 ], [ 6.670602504956289, 53.116516314023599 ], [ 6.673458562822519, 53.117129197912902 ], [ 6.673605571764488, 53.117005984915778 ], [ 6.674169098269546, 53.117197717388386 ], [ 6.674280367281626, 53.117207615117252 ], [ 6.67472500155112, 53.117437569474411 ], [ 6.674926989591343, 53.117524736461633 ], [ 6.675402876896863, 53.117650250783505 ], [ 6.678542859706009, 53.118073541393905 ], [ 6.681209815501894, 53.118471057818311 ], [ 6.685461925856677, 53.119317932376148 ], [ 6.687226220628575, 53.119649531131095 ], [ 6.693469799215731, 53.120876881852375 ], [ 6.695366901154322, 53.121176011730753 ], [ 6.709868446804822, 53.120254312025843 ], [ 6.71148042043639, 53.120218615443257 ], [ 6.712309537664463, 53.120371536028777 ], [ 6.71276431218901, 53.120405750976438 ], [ 6.721097229170297, 53.120184973658425 ], [ 6.721380877936403, 53.120130337017159 ], [ 6.737450955934868, 53.119461727664643 ], [ 6.742396307486282, 53.116370859835776 ], [ 6.743253769647965, 53.116568299348977 ], [ 6.743317914255027, 53.116480085905813 ], [ 6.743390562992676, 53.116283453175861 ], [ 6.743527323655194, 53.115991489027593 ], [ 6.743655417887389, 53.11583383492934 ], [ 6.743773609334842, 53.115738681360661 ], [ 6.74397950133184, 53.115630123074162 ], [ 6.74425469582116, 53.115513118066474 ], [ 6.745095576639044, 53.115036757025464 ], [ 6.746235244717782, 53.114312245181672 ], [ 6.746967618679353, 53.11389225394236 ], [ 6.747758629188403, 53.113514205382984 ], [ 6.747921539813676, 53.113358712523926 ], [ 6.748705170180396, 53.11224621585405 ], [ 6.749048529484263, 53.111581332682469 ], [ 6.751356157917446, 53.111434845746174 ], [ 6.751591895342332, 53.11072926335212 ], [ 6.751865263889999, 53.110745154978588 ], [ 6.751928416825445, 53.110705046217916 ], [ 6.751930025789493, 53.110654890454562 ], [ 6.751812653591737, 53.110358942569896 ], [ 6.751942587417034, 53.110356420887477 ], [ 6.78803177792639, 53.087440312020476 ], [ 6.791544053755509, 53.08522418300165 ], [ 6.796578003337242, 53.082000499402128 ], [ 6.799603421529139, 53.080094333129622 ], [ 6.813944747305944, 53.070971583265099 ], [ 6.821556462211547, 53.066167798656295 ], [ 6.837504390907758, 53.056014529489381 ], [ 6.838025944843761, 53.055697596183691 ], [ 6.84520421320893, 53.051111515284475 ], [ 6.853265802686324, 53.046005760313534 ], [ 6.857394469621386, 53.043343341880522 ], [ 6.865132673933815, 53.038437661378076 ], [ 6.867306400693058, 53.037031344311316 ], [ 6.87881896137143, 53.029679019120955 ], [ 6.887141892001616, 53.024378823545923 ], [ 6.890809006036743, 53.022068364869703 ], [ 6.935653264960055, 52.993372745387184 ], [ 6.93317386897732, 52.992964277394684 ], [ 6.928217554747159, 52.992180843840217 ], [ 6.923488152144564, 52.991455135000521 ], [ 6.905973917541621, 52.988711918272223 ], [ 6.905655923725407, 52.98865045885573 ], [ 6.883767116222597, 52.98521758096652 ], [ 6.88332024148857, 52.98516586741507 ], [ 6.877271119253675, 52.984218414587225 ], [ 6.876993593576565, 52.984154351335171 ], [ 6.872320874367196, 52.983420619408733 ], [ 6.870773268667562, 52.987060104693832 ], [ 6.870702892411049, 52.987037066192016 ], [ 6.856609386192692, 52.984790919861709 ], [ 6.857924015634508, 52.981158673778559 ], [ 6.847963483383495, 52.979620374858861 ], [ 6.847889275615198, 52.979582322784694 ], [ 6.841916836658868, 52.978646617325261 ], [ 6.841877765246881, 52.978582597168504 ], [ 6.841858036325625, 52.978574862683317 ], [ 6.839515687458264, 52.978161686656151 ], [ 6.837755747541654, 52.977638324206481 ], [ 6.827761673638109, 52.974580076693556 ], [ 6.826029450856327, 52.97403396242742 ], [ 6.825108035808205, 52.973756165547933 ], [ 6.824530961670807, 52.973624241992596 ], [ 6.79931944061744, 52.965839502341929 ], [ 6.792679184786629, 52.963880161887161 ], [ 6.790813615359649, 52.963354090435878 ], [ 6.790863292884616, 52.963286784132272 ], [ 6.790865657390476, 52.963255728337408 ], [ 6.79071450000751, 52.963059250862116 ], [ 6.790643128239226, 52.962919305711523 ], [ 6.790369470385113, 52.963129868288597 ], [ 6.790295071111144, 52.9632078578964 ], [ 6.788758968319024, 52.96277466258848 ], [ 6.788193927918418, 52.962700687115024 ], [ 6.788196540754512, 52.962719141155006 ], [ 6.78804502391905, 52.962705617874065 ], [ 6.783961687235379, 52.962147658550187 ], [ 6.773447961688334, 52.960773435296908 ], [ 6.773309708820984, 52.960740578125339 ], [ 6.768345896661751, 52.960093101445224 ], [ 6.767819488618217, 52.960037852919442 ], [ 6.767223779051543, 52.959958918204521 ], [ 6.767226451696322, 52.959948029205037 ], [ 6.767221752595186, 52.959958654470441 ], [ 6.727712596386495, 52.9547197436017 ], [ 6.728077182381895, 52.953072426687868 ], [ 6.728058533561486, 52.953069221301092 ], [ 6.731422437627993, 52.937555030052415 ], [ 6.724175430753501, 52.937286599309672 ], [ 6.725473237423885, 52.931469351977746 ], [ 6.725716398594802, 52.930202352935773 ], [ 6.726347249382094, 52.927408615921273 ], [ 6.726808080211075, 52.920072775564044 ], [ 6.727001741716413, 52.91588817507867 ], [ 6.728225240416329, 52.907072138953907 ], [ 6.728262373216656, 52.906865292765225 ], [ 6.728825988797357, 52.904758340021829 ], [ 6.72873754432358, 52.904729790853956 ], [ 6.728831513109829, 52.904738085474868 ], [ 6.728888853310953, 52.904527886447319 ], [ 6.728815355583138, 52.904516491617358 ], [ 6.72879226212205, 52.904486170147322 ], [ 6.729037017871375, 52.903575968149575 ], [ 6.72899390673702, 52.903542683601884 ], [ 6.728845599049702, 52.903513757722173 ], [ 6.727913910818431, 52.903502244710943 ], [ 6.727522887904961, 52.903453385644347 ], [ 6.726880024738489, 52.903451840757462 ], [ 6.726828194468621, 52.903429502681213 ], [ 6.726814687690002, 52.90340185961719 ], [ 6.726854282550881, 52.903174278661822 ], [ 6.726773306692831, 52.903077897544961 ], [ 6.726709279114419, 52.903055548302021 ], [ 6.723976458195106, 52.903063306037048 ], [ 6.723958035148143, 52.90305284095647 ], [ 6.723965810651582, 52.903018837685231 ], [ 6.724221789796188, 52.902538681436312 ], [ 6.724192668153261, 52.902485047319594 ], [ 6.724081757188497, 52.90240723831154 ], [ 6.720962208221754, 52.901737308066387 ], [ 6.71901391705945, 52.901754862234881 ], [ 6.718996727149142, 52.901741007295364 ], [ 6.719003027340156, 52.90171470719595 ], [ 6.719201691823735, 52.90132938313279 ], [ 6.719208983037805, 52.901282150631452 ], [ 6.718585003174791, 52.900988165488378 ], [ 6.718500737975588, 52.901011303917748 ], [ 6.714249291101271, 52.902782232314493 ], [ 6.715119287797181, 52.899160565015734 ], [ 6.715151679930816, 52.89913848009617 ], [ 6.715234365556437, 52.899131471071343 ], [ 6.717686874018711, 52.899146753015003 ], [ 6.71777350235443, 52.899132334273467 ], [ 6.717570547877962, 52.898642563525257 ], [ 6.717523124101893, 52.898582404429931 ], [ 6.716180365351152, 52.898260276607587 ], [ 6.716141197887523, 52.898245402567802 ], [ 6.716138440186083, 52.89822923982328 ], [ 6.71808808206752, 52.896593763650465 ], [ 6.720208350712387, 52.894081987920565 ], [ 6.72027484627328, 52.894040662904636 ], [ 6.720717792526807, 52.893867977433679 ], [ 6.720788119159192, 52.893826033228592 ], [ 6.722176482374103, 52.891794984729415 ], [ 6.722217982851951, 52.891760505913552 ], [ 6.722363266615922, 52.891753399611765 ], [ 6.722432805453106, 52.891712408078838 ], [ 6.723487983209423, 52.88897937122907 ], [ 6.724133669444971, 52.887684162875232 ], [ 6.72418032227604, 52.887620317954145 ], [ 6.725773715684144, 52.886815101076635 ], [ 6.725884039483869, 52.886782042961464 ], [ 6.733586449942132, 52.887771794615567 ], [ 6.736337063765506, 52.87869131227562 ], [ 6.732213406594294, 52.876718035023451 ], [ 6.725539522898495, 52.873486767200184 ], [ 6.725351657352695, 52.873339943052756 ], [ 6.725322691937207, 52.873288835743494 ], [ 6.725323695854867, 52.873230567547402 ], [ 6.725357582489472, 52.873164135782609 ], [ 6.725765988918175, 52.872644060491766 ], [ 6.725771122642232, 52.872613736993046 ], [ 6.725747703791209, 52.872592360726081 ], [ 6.716321925123795, 52.867995165141259 ], [ 6.716170124341224, 52.86790173555319 ], [ 6.7160344800776, 52.867779556094092 ], [ 6.721860791084016, 52.866317319245617 ], [ 6.719881543224377, 52.861543245995669 ], [ 6.721571292790275, 52.860412623905489 ], [ 6.721602101883561, 52.860371480518964 ], [ 6.721552704933683, 52.860332621710569 ], [ 6.725984593534797, 52.857293143792141 ], [ 6.726081532818287, 52.856805745548513 ], [ 6.726146520634068, 52.856632060943106 ], [ 6.72624413133903, 52.856476097005881 ], [ 6.726483509115919, 52.856240083639143 ], [ 6.726739831800037, 52.856041503910973 ], [ 6.727218131771474, 52.855633471066419 ], [ 6.728151710200883, 52.854392470548298 ], [ 6.728486971997401, 52.854061784876123 ], [ 6.728628697502416, 52.85396642884357 ], [ 6.719672521367042, 52.848829745483364 ], [ 6.704314134507084, 52.84700879409683 ], [ 6.70430276616662, 52.846742871715065 ], [ 6.704276689330939, 52.846726898384816 ], [ 6.704191370187685, 52.846730953121977 ], [ 6.704400577457778, 52.846361368427615 ], [ 6.704850242734884, 52.846187095664042 ], [ 6.704723818448799, 52.846000892076468 ], [ 6.70471447746314, 52.845942194782367 ], [ 6.704730724821518, 52.84587748023668 ], [ 6.706328458559231, 52.84264293799658 ], [ 6.706432319566042, 52.842406894221284 ], [ 6.707522751593409, 52.837157197521627 ], [ 6.707547633660511, 52.836964455345516 ], [ 6.707547904287471, 52.836639530509913 ], [ 6.707598130083732, 52.836392231405313 ], [ 6.707358756622192, 52.836188286690671 ], [ 6.707276995632291, 52.836081722279118 ], [ 6.707046948542088, 52.835846015533754 ], [ 6.70630306658257, 52.835187242228045 ], [ 6.700296586763607, 52.830083156687728 ], [ 6.70023714321686, 52.830045907197032 ], [ 6.700139927911162, 52.830053121952893 ], [ 6.698150044873585, 52.828378740878641 ], [ 6.698209289859842, 52.828354234340523 ], [ 6.696025218322975, 52.826615568702437 ], [ 6.695374290369251, 52.826858109232724 ], [ 6.69507634753676, 52.827006301828966 ], [ 6.694726400851674, 52.827260455984316 ], [ 6.694334717875104, 52.827605380998435 ], [ 6.694130071110625, 52.827745622611737 ], [ 6.694034699751344, 52.827834043698665 ], [ 6.692261873161671, 52.826668504048939 ], [ 6.691957347030357, 52.826531061938155 ], [ 6.691096874000595, 52.826045607522879 ], [ 6.691032186583478, 52.825993534188257 ], [ 6.690971955231406, 52.82590302017104 ], [ 6.690191443717718, 52.825907240449517 ], [ 6.6900022145446, 52.825962605751236 ], [ 6.689990891406062, 52.825948310308277 ], [ 6.689926037238339, 52.82504027715305 ], [ 6.690012691946236, 52.824767423405468 ], [ 6.690022199816777, 52.824678502408929 ], [ 6.689834498061852, 52.824006085954629 ], [ 6.689820766667775, 52.823981439836302 ], [ 6.689704394345153, 52.823939123384093 ], [ 6.689653528943381, 52.823925653684491 ], [ 6.689546397737863, 52.823928689920081 ], [ 6.688965244289077, 52.822967575069846 ], [ 6.690210596341555, 52.822671957018379 ], [ 6.691629412209614, 52.819524269381461 ], [ 6.691615073469077, 52.819493087522858 ], [ 6.692021869181999, 52.818580064486355 ], [ 6.692754862949627, 52.817157997481402 ], [ 6.692939834500031, 52.816730857850132 ], [ 6.693209677024832, 52.816030320157004 ], [ 6.69333353489418, 52.815763528894003 ], [ 6.693813454068591, 52.814828152971167 ], [ 6.694016890231834, 52.81450220123341 ], [ 6.69353300180043, 52.814455115493217 ], [ 6.693237831213938, 52.814098686524282 ], [ 6.69305887370713, 52.813828597179878 ], [ 6.69219905057327, 52.812413878245415 ], [ 6.692166066593276, 52.812316283639248 ], [ 6.691962049983108, 52.811957856781042 ], [ 6.691582971943734, 52.811380217270937 ], [ 6.691585171224028, 52.811327083924674 ], [ 6.692114983277938, 52.81114833970296 ], [ 6.692376763133555, 52.811043689636954 ], [ 6.692442045589994, 52.810988995040972 ], [ 6.692464980668965, 52.810929451081464 ], [ 6.692451545785554, 52.810864448183629 ], [ 6.692398145974292, 52.810752490259084 ], [ 6.692019586158056, 52.810167084549228 ], [ 6.69195820125313, 52.810049451883259 ], [ 6.691955474017151, 52.810000255614952 ], [ 6.694197442675052, 52.809992587065537 ], [ 6.694291891107527, 52.809981537080851 ], [ 6.694341796443648, 52.809919031132445 ], [ 6.694838726918982, 52.808840233498074 ], [ 6.694845142109012, 52.808788843457492 ], [ 6.694205608802716, 52.808723456465671 ], [ 6.690154878596945, 52.81012288382032 ], [ 6.689622242890545, 52.810022559514607 ], [ 6.687300445718752, 52.809399877630902 ], [ 6.687311599049161, 52.809382743222045 ], [ 6.681183211145486, 52.807732188905696 ], [ 6.680247479524076, 52.806559007203269 ], [ 6.68017725614742, 52.806337664228892 ], [ 6.680095739717157, 52.80618394054261 ], [ 6.679036548089227, 52.802775573322059 ], [ 6.677572935882881, 52.802670225215024 ], [ 6.676615420771254, 52.80184356436024 ], [ 6.67561471523147, 52.800321804537433 ], [ 6.67577233354792, 52.800270143726401 ], [ 6.67793403189868, 52.799118852003367 ], [ 6.677988435851909, 52.799105504148073 ], [ 6.67807374529739, 52.799121567523592 ], [ 6.675143257923381, 52.797125583804934 ], [ 6.66774774309225, 52.79970221868939 ], [ 6.667320746511684, 52.799752772095822 ], [ 6.660879090312752, 52.801232397781661 ], [ 6.660346133330295, 52.800826952197397 ], [ 6.643253107260021, 52.786247268316409 ], [ 6.616519259812825, 52.763231866175957 ], [ 6.616527619531364, 52.763146398330754 ], [ 6.616483910973328, 52.763077075171033 ], [ 6.616127815786401, 52.762751585540322 ], [ 6.615657718075852, 52.762288991255026 ], [ 6.61530739902384, 52.761978167681868 ], [ 6.613793768712645, 52.760508219195373 ], [ 6.613551747040424, 52.760329523181156 ], [ 6.612981034455395, 52.759985863034458 ], [ 6.612301125727734, 52.759372372617591 ], [ 6.608088872198281, 52.755361302677393 ], [ 6.608160416127461, 52.755331380303062 ], [ 6.587467392563186, 52.735689862278548 ], [ 6.586593585740446, 52.736034148391823 ], [ 6.586300719382485, 52.735753971746234 ], [ 6.574137477747485, 52.740483987394356 ], [ 6.573323707006295, 52.739733563314786 ], [ 6.57074829791643, 52.740731429928566 ], [ 6.570778422330028, 52.740793539927239 ], [ 6.559660993536545, 52.745065389298603 ], [ 6.559444090224957, 52.745133946156983 ], [ 6.559168004458217, 52.74519621451477 ], [ 6.559166903621074, 52.745133435555466 ], [ 6.558218910626053, 52.745226102650491 ], [ 6.55782623892819, 52.745198712931312 ], [ 6.557527942389879, 52.74522990263884 ], [ 6.55763875430845, 52.745535776371327 ], [ 6.55790926100669, 52.746160508165211 ], [ 6.557907119009435, 52.746185085113559 ], [ 6.557890351921142, 52.746194663485362 ], [ 6.557777655623274, 52.746214882041578 ], [ 6.562429720392185, 52.75669450677028 ], [ 6.562984737785262, 52.757013003046083 ], [ 6.563460917127958, 52.757379157545238 ], [ 6.563695349831873, 52.757531748782966 ], [ 6.564048609956073, 52.757730870494875 ], [ 6.564557587731031, 52.757960374035143 ], [ 6.565038440570475, 52.758105421026073 ], [ 6.562916369130821, 52.75779921793476 ], [ 6.563173777402248, 52.758384040758799 ], [ 6.563795930917766, 52.759954523220742 ], [ 6.565442098004263, 52.763457828475048 ], [ 6.566384286462401, 52.765578798517289 ], [ 6.563570303764303, 52.765518850509835 ], [ 6.56343904659456, 52.765536334273349 ], [ 6.563403941925831, 52.765564801754209 ], [ 6.537520916533877, 52.765234279335317 ], [ 6.535366937223275, 52.768104205130911 ], [ 6.52870186991723, 52.76627518414152 ], [ 6.528745038706507, 52.766212749014933 ], [ 6.517138635050876, 52.763192213539455 ], [ 6.512806725304929, 52.762029233781348 ], [ 6.512761539042367, 52.762092054426446 ], [ 6.512729021841329, 52.762084353097464 ], [ 6.512265193459322, 52.762719385829065 ], [ 6.511416768616168, 52.763908496219031 ], [ 6.511383536514525, 52.763975607109792 ], [ 6.510042489612891, 52.7658322371976 ], [ 6.509723718717313, 52.766299727498009 ], [ 6.50784691975548, 52.768921332310427 ], [ 6.507811040189718, 52.768965815418056 ], [ 6.507609291421399, 52.76910340046787 ], [ 6.507087025256721, 52.769332645703244 ], [ 6.506881425930036, 52.769450350589018 ], [ 6.506857742164475, 52.769472787494138 ], [ 6.506859640468964, 52.769509767781088 ], [ 6.506831889792271, 52.769556246804939 ], [ 6.506853890529857, 52.769587211633024 ], [ 6.50649362177146, 52.769937487794159 ], [ 6.505943589638969, 52.769893862298559 ], [ 6.505534080189983, 52.769830910287219 ], [ 6.503977633051085, 52.76946409806677 ], [ 6.503409186484755, 52.769234709984964 ], [ 6.50322194732576, 52.769320851822421 ], [ 6.503077907219121, 52.769359279834767 ], [ 6.494614049860157, 52.770655526750424 ], [ 6.494552488804438, 52.770676093636226 ], [ 6.494559239299047, 52.770729879683643 ], [ 6.493169773478022, 52.770936489991925 ], [ 6.492617352525924, 52.770962233485037 ], [ 6.490998872850395, 52.770878419308787 ], [ 6.490828086213219, 52.77088409371698 ], [ 6.490805021032673, 52.770821886113815 ], [ 6.490643531697308, 52.770813839554364 ], [ 6.491379736189322, 52.772830297206319 ], [ 6.491415237956839, 52.772955367023464 ], [ 6.491343293846814, 52.772962992154966 ], [ 6.492399450787437, 52.775933775865823 ], [ 6.492663394598489, 52.776589898267588 ], [ 6.492761403050749, 52.776586002808742 ], [ 6.493007924466074, 52.777272550301525 ], [ 6.492970394325187, 52.777274408878213 ], [ 6.493496485804118, 52.778763037420731 ], [ 6.494051642165017, 52.78025790662511 ], [ 6.493980384620797, 52.780252141125203 ], [ 6.494623071812411, 52.781976315313152 ], [ 6.496164145986731, 52.786224510702674 ], [ 6.491804938880826, 52.793123276816857 ], [ 6.455450744853501, 52.800556496723182 ], [ 6.447001766685344, 52.802318684924238 ], [ 6.446973189646628, 52.802384808017933 ], [ 6.446619240432687, 52.80285411846473 ], [ 6.446320482948964, 52.803288937783911 ], [ 6.446282653744684, 52.803370866860455 ], [ 6.446284942865167, 52.803410511399491 ], [ 6.446334086280848, 52.803470922781578 ], [ 6.44669034011223, 52.803720385160823 ], [ 6.446831131601252, 52.803841871935411 ], [ 6.446882390107536, 52.803926576594051 ], [ 6.446892088688043, 52.804009264510618 ], [ 6.446838786430465, 52.80420386072354 ], [ 6.446407276502183, 52.804928483445359 ], [ 6.446351743864331, 52.805115751011172 ], [ 6.446652400049859, 52.806217640606818 ], [ 6.44673090731876, 52.806562394025526 ], [ 6.44676675199961, 52.806937594339502 ], [ 6.446761713407622, 52.807390016316134 ], [ 6.446699084589138, 52.807851721075615 ], [ 6.446665938374871, 52.808005765107637 ], [ 6.44660655856346, 52.80811269532196 ], [ 6.446238867376913, 52.808299787252274 ], [ 6.446207996479457, 52.808324242656703 ], [ 6.446201071141382, 52.808352790473677 ], [ 6.446462587008861, 52.809849405812088 ], [ 6.446843897399025, 52.812679421729932 ], [ 6.446795429161874, 52.812687618695158 ], [ 6.442926620130699, 52.812152303308721 ], [ 6.442913560580887, 52.812191577127862 ], [ 6.442881133904217, 52.812211025894868 ], [ 6.442888258101393, 52.812247513769314 ], [ 6.443498082352863, 52.813612528272934 ], [ 6.444983641043278, 52.815448265299572 ], [ 6.445007763780587, 52.815486634681498 ], [ 6.445002623170739, 52.815506034332024 ], [ 6.444855203739987, 52.815562357183254 ], [ 6.43913496493251, 52.81726967823419 ], [ 6.43903601868139, 52.817268519580352 ], [ 6.438277381322141, 52.817046578701294 ], [ 6.438197084656017, 52.817039142782825 ], [ 6.438036640269437, 52.8171731112336 ], [ 6.437946796366898, 52.81730773927525 ], [ 6.437956692813636, 52.817379507115511 ], [ 6.438106200866683, 52.81754956356658 ], [ 6.438128644188724, 52.817657496907991 ], [ 6.438011189187301, 52.81844300047527 ], [ 6.437906814212904, 52.818663514062145 ], [ 6.437820126146492, 52.818749316536397 ], [ 6.437668423831245, 52.818823965459949 ], [ 6.437194060184184, 52.818884757036457 ], [ 6.439627678100447, 52.81998080891119 ], [ 6.439705847071413, 52.81999003590834 ], [ 6.44007724540082, 52.819932869700551 ], [ 6.44013379705303, 52.819937066715653 ], [ 6.440066574418118, 52.820119678369771 ], [ 6.43994954303801, 52.820265294267422 ], [ 6.439794031001094, 52.820669002391512 ], [ 6.439563577320751, 52.821141605136653 ], [ 6.438680474754346, 52.822595710829788 ], [ 6.438709473936112, 52.82265815733308 ], [ 6.43977431185124, 52.82416782831789 ], [ 6.444810507754842, 52.823150873704897 ], [ 6.444912954936622, 52.823141007683908 ], [ 6.444961774295426, 52.823186939981333 ], [ 6.447150618769697, 52.826458738224375 ], [ 6.447185869741383, 52.826498186386722 ], [ 6.447217135775453, 52.826504649446427 ], [ 6.456320592370048, 52.823728403061132 ], [ 6.456424231731252, 52.82371362002948 ], [ 6.458261284565499, 52.8256792268837 ], [ 6.458831237892977, 52.826316368362434 ], [ 6.459192857521511, 52.826664791851123 ], [ 6.462215521516442, 52.827484380022831 ], [ 6.463358093075329, 52.828224483995363 ], [ 6.463337615849438, 52.828257334963268 ], [ 6.463149141988387, 52.828367896420126 ], [ 6.462586818846804, 52.828828546792302 ], [ 6.46253454411067, 52.828944009564431 ], [ 6.462495557881047, 52.829254474052668 ], [ 6.462462397519885, 52.829326883912742 ], [ 6.462413077758248, 52.829384541140335 ], [ 6.462314960926159, 52.829462769504026 ], [ 6.461859005382733, 52.829747065714635 ], [ 6.461462641206874, 52.830030195742914 ], [ 6.461180423829058, 52.830303193805669 ], [ 6.461152728271276, 52.830374677311177 ], [ 6.461176415589046, 52.830413151539219 ], [ 6.462149314107839, 52.830789728236809 ], [ 6.464179885625992, 52.831520926243307 ], [ 6.465466538143248, 52.832052328262037 ], [ 6.467130371899874, 52.832641544740611 ], [ 6.467172917752157, 52.832683384491197 ], [ 6.467263059062867, 52.832878019284131 ], [ 6.468037951704275, 52.833932483389013 ], [ 6.468112575625301, 52.833922421109364 ], [ 6.469337309624886, 52.833476116883226 ], [ 6.469434343446009, 52.833456784195597 ], [ 6.470824971754412, 52.833936889407717 ], [ 6.471489642466233, 52.834094709723331 ], [ 6.472774284680311, 52.834315630048337 ], [ 6.473444444022499, 52.834746222228233 ], [ 6.474807814875811, 52.835916886535557 ], [ 6.469985395799255, 52.837254197827441 ], [ 6.469934195623795, 52.837289252954449 ], [ 6.470005066623039, 52.8374140288132 ], [ 6.469995952575273, 52.837443605529977 ], [ 6.469957172384384, 52.837433638088413 ], [ 6.469887522599926, 52.837357090599696 ], [ 6.469837136181421, 52.837354983666351 ], [ 6.469715841922802, 52.837395776907414 ], [ 6.469555369591691, 52.837480199641654 ], [ 6.469351062112604, 52.837546567218709 ], [ 6.469175238738254, 52.837635117786469 ], [ 6.468707310316276, 52.837670673449189 ], [ 6.46847127223905, 52.837742177887051 ], [ 6.468341157576578, 52.837759435486397 ], [ 6.468315532263404, 52.837797512853044 ], [ 6.468273749016602, 52.838147022132361 ], [ 6.468238500029404, 52.838192858891624 ], [ 6.468162746792023, 52.838234454384768 ], [ 6.468144982162242, 52.83827270699048 ], [ 6.467832801015136, 52.838248710296298 ], [ 6.467237736294884, 52.838272696265328 ], [ 6.462667248389391, 52.838676861879648 ], [ 6.462965834517439, 52.83908631957587 ], [ 6.461152869212135, 52.845104365662543 ], [ 6.461291252236095, 52.845358862261108 ], [ 6.462089263787811, 52.846557991993492 ], [ 6.461892730093064, 52.848476006513692 ], [ 6.461943471356083, 52.848556001623969 ], [ 6.463149596429725, 52.848892916175117 ], [ 6.460715750060417, 52.853065992753749 ], [ 6.45997077537236, 52.85292737342165 ], [ 6.458977183928657, 52.852682501496005 ], [ 6.458327428321126, 52.852486452615629 ], [ 6.457254292623549, 52.852103377227245 ], [ 6.456301867328675, 52.85171446937305 ], [ 6.455882445697529, 52.851513556556355 ], [ 6.454670752358083, 52.850884223845156 ], [ 6.454094615801285, 52.850651177624151 ], [ 6.453650366240159, 52.850491460951346 ], [ 6.453190310724803, 52.850349964506854 ], [ 6.452536135628037, 52.850199348491913 ], [ 6.451975015832497, 52.850102989879097 ], [ 6.45127312254858, 52.850015457428562 ], [ 6.450273131931418, 52.849968678412658 ], [ 6.442374585415644, 52.849882024404273 ], [ 6.441644878503592, 52.849888532114569 ], [ 6.441199746148569, 52.849918124862462 ], [ 6.440586937353258, 52.849992901632262 ], [ 6.440175568230558, 52.850068430785257 ], [ 6.439616071575704, 52.85021265248465 ], [ 6.437802184977508, 52.850811316603021 ], [ 6.43748619837179, 52.850895259688365 ], [ 6.437009592970582, 52.850995472814766 ], [ 6.436545114835259, 52.851067872221165 ], [ 6.435898217068147, 52.85112790324132 ], [ 6.435448115362031, 52.851146973386278 ], [ 6.434704188639889, 52.851129526775651 ], [ 6.434301191064155, 52.851100188930999 ], [ 6.433845724218424, 52.851039480196832 ], [ 6.433079397402644, 52.850892383553649 ], [ 6.431673264740372, 52.850550051582118 ], [ 6.430888053498124, 52.850385422396712 ], [ 6.430523369632208, 52.85108233020064 ], [ 6.430353126572221, 52.851553503196648 ], [ 6.43028700295117, 52.851610339003919 ], [ 6.430163075064911, 52.851813197684578 ], [ 6.430142892005286, 52.853166366535632 ], [ 6.430112534954024, 52.853417507598948 ], [ 6.430176647340613, 52.85361711751986 ], [ 6.430190517822159, 52.854000835957152 ], [ 6.429919303692714, 52.854208973754083 ], [ 6.429725406394738, 52.854336583552453 ], [ 6.429579285659128, 52.854475890191097 ], [ 6.429539046255801, 52.854576510601063 ], [ 6.42940860597742, 52.855095486486597 ], [ 6.429593847496263, 52.855087702111028 ], [ 6.429210797176998, 52.856440422391572 ], [ 6.429264061212997, 52.856484227390581 ], [ 6.429336846658336, 52.856502720472086 ], [ 6.429647305880393, 52.856488000831781 ], [ 6.431427882066718, 52.856616531590781 ], [ 6.431480024811773, 52.856631400173015 ], [ 6.431618501769781, 52.856724533231549 ], [ 6.431717169942999, 52.856770399393341 ], [ 6.431967496631192, 52.856821117267266 ], [ 6.43434466868472, 52.856994185045991 ], [ 6.433287887252583, 52.86041923341169 ], [ 6.433076611739953, 52.861061847278421 ], [ 6.432604061356661, 52.862653494699678 ], [ 6.431021473483407, 52.86765862504388 ], [ 6.432143238694001, 52.867769084561033 ], [ 6.4313717560284, 52.869977344952453 ], [ 6.431447726333279, 52.869948071721893 ], [ 6.430778904820028, 52.871861847048145 ], [ 6.429723840132207, 52.871813320255811 ], [ 6.429296713728808, 52.873114001392302 ], [ 6.427698025091654, 52.872531525516585 ], [ 6.426638805183086, 52.873284660850544 ], [ 6.425521587086828, 52.874108467152169 ], [ 6.42020565525838, 52.877915484307351 ], [ 6.4202271324675, 52.87802424855375 ], [ 6.420268794543876, 52.878084129016713 ], [ 6.420785656035057, 52.878410653986094 ], [ 6.421008122186966, 52.87863895465469 ], [ 6.421205066081888, 52.878922190511659 ], [ 6.421558859793836, 52.87914598617283 ], [ 6.421739399940972, 52.879357987203193 ], [ 6.421823279217089, 52.879913145031615 ], [ 6.421860773959223, 52.880033244545842 ], [ 6.421923236127191, 52.880102271823191 ], [ 6.422262481613905, 52.880313698072257 ], [ 6.419639606907166, 52.881474732343278 ], [ 6.420203143543509, 52.881718332594062 ], [ 6.419992629320701, 52.882321841111093 ], [ 6.398376356048596, 52.88640235403463 ], [ 6.390431508447461, 52.887840369781763 ], [ 6.383875182781796, 52.889123881391207 ], [ 6.384047436499797, 52.889278311794115 ], [ 6.382081265494776, 52.889972498675057 ], [ 6.381639245863635, 52.889563580501637 ], [ 6.381472456396956, 52.8895956553555 ], [ 6.381437720426963, 52.889562764818692 ], [ 6.381378589184582, 52.889772646775072 ], [ 6.380476900257515, 52.888907619460973 ], [ 6.379925898385117, 52.888412887005529 ], [ 6.379342038369564, 52.888013391616276 ], [ 6.379056347017201, 52.887838699097742 ], [ 6.377827678018754, 52.887186445439234 ], [ 6.377363166946234, 52.886893805921851 ], [ 6.376982633485578, 52.886614283933092 ], [ 6.376552758120452, 52.886196035934006 ], [ 6.376096368785221, 52.88565956880209 ], [ 6.375862344103765, 52.885363740291169 ], [ 6.374768875444596, 52.883848974197903 ], [ 6.374419653576775, 52.883422619159973 ], [ 6.373982626021633, 52.882996881315229 ], [ 6.372767760103874, 52.882047617781893 ], [ 6.372399842789361, 52.881718504895716 ], [ 6.372169138585254, 52.881455574722509 ], [ 6.372066292926079, 52.881305165478736 ], [ 6.372050668086461, 52.881254748580119 ], [ 6.372156269452671, 52.881022547713656 ], [ 6.372490373868418, 52.879374916126302 ], [ 6.372559206231414, 52.878757430305193 ], [ 6.372679745530949, 52.87790726032128 ], [ 6.372710364831875, 52.877310461371962 ], [ 6.372668811089082, 52.876067333640137 ], [ 6.372636110731733, 52.875907420007522 ], [ 6.368832527733693, 52.876717939036062 ], [ 6.36655426136319, 52.881663925762112 ], [ 6.366845637022504, 52.882036601265902 ], [ 6.366838306102305, 52.882058217951766 ], [ 6.366953437859753, 52.882174468387547 ], [ 6.367813828366489, 52.883275276129943 ], [ 6.367684995770077, 52.883249610132701 ], [ 6.367632875286295, 52.883254625578083 ], [ 6.367400058114499, 52.883406523395763 ], [ 6.367198060482918, 52.883467499785674 ], [ 6.367080959398303, 52.883548382375203 ], [ 6.366506712087476, 52.88424298744043 ], [ 6.366210309904282, 52.884665373521266 ], [ 6.366194156296935, 52.884705559831659 ], [ 6.366205302784537, 52.884731836119848 ], [ 6.366307049997693, 52.884766611720821 ], [ 6.366965619027021, 52.88486860596398 ], [ 6.367756596018884, 52.884947308771935 ], [ 6.368396021300862, 52.884958297099317 ], [ 6.369100672502754, 52.884920568950399 ], [ 6.370386378582493, 52.886565989705034 ], [ 6.366955595468896, 52.887200455266807 ], [ 6.366889237521054, 52.887188688908722 ], [ 6.366653920419555, 52.887049003787396 ], [ 6.366468744761712, 52.886977297056283 ], [ 6.36566963684428, 52.886752130920875 ], [ 6.365308970847948, 52.886815651245058 ], [ 6.364493010721184, 52.886896060196577 ], [ 6.363776168505924, 52.887143534297167 ], [ 6.363393768278597, 52.887312769369345 ], [ 6.363192794071291, 52.887429596899985 ], [ 6.363164037224028, 52.887468097114301 ], [ 6.363154006492174, 52.88758062414523 ], [ 6.363179073484551, 52.887903796128214 ], [ 6.363171052587217, 52.887922121500999 ], [ 6.363131256238661, 52.887938706056708 ], [ 6.361812150531851, 52.888179046290112 ], [ 6.361745979729275, 52.888177068899708 ], [ 6.361661475076661, 52.888128489071633 ], [ 6.361619769446864, 52.888124211708075 ], [ 6.361211894141363, 52.888287060046665 ], [ 6.36020264593731, 52.888465866203973 ], [ 6.360109369379782, 52.888443637264572 ], [ 6.358878803972225, 52.887988959774731 ], [ 6.358779103924695, 52.887973421755035 ], [ 6.355585029148387, 52.889105140856643 ], [ 6.355459313945973, 52.889128807330408 ], [ 6.355251303434136, 52.889056116650345 ], [ 6.354965822146847, 52.889262091702612 ], [ 6.354658075862129, 52.889435877642669 ], [ 6.354924345331541, 52.889751280773567 ], [ 6.355098432542103, 52.890093454676368 ], [ 6.355170219396967, 52.890274959189213 ], [ 6.355315158529572, 52.890765385793905 ], [ 6.355317335530222, 52.890806070550106 ], [ 6.355299900289673, 52.890826290567659 ], [ 6.352524092476309, 52.89201532604018 ], [ 6.351043206100162, 52.892046472991176 ], [ 6.350948284007815, 52.892059465100182 ], [ 6.349224761037582, 52.893293139099832 ], [ 6.349149043302778, 52.893333368911861 ], [ 6.34906906789857, 52.893322669643496 ], [ 6.349007167839833, 52.893278336755458 ], [ 6.348810435512182, 52.892894658529393 ], [ 6.348700727492997, 52.892787969651415 ], [ 6.348188980599025, 52.892371268587041 ], [ 6.347857973149093, 52.892126249718459 ], [ 6.347777485001052, 52.892100084818978 ], [ 6.347652867930714, 52.892110411223641 ], [ 6.347619781011405, 52.892162743045503 ], [ 6.346723492960019, 52.895072873353222 ], [ 6.344075665297498, 52.89698638387614 ], [ 6.342943413658761, 52.897780730698919 ], [ 6.342898196953745, 52.897834770220193 ] ] ], [ [ [ 6.298554107548068, 52.985145655595097 ], [ 6.298581988522185, 52.985168376954206 ], [ 6.298616802264239, 52.985156939186751 ], [ 6.298778949248192, 52.985044104086661 ], [ 6.298804542316562, 52.985016654823667 ], [ 6.298803128202408, 52.984997221454748 ], [ 6.298771053237442, 52.984977622632883 ], [ 6.298734606131882, 52.984989781470993 ], [ 6.29858195432181, 52.985096570536363 ], [ 6.298554107548068, 52.985145655595097 ] ] ], [ [ [ 6.080787305779634, 53.063792672258906 ], [ 6.081234937857988, 53.063817251894932 ], [ 6.081258008234002, 53.063664947637193 ], [ 6.080829290114653, 53.063645826234733 ], [ 6.080791226694769, 53.063698167608365 ], [ 6.08077809601542, 53.063766217910569 ], [ 6.080787305779634, 53.063792672258906 ] ] ], [ [ [ 6.080645722114372, 53.063985598404891 ], [ 6.080671653943913, 53.063812884680921 ], [ 6.080642806737691, 53.063764945616036 ], [ 6.0805933760867, 53.06372405452862 ], [ 6.080553373991053, 53.063993719982925 ], [ 6.080645722114372, 53.063985598404891 ] ] ] ] } }
]
}
